"STATION","DATE","REPORT_TYPE","SOURCE","AWND","BackupDirection","BackupDistance","BackupDistanceUnit","BackupElements","BackupElevation","BackupElevationUnit","BackupEquipment","BackupLatitude","BackupLongitude","BackupName","CDSD","CLDD","DSNW","DailyAverageDewPointTemperature","DailyAverageDryBulbTemperature","DailyAverageRelativeHumidity","DailyAverageSeaLevelPressure","DailyAverageStationPressure","DailyAverageWetBulbTemperature","DailyAverageWindSpeed","DailyCoolingDegreeDays","DailyDepartureFromNormalAverageTemperature","DailyHeatingDegreeDays","DailyMaximumDryBulbTemperature","DailyMinimumDryBulbTemperature","DailyPeakWindDirection","DailyPeakWindSpeed","DailyPrecipitation","DailySnowDepth","DailySnowfall","DailySustainedWindDirection","DailySustainedWindSpeed","DailyWeather","HDSD","HTDD","HeavyFog","HourlyAltimeterSetting","HourlyDewPointTemperature","HourlyDryBulbTemperature","HourlyPrecipitation","HourlyPresentWeatherType","HourlyPressureChange","HourlyPressureTendency","HourlyRelativeHumidity","HourlySeaLevelPressure","HourlySkyConditions","HourlyStationPressure","HourlyVisibility","HourlyWetBulbTemperature","HourlyWindDirection","HourlyWindGustSpeed","HourlyWindSpeed","MonthlyAverageRH","MonthlyDaysWithGT001Precip","MonthlyDaysWithGT010Precip","MonthlyDaysWithGT32Temp","MonthlyDaysWithGT90Temp","MonthlyDaysWithLT0Temp","MonthlyDaysWithLT32Temp","MonthlyDepartureFromNormalAverageTemperature","MonthlyDepartureFromNormalCoolingDegreeDays","MonthlyDepartureFromNormalHeatingDegreeDays","MonthlyDepartureFromNormalMaximumTemperature","MonthlyDepartureFromNormalMinimumTemperature","MonthlyDepartureFromNormalPrecipitation","MonthlyDewpointTemperature","MonthlyGreatestPrecip","MonthlyGreatestPrecipDate","MonthlyGreatestSnowDepth","MonthlyGreatestSnowDepthDate","MonthlyGreatestSnowfall","MonthlyGreatestSnowfallDate","MonthlyMaxSeaLevelPressureValue","MonthlyMaxSeaLevelPressureValueDate","MonthlyMaxSeaLevelPressureValueTime","MonthlyMaximumTemperature","MonthlyMeanTemperature","MonthlyMinSeaLevelPressureValue","MonthlyMinSeaLevelPressureValueDate","MonthlyMinSeaLevelPressureValueTime","MonthlyMinimumTemperature","MonthlySeaLevelPressure","MonthlyStationPressure","MonthlyTotalLiquidPrecipitation","MonthlyTotalSnowfall","MonthlyWetBulb","NormalsCoolingDegreeDay","NormalsHeatingDegreeDay","REM","REPORT_TYPE","SOURCE","ShortDurationEndDate005","ShortDurationEndDate010","ShortDurationEndDate015","ShortDurationEndDate020","ShortDurationEndDate030","ShortDurationEndDate045","ShortDurationEndDate060","ShortDurationEndDate080","ShortDurationEndDate100","ShortDurationEndDate120","ShortDurationEndDate150","ShortDurationEndDate180","ShortDurationPrecipitationValue005","ShortDurationPrecipitationValue010","ShortDurationPrecipitationValue015","ShortDurationPrecipitationValue020","ShortDurationPrecipitationValue030","ShortDurationPrecipitationValue045","ShortDurationPrecipitationValue060","ShortDurationPrecipitationValue080","ShortDurationPrecipitationValue100","ShortDurationPrecipitationValue120","ShortDurationPrecipitationValue150","ShortDurationPrecipitationValue180","Sunrise","Sunset","TStorms","WindEquipmentChangeDate"
"72505394728","2020-03-12T00:51:00","FM-15","7",,,,,,,,,,,,,,,,,,,,,,,,,,,,,,,,,,,,,,"30.10","23","46","0.00",,"+0.01","7","40","30.08","CLR:00","29.93","10.00","37","000",,"0",,,,,,,,,,,,,,,,,,,,,,,,,,,,,,,,,,,,,"MET11103/12/20 00:51:02 METAR KNYC 120551Z 00000KT 10SM CLR 08/M05 A3010 RMK AO2 SLP186 T00781050 10111 20078 57005 $","FM-15","7",,,,,,,,,,,,,,,,,,,,,,,,,,,,
"72505394728","2020-03-12T01:51:00","FM-15","7",,,,,,,,,,,,,,,,,,,,,,,,,,,,,,,,,,,,,,"30.10","24","46","0.00",,,,"42","30.07","CLR:00","29.93","10.00","37","000",,"0",,,,,,,,,,,,,,,,,,,,,,,,,,,,,,,,,,,,,"MET09303/12/20 01:51:02 METAR KNYC 120651Z 00000KT 10SM CLR 08/M04 A3010 RMK AO2 SLP184 T00781044 $","FM-15","7",,,,,,,,,,,,,,,,,,,,,,,,,,,,
"72505394728","2020-03-12T02:51:00","FM-15","7",,,,,,,,,,,,,,,,,,,,,,,,,,,,,,,,,,,,,,"30.10","26","45","0.00",,,,"48","30.07","CLR:00","29.93","10.00","37","280",,"3",,,,,,,,,,,,,,,,,,,,,,,,,,,,,,,,,,,,,"MET09303/12/20 02:51:02 METAR KNYC 120751Z 28003KT 10SM CLR 07/M03 A3010 RMK AO2 SLP184 T00721033 $","FM-15","7",,,,,,,,,,,,,,,,,,,,,,,,,,,,
"72505394728","2020-03-12T03:51:00","FM-15","7",,,,,,,,,,,,,,,,,,,,,,,,,,,,,,,,,,,,,,"30.12","26","45","0.00",,"-0.01","3","48","30.09","CLR:00","29.95","10.00","37","000",,"0",,,,,,,,,,,,,,,,,,,,,,,,,,,,,,,,,,,,,"MET09903/12/20 03:51:02 METAR KNYC 120851Z 00000KT 10SM CLR 07/M03 A3012 RMK AO2 SLP190 T00721033 53004 $","FM-15","7",,,,,,,,,,,,,,,,,,,,,,,,,,,,
"72505394728","2020-03-12T04:51:00","FM-15","7",,,,,,,,,,,,,,,,,,,,,,,,,,,,,,,,,,,,,,"30.13","27","45","0.00",,,,"49","30.10","OVC:08 60","29.96","10.00","38","030",,"3",,,,,,,,,,,,,,,,,,,,,,,,,,,,,,,,,,,,,"MET10003/12/20 04:51:02 METAR KNYC 120951Z 03003KT 10SM OVC060 07/M03 A3013 RMK AO2 SLP194 T00721028 $ RTX","FM-15","7",,,,,,,,,,,,,,,,,,,,,,,,,,,,
"72505394728","2020-03-12T05:51:00","FM-15","7",,,,,,,,,,,,,,,,,,,,,,,,,,,,,,,,,,,,,,"30.14","27","44","0.00",,,,"51","30.11","BKN:07 60 OVC:08 100","29.97","10.00","37","060",,"6",,,,,,,,,,,,,,,,,,,,,,,,,,,,,,,,,,,,,"MET10703/12/20 05:51:02 METAR KNYC 121051Z 06005KT 10SM BKN060 OVC100 07/M03 A3014 RMK AO2 SLP197 T00671028 $ RTX","FM-15","7",,,,,,,,,,,,,,,,,,,,,,,,,,,,
"72505394728","2020-03-12T06:51:00","FM-15","7",,,,,,,,,,,,,,,,,,,,,,,,,,,,,,,,,,,,,,"30.15","31","44","0.00",,"-0.04","3","60","30.13","BKN:07 100 OVC:08 120","29.98","10.00","39","040",,"6",,,,,,,,,,,,,,,,,,,,,,,,,,,,,,,,,,,,,"MET12103/12/20 06:51:02 METAR KNYC 121151Z 04005KT 10SM BKN100 OVC120 07/M01 A3015 RMK AO2 SLP203 T00671006 10083 20061 53013 $","FM-15","7",,,,,,,,,,,,,,,,,,,,,,,,,,,,
"72505394728","2020-03-12T07:51:00","FM-15","7",,,,,,,,,,,,,,,,,,,,,,,,,,,,,,,,,,,,,,"30.17","34","46","0.00",,,,"63","30.15","OVC:08 80","30.00","10.00","41","VRB",,"6",,,,,,,,,,,,,,,,,,,,,,,,,,,,,,,,,,,,,"MET09503/12/20 07:51:02 METAR KNYC 121251Z VRB05KT 10SM OVC080 08/01 A3017 RMK AO2 SLP209 T00780011 $","FM-15","7",,,,,,,,,,,,,,,,,,,,,,,,,,,,
"72505394728","2020-03-12T08:51:00","FM-15","7",,,,,,,,,,,,,,,,,,,,,,,,,,,,,,,,,,,,,,"30.20","35","44","0.00",,,,"71","30.17","OVC:08 55","30.03","10.00","40","090",,"7",,,,,,,,,,,,,,,,,,,,,,,,,,,,,,,,,,,,,"MET09503/12/20 08:51:02 METAR KNYC 121351Z 09006KT 10SM OVC055 07/02 A3020 RMK AO2 SLP218 T00670017 $","FM-15","7",,,,,,,,,,,,,,,,,,,,,,,,,,,,
"72505394728","2020-03-12T09:51:00","FM-15","7",,,,,,,,,,,,,,,,,,,,,,,,,,,,,,,,,,,,,,"30.20","37","45","0.00",,"-0.05","1","74","30.18","OVC:08 50","30.03","10.00","41","060",,"6",,,,,,,,,,,,,,,,,,,,,,,,,,,,,,,,,,,,,"MET10103/12/20 09:51:02 METAR KNYC 121451Z 06005KT 10SM OVC050 07/03 A3020 RMK AO2 SLP220 T00720028 51017 $","FM-15","7",,,,,,,,,,,,,,,,,,,,,,,,,,,,
"72505394728","2020-03-12T10:36:00","FM-16","7",,,,,,,,,,,,,,,,,,,,,,,,,,,,,,,,,,,,,,"30.20","38","46",,,,,"73",,"BKN:07 19 OVC:08 50","30.03","10.00","42","070",,"6",,,,,,,,,,,,,,,,,,,,,,,,,,,,,,,,,,,,,"MET09903/12/20 10:36:02 SPECI KNYC 121536Z 07005KT 10SM BKN019 OVC050 08/03 A3020 RMK AO2 T00780033 $ RTX","FM-16","7",,,,,,,,,,,,,,,,,,,,,,,,,,,,
"72505394728","2020-03-12T10:47:00","FM-16","7",,,,,,,,,,,,,,,,,,,,,,,,,,,,,,,,,,,,,,"30.21","37","46",,,,,"71",,"SCT:04 19 OVC:08 50","30.04","10.00","42","VRB",,"6",,,,,,,,,,,,,,,,,,,,,,,,,,,,,,,,,,,,,"MET08503/12/20 10:47:02 SPECI KNYC 121547Z VRB05KT 10SM SCT019 OVC050 08/03 A3021 RMK AO2 $","FM-16","7",,,,,,,,,,,,,,,,,,,,,,,,,,,,
"72505394728","2020-03-12T10:51:00","FM-15","7",,,,,,,,,,,,,,,,,,,,,,,,,,,,,,,,,,,,,,"30.21","38","46","0.00",,,,"73","30.19","FEW:02 19 OVC:08 50","30.04","10.00","42","050",,"6",,,,,,,,,,,,,,,,,,,,,,,,,,,,,,,,,,,,,"MET10203/12/20 10:51:02 METAR KNYC 121551Z 05005KT 10SM FEW019 OVC050 08/03 A3021 RMK AO2 SLP222 T00780033 $","FM-15","7",,,,,,,,,,,,,,,,,,,,,,,,,,,,
"72505394728","2020-03-12T11:51:00","FM-15","7",,,,,,,,,,,,,,,,,,,,,,,,,,,,,,,,,,,,,,"30.21","38","48","0.00",,,,"68","30.18","OVC:08 50","30.04","10.00","43","090",,"7",,,,,,,,,,,,,,,,,,,,,,,,,,,,,,,,,,,,,"MET09503/12/20 11:51:02 METAR KNYC 121651Z 09006KT 10SM OVC050 09/03 A3021 RMK AO2 SLP221 T00890033 $","FM-15","7",,,,,,,,,,,,,,,,,,,,,,,,,,,,
"72505394728","2020-03-12T12:51:00","FM-15","7",,,,,,,,,,,,,,,,,,,,,,,,,,,,,,,,,,,,,,"30.20","37","49","0.00",,"+0.01","8","64","30.17","OVC:08 49","30.03","10.00","44","VRB",,"3",,,,,,,,,,,,,,,,,,,,,,,,,,,,,,,,,,,,,"MET11303/12/20 12:51:02 METAR KNYC 121751Z VRB03KT 10SM OVC049 09/03 A3020 RMK AO2 SLP218 T00940028 10094 20067 58003 $","FM-15","7",,,,,,,,,,,,,,,,,,,,,,,,,,,,
"72505394728","2020-03-12T13:51:00","FM-15","7",,,,,,,,,,,,,,,,,,,,,,,,,,,,,,,,,,,,,,"30.17","37","49","0.00",,,,"64","30.15","OVC:08 47","30.00","10.00","44","VRB",,"8",,,,,,,,,,,,,,,,,,,,,,,,,,,,,,,,,,,,,"MET10403/12/20 13:51:02 METAR KNYC 121851Z 07007KT 10SM OVC047 09/03 A3017 RMK AO2 SLP209 T00940028 $ RTX FIBI","FM-15","7",,,,,,,,,,,,,,,,,,,,,,,,,,,,
"72505394728","2020-03-12T14:47:00","FM-16","7",,,,,,,,,,,,,,,,,,,,,,,,,,,,,,,,,,,,,,"30.18","37","48",,,,,"66",,"BKN:07 22 OVC:08 44","30.01","10.00","43","VRB",,"6",,,,,,,,,,,,,,,,,,,,,,,,,,,,,,,,,,,,,"MET08503/12/20 14:47:02 SPECI KNYC 121947Z VRB05KT 10SM BKN022 OVC044 09/03 A3018 RMK AO2 $","FM-16","7",,,,,,,,,,,,,,,,,,,,,,,,,,,,
"72505394728","2020-03-12T14:51:00","FM-15","7",,,,,,,,,,,,,,,,,,,,,,,,,,,,,,,,,,,,,,"30.18","38","49","0.00",,,,"66","30.15","BKN:07 22 OVC:08 44","30.01","10.00","44","050",,"8",,,,,,,,,,,,,,,,,,,,,,,,,,,,,,,,,,,,,"MET10603/12/20 14:51:02 METAR KNYC 121951Z 05007KT 10SM BKN022 OVC044 09/03 A3018 RMK AO2 SLP210 T00940033 $ RTX","FM-15","7",,,,,,,,,,,,,,,,,,,,,,,,,,,,
"72505394728","2020-03-12T15:51:00","FM-15","7",,,,,,,,,,,,,,,,,,,,,,,,,,,,,,,,,,,,,,"30.18","39","48","0.00",,"-0.00","1","71","30.15","OVC:08 18","30.01","10.00","44","070",,"8",,,,,,,,,,,,,,,,,,,,,,,,,,,,,,,,,,,,,"MET10103/12/20 15:51:02 METAR KNYC 122051Z 07007KT 10SM OVC018 09/04 A3018 RMK AO2 SLP211 T00890039 51001 $","FM-15","7",,,,,,,,,,,,,,,,,,,,,,,,,,,,
"72505394728","2020-03-12T16:51:00","FM-15","7",,,,,,,,,,,,,,,,,,,,,,,,,,,,,,,,,,,,,,"30.15","40","48","0.00",,,,"74","30.13","OVC:08 17","29.98","10.00","44","VRB",,"8",,,,,,,,,,,,,,,,,,,,,,,,,,,,,,,,,,,,,"MET09503/12/20 16:51:02 METAR KNYC 122151Z 06007KT 10SM OVC017 09/04 A3015 RMK AO2 SLP203 T00890044 $","FM-15","7",,,,,,,,,,,,,,,,,,,,,,,,,,,,
"72505394728","2020-03-12T17:51:00","FM-15","7",,,,,,,,,,,,,,,,,,,,,,,,,,,,,,,,,,,,,,"30.16","40","48","0.00",,,,"74","30.13","OVC:08 15","29.99","10.00","44","050",,"7",,,,,,,,,,,,,,,,,,,,,,,,,,,,,,,,,,,,,"MET09903/12/20 17:51:02 METAR KNYC 122251Z 05006KT 10SM OVC015 09/04 A3016 RMK AO2 SLP203 T00890044 $ RTX","FM-15","7",,,,,,,,,,,,,,,,,,,,,,,,,,,,
"72505394728","2020-03-12T17:58:00","FM-16","7",,,,,,,,,,,,,,,,,,,,,,,,,,,,,,,,,,,,,,"30.15","40","47",,,,,"77",,"OVC:08 14","29.98","10.00","44","050",,"10",,,,,,,,,,,,,,,,,,,,,,,,,,,,,,,,,,,,,"MET08803/12/20 17:58:02 SPECI KNYC 122258Z 05009KT 10SM OVC014 08/04 A3015 RMK AO2 T00830044 $","FM-16","7",,,,,,,,,,,,,,,,,,,,,,,,,,,,
"72505394728","2020-03-12T18:51:00","FM-15","7",,,,,,,,,,,,,,,,,,,,,,,,,,,,,,,,,,,,,,"30.17","40","47","0.01",,"+0.00","5","77","30.15","OVC:08 13","30.00","10.00","44","000",,"0",,,,,,,,,,,,,,,,,,,,,,,,,,,,,,,,,,,,,"MET11303/12/20 18:51:02 METAR KNYC 122351Z 00000KT 10SM OVC013 08/04 A3017 RMK AO2 SLP209 T00830044 10100 20083 55001 $","FM-15","7",,,,,,,,,,,,,,,,,,,,,,,,,,,,
"72505394728","2020-03-12T19:51:00","FM-15","7",,,,,,,,,,,,,,,,,,,,,,,,,,,,,,,,,,,,,,"30.16","43","46","0.02","-RA:02 |RA |RA",,,"89","30.14","OVC:08 11","29.99","8.00","45","VRB",,"5",,,,,,,,,,,,,,,,,,,,,,,,,,,,,,,,,,,,,"MET11203/12/20 19:51:01 METAR KNYC 130051Z VRB04KT 8SM -RA OVC011 08/06 A3016 RMK AO2 RAB2355 SLP205 P0003 T00780061 $","FM-15","7",,,,,,,,,,,,,,,,,,,,,,,,,,,,
"72505394728","2020-03-12T20:33:00","FM-16","7",,,,,,,,,,,,,,,,,,,,,,,,,,,,,,,,,,,,,,"30.15","43","46","T",,,,"89",,"OVC:08 9","29.98","9.00","45","090",,"7",,,,,,,,,,,,,,,,,,,,,,,,,,,,,,,,,,,,,"MET09903/12/20 20:33:01 SPECI KNYC 130133Z 09006KT 9SM OVC009 08/06 A3015 RMK AO2 RAE09 P0000 T00780061 $","FM-16","7",,,,,,,,,,,,,,,,,,,,,,,,,,,,
"72505394728","2020-03-12T20:51:00","FM-15","7",,,,,,,,,,,,,,,,,,,,,,,,,,,,,,,,,,,,,,"30.15","43","47","T","-RA:02 |RA |RA",,,"86","30.12","OVC:08 9","29.98","9.00","45","VRB",,"7",,,,,,,,,,,,,,,,,,,,,,,,,,,,,,,,,,,,,"MET11303/12/20 20:51:01 METAR KNYC 130151Z VRB06KT 9SM -RA OVC009 08/06 A3015 RMK AO2 RAE09B36 SLP201 P0000 T00830061 $","FM-15","7",,,,,,,,,,,,,,,,,,,,,,,,,,,,
"72505394728","2020-03-12T21:51:00","FM-15","7",,,,,,,,,,,,,,,,,,,,,,,,,,,,,,,,,,,,,,"30.13","42","46","T",,"+0.04","8","86","30.11","OVC:08 9","29.96","10.00","44","VRB",,"7",,,,,,,,,,,,,,,,,,,,,,,,,,,,,,,,,,,,,"MET11903/12/20 21:51:01 METAR KNYC 130251Z VRB06KT 10SM OVC009 08/06 A3013 RMK AO2 RAE19 SLP195 P0000 60003 T00780056 58014 $","FM-15","7",,,,,,,,,,,,,,,,,,,,,,,,,,,,
"72505394728","2020-03-12T22:51:00","FM-15","7",,,,,,,,,,,,,,,,,,,,,,,,,,,,,,,,,,,,,,"30.11","42","45","T",,,,"90","30.09","OVC:08 8","29.94","8.00","44","080",,"7",,,,,,,,,,,,,,,,,,,,,,,,,,,,,,,,,,,,,"MET12103/12/20 22:51:02 METAR KNYC 130351Z 08006KT 8SM OVC008 07/06 A3011 RMK AO2 RAB07E35 CIG 006V009 SLP189 P0000 T00720056 $","FM-15","7",,,,,,,,,,,,,,,,,,,,,,,,,,,,
"72505394728","2020-03-12T23:48:00","FM-16","6",,,,,,,,,,,,,,,,,,,,,,,,,,,,,,,,,,,,,,"30.09","43","46",,"-RA:02 BR:1 |RA |RA",,,"87",,"OVC:08 7","29.92","2.50","45","080",,"6",,,,,,,,,,,,,,,,,,,,,,,,,,,,,,,,,,,,,"MET10003/12/20 23:48:02 SPECI KNYC 130448Z 08005KT 2 1/2SM -RA BR OVC007 08/06 A3009 RMK AO2 RAB40 P0000 $","FM-16","6",,,,,,,,,,,,,,,,,,,,,,,,,,,,
"72505394728","2020-03-12T23:51:00","FM-15","6",,,,,,,,,,,,,,,,,,,,,,,,,,,,,,,,,,,,,,"30.09","43","45","T","-RA:02 BR:1 |RA |RA",,,"93","30.06","OVC:08 7","29.92","2.50","44","050",,"7",,,,,,,,,,,,,,,,,,,,,,,,,,,,,,,,,,,,,"MET12703/12/20 23:51:02 METAR KNYC 130451Z 05006KT 2 1/2SM -RA BR OVC007 07/06 A3009 RMK AO2 RAB40 SLP181 P0000 T00720061 401000061 $","FM-15","6",,,,,,,,,,,,,,,,,,,,,,,,,,,,
"72505394728","2020-03-12T23:58:00","FM-16","6",,,,,,,,,,,,,,,,,,,,,,,,,,,,,,,,,,,,,,"30.09","43","45",,"-RA:02 BR:1 |RA |RA",,,"93",,"OVC:08 6","29.92","4.00","44","VRB",,"5",,,,,,,,,,,,,,,,,,,,,,,,,,,,,,,,,,,,,"MET10003/12/20 23:58:02 SPECI KNYC 130458Z VRB04KT 4SM -RA BR OVC006 07/06 A3009 RMK AO2 P0000 T00720061 $","FM-16","6",,,,,,,,,,,,,,,,,,,,,,,,,,,,
"72505394728","2020-03-12T23:59:00","SOD  ","6",,,,,,,,,,,,,,,,"47",,,"29.98",,"5.2","0","6.0","18","50","43","050","16","0.03","0","0.0","060","12","RA BR",,,,,,,,,,,,,,,,,,,,,,,,,,,,,,,,,,,,,,,,,,,,,,,,,,,,,,,,"SOD75624 HR PRECIPITATION (IN): 0.03 SNOW DEPTH (IN):0     24 HR SNOWFALL (IN):0.0  WEATHER(CODE):1  24 HR MAX TEMP (F): 5024 HR MIN TEMP (F): 43AVERAGE STATION PRESSURE(D):29.983 MINIMUM SEA LEVEL PRESSURE:30.06 TIME OF OCCURRENCE:2359 PEAK WIND SPEED (MPH): 16 PEAK WIND DIR (DEG): 50 PEAK WIND TIME (LST):      FASTEST 2MIN SPEED (MPH): 12FASTEST 2MIN DIR (DEG): 60 FASTEST 2MIN TIME (LST):     AVERAGE WIND SPEED (MPH): 5.2 24 HR AVG TEMP (F): 47DEPART FROM NORMAL:  6  HEATING DEGREE DAYS: 18 COOLING DEGREE DAYS:  0 LATEST DAY MAX TEMP (0700-1900 LST): 50 LATEST NIGHT MIN TEMP(1900-0800 LST):43 HOURLY INCREMENTAL PRECIPITATION VALUES (IN):0.00 0.00 0.00 0.00 0.00 0.00 0.00 0.00 0.00 0.00 0.00 0.00 0.00 0.00 0.00 0.00 0.00 0.00 0.01 0.02T    T    T    T","SOD  ","6",,,,,,,,,,,,,,,,,,,,,,,,,"0611","1800",,
"72505394728","2020-03-13T00:51:00","FM-15","6",,,,,,,,,,,,,,,,,,,,,,,,,,,,,,,,,,,,,,"30.07","43","45","T","-RA:02 BR:1 |RA |RA","+0.05","8","93","30.04","OVC:08 5","29.90","6.00","44",,,,,,,,,,,,,,,,,,,,,,,,,,,,,,,,,,,,,,,,"MET14903/13/20 00:51:02 METAR KNYC 130551Z      KT 6SM -RA BR OVC005 07/06 A3007 RMK AO2 RAE01B46 SLP173 P0000 60003 T00720061 10083 20072 58016 $ RTX FIBI","FM-15","6",,,,,,,,,,,,,,,,,,,,,,,,,,,,
"72505394728","2020-03-13T01:51:00","FM-15","7",,,,,,,,,,,,,,,,,,,,,,,,,,,,,,,,,,,,,,"30.03","43","45","0.00",,,,"93","30.01","OVC:08 5","29.86","7.00","44","VRB",,"7",,,,,,,,,,,,,,,,,,,,,,,,,,,,,,,,,,,,,"MET10803/13/20 01:51:02 METAR KNYC 130651Z VRB06KT 7SM OVC005 07/06 A3003 RMK AO2 RAE0556 SLP162 P0000 T00720061 $","FM-15","7",,,,,,,,,,,,,,,,,,,,,,,,,,,,
"72505394728","2020-03-13T02:39:00","FM-16","7",,,,,,,,,,,,,,,,,,,,,,,,,,,,,,,,,,,,,,"30.00","43","45",,"BR:1 ||",,,"93",,"OVC:08 4","29.83","4.00","44","100",,"8",,,,,,,,,,,,,,,,,,,,,,,,,,,,,,,,,,,,,"MET09403/13/20 02:39:02 SPECI KNYC 130739Z 10007KT 4SM BR OVC004 07/06 A3000 RMK AO2 T00720061 $ RTX","FM-16","7",,,,,,,,,,,,,,,,,,,,,,,,,,,,
"72505394728","2020-03-13T02:51:00","FM-15","7",,,,,,,,,,,,,,,,,,,,,,,,,,,,,,,,,,,,,,"29.99","43","45","0.00","BR:1 ||",,,"93","29.96","OVC:08 4","29.82","4.00","44","VRB",,"5",,,,,,,,,,,,,,,,,,,,,,,,,,,,,,,,,,,,,"MET10103/13/20 02:51:02 METAR KNYC 130751Z VRB04KT 4SM BR OVC004 07/06 A2999 RMK AO2 SLP146 T00720061 $ RTX","FM-15","7",,,,,,,,,,,,,,,,,,,,,,,,,,,,
"72505394728","2020-03-13T03:26:00","FM-16","7",,,,,,,,,,,,,,,,,,,,,,,,,,,,,,,,,,,,,,"29.97","43","45",,"BR:1 ||",,,"93",,"OVC:08 3","29.80","2.50","44","050",,"3",,,,,,,,,,,,,,,,,,,,,,,,,,,,,,,,,,,,,"MET09403/13/20 03:26:02 SPECI KNYC 130826Z 05003KT 2 1/2SM BR OVC003 07/06 A2997 RMK AO2 T00720061 $","FM-16","7",,,,,,,,,,,,,,,,,,,,,,,,,,,,
"72505394728","2020-03-13T03:51:00","FM-15","7",,,,,,,,,,,,,,,,,,,,,,,,,,,,,,,,,,,,,,"29.96","44","46","0.00","BR:1 ||","+0.11","6","93","29.93","OVC:08 3","29.79","2.00","45","VRB",,"3",,,,,,,,,,,,,,,,,,,,,,,,,,,,,,,,,,,,,"MET10903/13/20 03:51:02 METAR KNYC 130851Z VRB03KT 2SM BR OVC003 08/07 A2996 RMK AO2 SLP136 60000 T00780067 56037 $","FM-15","7",,,,,,,,,,,,,,,,,,,,,,,,,,,,
"72505394728","2020-03-13T04:22:00","FM-16","7",,,,,,,,,,,,,,,,,,,,,,,,,,,,,,,,,,,,,,"29.95","44","46",,"BR:1 ||",,,"93",,"OVC:08 3","29.78","1.75","45","VRB",,"3",,,,,,,,,,,,,,,,,,,,,,,,,,,,,,,,,,,,,"MET09803/13/20 04:22:02 SPECI KNYC 130922Z VRB03KT 1 3/4SM BR OVC003 08/07 A2995 RMK AO2 T00780067 $ RTX","FM-16","7",,,,,,,,,,,,,,,,,,,,,,,,,,,,
"72505394728","2020-03-13T04:51:00","FM-15","7",,,,,,,,,,,,,,,,,,,,,,,,,,,,,,,,,,,,,,"29.93","45","46","0.00","BR:1 ||",,,"96","29.90","OVC:08 2","29.76","1.50","46","070",,"3",,,,,,,,,,,,,,,,,,,,,,,,,,,,,,,,,,,,,"MET10503/13/20 04:51:02 METAR KNYC 130951Z 07003KT 1 1/2SM BR OVC002 08/07 A2993 RMK AO2 SLP126 T00780072 $ RTX","FM-15","7",,,,,,,,,,,,,,,,,,,,,,,,,,,,
"72505394728","2020-03-13T05:51:00","FM-15","7",,,,,,,,,,,,,,,,,,,,,,,,,,,,,,,,,,,,,,"29.89","49","50","0.08","RA:02 BR:1 |RA |RA",,,"96","29.86","OVC:08 2","29.72","1.75","49","VRB","17","7",,,,,,,,,,,,,,,,,,,,,,,,,,,,,,,,,,,,,"MET11903/13/20 05:51:02 METAR KNYC 131051Z VRB06G15KT 1 3/4SM RA BR OVC002 10/09 A2989 RMK AO2 RAB20 SLP112 P0003 T01000094 $","FM-15","7",,,,,,,,,,,,,,,,,,,,,,,,,,,,
"72505394728","2020-03-13T06:08:00","FM-16","7",,,,,,,,,,,,,,,,,,,,,,,,,,,,,,,,,,,,,,"29.89","49","50","0.09","RA:02 BR:1 |RA |RA",,,"96",,"OVC:08 4","29.72","3.00","49","140",,"6",,,,,,,,,,,,,,,,,,,,,,,,,,,,,,,,,,,,,"MET09903/13/20 06:08:02 SPECI KNYC 131108Z 14005KT 3SM RA BR OVC004 10/09 A2989 RMK AO2 P0009 T01000094 $","FM-16","7",,,,,,,,,,,,,,,,,,,,,,,,,,,,
"72505394728","2020-03-13T06:18:00","FM-16","7",,,,,,,,,,,,,,,,,,,,,,,,,,,,,,,,,,,,,,"29.89","49","50","0.11","-RA:02 BR:1 |RA |RA",,,"96",,"OVC:08 6","29.72","4.00","49","160",,"10",,,,,,,,,,,,,,,,,,,,,,,,,,,,,,,,,,,,,"MET10003/13/20 06:18:02 SPECI KNYC 131118Z 16009KT 4SM -RA BR OVC006 10/09 A2989 RMK AO2 P0011 T01000094 $","FM-16","7",,,,,,,,,,,,,,,,,,,,,,,,,,,,
"72505394728","2020-03-13T06:51:00","FM-15","6",,,,,,,,,,,,,,,,,,,,,,,,,,,,,,,,,,,,,,"29.86","50","51","0.07","-RA:02 |RA |RA","+0.09","6","96","29.84","OVC:08 5","29.69","9.00","50","VRB","20","7",,,,,,,,,,,,,,,,,,,,,,,,,,,,,,,,,,,,,"MET13703/13/20 06:51:02 METAR KNYC 131151Z VRB06G17KT 9SM -RA OVC005 11/10 A2986 RMK AO2 SLP104 P0012 60015 70018 T01060100 10106 20072 56032 $","FM-15","6",,,,,,,,,,,,,,,,,,,,,,,,,,,,
"72505394728","2020-03-13T07:16:00","FM-16","6",,,,,,,,,,,,,,,,,,,,,,,,,,,,,,,,,,,,,,"29.86","50","52",,"-RA:02 BR:1 |RA |RA",,,"93",,"OVC:08 4","29.69","5.00","51","160","17","10",,,,,,,,,,,,,,,,,,,,,,,,,,,,,,,,,,,,,"MET10303/13/20 07:16:02 SPECI KNYC 131216Z 16009G15KT 5SM -RA BR OVC004 11/10 A2986 RMK AO2 P0001 T01110100 $","FM-16","6",,,,,,,,,,,,,,,,,,,,,,,,,,,,
"72505394728","2020-03-13T07:40:00","FM-16","6",,,,,,,,,,,,,,,,,,,,,,,,,,,,,,,,,,,,,,"29.86","50","52",,"RA:02 BR:1 |RA |RA",,,"93",,"OVC:08 4","29.69","1.75","51","160","18","10",,,,,,,,,,,,,,,,,,,,,,,,,,,,,,,,,,,,,"MET10603/13/20 07:40:02 SPECI KNYC 131240Z 16009G16KT 1 3/4SM RA BR OVC004 11/10 A2986 RMK AO2 P0003 T01110100 $","FM-16","6",,,,,,,,,,,,,,,,,,,,,,,,,,,,
"72505394728","2020-03-13T07:51:00","FM-15","6",,,,,,,,,,,,,,,,,,,,,,,,,,,,,,,,,,,,,,"29.85","50","52","0.06","-RA:02 BR:1 |RA |RA",,,"93","29.83","OVC:08 4","29.68","1.75","51","150","20","9",,,,,,,,,,,,,,,,,,,,,,,,,,,,,,,,,,,,,"MET12603/13/20 07:51:02 METAR KNYC 131251Z 15008G17KT 1 3/4SM -RA BR OVC004 11/10 A2985 RMK AO2 CIG 004V009 SLP101 P0005 T01110100 $","FM-15","6",,,,,,,,,,,,,,,,,,,,,,,,,,,,
"72505394728","2020-03-13T07:57:00","FM-16","6",,,,,,,,,,,,,,,,,,,,,,,,,,,,,,,,,,,,,,"29.84","51","52",,"-RA:02 BR:1 |RA |RA",,,"97",,"BKN:07 5 BKN:07 30 OVC:08 70","29.67","2.50","51","VRB","20","8",,,,,,,,,,,,,,,,,,,,,,,,,,,,,,,,,,,,,"MET12503/13/20 07:57:02 SPECI KNYC 131257Z 15007G17KT 2 1/2SM -RA BR BKN005 BKN030 OVC070 11/11 A2984 RMK AO2 P0001 T01110106 $ RTX","FM-16","6",,,,,,,,,,,,,,,,,,,,,,,,,,,,
"72505394728","2020-03-13T08:05:00","FM-16","6",,,,,,,,,,,,,,,,,,,,,,,,,,,,,,,,,,,,,,"29.84","51","52",,"-RA:02 BR:1 |RA |RA",,,"97",,"BKN:07 5 BKN:07 28 OVC:08 65","29.67","3.00","51","VRB","18","9",,,,,,,,,,,,,,,,,,,,,,,,,,,,,,,,,,,,,"MET11703/13/20 08:05:02 SPECI KNYC 131305Z 16008G16KT 3SM -RA BR BKN005 BKN028 OVC065 11/11 A2984 RMK AO2 P0002 T01110106 $","FM-16","6",,,,,,,,,,,,,,,,,,,,,,,,,,,,
"72505394728","2020-03-13T08:12:00","FM-16","6",,,,,,,,,,,,,,,,,,,,,,,,,,,,,,,,,,,,,,"29.83","51","52",,"-RA:02 BR:1 |RA |RA",,,"97",,"SCT:04 6 BKN:07 26 OVC:08 65","29.66","2.00","51","150",,"7",,,,,,,,,,,,,,,,,,,,,,,,,,,,,,,,,,,,,"MET11403/13/20 08:12:02 SPECI KNYC 131312Z 15006KT 2SM -RA BR SCT006 BKN026 OVC065 11/11 A2983 RMK AO2 P0003 T01110106 $","FM-16","6",,,,,,,,,,,,,,,,,,,,,,,,,,,,
"72505394728","2020-03-13T08:26:00","FM-16","6",,,,,,,,,,,,,,,,,,,,,,,,,,,,,,,,,,,,,,"29.82","51","52",,"-RA:02 BR:1 |RA |RA",,,"97",,"BKN:07 6 OVC:08 28","29.65","3.00","51","150","17","7",,,,,,,,,,,,,,,,,,,,,,,,,,,,,,,,,,,,,"MET11003/13/20 08:26:02 SPECI KNYC 131326Z 15006G15KT 3SM -RA BR BKN006 OVC028 11/11 A2982 RMK AO2 P0004 T01110106 $","FM-16","6",,,,,,,,,,,,,,,,,,,,,,,,,,,,
"72505394728","2020-03-13T08:49:00","FM-16","6",,,,,,,,,,,,,,,,,,,,,,,,,,,,,,,,,,,,,,"29.82","52","52",,"-RA:02 BR:1 |RA |RA",,,"100",,"OVC:08 5","29.65","2.50","52",,,,,,,,,,,,,,,,,,,,,,,,,,,,,,,,,,,,,,,,"MET09903/13/20 08:49:02 SPECI KNYC 131349Z      KT 2 1/2SM -RA BR OVC005 11/11 A2982 RMK AO2 P0005 $ FIBI","FM-16","6",,,,,,,,,,,,,,,,,,,,,,,,,,,,
"72505394728","2020-03-13T08:51:00","FM-15","7",,,,,,,,,,,,,,,,,,,,,,,,,,,,,,,,,,,,,,"29.82","51","52","0.04","-RA:02 BR:1 |RA |RA",,,"97","29.79","OVC:08 5","29.65","2.50","51","160",,"8",,,,,,,,,,,,,,,,,,,,,,,,,,,,,,,,,,,,,"MET11103/13/20 08:51:02 METAR KNYC 131351Z 16007KT 2 1/2SM -RA BR OVC005 11/11 A2982 RMK AO2 SLP089 P0005 T01110106 $","FM-15","7",,,,,,,,,,,,,,,,,,,,,,,,,,,,
"72505394728","2020-03-13T09:15:00","FM-16","7",,,,,,,,,,,,,,,,,,,,,,,,,,,,,,,,,,,,,,"29.80","51","53","0.01","-RA:02 BR:1 |RA |RA",,,"93",,"OVC:08 5","29.63","4.00","52","160",,"9",,,,,,,,,,,,,,,,,,,,,,,,,,,,,,,,,,,,,"MET10003/13/20 09:15:02 SPECI KNYC 131415Z 16008KT 4SM -RA BR OVC005 12/11 A2980 RMK AO2 P0001 T01170106 $","FM-16","7",,,,,,,,,,,,,,,,,,,,,,,,,,,,
"72505394728","2020-03-13T09:51:00","FM-15","7",,,,,,,,,,,,,,,,,,,,,,,,,,,,,,,,,,,,,,"29.79","52","54","0.01","BR:1 ||","+0.07","8","93","29.77","OVC:08 7","29.62","5.00","53","VRB",,"3",,,,,,,,,,,,,,,,,,,,,,,,,,,,,,,,,,,,,"MET14203/13/20 09:51:02 METAR KNYC 131451Z VRB03KT 5SM BR OVC007 12/11 A2979 RMK AO2 RAE18 CIG 004V011 SLP080 P0001 60011 T01220111 58023 $ RTX FIBI","FM-15","7",,,,,,,,,,,,,,,,,,,,,,,,,,,,
"72505394728","2020-03-13T10:51:00","FM-15","7",,,,,,,,,,,,,,,,,,,,,,,,,,,,,,,,,,,,,,"29.79","55","58","0.00",,,,"90","29.76","OVC:08 8","29.62","8.00","56","230",,"14",,,,,,,,,,,,,,,,,,,,,,,,,,,,,,,,,,,,,"MET10603/13/20 10:51:02 METAR KNYC 131551Z 23012KT 8SM OVC008 14/13 A2979 RMK AO2 CIG 007V012 SLP078 T01440128 $","FM-15","7",,,,,,,,,,,,,,,,,,,,,,,,,,,,
"72505394728","2020-03-13T11:11:00","FM-16","7",,,,,,,,,,,,,,,,,,,,,,,,,,,,,,,,,,,,,,"29.78","55","58",,,,,"90",,"BKN:07 10 OVC:08 16","29.61","8.00","56","240","17","10",,,,,,,,,,,,,,,,,,,,,,,,,,,,,,,,,,,,,"MET09703/13/20 11:11:02 SPECI KNYC 131611Z 24009G15KT 8SM BKN010 OVC016 14/13 A2978 RMK AO2 T01440128 $","FM-16","7",,,,,,,,,,,,,,,,,,,,,,,,,,,,
"72505394728","2020-03-13T11:51:00","FM-15","7",,,,,,,,,,,,,,,,,,,,,,,,,,,,,,,,,,,,,,"29.78","54","60","0.00",,,,"80","29.76","BKN:07 13 BKN:07 21 OVC:08 27","29.61","9.00","57","VRB",,"8",,,,,,,,,,,,,,,,,,,,,,,,,,,,,,,,,,,,,"MET10803/13/20 11:51:02 METAR KNYC 131651Z 25007KT 9SM BKN013 BKN021 OVC027 16/12 A2978 RMK AO2 SLP078 T01560122 $","FM-15","7",,,,,,,,,,,,,,,,,,,,,,,,,,,,
"72505394728","2020-03-13T12:00:00","FM-16","7",,,,,,,,,,,,,,,,,,,,,,,,,,,,,,,,,,,,,,"29.79","55","60",,,,,"84",,"BKN:07 15 OVC:08 22","29.62","9.00","57","VRB",,"6",,,,,,,,,,,,,,,,,,,,,,,,,,,,,,,,,,,,,"MET09403/13/20 12:00:02 SPECI KNYC 131700Z VRB05KT 9SM BKN015 OVC022 16/13 A2979 RMK AO2 T01560128 $","FM-16","7",,,,,,,,,,,,,,,,,,,,,,,,,,,,
"72505394728","2020-03-13T12:51:00","FM-15","7",,,,,,,,,,,,,,,,,,,,,,,,,,,,,,,,,,,,,,"29.77","54","63","0.00",,"+0.02","8","73","29.75","SCT:04 19 BKN:07 29","29.60","10.00","58",,,,,,,,,,,,,,,,,,,,,,,,,,,,,,,,,,,,,,,,"MET12603/13/20 12:51:02 METAR KNYC 131751Z      KT 10SM SCT019 BKN029 17/12 A2977 RMK AO2 SLP074 60011 T01720122 10172 20106 58007 $","FM-15","7",,,,,,,,,,,,,,,,,,,,,,,,,,,,
"72505394728","2020-03-13T13:05:00","FM-16","7",,,,,,,,,,,,,,,,,,,,,,,,,,,,,,,,,,,,,,"29.77","53","64",,,,,"68",,"FEW:02 21 SCT:04 26 BKN:07 33","29.60","10.00","58","VRB","20","13",,,,,,,,,,,,,,,,,,,,,,,,,,,,,,,,,,,,,"MET10503/13/20 13:05:02 SPECI KNYC 131805Z 25011G17KT 10SM FEW021 SCT026 BKN033 18/12 A2977 RMK AO2 T01780117 $","FM-16","7",,,,,,,,,,,,,,,,,,,,,,,,,,,,
"72505394728","2020-03-13T13:51:00","FM-15","7",,,,,,,,,,,,,,,,,,,,,,,,,,,,,,,,,,,,,,"29.75","47","67","0.00",,,,"49","29.72","CLR:00","29.58","10.00","56","VRB","22","13",,,,,,,,,,,,,,,,,,,,,,,,,,,,,,,,,,,,,"MET09903/13/20 13:51:02 METAR KNYC 131851Z 24011G19KT 10SM CLR 19/08 A2975 RMK AO2 SLP066 T01940083 $ RTX","FM-15","7",,,,,,,,,,,,,,,,,,,,,,,,,,,,
"72505394728","2020-03-13T14:51:00","FM-15","7",,,,,,,,,,,,,,,,,,,,,,,,,,,,,,,,,,,,,,"29.78","45","68","0.00",,,,"44","29.75","BKN:07 65","29.61","10.00","56","VRB","18","6",,,,,,,,,,,,,,,,,,,,,,,,,,,,,,,,,,,,,"MET09803/13/20 14:51:02 METAR KNYC 131951Z VRB05G16KT 10SM BKN065 20/07 A2978 RMK AO2 SLP074 T02000072 $","FM-15","7",,,,,,,,,,,,,,,,,,,,,,,,,,,,
"72505394728","2020-03-13T15:51:00","FM-15","7",,,,,,,,,,,,,,,,,,,,,,,,,,,,,,,,,,,,,,"29.80","43","69","0.00",,"-0.02","3","39","29.77","FEW:02 65","29.63","10.00","55","VRB","30","11",,,,,,,,,,,,,,,,,,,,,,,,,,,,,,,,,,,,,"MET12203/13/20 15:51:02 METAR KNYC 132051Z 24010G26KT 10SM FEW065 21/06 A2980 RMK AO2 PK WND 22028/2031 SLP081 T02060061 53008 $","FM-15","7",,,,,,,,,,,,,,,,,,,,,,,,,,,,
"72505394728","2020-03-13T16:51:00","FM-15","7",,,,,,,,,,,,,,,,,,,,,,,,,,,,,,,,,,,,,,"29.83","25","68","0.00",,,,"20","29.80","CLR:00","29.66","10.00","49","280","29","20",,,,,,,,,,,,,,,,,,,,,,,,,,,,,,,,,,,,,"MET09603/13/20 16:51:02 METAR KNYC 132151Z 28017G25KT 10SM CLR 20/M04 A2983 RMK AO2 SLP093 T02001039 $","FM-15","7",,,,,,,,,,,,,,,,,,,,,,,,,,,,
"72505394728","2020-03-13T17:51:00","FM-15","7",,,,,,,,,,,,,,,,,,,,,,,,,,,,,,,,,,,,,,"29.88","18","65","0.00",,,,"16","29.86","CLR:00","29.71","10.00","46","280","26","11",,,,,,,,,,,,,,,,,,,,,,,,,,,,,,,,,,,,,"MET11403/13/20 17:51:02 METAR KNYC 132251Z 28010G23KT 10SM CLR 18/M08 A2988 RMK AO2 PK WND 26029/2154 SLP111 T01831078 $","FM-15","7",,,,,,,,,,,,,,,,,,,,,,,,,,,,
"72505394728","2020-03-13T18:51:00","FM-15","7",,,,,,,,,,,,,,,,,,,,,,,,,,,,,,,,,,,,,,"29.93","14s","63","0.00",,"-0.13","3","15","29.90","CLR:00","29.76","10.00","44","270","23","13",,,,,,,,,,,,,,,,,,,,,,,,,,,,,,,,,,,,,"MET11403/13/20 18:51:02 METAR KNYC 132351Z 27011G20KT 10SM CLR 17/M10 A2993 RMK AO2 SLP126 T01721100 10211 20172 53045 $","FM-15","7",,,,,,,,,,,,,,,,,,,,,,,,,,,,
"72505394728","2020-03-13T19:51:00","FM-15","7",,,,,,,,,,,,,,,,,,,,,,,,,,,,,,,,,,,,,,"29.99","15s","61","0.00",,,,"17","29.96","CLR:00","29.82","10.00","43","270","18","10",,,,,,,,,,,,,,,,,,,,,,,,,,,,,,,,,,,,,"MET09603/13/20 19:51:01 METAR KNYC 140051Z 27009G16KT 10SM CLR 16/M09 A2999 RMK AO2 SLP146 T01611094 $","FM-15","7",,,,,,,,,,,,,,,,,,,,,,,,,,,,
"72505394728","2020-03-13T20:51:00","FM-15","7",,,,,,,,,,,,,,,,,,,,,,,,,,,,,,,,,,,,,,"30.03","17","59","0.00",,,,"19","30.00","CLR:00","29.86","10.00","42","280","17","8",,,,,,,,,,,,,,,,,,,,,,,,,,,,,,,,,,,,,"MET09603/13/20 20:51:01 METAR KNYC 140151Z 28007G15KT 10SM CLR 15/M08 A3003 RMK AO2 SLP160 T01501083 $","FM-15","7",,,,,,,,,,,,,,,,,,,,,,,,,,,,
"72505394728","2020-03-13T21:51:00","FM-15","7",,,,,,,,,,,,,,,,,,,,,,,,,,,,,,,,,,,,,,"30.08","16","56","0.00",,"-0.14","1","21","30.05","CLR:00","29.91","10.00","41","300","18","13",,,,,,,,,,,,,,,,,,,,,,,,,,,,,,,,,,,,,"MET10203/13/20 21:51:02 METAR KNYC 140251Z 30011G16KT 10SM CLR 13/M09 A3008 RMK AO2 SLP175 T01331089 51049 $","FM-15","7",,,,,,,,,,,,,,,,,,,,,,,,,,,,
"72505394728","2020-03-13T22:51:00","FM-15","7",,,,,,,,,,,,,,,,,,,,,,,,,,,,,,,,,,,,,,"30.14","22","50","0.00",,,,"33","30.12","CLR:00","29.97","10.00","39","VRB",,"6",,,,,,,,,,,,,,,,,,,,,,,,,,,,,,,,,,,,,"MET09303/13/20 22:51:02 METAR KNYC 140351Z VRB05KT 10SM CLR 10/M06 A3014 RMK AO2 SLP199 T01001056 $","FM-15","7",,,,,,,,,,,,,,,,,,,,,,,,,,,,
"72505394728","2020-03-13T23:51:00","FM-15","6",,,,,,,,,,,,,,,,,,,,,,,,,,,,,,,,,,,,,,"30.16","21","49","0.00",,,,"33","30.13","CLR:00","29.99","10.00","38",,,,,,,,,,,,,,,,,,,,,,,,,,,,,,,,,,,,,,,,"MET10303/13/20 23:51:02 METAR KNYC 140451Z      KT 10SM CLR 09/M06 A3016 RMK AO2 SLP204 T00941061 402110072 $","FM-15","6",,,,,,,,,,,,,,,,,,,,,,,,,,,,
"72505394728","2020-03-13T23:59:00","SOD  ","6",,,,,,,,,,,,,,,,"58",,,"29.72",,"8.8","0","16.7","7","70","45","260","33","0.26","0","0.0","250","21","RA BR",,,,,,,,,,,,,,,,,,,,,,,,,,,,,,,,,,,,,,,,,,,,,,,,,,,,,,,,"SOD76024 HR PRECIPITATION (IN): 0.26 SNOW DEPTH (IN):0     24 HR SNOWFALL (IN):0.0  WEATHER(CODE):1  24 HR MAX TEMP (F): 7024 HR MIN TEMP (F): 45AVERAGE STATION PRESSURE(D):29.721 MINIMUM SEA LEVEL PRESSURE:29.73 TIME OF OCCURRENCE:1418 PEAK WIND SPEED (MPH): 33 PEAK WIND DIR (DEG):260 PEAK WIND TIME (LST):      FASTEST 2MIN SPEED (MPH): 21FASTEST 2MIN DIR (DEG):250 FASTEST 2MIN TIME (LST):     AVERAGE WIND SPEED (MPH): 8.8 24 HR AVG TEMP (F): 58DEPART FROM NORMAL: 17  HEATING DEGREE DAYS:  7 COOLING DEGREE DAYS:  0 LATEST DAY MAX TEMP (0700-1900 LST): 70 LATEST NIGHT MIN TEMP(1900-0800 LST):45 HOURLY INCREMENTAL PRECIPITATION VALUES (IN):     0.00 0.00 0.00 0.00 0.08 0.07 0.06 0.04 0.01 0.00 0.00 0.00 0.00 0.00 0.00 0.00 0.00 0.00 0.00 0.00 0.00 0.00 0.00","SOD  ","6",,,,,,,,,,,,,,,,,,,,,,,,,"0610","1801",,
"72505394728","2020-03-14T00:51:00","FM-15","6",,,,,,,,,,,,,,,,,,,,,,,,,,,,,,,,,,,,,,"30.19","19","47","0.00",,"-0.12","1","33","30.16","CLR:00","30.02","10.00","37","VRB","26","10",,,,,,,,,,,,,,,,,,,,,,,,,,,,,,,,,,,,,"MET13203/14/20 00:51:02 METAR KNYC 140551Z 31009G23KT 10SM CLR 08/M07 A3019 RMK AO2 PK WND 31026/0531 SLP214 T00831072 10172 20083 51039 $","FM-15","6",,,,,,,,,,,,,,,,,,,,,,,,,,,,
"72505394728","2020-03-14T01:51:00","FM-15","6",,,,,,,,,,,,,,,,,,,,,,,,,,,,,,,,,,,,,,"30.22","19","46","0.00",,,,"34","30.19","CLR:00","30.05","10.00","36","VRB","23","7",,,,,,,,,,,,,,,,,,,,,,,,,,,,,,,,,,,,,"MET10003/14/20 01:51:02 METAR KNYC 140651Z VRB06G20KT 10SM CLR 08/M07 A3022 RMK AO2 SLP224 T00781072 $ RTX","FM-15","6",,,,,,,,,,,,,,,,,,,,,,,,,,,,
"72505394728","2020-03-14T02:51:00","FM-15","6",,,,,,,,,,,,,,,,,,,,,,,,,,,,,,,,,,,,,,"30.22","19","46","0.00",,,,"34","30.19","CLR:00","30.05","10.00","36","VRB","17","6",,,,,,,,,,,,,,,,,,,,,,,,,,,,,,,,,,,,,"MET09603/14/20 02:51:02 METAR KNYC 140751Z VRB05G15KT 10SM CLR 08/M07 A3022 RMK AO2 SLP223 T00781072 $","FM-15","6",,,,,,,,,,,,,,,,,,,,,,,,,,,,
"72505394728","2020-03-14T03:51:00","FM-15","6",,,,,,,,,,,,,,,,,,,,,,,,,,,,,,,,,,,,,,"30.23","20","45","0.00",,"-0.04","1","37","30.20","CLR:00","30.06","10.00","36","270","21","7",,,,,,,,,,,,,,,,,,,,,,,,,,,,,,,,,,,,,"MET10203/14/20 03:51:02 METAR KNYC 140851Z 27006G18KT 10SM CLR 07/M07 A3023 RMK AO2 SLP227 T00721067 51013 $","FM-15","6",,,,,,,,,,,,,,,,,,,,,,,,,,,,
"72505394728","2020-03-14T04:51:00","FM-15","6",,,,,,,,,,,,,,,,,,,,,,,,,,,,,,,,,,,,,,"30.25","20","44","0.00",,,,"38","30.23","CLR:00","30.08","10.00","35","VRB","16","8",,,,,,,,,,,,,,,,,,,,,,,,,,,,,,,,,,,,,"MET09603/14/20 04:51:02 METAR KNYC 140951Z 28007G14KT 10SM CLR 07/M07 A3025 RMK AO2 SLP236 T00671067 $","FM-15","6",,,,,,,,,,,,,,,,,,,,,,,,,,,,
"72505394728","2020-03-14T05:51:00","FM-15","6",,,,,,,,,,,,,,,,,,,,,,,,,,,,,,,,,,,,,,"30.28","20","44","0.00",,,,"38","30.26","CLR:00","30.11","10.00","35","VRB",,"7",,,,,,,,,,,,,,,,,,,,,,,,,,,,,,,,,,,,,"MET09303/14/20 05:51:02 METAR KNYC 141051Z VRB06KT 10SM CLR 07/M07 A3028 RMK AO2 SLP246 T00671067 $","FM-15","6",,,,,,,,,,,,,,,,,,,,,,,,,,,,
"72505394728","2020-03-14T06:51:00","FM-15","6",,,,,,,,,,,,,,,,,,,,,,,,,,,,,,,,,,,,,,"30.32","21","43","0.00",,"-0.09","3","42","30.29","CLR:00","30.15","10.00","35","270","20","10",,,,,,,,,,,,,,,,,,,,,,,,,,,,,,,,,,,,,"MET12003/14/20 06:51:02 METAR KNYC 141151Z 27009G17KT 10SM CLR 06/M06 A3032 RMK AO2 SLP258 70011 T00611061 10089 20061 53029 $","FM-15","6",,,,,,,,,,,,,,,,,,,,,,,,,,,,
"72505394728","2020-03-14T07:51:00","FM-15","7",,,,,,,,,,,,,,,,,,,,,,,,,,,,,,,,,,,,,,"30.32","21","44","0.00",,,,"40","30.29","CLR:00","30.15","10.00","35","VRB","17","6",,,,,,,,,,,,,,,,,,,,,,,,,,,,,,,,,,,,,"MET09603/14/20 07:51:02 METAR KNYC 141251Z VRB05G15KT 10SM CLR 07/M06 A3032 RMK AO2 SLP258 T00671061 $","FM-15","7",,,,,,,,,,,,,,,,,,,,,,,,,,,,
"72505394728","2020-03-14T08:51:00","FM-15","7",,,,,,,,,,,,,,,,,,,,,,,,,,,,,,,,,,,,,,"30.31","20","45","0.00",,,,"37","30.29","CLR:00","30.14","10.00","36","VRB",,"6",,,,,,,,,,,,,,,,,,,,,,,,,,,,,,,,,,,,,"MET10203/14/20 08:51:02 METAR KNYC 141351Z VRB05KT 10SM CLR 07/M07 A3031 RMK AO2 SLP257 T00721067 $ RTX FIBI","FM-15","7",,,,,,,,,,,,,,,,,,,,,,,,,,,,
"72505394728","2020-03-14T09:51:00","FM-15","7",,,,,,,,,,,,,,,,,,,,,,,,,,,,,,,,,,,,,,"30.33","19","46","0.00",,"-0.01","3","34","30.30","CLR:00","30.16","10.00","36","VRB","18","8",,,,,,,,,,,,,,,,,,,,,,,,,,,,,,,,,,,,,"MET10203/14/20 09:51:02 METAR KNYC 141451Z 27007G16KT 10SM CLR 08/M07 A3033 RMK AO2 SLP262 T00781072 53004 $","FM-15","7",,,,,,,,,,,,,,,,,,,,,,,,,,,,
"72505394728","2020-03-14T10:51:00","FM-15","7",,,,,,,,,,,,,,,,,,,,,,,,,,,,,,,,,,,,,,"30.33","19","49","0.00",,,,"31","30.31","CLR:00","30.16","10.00","38","290","17","7",,,,,,,,,,,,,,,,,,,,,,,,,,,,,,,,,,,,,"MET09603/14/20 10:51:02 METAR KNYC 141551Z 29006G15KT 10SM CLR 09/M07 A3033 RMK AO2 SLP263 T00941072 $","FM-15","7",,,,,,,,,,,,,,,,,,,,,,,,,,,,
"72505394728","2020-03-14T11:51:00","FM-15","7",,,,,,,,,,,,,,,,,,,,,,,,,,,,,,,,,,,,,,"30.34","20","52","0.00",,,,"28","30.32","CLR:00","30.17","10.00","40","280",,"6",,,,,,,,,,,,,,,,,,,,,,,,,,,,,,,,,,,,,"MET09303/14/20 11:51:02 METAR KNYC 141651Z 28005KT 10SM CLR 11/M07 A3034 RMK AO2 SLP267 T01111067 $","FM-15","7",,,,,,,,,,,,,,,,,,,,,,,,,,,,
"72505394728","2020-03-14T12:51:00","FM-15","7",,,,,,,,,,,,,,,,,,,,,,,,,,,,,,,,,,,,,,"30.32","20","53","0.00",,"+0.01","8","27","30.30","CLR:00","30.15","10.00","40","290",,"8",,,,,,,,,,,,,,,,,,,,,,,,,,,,,,,,,,,,,"MET11103/14/20 12:51:02 METAR KNYC 141751Z 29007KT 10SM CLR 12/M07 A3032 RMK AO2 SLP260 T01171067 10117 20061 58002 $","FM-15","7",,,,,,,,,,,,,,,,,,,,,,,,,,,,
"72505394728","2020-03-14T13:51:00","FM-15","7",,,,,,,,,,,,,,,,,,,,,,,,,,,,,,,,,,,,,,"30.31","20","53","0.00",,,,"27","30.29","CLR:00","30.14","10.00","40","270",,"9",,,,,,,,,,,,,,,,,,,,,,,,,,,,,,,,,,,,,"MET09303/14/20 13:51:02 METAR KNYC 141851Z 27008KT 10SM CLR 12/M07 A3031 RMK AO2 SLP257 T01171067 $","FM-15","7",,,,,,,,,,,,,,,,,,,,,,,,,,,,
"72505394728","2020-03-14T14:51:00","FM-15","7",,,,,,,,,,,,,,,,,,,,,,,,,,,,,,,,,,,,,,"30.30","20","55","0.00",,,,"25","30.28","CLR:00","30.13","10.00","41","290",,"7",,,,,,,,,,,,,,,,,,,,,,,,,,,,,,,,,,,,,"MET09703/14/20 14:51:02 METAR KNYC 141951Z 29006KT 10SM CLR 13/M07 A3030 RMK AO2 SLP253 T01281067 $ RTX","FM-15","7",,,,,,,,,,,,,,,,,,,,,,,,,,,,
"72505394728","2020-03-14T15:51:00","FM-15","7",,,,,,,,,,,,,,,,,,,,,,,,,,,,,,,,,,,,,,"30.31","19","55","0.00",,"+0.01","5","24","30.29","CLR:00","30.14","10.00","41","310","16","11",,,,,,,,,,,,,,,,,,,,,,,,,,,,,,,,,,,,,"MET10203/14/20 15:51:02 METAR KNYC 142051Z 31010G14KT 10SM CLR 13/M07 A3031 RMK AO2 SLP257 T01281072 55003 $","FM-15","7",,,,,,,,,,,,,,,,,,,,,,,,,,,,
"72505394728","2020-03-14T16:51:00","FM-15","7",,,,,,,,,,,,,,,,,,,,,,,,,,,,,,,,,,,,,,"30.34","20","53","0.00",,,,"27","30.32","CLR:00","30.17","10.00","40","VRB",,"3",,,,,,,,,,,,,,,,,,,,,,,,,,,,,,,,,,,,,"MET09303/14/20 16:51:02 METAR KNYC 142151Z VRB03KT 10SM CLR 12/M07 A3034 RMK AO2 SLP267 T01171067 $","FM-15","7",,,,,,,,,,,,,,,,,,,,,,,,,,,,
"72505394728","2020-03-14T17:51:00","FM-15","7",,,,,,,,,,,,,,,,,,,,,,,,,,,,,,,,,,,,,,"30.34","20","51","0.00",,,,"29","30.32","CLR:00","30.17","10.00","39","300",,"8",,,,,,,,,,,,,,,,,,,,,,,,,,,,,,,,,,,,,"MET09303/14/20 17:51:02 METAR KNYC 142251Z 30007KT 10SM CLR 11/M07 A3034 RMK AO2 SLP266 T01061067 $","FM-15","7",,,,,,,,,,,,,,,,,,,,,,,,,,,,
"72505394728","2020-03-14T18:51:00","FM-15","7",,,,,,,,,,,,,,,,,,,,,,,,,,,,,,,,,,,,,,"30.35","21","50","0.00",,"-0.03","1","32","30.32","OVC:08 120","30.18","10.00","39","VRB",,"3",,,,,,,,,,,,,,,,,,,,,,,,,,,,,,,,,,,,,"MET11403/14/20 18:51:02 METAR KNYC 142351Z VRB03KT 10SM OVC120 10/M06 A3035 RMK AO2 SLP268 T01001061 10139 20100 51011 $","FM-15","7",,,,,,,,,,,,,,,,,,,,,,,,,,,,
"72505394728","2020-03-14T19:51:00","FM-15","7",,,,,,,,,,,,,,,,,,,,,,,,,,,,,,,,,,,,,,"30.36","20","50","0.00",,,,"30","30.34","OVC:08 110","30.19","10.00","39","300","16","10",,,,,,,,,,,,,,,,,,,,,,,,,,,,,,,,,,,,,"MET09903/14/20 19:51:01 METAR KNYC 150051Z 30009G14KT 10SM OVC110 10/M07 A3036 RMK AO2 SLP274 T01001067 $","FM-15","7",,,,,,,,,,,,,,,,,,,,,,,,,,,,
"72505394728","2020-03-14T20:51:00","FM-15","7",,,,,,,,,,,,,,,,,,,,,,,,,,,,,,,,,,,,,,"30.39","20","48","0.00",,,,"33","30.37","OVC:08 95","30.22","10.00","37","VRB",,"5",,,,,,,,,,,,,,,,,,,,,,,,,,,,,,,,,,,,,"MET09603/14/20 20:51:01 METAR KNYC 150151Z VRB04KT 10SM OVC095 09/M07 A3039 RMK AO2 SLP283 T00891067 $","FM-15","7",,,,,,,,,,,,,,,,,,,,,,,,,,,,
"72505394728","2020-03-14T21:51:00","FM-15","7",,,,,,,,,,,,,,,,,,,,,,,,,,,,,,,,,,,,,,"30.39","21","47","0.00",,"-0.04","1","36","30.37","OVC:08 95","30.22","10.00","37","VRB",,"8",,,,,,,,,,,,,,,,,,,,,,,,,,,,,,,,,,,,,"MET10203/14/20 21:51:01 METAR KNYC 150251Z 33007KT 10SM OVC095 08/M06 A3039 RMK AO2 SLP283 T00831061 51015 $","FM-15","7",,,,,,,,,,,,,,,,,,,,,,,,,,,,
"72505394728","2020-03-14T22:51:00","FM-15","7",,,,,,,,,,,,,,,,,,,,,,,,,,,,,,,,,,,,,,"30.39","21","46","0.00",,,,"37","30.37","OVC:08 90","30.22","10.00","37","VRB",,"7",,,,,,,,,,,,,,,,,,,,,,,,,,,,,,,,,,,,,"MET09603/14/20 22:51:02 METAR KNYC 150351Z VRB06KT 10SM OVC090 08/M06 A3039 RMK AO2 SLP284 T00781061 $","FM-15","7",,,,,,,,,,,,,,,,,,,,,,,,,,,,
"72505394728","2020-03-14T23:51:00","FM-15","7",,,,,,,,,,,,,,,,,,,,,,,,,,,,,,,,,,,,,,"30.39","22","45","0.00",,,,"40","30.37","OVC:08 80","30.22","10.00","36","290",,"7",,,,,,,,,,,,,,,,,,,,,,,,,,,,,,,,,,,,,"MET10603/14/20 23:51:02 METAR KNYC 150451Z 29006KT 10SM OVC080 07/M06 A3039 RMK AO2 SLP284 T00721056 401390061 $","FM-15","7",,,,,,,,,,,,,,,,,,,,,,,,,,,,
"72505394728","2020-03-14T23:59:00","SOD  ","6",,,,,,,,,,,,,,,,"50",,,"30.14",,"7.3","0","8.4","15","57","43","310","30","0.00","0","0.0","300","18",,,,,,,,,,,,,,,,,,,,,,,,,,,,,,,,,,,,,,,,,,,,,,,,,,,,,,,,,"SOD74324 HR PRECIPITATION (IN): 0.00 SNOW DEPTH (IN):0     24 HR SNOWFALL (IN):0.0  24 HR MAX TEMP (F): 5724 HR MIN TEMP (F): 43AVERAGE STATION PRESSURE(D):30.142 MINIMUM SEA LEVEL PRESSURE:30.14 TIME OF OCCURRENCE:0019 PEAK WIND SPEED (MPH): 30 PEAK WIND DIR (DEG):310 PEAK WIND TIME (LST):      FASTEST 2MIN SPEED (MPH): 18FASTEST 2MIN DIR (DEG):300 FASTEST 2MIN TIME (LST):     AVERAGE WIND SPEED (MPH): 7.3 24 HR AVG TEMP (F): 50DEPART FROM NORMAL:  8  HEATING DEGREE DAYS: 15 COOLING DEGREE DAYS:  0 LATEST DAY MAX TEMP (0700-1900 LST): 57 LATEST NIGHT MIN TEMP(1900-0800 LST):43 HOURLY INCREMENTAL PRECIPITATION VALUES (IN):0.00 0.00 0.00 0.00 0.00 0.00 0.00 0.00 0.00 0.00 0.00 0.00 0.00 0.00 0.00 0.00 0.00 0.00 0.00 0.00 0.00 0.00 0.00 0.00","SOD  ","6",,,,,,,,,,,,,,,,,,,,,,,,,"0608","1802",,
"72505394728","2020-03-15T00:51:00","FM-15","7",,,,,,,,,,,,,,,,,,,,,,,,,,,,,,,,,,,,,,"30.41","24","45","0.00",,"-0.02","3","44","30.38","SCT:04 80 OVC:08 100","30.24","10.00","37","VRB",,"3",,,,,,,,,,,,,,,,,,,,,,,,,,,,,,,,,,,,,"MET12103/15/20 00:51:02 METAR KNYC 150551Z VRB03KT 10SM SCT080 OVC100 07/M04 A3041 RMK AO2 SLP289 T00721044 10100 20072 53006 $","FM-15","7",,,,,,,,,,,,,,,,,,,,,,,,,,,,
"72505394728","2020-03-15T01:51:00","FM-15","7",,,,,,,,,,,,,,,,,,,,,,,,,,,,,,,,,,,,,,"30.40","24","44","0.00",,,,"45","30.37","FEW:02 60 OVC:08 75","30.23","10.00","36","VRB",,"6",,,,,,,,,,,,,,,,,,,,,,,,,,,,,,,,,,,,,"MET10703/15/20 01:51:02 METAR KNYC 150651Z VRB05KT 10SM FEW060 OVC075 07/M04 A3040 RMK AO2 SLP285 T00671044 $ RTX","FM-15","7",,,,,,,,,,,,,,,,,,,,,,,,,,,,
"72505394728","2020-03-15T02:51:00","FM-15","7",,,,,,,,,,,,,,,,,,,,,,,,,,,,,,,,,,,,,,"30.38","24","44","0.00",,,,"45","30.35","OVC:08 85","30.21","10.00","36","040",,"5",,,,,,,,,,,,,,,,,,,,,,,,,,,,,,,,,,,,,"MET09603/15/20 02:51:02 METAR KNYC 150751Z 04004KT 10SM OVC085 07/M04 A3038 RMK AO2 SLP278 T00671044 $","FM-15","7",,,,,,,,,,,,,,,,,,,,,,,,,,,,
"72505394728","2020-03-15T03:51:00","FM-15","7",,,,,,,,,,,,,,,,,,,,,,,,,,,,,,,,,,,,,,"30.39","23","43","0.00",,"+0.01","5","45","30.37","FEW:02 75 OVC:08 90","30.22","10.00","35","VRB",,"3",,,,,,,,,,,,,,,,,,,,,,,,,,,,,,,,,,,,,"MET10903/15/20 03:51:02 METAR KNYC 150851Z VRB03KT 10SM FEW075 OVC090 06/M05 A3039 RMK AO2 SLP283 T00611050 55005 $","FM-15","7",,,,,,,,,,,,,,,,,,,,,,,,,,,,
"72505394728","2020-03-15T04:51:00","FM-15","7",,,,,,,,,,,,,,,,,,,,,,,,,,,,,,,,,,,,,,"30.41","24","43","0.00",,,,"47","30.39","OVC:08 90","30.24","10.00","36","VRB",,"5",,,,,,,,,,,,,,,,,,,,,,,,,,,,,,,,,,,,,"MET09603/15/20 04:51:02 METAR KNYC 150951Z VRB04KT 10SM OVC090 06/M04 A3041 RMK AO2 SLP290 T00611044 $","FM-15","7",,,,,,,,,,,,,,,,,,,,,,,,,,,,
"72505394728","2020-03-15T05:51:00","FM-15","7",,,,,,,,,,,,,,,,,,,,,,,,,,,,,,,,,,,,,,"30.43","24","43","0.00",,,,"47","30.41","OVC:08 100","30.26","10.00","36","010",,"3",,,,,,,,,,,,,,,,,,,,,,,,,,,,,,,,,,,,,"MET09603/15/20 05:51:02 METAR KNYC 151051Z 01003KT 10SM OVC100 06/M04 A3043 RMK AO2 SLP298 T00611044 $","FM-15","7",,,,,,,,,,,,,,,,,,,,,,,,,,,,
"72505394728","2020-03-15T06:51:00","FM-15","7",,,,,,,,,,,,,,,,,,,,,,,,,,,,,,,,,,,,,,"30.46","24","42","0.00",,"0.07","9","49","30.44",,,"10.00",,"050",,"8",,,,,,,,,,,,,,,,,,,,,,,,,,,,,,,,,,,,,"MET04803/15/20 06:51:02 METAR KNYC 151151Z 05007KT RMK","FM-15","7",,,,,,,,,,,,,,,,,,,,,,,,,,,,
"72505394728","2020-03-15T07:51:00","FM-15","7",,,,,,,,,,,,,,,,,,,,,,,,,,,,,,,,,,,,,,"30.48","24","42","0.00",,,,"49","30.46","OVC:08 90","30.31","10.00","35","340","17","11",,,,,,,,,,,,,,,,,,,,,,,,,,,,,,,,,,,,,"MET09903/15/20 07:51:02 METAR KNYC 151251Z 34010G15KT 10SM OVC090 06/M04 A3048 RMK AO2 SLP314 T00561044 $","FM-15","7",,,,,,,,,,,,,,,,,,,,,,,,,,,,
"72505394728","2020-03-15T08:51:00","FM-15","7",,,,,,,,,,,,,,,,,,,,,,,,,,,,,,,,,,,,,,"30.48","23","42","0.00",,,,"47","30.46","OVC:08 95","30.31","10.00","35","040",,"11",,,,,,,,,,,,,,,,,,,,,,,,,,,,,,,,,,,,,"MET09603/15/20 08:51:02 METAR KNYC 151351Z 04010KT 10SM OVC095 06/M05 A3048 RMK AO2 SLP315 T00561050 $","FM-15","7",,,,,,,,,,,,,,,,,,,,,,,,,,,,
"72505394728","2020-03-15T09:51:00","FM-15","7",,,,,,,,,,,,,,,,,,,,,,,,,,,,,,,,,,,,,,"30.48","24","46","0.00",,"-0.02","0","42","30.46","FEW:02 100","30.31","10.00","37","VRB",,"8",,,,,,,,,,,,,,,,,,,,,,,,,,,,,,,,,,,,,"MET10203/15/20 09:51:02 METAR KNYC 151451Z 05007KT 10SM FEW100 08/M04 A3048 RMK AO2 SLP314 T00781044 50007 $","FM-15","7",,,,,,,,,,,,,,,,,,,,,,,,,,,,
"72505394728","2020-03-15T10:51:00","FM-15","7",,,,,,,,,,,,,,,,,,,,,,,,,,,,,,,,,,,,,,"30.48","20","48","0.00",,,,"33","30.45","SCT:04 100","30.31","10.00","37",,,,,,,,,,,,,,,,,,,,,,,,,,,,,,,,,,,,,,,,"MET09603/15/20 10:51:02 METAR KNYC 151551Z      KT 10SM SCT100 09/M07 A3048 RMK AO2 SLP313 T00891067 $","FM-15","7",,,,,,,,,,,,,,,,,,,,,,,,,,,,
"72505394728","2020-03-15T11:51:00","FM-15","7",,,,,,,,,,,,,,,,,,,,,,,,,,,,,,,,,,,,,,"30.47","20","51","0.00",,,,"29","30.45","CLR:00","30.30","10.00","39","VRB",,"8",,,,,,,,,,,,,,,,,,,,,,,,,,,,,,,,,,,,,"MET09303/15/20 11:51:02 METAR KNYC 151651Z 05007KT 10SM CLR 11/M07 A3047 RMK AO2 SLP311 T01061067 $","FM-15","7",,,,,,,,,,,,,,,,,,,,,,,,,,,,
"72505394728","2020-03-15T12:51:00","FM-15","7",,,,,,,,,,,,,,,,,,,,,,,,,,,,,,,,,,,,,,"30.45","18","52","0.00",,"+0.03","8","26","30.42","CLR:00","30.28","10.00","39","030",,"11",,,,,,,,,,,,,,,,,,,,,,,,,,,,,,,,,,,,,"MET11103/15/20 12:51:02 METAR KNYC 151751Z 03010KT 10SM CLR 11/M08 A3045 RMK AO2 SLP303 T01111078 10117 20056 58011 $","FM-15","7",,,,,,,,,,,,,,,,,,,,,,,,,,,,
"72505394728","2020-03-15T13:51:00","FM-15","7",,,,,,,,,,,,,,,,,,,,,,,,,,,,,,,,,,,,,,"30.42","18","52","0.00",,,,"26","30.40","CLR:00","30.25","10.00","39","000",,"0",,,,,,,,,,,,,,,,,,,,,,,,,,,,,,,,,,,,,"MET09303/15/20 13:51:02 METAR KNYC 151851Z 00000KT 10SM CLR 11/M08 A3042 RMK AO2 SLP295 T01111078 $","FM-15","7",,,,,,,,,,,,,,,,,,,,,,,,,,,,
"72505394728","2020-03-15T14:25:00","FM-16","7",,,,,,,,,,,,,,,,,,,,,,,,,,,,,,,,,,,,,,"30.42","17","53",,"HZ:7 |FU |HZ",,,"24",,"CLR:00","30.25","1.25","39","VRB",,"5",,,,,,,,,,,,,,,,,,,,,,,,,,,,,,,,,,,,,"MET09203/15/20 14:25:02 SPECI KNYC 151925Z VRB04KT 1 1/4SM HZ CLR 12/M08 A3042 RMK AO2 T01171083 $","FM-16","7",,,,,,,,,,,,,,,,,,,,,,,,,,,,
"72505394728","2020-03-15T14:33:00","FM-16","7",,,,,,,,,,,,,,,,,,,,,,,,,,,,,,,,,,,,,,"30.42","17","52",,,,,"25",,"CLR:00","30.25","10.00","39","000",,"0",,,,,,,,,,,,,,,,,,,,,,,,,,,,,,,,,,,,,"MET09503/15/20 14:33:02 SPECI KNYC 151933Z 00000KT 10SM CLR 11/M08 A3042 RMK AO2 T01111083 $ RTX FIBI","FM-16","7",,,,,,,,,,,,,,,,,,,,,,,,,,,,
"72505394728","2020-03-15T14:51:00","FM-15","7",,,,,,,,,,,,,,,,,,,,,,,,,,,,,,,,,,,,,,"30.42","18","54","0.00",,,,"24","30.40","CLR:00","30.25","10.00","40","040",,"6",,,,,,,,,,,,,,,,,,,,,,,,,,,,,,,,,,,,,"MET09303/15/20 14:51:02 METAR KNYC 151951Z 04005KT 10SM CLR 12/M08 A3042 RMK AO2 SLP293 T01221078 $","FM-15","7",,,,,,,,,,,,,,,,,,,,,,,,,,,,
"72505394728","2020-03-15T15:51:00","FM-15","7",,,,,,,,,,,,,,,,,,,,,,,,,,,,,,,,,,,,,,"30.42","17","52","0.00",,"+0.03","5","25","30.40","CLR:00","30.25","10.00","39","050",,"7",,,,,,,,,,,,,,,,,,,,,,,,,,,,,,,,,,,,,"MET09903/15/20 15:51:02 METAR KNYC 152051Z 05006KT 10SM CLR 11/M08 A3042 RMK AO2 SLP293 T01111083 55010 $","FM-15","7",,,,,,,,,,,,,,,,,,,,,,,,,,,,
"72505394728","2020-03-15T16:51:00","FM-15","7",,,,,,,,,,,,,,,,,,,,,,,,,,,,,,,,,,,,,,"30.42","16","52","0.00",,,,"24","30.40","CLR:00","30.25","10.00","39","VRB",,"5",,,,,,,,,,,,,,,,,,,,,,,,,,,,,,,,,,,,,"MET09303/15/20 16:51:02 METAR KNYC 152151Z VRB04KT 10SM CLR 11/M09 A3042 RMK AO2 SLP295 T01111089 $","FM-15","7",,,,,,,,,,,,,,,,,,,,,,,,,,,,
"72505394728","2020-03-15T17:51:00","FM-15","7",,,,,,,,,,,,,,,,,,,,,,,,,,,,,,,,,,,,,,"30.44","16","50","0.00",,,,"26","30.42","CLR:00","30.27","10.00","38","000",,"0",,,,,,,,,,,,,,,,,,,,,,,,,,,,,,,,,,,,,"MET09303/15/20 17:51:02 METAR KNYC 152251Z 00000KT 10SM CLR 10/M09 A3044 RMK AO2 SLP301 T01001089 $","FM-15","7",,,,,,,,,,,,,,,,,,,,,,,,,,,,
"72505394728","2020-03-15T18:51:00","FM-15","7",,,,,,,,,,,,,,,,,,,,,,,,,,,,,,,,,,,,,,"30.46","17","48","0.00",,"-0.04","3","29","30.44","CLR:00","30.29","10.00","37","VRB",,"5",,,,,,,,,,,,,,,,,,,,,,,,,,,,,,,,,,,,,"MET12003/15/20 18:51:02 METAR KNYC 152351Z VRB04KT 10SM CLR 09/M08 A3046 RMK AO2 SLP308 T00891083 10122 20089 53015 $ RTX FIBI","FM-15","7",,,,,,,,,,,,,,,,,,,,,,,,,,,,
"72505394728","2020-03-15T19:51:00","FM-15","7",,,,,,,,,,,,,,,,,,,,,,,,,,,,,,,,,,,,,,"30.49","11","48","0.00",,,,"22","30.47","CLR:00","30.32","10.00","35","VRB",,"6",,,,,,,,,,,,,,,,,,,,,,,,,,,,,,,,,,,,,"MET09303/15/20 19:51:01 METAR KNYC 160051Z VRB05KT 10SM CLR 09/M12 A3049 RMK AO2 SLP317 T00891117 $","FM-15","7",,,,,,,,,,,,,,,,,,,,,,,,,,,,
"72505394728","2020-03-15T20:51:00","FM-15","7",,,,,,,,,,,,,,,,,,,,,,,,,,,,,,,,,,,,,,"30.51","*","*","0.00",,,,"*","30.49","CLR:00","30.34","10.00","*","040","20","10",,,,,,,,,,,,,,,,,,,,,,,,,,,,,,,,,,,,,"MET10403/15/20 20:51:01 METAR KNYC 160151Z 04009G17KT 10SM CLR 08/M13 A3051 RMK AO2 SLP324 T         0781128 $","FM-15","7",,,,,,,,,,,,,,,,,,,,,,,,,,,,
"72505394728","2020-03-15T21:51:00","FM-15","7",,,,,,,,,,,,,,,,,,,,,,,,,,,,,,,,,,,,,,"30.53","8","44","0.00",,"-0.07","1","23","30.51","CLR:00","30.36","10.00","33","020",,"8",,,,,,,,,,,,,,,,,,,,,,,,,,,,,,,,,,,,,"MET09903/15/20 21:51:01 METAR KNYC 160251Z 02007KT 10SM CLR 07/M13 A3053 RMK AO2 SLP331 T00671133 51023 $","FM-15","7",,,,,,,,,,,,,,,,,,,,,,,,,,,,
"72505394728","2020-03-15T22:51:00","FM-15","7",,,,,,,,,,,,,,,,,,,,,,,,,,,,,,,,,,,,,,"30.54","8","42","0.00",,,,"24","30.52",,,"10.00",,"VRB",,"7",,,,,,,,,,,,,,,,,,,,,,,,,,,,,,,,,,,,,"MET04803/15/20 22:51:02 METAR KNYC 160351Z VRB06KT RMK","FM-15","7",,,,,,,,,,,,,,,,,,,,,,,,,,,,
"72505394728","2020-03-15T23:51:00","FM-15","7",,,,,,,,,,,,,,,,,,,,,,,,,,,,,,,,,,,,,,"30.55","9","41","0.00",,,,"27","30.53","CLR:00","30.38","10.00","31","VRB",,"8",,,,,,,,,,,,,,,,,,,,,,,,,,,,,,,,,,,,,"MET10303/15/20 23:51:02 METAR KNYC 160451Z 03007KT 10SM CLR 05/M13 A3055 RMK AO2 SLP337 T00501128 401220050 $","FM-15","7",,,,,,,,,,,,,,,,,,,,,,,,,,,,
"72505394728","2020-03-15T23:59:00","SOD  ","6",,,,,,,,,,,,,,,,"47",,,"30.28",,"6.3","0","5.0","18","54","40","020","22","0.00","0","0.0","030","15","HZ",,,,,,,,,,,,,,,,,,,,,,,,,,,,,,,,,,,,,,,,,,,,,,,,,,,,,,,,"SOD76024 HR PRECIPITATION (IN): 0.00 SNOW DEPTH (IN):0     24 HR SNOWFALL (IN):0.0  WEATHER(CODE):8  24 HR MAX TEMP (F): 5424 HR MIN TEMP (F): 40AVERAGE STATION PRESSURE(D):30.276 MINIMUM SEA LEVEL PRESSURE:30.35 TIME OF OCCURRENCE:0323 PEAK WIND SPEED (MPH): 22 PEAK WIND DIR (DEG): 20 PEAK WIND TIME (LST):      FASTEST 2MIN SPEED (MPH): 15FASTEST 2MIN DIR (DEG): 30 FASTEST 2MIN TIME (LST):     AVERAGE WIND SPEED (MPH): 6.3 24 HR AVG TEMP (F): 47DEPART FROM NORMAL:  5  HEATING DEGREE DAYS: 18 COOLING DEGREE DAYS:  0 LATEST DAY MAX TEMP (0700-1900 LST): 54 LATEST NIGHT MIN TEMP(1900-0800 LST):42 HOURLY INCREMENTAL PRECIPITATION VALUES (IN):0.00 0.00 0.00 0.00 0.00 0.00 0.00 0.00 0.00 0.00 0.00 0.00 0.00 0.00 0.00 0.00 0.00 0.00 0.00 0.00 0.00 0.00 0.00 0.00","SOD  ","6",,,,,,,,,,,,,,,,,,,,,,,,,"0606","1803",,
"72505394728","2020-03-16T00:51:00","FM-15","7",,,,,,,,,,,,,,,,,,,,,,,,,,,,,,,,,,,,,,"30.56","12","40","0.00",,"-0.03","3","32","30.53","CLR:00","30.39","10.00","31","VRB","16","6",,,,,,,,,,,,,,,,,,,,,,,,,,,,,,,,,,,,,"MET11403/16/20 00:51:02 METAR KNYC 160551Z VRB05G14KT 10SM CLR 04/M11 A3056 RMK AO2 SLP340 T00441111 10094 20039 53009 $","FM-15","7",,,,,,,,,,,,,,,,,,,,,,,,,,,,
"72505394728","2020-03-16T01:51:00","FM-15","7",,,,,,,,,,,,,,,,,,,,,,,,,,,,,,,,,,,,,,"30.56","11","38","0.00",,,,"33","30.54","CLR:00","30.39","10.00","29","050",,"7",,,,,,,,,,,,,,,,,,,,,,,,,,,,,,,,,,,,,"MET09303/16/20 01:51:02 METAR KNYC 160651Z 05006KT 10SM CLR 03/M12 A3056 RMK AO2 SLP342 T00331117 $","FM-15","7",,,,,,,,,,,,,,,,,,,,,,,,,,,,
"72505394728","2020-03-16T02:51:00","FM-15","7",,,,,,,,,,,,,,,,,,,,,,,,,,,,,,,,,,,,,,"30.57","13","37","0.00",,,,"37","30.54","CLR:00","30.40","10.00","29","050","18","9",,,,,,,,,,,,,,,,,,,,,,,,,,,,,,,,,,,,,"MET09603/16/20 02:51:02 METAR KNYC 160751Z 05008G16KT 10SM CLR 03/M11 A3057 RMK AO2 SLP343 T00281106 $","FM-15","7",,,,,,,,,,,,,,,,,,,,,,,,,,,,
"72505394728","2020-03-16T03:51:00","FM-15","7",,,,,,,,,,,,,,,,,,,,,,,,,,,,,,,,,,,,,,"30.57","10","36","0.00",,"-0.01","2","34","30.55","CLR:00","30.40","10.00","28","060",,"9",,,,,,,,,,,,,,,,,,,,,,,,,,,,,,,,,,,,,"MET10803/16/20 03:51:02 METAR KNYC 160851Z 06008KT 10SM CLR 02/M12 A3057 RMK AO2 SLP344 T00221122 52004 $ RTX FIBI","FM-15","7",,,,,,,,,,,,,,,,,,,,,,,,,,,,
"72505394728","2020-03-16T04:51:00","FM-15","7",,,,,,,,,,,,,,,,,,,,,,,,,,,,,,,,,,,,,,"30.59","9","35","0.00",,,,"34","30.57","CLR:00","30.42","10.00","27","040",,"11",,,,,,,,,,,,,,,,,,,,,,,,,,,,,,,,,,,,,"MET09303/16/20 04:51:02 METAR KNYC 160951Z 04010KT 10SM CLR 02/M13 A3059 RMK AO2 SLP352 T00171128 $","FM-15","7",,,,,,,,,,,,,,,,,,,,,,,,,,,,
"72505394728","2020-03-16T05:51:00","FM-15","7",,,,,,,,,,,,,,,,,,,,,,,,,,,,,,,,,,,,,,"30.60","7","33","0.00",,,,"33","30.58","CLR:00","30.43","10.00","26","050","17","10",,,,,,,,,,,,,,,,,,,,,,,,,,,,,,,,,,,,,"MET09603/16/20 05:51:02 METAR KNYC 161051Z 05009G15KT 10SM CLR 01/M14 A3060 RMK AO2 SLP354 T00061139 $","FM-15","7",,,,,,,,,,,,,,,,,,,,,,,,,,,,
"72505394728","2020-03-16T06:51:00","FM-15","7",,,,,,,,,,,,,,,,,,,,,,,,,,,,,,,,,,,,,,"30.61","7","33","0.00",,"-0.04","1","33","30.59","CLR:00","30.44","10.00","26","050",,"10",,,,,,,,,,,,,,,,,,,,,,,,,,,,,,,,,,,,,"MET12003/16/20 06:51:02 METAR KNYC 161151Z 05009KT 10SM CLR 01/M14 A3061 RMK AO2 SLP358 T00061139 10044 20006 51014 $ RTX FIBI","FM-15","7",,,,,,,,,,,,,,,,,,,,,,,,,,,,
"72505394728","2020-03-16T07:51:00","FM-15","7",,,,,,,,,,,,,,,,,,,,,,,,,,,,,,,,,,,,,,"30.63","11","34","0.00",,,,"38","30.60","CLR:00","30.46","10.00","27","050","21","13",,,,,,,,,,,,,,,,,,,,,,,,,,,,,,,,,,,,,"MET09603/16/20 07:51:02 METAR KNYC 161251Z 05011G18KT 10SM CLR 01/M12 A3063 RMK AO2 SLP364 T00111117 $","FM-15","7",,,,,,,,,,,,,,,,,,,,,,,,,,,,
"72505394728","2020-03-16T08:51:00","FM-15","7",,,,,,,,,,,,,,,,,,,,,,,,,,,,,,,,,,,,,,"30.63","12","36","0.00",,,,"37","30.60","CLR:00","30.46","10.00","28","060","21","15",,,,,,,,,,,,,,,,,,,,,,,,,,,,,,,,,,,,,"MET09603/16/20 08:51:02 METAR KNYC 161351Z 06013G18KT 10SM CLR 02/M11 A3063 RMK AO2 SLP364 T00221111 $","FM-15","7",,,,,,,,,,,,,,,,,,,,,,,,,,,,
"72505394728","2020-03-16T09:51:00","FM-15","7",,,,,,,,,,,,,,,,,,,,,,,,,,,,,,,,,,,,,,"30.64","14","37","0.00",,"-0.03","1","39","30.62","CLR:00","30.47","10.00","30","040",,"10",,,,,,,,,,,,,,,,,,,,,,,,,,,,,,,,,,,,,"MET10303/16/20 09:51:02 METAR KNYC 161451Z 04009KT 10SM CLR 03/M10 A3064 RMK AO2 SLP368 T00281100 51010 $ RTX","FM-15","7",,,,,,,,,,,,,,,,,,,,,,,,,,,,
"72505394728","2020-03-16T10:51:00","FM-15","7",,,,,,,,,,,,,,,,,,,,,,,,,,,,,,,,,,,,,,"30.63","16","39","0.00",,,,"39","30.61","CLR:00","30.46","10.00","31","040",,"11",,,,,,,,,,,,,,,,,,,,,,,,,,,,,,,,,,,,,"MET09303/16/20 10:51:02 METAR KNYC 161551Z 04010KT 10SM CLR 04/M09 A3063 RMK AO2 SLP365 T00391089 $","FM-15","7",,,,,,,,,,,,,,,,,,,,,,,,,,,,
"72505394728","2020-03-16T11:51:00","FM-15","7",,,,,,,,,,,,,,,,,,,,,,,,,,,,,,,,,,,,,,"30.62","18","43","0.00",,,,"37","30.60","CLR:00","30.45","10.00","34","050",,"7",,,,,,,,,,,,,,,,,,,,,,,,,,,,,,,,,,,,,"MET09303/16/20 11:51:02 METAR KNYC 161651Z 05006KT 10SM CLR 06/M08 A3062 RMK AO2 SLP361 T00611078 $","FM-15","7",,,,,,,,,,,,,,,,,,,,,,,,,,,,
"72505394728","2020-03-16T12:51:00","FM-15","7",,,,,,,,,,,,,,,,,,,,,,,,,,,,,,,,,,,,,,"30.59","21","45","0.00",,"+0.05","8","39","30.56","CLR:00","30.42","10.00","36","070",,"7",,,,,,,,,,,,,,,,,,,,,,,,,,,,,,,,,,,,,"MET11103/16/20 12:51:02 METAR KNYC 161751Z 07006KT 10SM CLR 07/M06 A3059 RMK AO2 SLP350 T00721061 10072 20006 58018 $","FM-15","7",,,,,,,,,,,,,,,,,,,,,,,,,,,,
"72505394728","2020-03-16T13:51:00","FM-15","7",,,,,,,,,,,,,,,,,,,,,,,,,,,,,,,,,,,,,,"30.55","24","45","0.00",,,,"44","30.53","FEW:02 35","30.38","10.00","37","080",,"8",,,,,,,,,,,,,,,,,,,,,,,,,,,,,,,,,,,,,"MET09603/16/20 13:51:02 METAR KNYC 161851Z 08007KT 10SM FEW035 07/M04 A3055 RMK AO2 SLP338 T00721044 $","FM-15","7",,,,,,,,,,,,,,,,,,,,,,,,,,,,
"72505394728","2020-03-16T14:51:00","FM-15","7",,,,,,,,,,,,,,,,,,,,,,,,,,,,,,,,,,,,,,"30.54","26","43","0.00",,,,"51","30.52","BKN:07 37","30.37","10.00","36","060",,"7",,,,,,,,,,,,,,,,,,,,,,,,,,,,,,,,,,,,,"MET09603/16/20 14:51:02 METAR KNYC 161951Z 06006KT 10SM BKN037 06/M03 A3054 RMK AO2 SLP334 T00611033 $","FM-15","7",,,,,,,,,,,,,,,,,,,,,,,,,,,,
"72505394728","2020-03-16T15:51:00","FM-15","7",,,,,,,,,,,,,,,,,,,,,,,,,,,,,,,,,,,,,,"30.52","28","42","0.00",,"+0.07","6","58","30.49","OVC:08 31","30.35","10.00","36","VRB",,"8",,,,,,,,,,,,,,,,,,,,,,,,,,,,,,,,,,,,,"MET10203/16/20 15:51:02 METAR KNYC 162051Z 18007KT 10SM OVC031 06/M02 A3052 RMK AO2 SLP326 T00561022 56024 $","FM-15","7",,,,,,,,,,,,,,,,,,,,,,,,,,,,
"72505394728","2020-03-16T16:51:00","FM-15","7",,,,,,,,,,,,,,,,,,,,,,,,,,,,,,,,,,,,,,"30.50","27","42","0.00",,,,"55","30.47","BKN:07 35 OVC:08 42","30.33","10.00","36",,,,,,,,,,,,,,,,,,,,,,,,,,,,,,,,,,,,,,,,"MET10303/16/20 16:51:02 METAR KNYC 162151Z      KT 10SM BKN035 OVC042 06/M03 A3050 RMK AO2 SLP320 T00561028 $","FM-15","7",,,,,,,,,,,,,,,,,,,,,,,,,,,,
"72505394728","2020-03-16T17:51:00","FM-15","7",,,,,,,,,,,,,,,,,,,,,,,,,,,,,,,,,,,,,,"30.51","28","41","0.00",,,,"60","30.49","BKN:07 32 OVC:08 41","30.34","10.00","36","VRB","16","3",,,,,,,,,,,,,,,,,,,,,,,,,,,,,,,,,,,,,"MET10603/16/20 17:51:02 METAR KNYC 162251Z VRB03G14KT 10SM BKN032 OVC041 05/M02 A3051 RMK AO2 SLP324 T00501022 $","FM-15","7",,,,,,,,,,,,,,,,,,,,,,,,,,,,
"72505394728","2020-03-16T18:51:00","FM-15","7",,,,,,,,,,,,,,,,,,,,,,,,,,,,,,,,,,,,,,"30.50","28","41","0.00",,"+0.02","6","60","30.47","FEW:02 30 OVC:08 42","30.33","10.00","36","130",,"9",,,,,,,,,,,,,,,,,,,,,,,,,,,,,,,,,,,,,"MET12103/16/20 18:51:02 METAR KNYC 162351Z 13008KT 10SM FEW030 OVC042 05/M02 A3050 RMK AO2 SLP320 T00501022 10072 20044 56006 $","FM-15","7",,,,,,,,,,,,,,,,,,,,,,,,,,,,
"72505394728","2020-03-16T19:17:00","FM-16","7",,,,,,,,,,,,,,,,,,,,,,,,,,,,,,,,,,,,,,"30.49","28","41",,,,,"60",,"BKN:07 29 OVC:08 39","30.32","10.00","36","000",,"0",,,,,,,,,,,,,,,,,,,,,,,,,,,,,,,,,,,,,"MET09603/16/20 19:17:01 SPECI KNYC 170017Z 00000KT 10SM BKN029 OVC039 05/M02 A3049 RMK AO2 T00501022 $","FM-16","7",,,,,,,,,,,,,,,,,,,,,,,,,,,,
"72505394728","2020-03-16T19:51:00","FM-15","7",,,,,,,,,,,,,,,,,,,,,,,,,,,,,,,,,,,,,,"30.50","28","41","0.00",,,,"60","30.47","SCT:04 28 OVC:08 70","30.33","10.00","36","120","22","14",,,,,,,,,,,,,,,,,,,,,,,,,,,,,,,,,,,,,"MET10603/16/20 19:51:01 METAR KNYC 170051Z 12012G19KT 10SM SCT028 OVC070 05/M02 A3050 RMK AO2 SLP320 T00501022 $","FM-15","7",,,,,,,,,,,,,,,,,,,,,,,,,,,,
"72505394728","2020-03-16T20:10:00","FM-16","7",,,,,,,,,,,,,,,,,,,,,,,,,,,,,,,,,,,,,,"30.49","29","41",,,,,"62",,"BKN:07 27 BKN:07 33 OVC:08 70","30.32","10.00","36","VRB",,"5",,,,,,,,,,,,,,,,,,,,,,,,,,,,,,,,,,,,,"MET10303/16/20 20:10:01 SPECI KNYC 170110Z VRB04KT 10SM BKN027 BKN033 OVC070 05/M02 A3049 RMK AO2 T00501017 $","FM-16","7",,,,,,,,,,,,,,,,,,,,,,,,,,,,
"72505394728","2020-03-16T20:51:00","FM-15","7",,,,,,,,,,,,,,,,,,,,,,,,,,,,,,,,,,,,,,"30.48","30","41","0.00",,,,"65","30.46","BKN:07 25 OVC:08 32","30.31","10.00","37","140",,"11",,,,,,,,,,,,,,,,,,,,,,,,,,,,,,,,,,,,,"MET10303/16/20 20:51:01 METAR KNYC 170151Z 14010KT 10SM BKN025 OVC032 05/M01 A3048 RMK AO2 SLP314 T00501011 $","FM-15","7",,,,,,,,,,,,,,,,,,,,,,,,,,,,
"72505394728","2020-03-16T21:34:00","FM-16","7",,,,,,,,,,,,,,,,,,,,,,,,,,,,,,,,,,,,,,"30.47","31","41",,,,,"67",,"SCT:04 23 OVC:08 70","30.30","10.00","37","VRB",,"5",,,,,,,,,,,,,,,,,,,,,,,,,,,,,,,,,,,,,"MET09603/16/20 21:34:01 SPECI KNYC 170234Z VRB04KT 10SM SCT023 OVC070 05/M01 A3047 RMK AO2 T00501006 $","FM-16","7",,,,,,,,,,,,,,,,,,,,,,,,,,,,
"72505394728","2020-03-16T21:49:00","FM-16","6",,,,,,,,,,,,,,,,,,,,,,,,,,,,,,,,,,,,,,"30.47","30","41",,,,,"66",,"BKN:07 22 OVC:08 70","30.30","10.00","37","VRB",,"9",,,,,,,,,,,,,,,,,,,,,,,,,,,,,,,,,,,,,"MET09103/16/20 21:49:03 SPECI KNYC 170249Z 13008KT 10SM BKN022 OVC070 05/M01 A3047 RMK AO2 $ FIBI","FM-16","6",,,,,,,,,,,,,,,,,,,,,,,,,,,,
"72505394728","2020-03-16T21:51:00","FM-15","7",,,,,,,,,,,,,,,,,,,,,,,,,,,,,,,,,,,,,,"30.47","31","41","0.00",,"+0.03","8","67","30.44","BKN:07 22 OVC:08 70","30.30","10.00","37","130",,"6",,,,,,,,,,,,,,,,,,,,,,,,,,,,,,,,,,,,,"MET10903/16/20 21:51:01 METAR KNYC 170251Z 13005KT 10SM BKN022 OVC070 05/M01 A3047 RMK AO2 SLP309 T00501006 58010 $","FM-15","7",,,,,,,,,,,,,,,,,,,,,,,,,,,,
"72505394728","2020-03-16T22:51:00","FM-15","7",,,,,,,,,,,,,,,,,,,,,,,,,,,,,,,,,,,,,,"30.43","32","41","0.00",,,,"70","30.40","SCT:04 21 OVC:08 70","30.26","10.00","37","VRB",,"7",,,,,,,,,,,,,,,,,,,,,,,,,,,,,,,,,,,,,"MET10203/16/20 22:51:02 METAR KNYC 170351Z VRB06KT 10SM SCT021 OVC070 05/00 A3043 RMK AO2 SLP296 T00500000 $","FM-15","7",,,,,,,,,,,,,,,,,,,,,,,,,,,,
"72505394728","2020-03-16T23:09:00","FM-16","7",,,,,,,,,,,,,,,,,,,,,,,,,,,,,,,,,,,,,,"30.43","32","41",,,,,"70",,"BKN:07 21 OVC:08 70","30.26","10.00","37","110",,"5",,,,,,,,,,,,,,,,,,,,,,,,,,,,,,,,,,,,,"MET09503/16/20 23:09:02 SPECI KNYC 170409Z 11004KT 10SM BKN021 OVC070 05/00 A3043 RMK AO2 T00500000 $","FM-16","7",,,,,,,,,,,,,,,,,,,,,,,,,,,,
"72505394728","2020-03-16T23:51:00","FM-15","7",,,,,,,,,,,,,,,,,,,,,,,,,,,,,,,,,,,,,,"30.41","33","41","0.00",,,,"73","30.38","OVC:08 20","30.24","10.00","38","VRB",,"5",,,,,,,,,,,,,,,,,,,,,,,,,,,,,,,,,,,,,"MET10503/16/20 23:51:02 METAR KNYC 170451Z VRB04KT 10SM OVC020 05/01 A3041 RMK AO2 SLP289 T00500006 400720006 $","FM-15","7",,,,,,,,,,,,,,,,,,,,,,,,,,,,
"72505394728","2020-03-16T23:59:00","SOD  ","6",,,,,,,,,,,,,,,,"39",,,"30.36",,"8.9","0","-3.3","26","45","33","040","26","0.00","0","0.0","040","16",,,,,,,,,,,,,,,,,,,,,,,,,,,,,,,,,,,,,,,,,,,,,,,,,,,,,,,,,"SOD74324 HR PRECIPITATION (IN): 0.00 SNOW DEPTH (IN):0     24 HR SNOWFALL (IN):0.0  24 HR MAX TEMP (F): 4524 HR MIN TEMP (F): 33AVERAGE STATION PRESSURE(D):30.364 MINIMUM SEA LEVEL PRESSURE:30.38 TIME OF OCCURRENCE:2359 PEAK WIND SPEED (MPH): 26 PEAK WIND DIR (DEG): 40 PEAK WIND TIME (LST):      FASTEST 2MIN SPEED (MPH): 16FASTEST 2MIN DIR (DEG): 40 FASTEST 2MIN TIME (LST):     AVERAGE WIND SPEED (MPH): 8.9 24 HR AVG TEMP (F): 39DEPART FROM NORMAL: -3  HEATING DEGREE DAYS: 26 COOLING DEGREE DAYS:  0 LATEST DAY MAX TEMP (0700-1900 LST): 45 LATEST NIGHT MIN TEMP(1900-0800 LST):33 HOURLY INCREMENTAL PRECIPITATION VALUES (IN):0.00 0.00 0.00 0.00 0.00 0.00 0.00 0.00 0.00 0.00 0.00 0.00 0.00 0.00 0.00 0.00 0.00 0.00 0.00 0.00 0.00 0.00 0.00 0.00","SOD  ","6",,,,,,,,,,,,,,,,,,,,,,,,,"0605","1805",,
"72505394728","2020-03-17T00:51:00","FM-15","7",,,,,,,,,,,,,,,,,,,,,,,,,,,,,,,,,,,,,,"30.39","33","41","0.00",,"+0.08","6","73","30.36","BKN:07 18 OVC:08 23","30.22","10.00","38","VRB",,"7",,,,,,,,,,,,,,,,,,,,,,,,,,,,,,,,,,,,,"MET12403/17/20 00:51:02 METAR KNYC 170551Z VRB06KT 10SM BKN018 OVC023 05/01 A3039 RMK AO2 SLP281 T00500006 10056 20044 56028 $ RTX","FM-15","7",,,,,,,,,,,,,,,,,,,,,,,,,,,,
"72505394728","2020-03-17T01:51:00","FM-15","7",,,,,,,,,,,,,,,,,,,,,,,,,,,,,,,,,,,,,,"30.35","35","42","0.00",,,,"76","30.32","OVC:08 15","30.18","10.00","39",,,,,,,,,,,,,,,,,,,,,,,,,,,,,,,,,,,,,,,,"MET09503/17/20 01:51:02 METAR KNYC 170651Z      KT 10SM OVC015 06/02 A3035 RMK AO2 SLP268 T00560017 $","FM-15","7",,,,,,,,,,,,,,,,,,,,,,,,,,,,
"72505394728","2020-03-17T02:10:00","FM-16","7",,,,,,,,,,,,,,,,,,,,,,,,,,,,,,,,,,,,,,"30.33","35","42",,,,,"76",,"OVC:08 14","30.16","10.00","39","000",,"0",,,,,,,,,,,,,,,,,,,,,,,,,,,,,,,,,,,,,"MET09703/17/20 02:10:02 SPECI KNYC 170710Z 00000KT 10SM OVC014 06/02 A3033 RMK AO2 T00560017 $ RTX FIBI","FM-16","7",,,,,,,,,,,,,,,,,,,,,,,,,,,,
"72505394728","2020-03-17T02:37:00","FM-16","7",,,,,,,,,,,,,,,,,,,,,,,,,,,,,,,,,,,,,,"30.32","36","42",,,,,"79",,"BKN:07 16 OVC:08 25","30.15","10.00","39","130",,"6",,,,,,,,,,,,,,,,,,,,,,,,,,,,,,,,,,,,,"MET09903/17/20 02:37:02 SPECI KNYC 170737Z 13005KT 10SM BKN016 OVC025 06/02 A3032 RMK AO2 T00560022 $ RTX","FM-16","7",,,,,,,,,,,,,,,,,,,,,,,,,,,,
"72505394728","2020-03-17T02:51:00","FM-15","7",,,,,,,,,,,,,,,,,,,,,,,,,,,,,,,,,,,,,,"30.32","36","42","T","-RA:02 |RA |RA",,,"79","30.29","BKN:07 16 OVC:08 24","30.15","8.00","39","VRB",,"3",,,,,,,,,,,,,,,,,,,,,,,,,,,,,,,,,,,,,"MET12603/17/20 02:51:02 METAR KNYC 170751Z VRB03KT 8SM -RA BKN016 OVC024 06/02 A3032 RMK AO2 RAB47 SLP259 P0000 T00560022 $ RTX FIBI","FM-15","7",,,,,,,,,,,,,,,,,,,,,,,,,,,,
"72505394728","2020-03-17T03:17:00","FM-16","7",,,,,,,,,,,,,,,,,,,,,,,,,,,,,,,,,,,,,,"30.30","38","42","0.02","RA:02 BR:1 |RA |RA",,,"85",,"BKN:07 14 OVC:08 22","30.13","5.00","40","000",,"0",,,,,,,,,,,,,,,,,,,,,,,,,,,,,,,,,,,,,"MET10603/17/20 03:17:02 SPECI KNYC 170817Z 00000KT 5SM RA BR BKN014 OVC022 06/03 A3030 RMK AO2 P0002 T00560033 $","FM-16","7",,,,,,,,,,,,,,,,,,,,,,,,,,,,
"72505394728","2020-03-17T03:51:00","FM-15","7",,,,,,,,,,,,,,,,,,,,,,,,,,,,,,,,,,,,,,"30.28","39","42","0.04","-RA:02 |RA |RA","+0.10","6","89","30.26","BKN:07 14 OVC:08 22","30.11","10.00","41","VRB",,"6",,,,,,,,,,,,,,,,,,,,,,,,,,,,,,,,,,,,,"MET12403/17/20 03:51:02 METAR KNYC 170851Z VRB05KT 10SM -RA BKN014 OVC022 06/04 A3028 RMK AO2 SLP247 P0004 60004 T00560039 56035 $","FM-15","7",,,,,,,,,,,,,,,,,,,,,,,,,,,,
"72505394728","2020-03-17T04:51:00","FM-15","7",,,,,,,,,,,,,,,,,,,,,,,,,,,,,,,,,,,,,,"30.27","39","42","0.01","-RA:02 |RA |RA",,,"89","30.24","BKN:07 11 OVC:08 18","30.10","10.00","41","000",,"0",,,,,,,,,,,,,,,,,,,,,,,,,,,,,,,,,,,,,"MET12303/17/20 04:51:02 METAR KNYC 170951Z 00000KT 10SM -RA BKN011 OVC018 06/04 A3027 RMK AO2 RAE0857B29 SLP242 P0000 T00560039 $","FM-15","7",,,,,,,,,,,,,,,,,,,,,,,,,,,,
"72505394728","2020-03-17T05:51:00","FM-15","7",,,,,,,,,,,,,,,,,,,,,,,,,,,,,,,,,,,,,,"30.26","39","42","0.02","-RA:02 |RA |RA",,,"89","30.23","OVC:08 11","30.09","9.00","41","VRB",,"3",,,,,,,,,,,,,,,,,,,,,,,,,,,,,,,,,,,,,"MET11603/17/20 05:51:02 METAR KNYC 171051Z VRB03KT 9SM -RA OVC011 06/04 A3026 RMK AO2 CIG 009V014 SLP238 P0003 T00560039 $","FM-15","7",,,,,,,,,,,,,,,,,,,,,,,,,,,,
"72505394728","2020-03-17T06:51:00","FM-15","7",,,,,,,,,,,,,,,,,,,,,,,,,,,,,,,,,,,,,,"30.24","40","42","0.03","-RA:02 BR:1 |RA |RA","+0.05","8","92","30.21","BKN:07 11 OVC:08 55","30.07","6.00","41","130",,"9",,,,,,,,,,,,,,,,,,,,,,,,,,,,,,,,,,,,,"MET14403/17/20 06:51:02 METAR KNYC 171151Z 13008KT 6SM -RA BR BKN011 OVC055 06/04 A3024 RMK AO2 SLP231 P0002 60009 70009 T00560044 10061 20050 58016 $","FM-15","7",,,,,,,,,,,,,,,,,,,,,,,,,,,,
"72505394728","2020-03-17T07:05:00","FM-16","7",,,,,,,,,,,,,,,,,,,,,,,,,,,,,,,,,,,,,,"30.23","40","42","0.01","-RA:02 BR:1 |RA |RA",,,"92",,"BKN:07 9 OVC:08 13","30.06","5.00","41","000",,"0",,,,,,,,,,,,,,,,,,,,,,,,,,,,,,,,,,,,,"MET10703/17/20 07:05:02 SPECI KNYC 171205Z 00000KT 5SM -RA BR BKN009 OVC013 06/04 A3023 RMK AO2 P0001 T00560044 $","FM-16","7",,,,,,,,,,,,,,,,,,,,,,,,,,,,
"72505394728","2020-03-17T07:51:00","FM-15","7",,,,,,,,,,,,,,,,,,,,,,,,,,,,,,,,,,,,,,"30.23","40","43","0.01","-RA:02 |RA |RA",,,"89","30.20","OVC:08 9","30.06","10.00","42","VRB",,"3",,,,,,,,,,,,,,,,,,,,,,,,,,,,,,,,,,,,,"MET10503/17/20 07:51:02 METAR KNYC 171251Z VRB03KT 10SM -RA OVC009 06/04 A3023 RMK AO2 SLP227 P0002 T00610044 $","FM-15","7",,,,,,,,,,,,,,,,,,,,,,,,,,,,
"72505394728","2020-03-17T08:51:00","FM-15","7",,,,,,,,,,,,,,,,,,,,,,,,,,,,,,,,,,,,,,"30.22","41","44","0.03","-RA:02 |RA |RA",,,"89","30.20","OVC:08 9","30.05","7.00","43","000",,"0",,,,,,,,,,,,,,,,,,,,,,,,,,,,,,,,,,,,,"MET10203/17/20 08:51:02 METAR KNYC 171351Z 00000KT 7SM -RA OVC009 07/05 A3022 RMK AO2 SLP226 P0003 T00670050","FM-15","7",,,,,,,,,,,,,,,,,,,,,,,,,,,,
"72505394728","2020-03-17T09:14:00","FM-16","7",,,,,,,,,,,,,,,,,,,,,,,,,,,,,,,,,,,,,,"30.22","42","44","T","-RA:02 BR:1 |RA |RA",,,"93",,"OVC:08 10","30.05","5.00","43","000",,"0",,,,,,,,,,,,,,,,,,,,,,,,,,,,,,,,,,,,,"MET10203/17/20 09:14:02 SPECI KNYC 171414Z 00000KT 5SM -RA BR OVC010 07/06 A3022 RMK AO2 P0000 T00670056 RTX","FM-16","7",,,,,,,,,,,,,,,,,,,,,,,,,,,,
"72505394728","2020-03-17T09:51:00","FM-15","7",,,,,,,,,,,,,,,,,,,,,,,,,,,,,,,,,,,,,,"30.20","43","45","0.02","-RA:02 BR:1 |RA |RA","+0.04","8","93","30.17","OVC:08 11","30.03","5.00","44","000",,"0",,,,,,,,,,,,,,,,,,,,,,,,,,,,,,,,,,,,,"MET11703/17/20 09:51:02 METAR KNYC 171451Z 00000KT 5SM -RA BR OVC011 07/06 A3020 RMK AO2 SLP218 P0001 60006 T00720061 58012","FM-15","7",,,,,,,,,,,,,,,,,,,,,,,,,,,,
"72505394728","2020-03-17T10:03:00","FM-16","7",,,,,,,,,,,,,,,,,,,,,,,,,,,,,,,,,,,,,,"30.20","43","46","0.01","-RA:02 BR:1 |RA |RA",,,"89",,"BKN:07 9 OVC:08 15","30.03","4.00","45","000",,"0",,,,,,,,,,,,,,,,,,,,,,,,,,,,,,,,,,,,,"MET10503/17/20 10:03:02 SPECI KNYC 171503Z 00000KT 4SM -RA BR BKN009 OVC015 08/06 A3020 RMK AO2 P0001 T00780061","FM-16","7",,,,,,,,,,,,,,,,,,,,,,,,,,,,
"72505394728","2020-03-17T10:49:00","FM-16","6",,,,,,,,,,,,,,,,,,,,,,,,,,,,,,,,,,,,,,"30.17","43","46",,,,,"87",,"SCT:04 9 BKN:07 13 OVC:08 65","30.00","7.00","45","000",,"0",,,,,,,,,,,,,,,,,,,,,,,,,,,,,,,,,,,,,"MET10603/17/20 10:49:02 SPECI KNYC 171549Z 00000KT 7SM SCT009 BKN013 OVC065 08/06 A3017 RMK AO2 RAE25 P0001 FIBI","FM-16","6",,,,,,,,,,,,,,,,,,,,,,,,,,,,
"72505394728","2020-03-17T10:51:00","FM-15","7",,,,,,,,,,,,,,,,,,,,,,,,,,,,,,,,,,,,,,"30.17","43","47","T",,,,"86","30.15","SCT:04 9 BKN:07 13 OVC:08 65","30.00","7.00","45","000",,"0",,,,,,,,,,,,,,,,,,,,,,,,,,,,,,,,,,,,,"MET11803/17/20 10:51:02 METAR KNYC 171551Z 00000KT 7SM SCT009 BKN013 OVC065 08/06 A3017 RMK AO2 RAE25 SLP210 P0001 T00830061","FM-15","7",,,,,,,,,,,,,,,,,,,,,,,,,,,,
"72505394728","2020-03-17T11:16:00","FM-16","7",,,,,,,,,,,,,,,,,,,,,,,,,,,,,,,,,,,,,,"30.17","43","49",,,,,"80",,"FEW:02 10 SCT:04 14 OVC:08 37","30.00","8.00","46","300",,"3",,,,,,,,,,,,,,,,,,,,,,,,,,,,,,,,,,,,,"MET09903/17/20 11:16:02 SPECI KNYC 171616Z 30003KT 8SM FEW010 SCT014 OVC037 09/06 A3017 RMK AO2 T00940061","FM-16","7",,,,,,,,,,,,,,,,,,,,,,,,,,,,
"72505394728","2020-03-17T11:51:00","FM-15","7",,,,,,,,,,,,,,,,,,,,,,,,,,,,,,,,,,,,,,"30.16","42","50","0.00",,,,"74","30.13","FEW:02 18 SCT:04 24 OVC:08 50","29.99","10.00","46","280",,"6",,,,,,,,,,,,,,,,,,,,,,,,,,,,,,,,,,,,,"MET10703/17/20 11:51:02 METAR KNYC 171651Z 28005KT 10SM FEW018 SCT024 OVC050 10/06 A3016 RMK AO2 SLP204 T01000056","FM-15","7",,,,,,,,,,,,,,,,,,,,,,,,,,,,
"72505394728","2020-03-17T12:01:00","FM-16","7",,,,,,,,,,,,,,,,,,,,,,,,,,,,,,,,,,,,,,"30.15","41","49",,,,,"74",,"BKN:07 22 BKN:07 50 OVC:08 70","29.98","10.00","45","240",,"6",,,,,,,,,,,,,,,,,,,,,,,,,,,,,,,,,,,,,"MET10003/17/20 12:01:02 SPECI KNYC 171701Z 24005KT 10SM BKN022 BKN050 OVC070 09/05 A3015 RMK AO2 T00940050","FM-16","7",,,,,,,,,,,,,,,,,,,,,,,,,,,,
"72505394728","2020-03-17T12:51:00","FM-15","7",,,,,,,,,,,,,,,,,,,,,,,,,,,,,,,,,,,,,,"30.12","41","50","0.00",,"+0.08","8","71","30.10","BKN:07 22 OVC:08 44","29.95","10.00","46","240",,"7",,,,,,,,,,,,,,,,,,,,,,,,,,,,,,,,,,,,,"MET12403/17/20 12:51:02 METAR KNYC 171751Z 24006KT 10SM BKN022 OVC044 10/05 A3012 RMK AO2 SLP192 60007 T01000050 10100 20056 58026","FM-15","7",,,,,,,,,,,,,,,,,,,,,,,,,,,,
"72505394728","2020-03-17T13:49:00","FM-16","6",,,,,,,,,,,,,,,,,,,,,,,,,,,,,,,,,,,,,,"30.10","41","52",,,,,"67",,"FEW:02 23 SCT:04 29 OVC:08 49","29.93","10.00","47","000",,"0",,,,,,,,,,,,,,,,,,,,,,,,,,,,,,,,,,,,,"MET09503/17/20 13:49:02 SPECI KNYC 171849Z 00000KT 10SM FEW023 SCT029 OVC049 11/05 A3010 RMK AO2 FIBI","FM-16","6",,,,,,,,,,,,,,,,,,,,,,,,,,,,
"72505394728","2020-03-17T13:51:00","FM-15","7",,,,,,,,,,,,,,,,,,,,,,,,,,,,,,,,,,,,,,"30.10","41","52","0.00",,,,"66","30.07","FEW:02 23 SCT:04 29 OVC:08 49","29.93","10.00","47","VRB",,"5",,,,,,,,,,,,,,,,,,,,,,,,,,,,,,,,,,,,,"MET10703/17/20 13:51:02 METAR KNYC 171851Z VRB04KT 10SM FEW023 SCT029 OVC049 11/05 A3010 RMK AO2 SLP184 T01110050","FM-15","7",,,,,,,,,,,,,,,,,,,,,,,,,,,,
"72505394728","2020-03-17T14:51:00","FM-15","7",,,,,,,,,,,,,,,,,,,,,,,,,,,,,,,,,,,,,,"30.08","41","53","0.00",,,,"64","30.06","FEW:02 28 BKN:07 75","29.91","10.00","47","250",,"5",,,,,,,,,,,,,,,,,,,,,,,,,,,,,,,,,,,,,"MET10003/17/20 14:51:02 METAR KNYC 171951Z 25004KT 10SM FEW028 BKN075 12/05 A3008 RMK AO2 SLP179 T01170050","FM-15","7",,,,,,,,,,,,,,,,,,,,,,,,,,,,
"72505394728","2020-03-17T15:07:00","FM-16","7",,,,,,,,,,,,,,,,,,,,,,,,,,,,,,,,,,,,,,"30.08","42","54",,,,,"64",,"BKN:07 29","29.91","10.00","48","VRB",,"8",,,,,,,,,,,,,,,,,,,,,,,,,,,,,,,,,,,,,"MET08603/17/20 15:07:02 SPECI KNYC 172007Z 26007KT 10SM BKN029 12/06 A3008 RMK AO2 T01220056","FM-16","7",,,,,,,,,,,,,,,,,,,,,,,,,,,,
"72505394728","2020-03-17T15:51:00","FM-15","7",,,,,,,,,,,,,,,,,,,,,,,,,,,,,,,,,,,,,,"30.09","41","53","0.00",,"+0.03","5","64","30.06","OVC:08 28","29.92","10.00","47","VRB",,"5",,,,,,,,,,,,,,,,,,,,,,,,,,,,,,,,,,,,,"MET09903/17/20 15:51:02 METAR KNYC 172051Z VRB04KT 10SM OVC028 12/05 A3009 RMK AO2 SLP181 T01170050 55011","FM-15","7",,,,,,,,,,,,,,,,,,,,,,,,,,,,
"72505394728","2020-03-17T16:09:00","FM-16","7",,,,,,,,,,,,,,,,,,,,,,,,,,,,,,,,,,,,,,"30.09","42","53",,,,,"66",,"BKN:07 30 OVC:08 36","29.92","10.00","48","VRB",,"7",,,,,,,,,,,,,,,,,,,,,,,,,,,,,,,,,,,,,"MET09303/17/20 16:09:02 SPECI KNYC 172109Z VRB06KT 10SM BKN030 OVC036 12/06 A3009 RMK AO2 T01170056","FM-16","7",,,,,,,,,,,,,,,,,,,,,,,,,,,,
"72505394728","2020-03-17T16:51:00","FM-15","7",,,,,,,,,,,,,,,,,,,,,,,,,,,,,,,,,,,,,,"30.10","39","54","0.00",,,,"57","30.08","BKN:07 37","29.93","10.00","47","300",,"7",,,,,,,,,,,,,,,,,,,,,,,,,,,,,,,,,,,,,"MET09303/17/20 16:51:02 METAR KNYC 172151Z 30006KT 10SM BKN037 12/04 A3010 RMK AO2 SLP186 T01220039","FM-15","7",,,,,,,,,,,,,,,,,,,,,,,,,,,,
"72505394728","2020-03-17T17:51:00","FM-15","7",,,,,,,,,,,,,,,,,,,,,,,,,,,,,,,,,,,,,,"30.13","39","53","0.00",,,,"59","30.11","OVC:08 48","29.96","10.00","46","270",,"9",,,,,,,,,,,,,,,,,,,,,,,,,,,,,,,,,,,,,"MET09303/17/20 17:51:02 METAR KNYC 172251Z 27008KT 10SM OVC048 12/04 A3013 RMK AO2 SLP196 T01170039","FM-15","7",,,,,,,,,,,,,,,,,,,,,,,,,,,,
"72505394728","2020-03-17T18:51:00","FM-15","7",,,,,,,,,,,,,,,,,,,,,,,,,,,,,,,,,,,,,,"30.15","39","52","0.00",,"-0.06","3","61","30.13","FEW:02 50","29.98","10.00","46","230",,"3",,,,,,,,,,,,,,,,,,,,,,,,,,,,,,,,,,,,,"MET11103/17/20 18:51:02 METAR KNYC 172351Z 23003KT 10SM FEW050 11/04 A3015 RMK AO2 SLP203 T01110039 10122 20094 53021","FM-15","7",,,,,,,,,,,,,,,,,,,,,,,,,,,,
"72505394728","2020-03-17T19:51:00","FM-15","7",,,,,,,,,,,,,,,,,,,,,,,,,,,,,,,,,,,,,,"30.19","40","52","0.00",,,,"64","30.16","CLR:00","30.02","10.00","46","000",,"0",,,,,,,,,,,,,,,,,,,,,,,,,,,,,,,,,,,,,"MET09003/17/20 19:51:01 METAR KNYC 180051Z 00000KT 10SM CLR 11/04 A3019 RMK AO2 SLP214 T01110044","FM-15","7",,,,,,,,,,,,,,,,,,,,,,,,,,,,
"72505394728","2020-03-17T20:51:00","FM-15","7",,,,,,,,,,,,,,,,,,,,,,,,,,,,,,,,,,,,,,"30.21","40","51","0.00",,,,"66","30.19","OVC:08 47","30.04","10.00","46","000",,"0",,,,,,,,,,,,,,,,,,,,,,,,,,,,,,,,,,,,,"MET09303/17/20 20:51:01 METAR KNYC 180151Z 00000KT 10SM OVC047 11/04 A3021 RMK AO2 SLP223 T01060044","FM-15","7",,,,,,,,,,,,,,,,,,,,,,,,,,,,
"72505394728","2020-03-17T21:51:00","FM-15","7",,,,,,,,,,,,,,,,,,,,,,,,,,,,,,,,,,,,,,"30.24","38","51","0.00",,"-0.09","1","61","30.22","OVC:08 45","30.07","10.00","45","360",,"8",,,,,,,,,,,,,,,,,,,,,,,,,,,,,,,,,,,,,"MET09903/17/20 21:51:01 METAR KNYC 180251Z 36007KT 10SM OVC045 11/03 A3024 RMK AO2 SLP233 T01060033 51030","FM-15","7",,,,,,,,,,,,,,,,,,,,,,,,,,,,
"72505394728","2020-03-17T22:51:00","FM-15","7",,,,,,,,,,,,,,,,,,,,,,,,,,,,,,,,,,,,,,"30.29","33","49","0.00",,,,"55","30.27","OVC:08 45","30.12","10.00","42","VRB",,"3",,,,,,,,,,,,,,,,,,,,,,,,,,,,,,,,,,,,,"MET09303/17/20 22:51:02 METAR KNYC 180351Z VRB03KT 10SM OVC045 09/01 A3029 RMK AO2 SLP249 T00940006","FM-15","7",,,,,,,,,,,,,,,,,,,,,,,,,,,,
"72505394728","2020-03-17T23:51:00","FM-15","7",,,,,,,,,,,,,,,,,,,,,,,,,,,,,,,,,,,,,,"30.32","28","48","0.00",,,,"46","30.29","OVC:08 46","30.15","10.00","40","VRB",,"9",,,,,,,,,,,,,,,,,,,,,,,,,,,,,,,,,,,,,"MET10403/17/20 23:51:02 METAR KNYC 180451Z 30008KT 10SM OVC046 09/M02 A3032 RMK AO2 SLP258 T00891022 401220050","FM-15","7",,,,,,,,,,,,,,,,,,,,,,,,,,,,
"72505394728","2020-03-17T23:59:00","SOD  ","6",,,,,,,,,,,,,,,,"48",,,"30.03",,"4.3","0","5.4","17","54","41","250","21","0.16","0","0.0","260","14","RA BR",,,,,,,,,,,,,,,,,,,,,,,,,,,,,,,,,,,,,,,,,,,,,,,,,,,,,,,,"SOD76124 HR PRECIPITATION (IN): 0.16 SNOW DEPTH (IN):0     24 HR SNOWFALL (IN):0.0  WEATHER(CODE):18  24 HR MAX TEMP (F): 5424 HR MIN TEMP (F): 41AVERAGE STATION PRESSURE(D):30.037 MINIMUM SEA LEVEL PRESSURE:30.05 TIME OF OCCURRENCE:1524 PEAK WIND SPEED (MPH): 21 PEAK WIND DIR (DEG):250 PEAK WIND TIME (LST):      FASTEST 2MIN SPEED (MPH): 14FASTEST 2MIN DIR (DEG):260 FASTEST 2MIN TIME (LST):     AVERAGE WIND SPEED (MPH): 4.3 24 HR AVG TEMP (F): 48DEPART FROM NORMAL:  5  HEATING DEGREE DAYS: 17 COOLING DEGREE DAYS:  0 LATEST DAY MAX TEMP (0700-1900 LST): 54 LATEST NIGHT MIN TEMP(1900-0800 LST):40 HOURLY INCREMENTAL PRECIPITATION VALUES (IN):0.00 0.00T     0.04 0.01 0.02 0.03 0.01 0.03 0.02T     0.00 0.00 0.00 0.00 0.00 0.00 0.00 0.00 0.00 0.00 0.00 0.00 0.00","SOD  ","6",,,,,,,,,,,,,,,,,,,,,,,,,"0603","1806",,
"72505394728","2020-03-18T00:51:00","FM-15","7",,,,,,,,,,,,,,,,,,,,,,,,,,,,,,,,,,,,,,"30.34","27","47","0.00",,"-0.09","1","46","30.32","CLR:00","30.17","10.00","39","290","17","6",,,,,,,,,,,,,,,,,,,,,,,,,,,,,,,,,,,,,"MET11203/18/20 00:51:02 METAR KNYC 180551Z 29005G15KT 10SM CLR 08/M03 A3034 RMK AO2 SLP266 T00831028 10111 20078 51032","FM-15","7",,,,,,,,,,,,,,,,,,,,,,,,,,,,
"72505394728","2020-03-18T01:51:00","FM-15","7",,,,,,,,,,,,,,,,,,,,,,,,,,,,,,,,,,,,,,"30.36","26","45","0.00",,,,"48","30.33","CLR:00","30.19","10.00","37","300",,"9",,,,,,,,,,,,,,,,,,,,,,,,,,,,,,,,,,,,,"MET09503/18/20 01:51:02 METAR KNYC 180651Z 30008KT 10SM CLR 07/M03 A3036 RMK AO2 SLP272 T00721033 RTX","FM-15","7",,,,,,,,,,,,,,,,,,,,,,,,,,,,
"72505394728","2020-03-18T02:51:00","FM-15","7",,,,,,,,,,,,,,,,,,,,,,,,,,,,,,,,,,,,,,"30.36","26","44","0.00",,,,"49","30.34","CLR:00","30.19","10.00","37","290",,"5",,,,,,,,,,,,,,,,,,,,,,,,,,,,,,,,,,,,,"MET09103/18/20 02:51:02 METAR KNYC 180751Z 29004KT 10SM CLR 07/M03 A3036 RMK AO2 SLP273 T00671033","FM-15","7",,,,,,,,,,,,,,,,,,,,,,,,,,,,
"72505394728","2020-03-18T03:51:00","FM-15","7",,,,,,,,,,,,,,,,,,,,,,,,,,,,,,,,,,,,,,"30.38","26","43","0.00",,"-0.04","1","51","30.35","CLR:00","30.21","10.00","36","VRB",,"3",,,,,,,,,,,,,,,,,,,,,,,,,,,,,,,,,,,,,"MET09703/18/20 03:51:02 METAR KNYC 180851Z VRB03KT 10SM CLR 06/M03 A3038 RMK AO2 SLP278 T00611033 51013","FM-15","7",,,,,,,,,,,,,,,,,,,,,,,,,,,,
"72505394728","2020-03-18T04:51:00","FM-15","7",,,,,,,,,,,,,,,,,,,,,,,,,,,,,,,,,,,,,,"30.40","26","43","0.00",,,,"51","30.38","CLR:00","30.23","10.00","36","290",,"3",,,,,,,,,,,,,,,,,,,,,,,,,,,,,,,,,,,,,"MET10003/18/20 04:51:02 METAR KNYC 180951Z 29003KT 10SM CLR 06/M03 A3040 RMK AO2 SLP288 T00611033 RTX FIBI","FM-15","7",,,,,,,,,,,,,,,,,,,,,,,,,,,,
"72505394728","2020-03-18T05:51:00","FM-15","7",,,,,,,,,,,,,,,,,,,,,,,,,,,,,,,,,,,,,,"30.44","26","42","0.00",,,,"53","30.42","CLR:00","30.27","10.00","36","000",,"0",,,,,,,,,,,,,,,,,,,,,,,,,,,,,,,,,,,,,"MET09103/18/20 05:51:02 METAR KNYC 181051Z 00000KT 10SM CLR 06/M03 A3044 RMK AO2 SLP301 T00561033","FM-15","7",,,,,,,,,,,,,,,,,,,,,,,,,,,,
"72505394728","2020-03-18T06:51:00","FM-15","7",,,,,,,,,,,,,,,,,,,,,,,,,,,,,,,,,,,,,,"30.47","25","43","0.00",,"-0.09","1","49","30.44","CLR:00","30.30","10.00","36","000",,"0",,,,,,,,,,,,,,,,,,,,,,,,,,,,,,,,,,,,,"MET11503/18/20 06:51:02 METAR KNYC 181151Z 00000KT 10SM CLR 06/M04 A3047 RMK AO2 SLP309 70007 T00611039 10078 20050 51031","FM-15","7",,,,,,,,,,,,,,,,,,,,,,,,,,,,
"72505394728","2020-03-18T07:51:00","FM-15","7",,,,,,,,,,,,,,,,,,,,,,,,,,,,,,,,,,,,,,"30.49","26","44","0.00",,,,"49","30.47","CLR:00","30.32","10.00","37","000",,"0",,,,,,,,,,,,,,,,,,,,,,,,,,,,,,,,,,,,,"MET09103/18/20 07:51:02 METAR KNYC 181251Z 00000KT 10SM CLR 07/M03 A3049 RMK AO2 SLP317 T00671033","FM-15","7",,,,,,,,,,,,,,,,,,,,,,,,,,,,
"72505394728","2020-03-18T08:51:00","FM-15","7",,,,,,,,,,,,,,,,,,,,,,,,,,,,,,,,,,,,,,"30.50","25","47","0.00",,,,"42","30.47","CLR:00","30.33","10.00","38","VRB",,"5",,,,,,,,,,,,,,,,,,,,,,,,,,,,,,,,,,,,,"MET09103/18/20 08:51:02 METAR KNYC 181351Z VRB04KT 10SM CLR 08/M04 A3050 RMK AO2 SLP320 T00831039","FM-15","7",,,,,,,,,,,,,,,,,,,,,,,,,,,,
"72505394728","2020-03-18T09:51:00","FM-15","7",,,,,,,,,,,,,,,,,,,,,,,,,,,,,,,,,,,,,,"30.52","26","49","0.00",,"-0.05","1","41","30.49","CLR:00","30.35","10.00","40","VRB",,"3",,,,,,,,,,,,,,,,,,,,,,,,,,,,,,,,,,,,,"MET09703/18/20 09:51:02 METAR KNYC 181451Z VRB03KT 10SM CLR 09/M03 A3052 RMK AO2 SLP326 T00941033 51016","FM-15","7",,,,,,,,,,,,,,,,,,,,,,,,,,,,
"72505394728","2020-03-18T10:51:00","FM-15","7",,,,,,,,,,,,,,,,,,,,,,,,,,,,,,,,,,,,,,"30.52","25","50","0.00",,,,"38","30.50","CLR:00","30.35","10.00","40","000",,"0",,,,,,,,,,,,,,,,,,,,,,,,,,,,,,,,,,,,,"MET09103/18/20 10:51:02 METAR KNYC 181551Z 00000KT 10SM CLR 10/M04 A3052 RMK AO2 SLP327 T01001039","FM-15","7",,,,,,,,,,,,,,,,,,,,,,,,,,,,
"72505394728","2020-03-18T11:51:00","FM-15","7",,,,,,,,,,,,,,,,,,,,,,,,,,,,,,,,,,,,,,"30.51","26","53","0.00",,,,"35","30.49","CLR:00","30.34","10.00","42","000",,"0",,,,,,,,,,,,,,,,,,,,,,,,,,,,,,,,,,,,,"MET09103/18/20 11:51:02 METAR KNYC 181651Z 00000KT 10SM CLR 12/M03 A3051 RMK AO2 SLP324 T01171033","FM-15","7",,,,,,,,,,,,,,,,,,,,,,,,,,,,
"72505394728","2020-03-18T12:51:00","FM-15","7",,,,,,,,,,,,,,,,,,,,,,,,,,,,,,,,,,,,,,"30.50","25","52","0.00",,"+0.01","8","35","30.47","CLR:00","30.33","10.00","41","VRB",,"3",,,,,,,,,,,,,,,,,,,,,,,,,,,,,,,,,,,,,"MET10903/18/20 12:51:02 METAR KNYC 181751Z VRB03KT 10SM CLR 11/M04 A3050 RMK AO2 SLP320 T01111039 10122 20061 58005","FM-15","7",,,,,,,,,,,,,,,,,,,,,,,,,,,,
"72505394728","2020-03-18T13:51:00","FM-15","7",,,,,,,,,,,,,,,,,,,,,,,,,,,,,,,,,,,,,,"30.48","24","52","0.00",,,,"34","30.46","CLR:00","30.31","10.00","41","260",,"7",,,,,,,,,,,,,,,,,,,,,,,,,,,,,,,,,,,,,"MET09103/18/20 13:51:02 METAR KNYC 181851Z 26006KT 10SM CLR 11/M04 A3048 RMK AO2 SLP315 T01111044","FM-15","7",,,,,,,,,,,,,,,,,,,,,,,,,,,,
"72505394728","2020-03-18T14:51:00","FM-15","7",,,,,,,,,,,,,,,,,,,,,,,,,,,,,,,,,,,,,,"30.47","28","52","0.00",,,,"40","30.45","CLR:00","30.30","10.00","42","170",,"7",,,,,,,,,,,,,,,,,,,,,,,,,,,,,,,,,,,,,"MET09503/18/20 14:51:02 METAR KNYC 181951Z 17006KT 10SM CLR 11/M02 A3047 RMK AO2 SLP311 T01111022 RTX","FM-15","7",,,,,,,,,,,,,,,,,,,,,,,,,,,,
"72505394728","2020-03-18T15:51:00","FM-15","7",,,,,,,,,,,,,,,,,,,,,,,,,,,,,,,,,,,,,,"30.46","27","50","0.00",,"+0.04","6","41","30.44","CLR:00","30.29","10.00","41","150","18","11",,,,,,,,,,,,,,,,,,,,,,,,,,,,,,,,,,,,,"MET10003/18/20 15:51:02 METAR KNYC 182051Z 15010G16KT 10SM CLR 10/M03 A3046 RMK AO2 SLP307 T01001028 56013","FM-15","7",,,,,,,,,,,,,,,,,,,,,,,,,,,,
"72505394728","2020-03-18T16:51:00","FM-15","7",,,,,,,,,,,,,,,,,,,,,,,,,,,,,,,,,,,,,,"30.45","26","48","0.00",,,,"42","30.43","CLR:00","30.28","10.00","39","VRB",,"6",,,,,,,,,,,,,,,,,,,,,,,,,,,,,,,,,,,,,"MET09103/18/20 16:51:02 METAR KNYC 182151Z VRB05KT 10SM CLR 09/M03 A3045 RMK AO2 SLP304 T00891033","FM-15","7",,,,,,,,,,,,,,,,,,,,,,,,,,,,
"72505394728","2020-03-18T17:51:00","FM-15","7",,,,,,,,,,,,,,,,,,,,,,,,,,,,,,,,,,,,,,"30.46","26","48","0.00",,,,"42","30.43","CLR:00","30.29","10.00","39","VRB",,"3",,,,,,,,,,,,,,,,,,,,,,,,,,,,,,,,,,,,,"MET09103/18/20 17:51:02 METAR KNYC 182251Z VRB03KT 10SM CLR 09/M03 A3046 RMK AO2 SLP306 T00891033","FM-15","7",,,,,,,,,,,,,,,,,,,,,,,,,,,,
"72505394728","2020-03-18T18:51:00","FM-15","7",,,,,,,,,,,,,,,,,,,,,,,,,,,,,,,,,,,,,,"30.47","27","47","0.00",,"-0.00","3","46","30.44","CLR:00","30.30","10.00","39",,,,,,,,,,,,,,,,,,,,,,,,,,,,,,,,,,,,,,,,"MET10903/18/20 18:51:02 METAR KNYC 182351Z      KT 10SM CLR 08/M03 A3047 RMK AO2 SLP309 T00831028 10122 20083 53001","FM-15","7",,,,,,,,,,,,,,,,,,,,,,,,,,,,
"72505394728","2020-03-18T19:51:00","FM-15","7",,,,,,,,,,,,,,,,,,,,,,,,,,,,,,,,,,,,,,"30.44","27","47","0.00",,,,"46","30.42","CLR:00","30.27","10.00","39","150",,"6",,,,,,,,,,,,,,,,,,,,,,,,,,,,,,,,,,,,,"MET09103/18/20 19:51:01 METAR KNYC 190051Z 15005KT 10SM CLR 08/M03 A3044 RMK AO2 SLP301 T00831028","FM-15","7",,,,,,,,,,,,,,,,,,,,,,,,,,,,
"72505394728","2020-03-18T20:51:00","FM-15","7",,,,,,,,,,,,,,,,,,,,,,,,,,,,,,,,,,,,,,"30.45","29","46","0.00",,,,"51","30.42","FEW:02 55","30.28","10.00","39","160",,"8",,,,,,,,,,,,,,,,,,,,,,,,,,,,,,,,,,,,,"MET09403/18/20 20:51:01 METAR KNYC 190151Z 16007KT 10SM FEW055 08/M02 A3045 RMK AO2 SLP302 T00781017","FM-15","7",,,,,,,,,,,,,,,,,,,,,,,,,,,,
"72505394728","2020-03-18T21:51:00","FM-15","7",,,,,,,,,,,,,,,,,,,,,,,,,,,,,,,,,,,,,,"30.42","30","46","0.00",,"+0.04","8","54","30.40","OVC:08 60","30.25","10.00","39","VRB",,"3",,,,,,,,,,,,,,,,,,,,,,,,,,,,,,,,,,,,,"MET10003/18/20 21:51:01 METAR KNYC 190251Z VRB03KT 10SM OVC060 08/M01 A3042 RMK AO2 SLP294 T00781011 58015","FM-15","7",,,,,,,,,,,,,,,,,,,,,,,,,,,,
"72505394728","2020-03-18T22:51:00","FM-15","7",,,,,,,,,,,,,,,,,,,,,,,,,,,,,,,,,,,,,,"30.42","30","46","T",,,,"54","30.40","OVC:08 50","30.25","10.00","39","150",,"6",,,,,,,,,,,,,,,,,,,,,,,,,,,,,,,,,,,,,"MET10903/18/20 22:51:01 METAR KNYC 190351Z 15005KT 10SM OVC050 08/M01 A3042 RMK AO2 RAB23E35 SLP293 P0000 T00781011","FM-15","7",,,,,,,,,,,,,,,,,,,,,,,,,,,,
"72505394728","2020-03-18T23:51:00","FM-15","7",,,,,,,,,,,,,,,,,,,,,,,,,,,,,,,,,,,,,,"30.39","32","45","T",,,,"61","30.37","OVC:08 43","30.22","10.00","40","VRB",,"6",,,,,,,,,,,,,,,,,,,,,,,,,,,,,,,,,,,,,"MET11803/18/20 23:51:01 METAR KNYC 190451Z VRB05KT 10SM OVC043 07/00 A3039 RMK AO2 RAB09E36 SLP283 P0000 T00720000 401220050","FM-15","7",,,,,,,,,,,,,,,,,,,,,,,,,,,,
"72505394728","2020-03-18T23:59:00","SOD  ","6",,,,,,,,,,,,,,,,"48",,,"30.27",,"4.4","0","5.1","17","54","41","150","19","T","0","0.0","140","13",,,,,,,,,,,,,,,,,,,,,,,,,,,,,,,,,,,,,,,,,,,,,,,,,,,,,,,,,"SOD73924 HR PRECIPITATION (IN):    T SNOW DEPTH (IN):0     24 HR SNOWFALL (IN):0.0  24 HR MAX TEMP (F): 5424 HR MIN TEMP (F): 41AVERAGE STATION PRESSURE(D):30.274 MINIMUM SEA LEVEL PRESSURE:30.29 TIME OF OCCURRENCE:0005 PEAK WIND SPEED (MPH): 19 PEAK WIND DIR (DEG):150 PEAK WIND TIME (LST):      FASTEST 2MIN SPEED (MPH): 13FASTEST 2MIN DIR (DEG):140 FASTEST 2MIN TIME (LST):     AVERAGE WIND SPEED (MPH): 4.4 24 HR AVG TEMP (F): 48DEPART FROM NORMAL:  5  HEATING DEGREE DAYS: 17 COOLING DEGREE DAYS:  0 LATEST DAY MAX TEMP (0700-1900 LST): 54 LATEST NIGHT MIN TEMP(1900-0800 LST):41 HOURLY INCREMENTAL PRECIPITATION VALUES (IN):0.00 0.00 0.00 0.00 0.00 0.00 0.00 0.00 0.00 0.00 0.00 0.00 0.00 0.00 0.00 0.00 0.00 0.00 0.00 0.00 0.00 0.00T    T","SOD  ","6",,,,,,,,,,,,,,,,,,,,,,,,,"0601","1807",,
"72505394728","2020-03-19T00:51:00","FM-15","7",,,,,,,,,,,,,,,,,,,,,,,,,,,,,,,,,,,,,,"30.37","36","41","0.03s","RA:02 |RA |RA","+0.05","8","82","30.35","FEW:02 18 OVC:08 37","30.20","4.00","39","110",,"7",,,,,,,,,,,,,,,,,,,,,,,,,,,,,,,,,,,,,"MET13803/19/20 00:51:02 METAR KNYC 190551Z 11006KT 4SM RA FEW018 OVC037 05/02 A3037 RMK AO2 RAB04 SLP277 P0002 60002 T00500022 10083 20050 58017","FM-15","7",,,,,,,,,,,,,,,,,,,,,,,,,,,,
"72505394728","2020-03-19T01:06:00","FM-16","7",,,,,,,,,,,,,,,,,,,,,,,,,,,,,,,,,,,,,,"30.38","37","41","0.03","RA:02 BR:1 |RA |RA",,,"86",,"BKN:07 16 OVC:08 35","30.21","4.00","39","000",,"0",,,,,,,,,,,,,,,,,,,,,,,,,,,,,,,,,,,,,"MET10403/19/20 01:06:02 SPECI KNYC 190606Z 00000KT 4SM RA BR BKN016 OVC035 05/03 A3038 RMK AO2 P0003 T00500028","FM-16","7",,,,,,,,,,,,,,,,,,,,,,,,,,,,
"72505394728","2020-03-19T01:31:00","FM-16","7",,,,,,,,,,,,,,,,,,,,,,,,,,,,,,,,,,,,,,"30.36","38","41","0.08","RA:02 BR:1 |RA |RA",,,"89",,"OVC:08 13","30.19","3.00","40","050",,"6",,,,,,,,,,,,,,,,,,,,,,,,,,,,,,,,,,,,,"MET09703/19/20 01:31:02 SPECI KNYC 190631Z 05005KT 3SM RA BR OVC013 05/03 A3036 RMK AO2 P0008 T00500033","FM-16","7",,,,,,,,,,,,,,,,,,,,,,,,,,,,
"72505394728","2020-03-19T01:51:00","FM-15","7",,,,,,,,,,,,,,,,,,,,,,,,,,,,,,,,,,,,,,"30.35","39","41","0.14","RA:02 BR:1 |RA |RA",,,"93","30.33","OVC:08 11","30.18","3.00","40","050",,"5",,,,,,,,,,,,,,,,,,,,,,,,,,,,,,,,,,,,,"MET11603/19/20 01:51:02 METAR KNYC 190651Z 05004KT 3SM RA BR OVC011 05/04 A3035 RMK AO2 CIG 008V014 SLP270 P0014 T00500039","FM-15","7",,,,,,,,,,,,,,,,,,,,,,,,,,,,
"72505394728","2020-03-19T02:10:00","FM-16","7",,,,,,,,,,,,,,,,,,,,,,,,,,,,,,,,,,,,,,"30.34","39","41","0.04","+RA:02 BR:1 |RA |RA",,,"93",,"OVC:08 9","30.17","3.00","40","080",,"8",,,,,,,,,,,,,,,,,,,,,,,,,,,,,,,,,,,,,"MET09803/19/20 02:10:02 SPECI KNYC 190710Z 08007KT 3SM +RA BR OVC009 05/04 A3034 RMK AO2 P0004 T00500039","FM-16","7",,,,,,,,,,,,,,,,,,,,,,,,,,,,
"72505394728","2020-03-19T02:17:00","FM-16","7",,,,,,,,,,,,,,,,,,,,,,,,,,,,,,,,,,,,,,"30.33","39","41","0.07","RA:02 BR:1 |RA |RA",,,"93",,"OVC:08 9","30.16","2.50","40","080",,"7",,,,,,,,,,,,,,,,,,,,,,,,,,,,,,,,,,,,,"MET10103/19/20 02:17:02 SPECI KNYC 190717Z 08006KT 2 1/2SM RA BR OVC009 05/04 A3033 RMK AO2 P0007 T00500039","FM-16","7",,,,,,,,,,,,,,,,,,,,,,,,,,,,
"72505394728","2020-03-19T02:25:00","FM-16","7",,,,,,,,,,,,,,,,,,,,,,,,,,,,,,,,,,,,,,"30.32","39","41","0.09","RA:02 BR:1 |RA |RA",,,"93",,"OVC:08 9","30.15","3.00","40","060",,"8",,,,,,,,,,,,,,,,,,,,,,,,,,,,,,,,,,,,,"MET09703/19/20 02:25:02 SPECI KNYC 190725Z 06007KT 3SM RA BR OVC009 05/04 A3032 RMK AO2 P0009 T00500039","FM-16","7",,,,,,,,,,,,,,,,,,,,,,,,,,,,
"72505394728","2020-03-19T02:51:00","FM-15","7",,,,,,,,,,,,,,,,,,,,,,,,,,,,,,,,,,,,,,"30.31","40","42","0.16","RA:02 BR:1 |RA |RA",,,"92","30.29","OVC:08 6","30.14","3.00","41","VRB",,"5",,,,,,,,,,,,,,,,,,,,,,,,,,,,,,,,,,,,,"MET11603/19/20 02:51:02 METAR KNYC 190751Z VRB04KT 3SM RA BR OVC006 06/04 A3031 RMK AO2 CIG 005V010 SLP256 P0014 T00560044","FM-15","7",,,,,,,,,,,,,,,,,,,,,,,,,,,,
"72505394728","2020-03-19T03:02:00","FM-16","7",,,,,,,,,,,,,,,,,,,,,,,,,,,,,,,,,,,,,,"30.31","40","42","0.04","RA:02 BR:1 |RA |RA",,,"92",,"OVC:08 6","30.14","2.50","41","VRB",,"6",,,,,,,,,,,,,,,,,,,,,,,,,,,,,,,,,,,,,"MET10103/19/20 03:02:02 SPECI KNYC 190802Z VRB05KT 2 1/2SM RA BR OVC006 06/04 A3031 RMK AO2 P0004 T00560044","FM-16","7",,,,,,,,,,,,,,,,,,,,,,,,,,,,
"72505394728","2020-03-19T03:10:00","FM-16","7",,,,,,,,,,,,,,,,,,,,,,,,,,,,,,,,,,,,,,"30.31","40","42","0.06","RA:02 BR:1 |RA |RA",,,"92",,"OVC:08 6","30.14","3.00","41","040",,"6",,,,,,,,,,,,,,,,,,,,,,,,,,,,,,,,,,,,,"MET09703/19/20 03:10:02 SPECI KNYC 190810Z 04005KT 3SM RA BR OVC006 06/04 A3031 RMK AO2 P0006 T00560044","FM-16","7",,,,,,,,,,,,,,,,,,,,,,,,,,,,
"72505394728","2020-03-19T03:17:00","FM-16","7",,,,,,,,,,,,,,,,,,,,,,,,,,,,,,,,,,,,,,"30.30","40","42","0.09","+RA:02 BR:1 |RA |RA",,,"92",,"OVC:08 5","30.13","2.50","41","070",,"9",,,,,,,,,,,,,,,,,,,,,,,,,,,,,,,,,,,,,"MET10203/19/20 03:17:02 SPECI KNYC 190817Z 07008KT 2 1/2SM +RA BR OVC005 06/04 A3030 RMK AO2 P0009 T00560044","FM-16","7",,,,,,,,,,,,,,,,,,,,,,,,,,,,
"72505394728","2020-03-19T03:30:00","FM-16","7",,,,,,,,,,,,,,,,,,,,,,,,,,,,,,,,,,,,,,"30.30","40","42","0.11","RA:02 BR:1 |RA |RA",,,"92",,"OVC:08 5","30.13","4.00","41","VRB",,"7",,,,,,,,,,,,,,,,,,,,,,,,,,,,,,,,,,,,,"MET09703/19/20 03:30:02 SPECI KNYC 190830Z VRB06KT 4SM RA BR OVC005 06/04 A3030 RMK AO2 P0011 T00560044","FM-16","7",,,,,,,,,,,,,,,,,,,,,,,,,,,,
"72505394728","2020-03-19T03:47:00","FM-16","7",,,,,,,,,,,,,,,,,,,,,,,,,,,,,,,,,,,,,,"30.29","39","43","0.16","+RA:02 BR:1 |RA |RA",,,"87",,"OVC:08 5","30.12","2.50","41","VRB",,"8",,,,,,,,,,,,,,,,,,,,,,,,,,,,,,,,,,,,,"MET09203/19/20 03:47:02 SPECI KNYC 190847Z 06007KT 2 1/2SM +RA BR OVC005 06/04 A3029 RMK AO2 P0016","FM-16","7",,,,,,,,,,,,,,,,,,,,,,,,,,,,
"72505394728","2020-03-19T03:51:00","FM-15","7",,,,,,,,,,,,,,,,,,,,,,,,,,,,,,,,,,,,,,"30.28","40","42","0.17","RA:02 BR:1 |RA |RA","+0.07","6","92","30.26","OVC:08 5","30.11","2.50","41","060",,"9",,,,,,,,,,,,,,,,,,,,,,,,,,,,,,,,,,,,,"MET12003/19/20 03:51:02 METAR KNYC 190851Z 06008KT 2 1/2SM RA BR OVC005 06/04 A3028 RMK AO2 SLP246 P0017 60045 T00560044 56024","FM-15","7",,,,,,,,,,,,,,,,,,,,,,,,,,,,
"72505394728","2020-03-19T04:18:00","FM-16","7",,,,,,,,,,,,,,,,,,,,,,,,,,,,,,,,,,,,,,"30.27","41","42","0.13","+RA:02 BR:1 |RA |RA",,,"96",,"OVC:08 5","30.10","1.75","42","050",,"8",,,,,,,,,,,,,,,,,,,,,,,,,,,,,,,,,,,,,"MET10203/19/20 04:18:02 SPECI KNYC 190918Z 05007KT 1 3/4SM +RA BR OVC005 06/05 A3027 RMK AO2 P0013 T00560050","FM-16","7",,,,,,,,,,,,,,,,,,,,,,,,,,,,
"72505394728","2020-03-19T04:49:00","FM-16","6",,,,,,,,,,,,,,,,,,,,,,,,,,,,,,,,,,,,,,"30.26","39","43",,"+RA:02 BR:1 |RA |RA",,,"87",,"OVC:08 5","30.09","2.00","41","VRB",,"9",,,,,,,,,,,,,,,,,,,,,,,,,,,,,,,,,,,,,"MET09303/19/20 04:49:02 SPECI KNYC 190949Z 08008KT 2SM +RA BR OVC005 06/04 A3026 RMK AO2 P0028 FIBI","FM-16","6",,,,,,,,,,,,,,,,,,,,,,,,,,,,
"72505394728","2020-03-19T04:51:00","FM-15","7",,,,,,,,,,,,,,,,,,,,,,,,,,,,,,,,,,,,,,"30.26","40","42","0.28","RA:02 BR:1 |RA |RA",,,"92","30.24","OVC:08 5","30.09","2.50","41","060",,"9",,,,,,,,,,,,,,,,,,,,,,,,,,,,,,,,,,,,,"MET10803/19/20 04:51:02 METAR KNYC 190951Z 06008KT 2 1/2SM RA BR OVC005 06/04 A3026 RMK AO2 SLP240 P0029 T00560044","FM-15","7",,,,,,,,,,,,,,,,,,,,,,,,,,,,
"72505394728","2020-03-19T05:51:00","FM-15","7",,,,,,,,,,,,,,,,,,,,,,,,,,,,,,,,,,,,,,"30.27","41","42","0.10","-RA:02 BR:1 |RA |RA",,,"96","30.25","OVC:08 5","30.10","2.50","42","VRB",,"7",,,,,,,,,,,,,,,,,,,,,,,,,,,,,,,,,,,,,"MET11303/19/20 05:51:02 METAR KNYC 191051Z VRB06KT 2 1/2SM -RA BR OVC005 06/05 A3027 RMK AO2 SLP243 P0012 T00560050 RTX","FM-15","7",,,,,,,,,,,,,,,,,,,,,,,,,,,,
"72505394728","2020-03-19T05:58:00","FM-16","7",,,,,,,,,,,,,,,,,,,,,,,,,,,,,,,,,,,,,,"30.27","41","43","T","-RA:02 BR:1 |RA |RA",,,"93",,"OVC:08 5","30.10","4.00","42","050",,"7",,,,,,,,,,,,,,,,,,,,,,,,,,,,,,,,,,,,,"MET09803/19/20 05:58:02 SPECI KNYC 191058Z 05006KT 4SM -RA BR OVC005 06/05 A3027 RMK AO2 P0000 T00610050","FM-16","7",,,,,,,,,,,,,,,,,,,,,,,,,,,,
"72505394728","2020-03-19T06:51:00","FM-15","7",,,,,,,,,,,,,,,,,,,,,,,,,,,,,,,,,,,,,,"30.28","41","43","0.02","-RA:02 BR:1 |RA |RA","-0.02","3","93","30.26","OVC:08 5","30.11","2.50","42","060",,"8",,,,,,,,,,,,,,,,,,,,,,,,,,,,,,,,,,,,,"MET13903/19/20 06:51:02 METAR KNYC 191151Z 06007KT 2 1/2SM -RA BR OVC005 06/05 A3028 RMK AO2 SLP246 P0002 60088 70090 T00610050 10061 20050 53006","FM-15","7",,,,,,,,,,,,,,,,,,,,,,,,,,,,
"72505394728","2020-03-19T07:10:00","FM-16","7",,,,,,,,,,,,,,,,,,,,,,,,,,,,,,,,,,,,,,"30.27","41","43","T","-RA:02 BR:1 |RA |RA",,,"93",,"OVC:08 5","30.10","3.00","42","VRB","16","11",,,,,,,,,,,,,,,,,,,,,,,,,,,,,,,,,,,,,"MET10103/19/20 07:10:02 SPECI KNYC 191210Z 06010G14KT 3SM -RA BR OVC005 06/05 A3027 RMK AO2 P0000 T00610050","FM-16","7",,,,,,,,,,,,,,,,,,,,,,,,,,,,
"72505394728","2020-03-19T07:18:00","FM-16","7",,,,,,,,,,,,,,,,,,,,,,,,,,,,,,,,,,,,,,"30.27","41","43","0.01","-RA:02 BR:1 |RA |RA",,,"93",,"OVC:08 5","30.10","2.00","42","VRB","17","11",,,,,,,,,,,,,,,,,,,,,,,,,,,,,,,,,,,,,"MET10103/19/20 07:18:02 SPECI KNYC 191218Z 05010G15KT 2SM -RA BR OVC005 06/05 A3027 RMK AO2 P0001 T00610050","FM-16","7",,,,,,,,,,,,,,,,,,,,,,,,,,,,
"72505394728","2020-03-19T07:29:00","FM-16","7",,,,,,,,,,,,,,,,,,,,,,,,,,,,,,,,,,,,,,"30.27","41","43","0.01","BR:1 ||",,,"93",,"OVC:08 6","30.10","4.00","42","VRB","21","9",,,,,,,,,,,,,,,,,,,,,,,,,,,,,,,,,,,,,"MET10303/19/20 07:29:02 SPECI KNYC 191229Z 06008G18KT 4SM BR OVC006 06/05 A3027 RMK AO2 RAE29 P0001 T00610050","FM-16","7",,,,,,,,,,,,,,,,,,,,,,,,,,,,
"72505394728","2020-03-19T07:47:00","FM-16","7",,,,,,,,,,,,,,,,,,,,,,,,,,,,,,,,,,,,,,"30.28","41","43","0.02","-RA:02 BR:1 |RA |RA",,,"93",,"OVC:08 6","30.11","2.00","42","VRB","17","7",,,,,,,,,,,,,,,,,,,,,,,,,,,,,,,,,,,,,"MET10003/19/20 07:47:02 SPECI KNYC 191247Z VRB06G15KT 2SM -RA BR OVC006 06/05 A3028 RMK AO2 RAE29B38 P0002","FM-16","7",,,,,,,,,,,,,,,,,,,,,,,,,,,,
"72505394728","2020-03-19T07:51:00","FM-15","7",,,,,,,,,,,,,,,,,,,,,,,,,,,,,,,,,,,,,,"30.28","41","43","0.02","-RA:02 BR:1 |RA |RA",,,"93","30.25","OVC:08 6","30.11","1.75","42","040",,"8",,,,,,,,,,,,,,,,,,,,,,,,,,,,,,,,,,,,,"MET11803/19/20 07:51:02 METAR KNYC 191251Z 04007KT 1 3/4SM -RA BR OVC006 06/05 A3028 RMK AO2 RAE29B38 SLP245 P0002 T00610050","FM-15","7",,,,,,,,,,,,,,,,,,,,,,,,,,,,
"72505394728","2020-03-19T08:17:00","FM-16","7",,,,,,,,,,,,,,,,,,,,,,,,,,,,,,,,,,,,,,"30.28","42","44","0.01","-RA:02 BR:1 |RA |RA",,,"93",,"OVC:08 6","30.11","2.50","43","060",,"6",,,,,,,,,,,,,,,,,,,,,,,,,,,,,,,,,,,,,"MET10203/19/20 08:17:02 SPECI KNYC 191317Z 06005KT 2 1/2SM -RA BR OVC006 07/06 A3028 RMK AO2 P0001 T00670056","FM-16","7",,,,,,,,,,,,,,,,,,,,,,,,,,,,
"72505394728","2020-03-19T08:35:00","FM-16","7",,,,,,,,,,,,,,,,,,,,,,,,,,,,,,,,,,,,,,"30.28","42","44","0.01","-RA:02 BR:1 |RA |RA",,,"93",,"OVC:08 6","30.11","3.00","43","060","20","11",,,,,,,,,,,,,,,,,,,,,,,,,,,,,,,,,,,,,"MET10103/19/20 08:35:02 SPECI KNYC 191335Z 06010G17KT 3SM -RA BR OVC006 07/06 A3028 RMK AO2 P0001 T00670056","FM-16","7",,,,,,,,,,,,,,,,,,,,,,,,,,,,
"72505394728","2020-03-19T08:51:00","FM-15","7",,,,,,,,,,,,,,,,,,,,,,,,,,,,,,,,,,,,,,"30.28","42","44","0.01",,,,"93","30.26","OVC:08 7","30.11","8.00","43","060",,"7",,,,,,,,,,,,,,,,,,,,,,,,,,,,,,,,,,,,,"MET10403/19/20 08:51:02 METAR KNYC 191351Z 06006KT 8SM OVC007 07/06 A3028 RMK AO2 RAE39 SLP246 P0001 T00670056","FM-15","7",,,,,,,,,,,,,,,,,,,,,,,,,,,,
"72505394728","2020-03-19T09:51:00","FM-15","7",,,,,,,,,,,,,,,,,,,,,,,,,,,,,,,,,,,,,,"30.28","42","45","0.00",,"-0.00","0","90","30.26","OVC:08 8","30.11","10.00","44","060",,"10",,,,,,,,,,,,,,,,,,,,,,,,,,,,,,,,,,,,,"MET10503/19/20 09:51:02 METAR KNYC 191451Z 06009KT 10SM OVC008 07/06 A3028 RMK AO2 SLP246 60003 T00720056 50001","FM-15","7",,,,,,,,,,,,,,,,,,,,,,,,,,,,
"72505394728","2020-03-19T10:49:00","FM-16","6",,,,,,,,,,,,,,,,,,,,,,,,,,,,,,,,,,,,,,"30.27","43","46",,,,,"87",,"OVC:08 10","30.10","10.00","45","050","16","10",,,,,,,,,,,,,,,,,,,,,,,,,,,,,,,,,,,,,"MET08403/19/20 10:49:02 SPECI KNYC 191549Z 05009G14KT 10SM OVC010 08/06 A3027 RMK AO2 FIBI","FM-16","6",,,,,,,,,,,,,,,,,,,,,,,,,,,,
"72505394728","2020-03-19T10:51:00","FM-15","7",,,,,,,,,,,,,,,,,,,,,,,,,,,,,,,,,,,,,,"30.27","43","47","0.00",,,,"86","30.24","OVC:08 10","30.10","10.00","45","040","16","9",,,,,,,,,,,,,,,,,,,,,,,,,,,,,,,,,,,,,"MET10003/19/20 10:51:02 METAR KNYC 191551Z 04008G14KT 10SM OVC010 08/06 A3027 RMK AO2 SLP241 T00830061 RTX","FM-15","7",,,,,,,,,,,,,,,,,,,,,,,,,,,,
"72505394728","2020-03-19T11:51:00","FM-15","7",,,,,,,,,,,,,,,,,,,,,,,,,,,,,,,,,,,,,,"30.26","43","49","0.00",,,,"80","30.24","OVC:08 11","30.09","10.00","46","VRB",,"6",,,,,,,,,,,,,,,,,,,,,,,,,,,,,,,,,,,,,"MET09303/19/20 11:51:02 METAR KNYC 191651Z VRB05KT 10SM OVC011 09/06 A3026 RMK AO2 SLP239 T00940061","FM-15","7",,,,,,,,,,,,,,,,,,,,,,,,,,,,
"72505394728","2020-03-19T12:51:00","FM-15","7",,,,,,,,,,,,,,,,,,,,,,,,,,,,,,,,,,,,,,"30.25","43","49","0.00",,"+0.03","6","80","30.23","OVC:08 12","30.08","10.00","46","000",,"0",,,,,,,,,,,,,,,,,,,,,,,,,,,,,,,,,,,,,"MET12103/19/20 12:51:02 METAR KNYC 191751Z 00000KT 10SM OVC012 09/06 A3025 RMK AO2 SLP237 60003 T00940061 10094 20061 56009 RTX","FM-15","7",,,,,,,,,,,,,,,,,,,,,,,,,,,,
"72505394728","2020-03-19T13:51:00","FM-15","7",,,,,,,,,,,,,,,,,,,,,,,,,,,,,,,,,,,,,,"30.24","43","50","0.00",,,,"77","30.22","OVC:08 13","30.07","10.00","47","000",,"0",,,,,,,,,,,,,,,,,,,,,,,,,,,,,,,,,,,,,"MET09303/19/20 13:51:02 METAR KNYC 191851Z 00000KT 10SM OVC013 10/06 A3024 RMK AO2 SLP232 T01000061","FM-15","7",,,,,,,,,,,,,,,,,,,,,,,,,,,,
"72505394728","2020-03-19T14:51:00","FM-15","7",,,,,,,,,,,,,,,,,,,,,,,,,,,,,,,,,,,,,,"30.22","43","51","0.00",,,,"74","30.20","OVC:08 15","30.05","10.00","47","000",,"0",,,,,,,,,,,,,,,,,,,,,,,,,,,,,,,,,,,,,"MET09303/19/20 14:51:02 METAR KNYC 191951Z 00000KT 10SM OVC015 11/06 A3022 RMK AO2 SLP226 T01060061","FM-15","7",,,,,,,,,,,,,,,,,,,,,,,,,,,,
"72505394728","2020-03-19T15:51:00","FM-15","7",,,,,,,,,,,,,,,,,,,,,,,,,,,,,,,,,,,,,,"30.23","44","51","0.00",,"+0.02","5","77","30.21","OVC:08 16","30.06","10.00","48","000",,"0",,,,,,,,,,,,,,,,,,,,,,,,,,,,,,,,,,,,,"MET09903/19/20 15:51:02 METAR KNYC 192051Z 00000KT 10SM OVC016 11/07 A3023 RMK AO2 SLP230 T01060067 55006","FM-15","7",,,,,,,,,,,,,,,,,,,,,,,,,,,,
"72505394728","2020-03-19T16:51:00","FM-15","7",,,,,,,,,,,,,,,,,,,,,,,,,,,,,,,,,,,,,,"30.24","43","51","0.00",,,,"74","30.21","BKN:07 20 OVC:08 31","30.07","10.00","47","000",,"0",,,,,,,,,,,,,,,,,,,,,,,,,,,,,,,,,,,,,"MET10003/19/20 16:51:02 METAR KNYC 192151Z 00000KT 10SM BKN020 OVC031 11/06 A3024 RMK AO2 SLP231 T01060061","FM-15","7",,,,,,,,,,,,,,,,,,,,,,,,,,,,
"72505394728","2020-03-19T17:51:00","FM-15","7",,,,,,,,,,,,,,,,,,,,,,,,,,,,,,,,,,,,,,"30.25","43","51","0.00",,,,"74","30.23","OVC:08 19","30.08","10.00","47","000",,"0",,,,,,,,,,,,,,,,,,,,,,,,,,,,,,,,,,,,,"MET09303/19/20 17:51:02 METAR KNYC 192251Z 00000KT 10SM OVC019 11/06 A3025 RMK AO2 SLP236 T01060061","FM-15","7",,,,,,,,,,,,,,,,,,,,,,,,,,,,
"72505394728","2020-03-19T18:51:00","FM-15","7",,,,,,,,,,,,,,,,,,,,,,,,,,,,,,,,,,,,,,"30.26","44","51","0.00",,"-0.03","3","77","30.24","OVC:08 19","30.09","10.00","48","000",,"0",,,,,,,,,,,,,,,,,,,,,,,,,,,,,,,,,,,,,"MET11103/19/20 18:51:02 METAR KNYC 192351Z 00000KT 10SM OVC019 11/07 A3026 RMK AO2 SLP239 T01060067 10111 20089 53009","FM-15","7",,,,,,,,,,,,,,,,,,,,,,,,,,,,
"72505394728","2020-03-19T19:51:00","FM-15","7",,,,,,,,,,,,,,,,,,,,,,,,,,,,,,,,,,,,,,"30.25","43","50","0.00",,,,"77","30.23","OVC:08 18","30.08","10.00","47","VRB",,"5",,,,,,,,,,,,,,,,,,,,,,,,,,,,,,,,,,,,,"MET09303/19/20 19:51:01 METAR KNYC 200051Z VRB04KT 10SM OVC018 10/06 A3025 RMK AO2 SLP236 T01000061","FM-15","7",,,,,,,,,,,,,,,,,,,,,,,,,,,,
"72505394728","2020-03-19T20:51:00","FM-15","7",,,,,,,,,,,,,,,,,,,,,,,,,,,,,,,,,,,,,,"30.25","43","50","0.00",,,,"77","30.23","OVC:08 18","30.08","10.00","47","000",,"0",,,,,,,,,,,,,,,,,,,,,,,,,,,,,,,,,,,,,"MET09303/19/20 20:51:01 METAR KNYC 200151Z 00000KT 10SM OVC018 10/06 A3025 RMK AO2 SLP236 T01000061","FM-15","7",,,,,,,,,,,,,,,,,,,,,,,,,,,,
"72505394728","2020-03-19T21:51:00","FM-15","7",,,,,,,,,,,,,,,,,,,,,,,,,,,,,,,,,,,,,,"30.23","44","50","0.00",,"+0.03","8","80","30.21","OVC:08 17","30.06","10.00","47","VRB",,"5",,,,,,,,,,,,,,,,,,,,,,,,,,,,,,,,,,,,,"MET09903/19/20 21:51:02 METAR KNYC 200251Z VRB04KT 10SM OVC017 10/07 A3023 RMK AO2 SLP229 T01000067 58010","FM-15","7",,,,,,,,,,,,,,,,,,,,,,,,,,,,
"72505394728","2020-03-19T22:51:00","FM-15","7",,,,,,,,,,,,,,,,,,,,,,,,,,,,,,,,,,,,,,"30.22","43","49","0.00",,,,"80","30.20","OVC:08 18","30.05","10.00","46","150",,"6",,,,,,,,,,,,,,,,,,,,,,,,,,,,,,,,,,,,,"MET09303/19/20 22:51:02 METAR KNYC 200351Z 15005KT 10SM OVC018 09/06 A3022 RMK AO2 SLP227 T00940061","FM-15","7",,,,,,,,,,,,,,,,,,,,,,,,,,,,
"72505394728","2020-03-19T23:51:00","FM-15","7",,,,,,,,,,,,,,,,,,,,,,,,,,,,,,,,,,,,,,"30.20","42","48","0.00",,,,"80","30.18","SCT:04 16 OVC:08 50","30.03","10.00","45","150",,"9",,,,,,,,,,,,,,,,,,,,,,,,,,,,,,,,,,,,,"MET11003/19/20 23:51:02 METAR KNYC 200451Z 15008KT 10SM SCT016 OVC050 09/06 A3020 RMK AO2 SLP219 T00890056 401110050","FM-15","7",,,,,,,,,,,,,,,,,,,,,,,,,,,,
"72505394728","2020-03-19T23:59:00","SOD  ","6",,,,,,,,,,,,,,,,"47",,,"30.12",,"4.7","0","3.8","18","52","41","060","21","0.93","0","0.0","070","16","RA BR",,,,,,,,,,,,,,,,,,,,,,,,,,,,,,,,,,,,,,,,,,,,,,,,,,,,,,,,"SOD78324 HR PRECIPITATION (IN): 0.93 SNOW DEPTH (IN):0     24 HR SNOWFALL (IN):0.0  WEATHER(CODE):1  24 HR MAX TEMP (F): 5224 HR MIN TEMP (F): 41AVERAGE STATION PRESSURE:30.120 MINIMUM SEA LEVEL PRESSURE:30.17 TIME OF OCCURRENCE:2359 PEAK WIND SPEED (MPH): 21 PEAK WIND DIR (DEG): 60 PEAK WIND TIME (LST):      FASTEST 2MIN SPEED (MPH): 16FASTEST 2MIN DIR (DEG): 70 FASTEST 2MIN TIME (LST):     AVERAGE WIND SPEED (MPH): 4.7 24 HR AVG TEMP (F): 47DEPART FROM NORMAL:  4  SKY COVER SR-SS (TENTHS): 1HEATING DEGREE DAYS: 18 COOLING DEGREE DAYS:  0 LATEST DAY MAX TEMP (0700-1900 LST):52  LATEST NIGHT MIN TEMP(1900-0800 LST):41 HOURLY INCREMENTAL PRECIPITATION VALUES (IN):.03 0.14 0.16 0.17 0.28 0.10 0.02 0.02 0.01 0.00 0.00 0.00 0.00 0.00 0.00 0.00 0.00 0.00 0.00 0.00 0.00 0.00 0.00 0.00","SOD  ","6",,,,,,,,,,,,,,,,,,,,,,,,,"0600","1808",,
"72505394728","2020-03-20T00:13:00","FM-16","7",,,,,,,,,,,,,,,,,,,,,,,,,,,,,,,,,,,,,,"30.18","43","47",,,,,"86",,"BKN:07 14 BKN:07 20 OVC:08 48","30.01","10.00","45","VRB",,"6",,,,,,,,,,,,,,,,,,,,,,,,,,,,,,,,,,,,,"MET10003/20/20 00:13:02 SPECI KNYC 200513Z VRB05KT 10SM BKN014 BKN020 OVC048 08/06 A3018 RMK AO2 T00830061","FM-16","7",,,,,,,,,,,,,,,,,,,,,,,,,,,,
"72505394728","2020-03-20T00:51:00","FM-15","7",,,,,,,,,,,,,,,,,,,,,,,,,,,,,,,,,,,,,,"30.18","42","47","0.00",,"+0.06","8","83","30.15","BKN:07 13 BKN:07 21 OVC:08 35","30.01","10.00","45","150",,"9",,,,,,,,,,,,,,,,,,,,,,,,,,,,,,,,,,,,,"MET12503/20/20 00:51:02 METAR KNYC 200551Z 15008KT 10SM BKN013 BKN021 OVC035 08/06 A3018 RMK AO2 SLP210 T00830056 10106 20083 58019","FM-15","7",,,,,,,,,,,,,,,,,,,,,,,,,,,,
"72505394728","2020-03-20T01:51:00","FM-15","7",,,,,,,,,,,,,,,,,,,,,,,,,,,,,,,,,,,,,,"30.13","43","47","0.00",,,,"86","30.11","BKN:07 10 OVC:08 21","29.96","10.00","45","VRB",,"5",,,,,,,,,,,,,,,,,,,,,,,,,,,,,,,,,,,,,"MET10403/20/20 01:51:02 METAR KNYC 200651Z VRB04KT 10SM BKN010 OVC021 08/06 A3013 RMK AO2 SLP195 T00830061 RTX","FM-15","7",,,,,,,,,,,,,,,,,,,,,,,,,,,,
"72505394728","2020-03-20T02:30:00","FM-16","7",,,,,,,,,,,,,,,,,,,,,,,,,,,,,,,,,,,,,,"30.11","43","47",,,,,"86",,"OVC:08 9","29.94","10.00","45","VRB",,"7",,,,,,,,,,,,,,,,,,,,,,,,,,,,,,,,,,,,,"MET08603/20/20 02:30:02 SPECI KNYC 200730Z VRB06KT 10SM OVC009 08/06 A3011 RMK AO2 T00830061","FM-16","7",,,,,,,,,,,,,,,,,,,,,,,,,,,,
"72505394728","2020-03-20T02:51:00","FM-15","7",,,,,,,,,,,,,,,,,,,,,,,,,,,,,,,,,,,,,,"30.10","43","47","0.00",,,,"86","30.08","OVC:08 9","29.93","10.00","45","000",,"0",,,,,,,,,,,,,,,,,,,,,,,,,,,,,,,,,,,,,"MET09303/20/20 02:51:02 METAR KNYC 200751Z 00000KT 10SM OVC009 08/06 A3010 RMK AO2 SLP186 T00830061","FM-15","7",,,,,,,,,,,,,,,,,,,,,,,,,,,,
"72505394728","2020-03-20T03:51:00","FM-15","7",,,,,,,,,,,,,,,,,,,,,,,,,,,,,,,,,,,,,,"30.08","43","47","0.00",,"+0.09","6","86","30.06","OVC:08 8","29.91","10.00","45","000",,"0",,,,,,,,,,,,,,,,,,,,,,,,,,,,,,,,,,,,,"MET09903/20/20 03:51:02 METAR KNYC 200851Z 00000KT 10SM OVC008 08/06 A3008 RMK AO2 SLP179 T00830061 56031","FM-15","7",,,,,,,,,,,,,,,,,,,,,,,,,,,,
"72505394728","2020-03-20T04:51:00","FM-15","7",,,,,,,,,,,,,,,,,,,,,,,,,,,,,,,,,,,,,,"30.07","45","48","0.00","BR:1 ||",,,"89","30.05","OVC:08 7","29.90","6.00","47","VRB",,"3",,,,,,,,,,,,,,,,,,,,,,,,,,,,,,,,,,,,,"MET09503/20/20 04:51:02 METAR KNYC 200951Z VRB03KT 6SM BR OVC007 09/07 A3007 RMK AO2 SLP175 T00890072","FM-15","7",,,,,,,,,,,,,,,,,,,,,,,,,,,,
"72505394728","2020-03-20T05:20:00","FM-16","7",,,,,,,,,,,,,,,,,,,,,,,,,,,,,,,,,,,,,,"30.07","45","47",,"BR:1 ||",,,"93",,"OVC:08 4","29.90","4.00","46","160",,"6",,,,,,,,,,,,,,,,,,,,,,,,,,,,,,,,,,,,,"MET09203/20/20 05:20:02 SPECI KNYC 201020Z 16005KT 4SM BR OVC004 08/07 A3007 RMK AO2 T00830072 RTX","FM-16","7",,,,,,,,,,,,,,,,,,,,,,,,,,,,
"72505394728","2020-03-20T05:51:00","FM-15","7",,,,,,,,,,,,,,,,,,,,,,,,,,,,,,,,,,,,,,"30.06","46","48","0.00","BR:1 ||",,,"93","30.04","OVC:08 3","29.89","3.00","47","000",,"0",,,,,,,,,,,,,,,,,,,,,,,,,,,,,,,,,,,,,"MET09903/20/20 05:51:02 METAR KNYC 201051Z 00000KT 3SM BR OVC003 09/08 A3006 RMK AO2 SLP172 T00890078 RTX","FM-15","7",,,,,,,,,,,,,,,,,,,,,,,,,,,,
"72505394728","2020-03-20T06:34:00","FM-16","7",,,,,,,,,,,,,,,,,,,,,,,,,,,,,,,,,,,,,,"30.04","46","48",,"BR:1 ||",,,"93",,"OVC:08 4","29.87","2.50","47","000",,"0",,,,,,,,,,,,,,,,,,,,,,,,,,,,,,,,,,,,,"MET09603/20/20 06:34:02 SPECI KNYC 201134Z 00000KT 2 1/2SM BR OVC004 09/08 A3004 RMK AO2 T00890078 RTX","FM-16","7",,,,,,,,,,,,,,,,,,,,,,,,,,,,
"72505394728","2020-03-20T06:41:00","FM-16","7",,,,,,,,,,,,,,,,,,,,,,,,,,,,,,,,,,,,,,"30.03","46","48",,"BR:1 ||",,,"93",,"OVC:08 5","29.86","3.00","47","000",,"0",,,,,,,,,,,,,,,,,,,,,,,,,,,,,,,,,,,,,"MET08803/20/20 06:41:02 SPECI KNYC 201141Z 00000KT 3SM BR OVC005 09/08 A3003 RMK AO2 T00890078","FM-16","7",,,,,,,,,,,,,,,,,,,,,,,,,,,,
"72505394728","2020-03-20T06:51:00","FM-15","7",,,,,,,,,,,,,,,,,,,,,,,,,,,,,,,,,,,,,,"30.03","46","48","0.00","BR:1 ||","+0.05","8","93","30.01","OVC:08 5","29.86","3.00","47","160",,"5",,,,,,,,,,,,,,,,,,,,,,,,,,,,,,,,,,,,,"MET11903/20/20 06:51:02 METAR KNYC 201151Z 16004KT 3SM BR OVC005 09/08 A3003 RMK AO2 SLP162 70003 T00890078 10089 20083 58017","FM-15","7",,,,,,,,,,,,,,,,,,,,,,,,,,,,
"72505394728","2020-03-20T06:59:00","FM-16","7",,,,,,,,,,,,,,,,,,,,,,,,,,,,,,,,,,,,,,"30.03","46","48",,"BR:1 ||",,,"93",,"OVC:08 5","29.86","2.50","47","000",,"0",,,,,,,,,,,,,,,,,,,,,,,,,,,,,,,,,,,,,"MET09203/20/20 06:59:02 SPECI KNYC 201159Z 00000KT 2 1/2SM BR OVC005 09/08 A3003 RMK AO2 T00890078","FM-16","7",,,,,,,,,,,,,,,,,,,,,,,,,,,,
"72505394728","2020-03-20T07:07:00","FM-16","7",,,,,,,,,,,,,,,,,,,,,,,,,,,,,,,,,,,,,,"30.03","46","48",,"BR:1 ||",,,"93",,"OVC:08 4","29.86","3.00","47","000",,"0",,,,,,,,,,,,,,,,,,,,,,,,,,,,,,,,,,,,,"MET08803/20/20 07:07:02 SPECI KNYC 201207Z 00000KT 3SM BR OVC004 09/08 A3003 RMK AO2 T00890078","FM-16","7",,,,,,,,,,,,,,,,,,,,,,,,,,,,
"72505394728","2020-03-20T07:30:00","FM-16","7",,,,,,,,,,,,,,,,,,,,,,,,,,,,,,,,,,,,,,"30.03","47","49",,"BR:1 ||",,,"93",,"OVC:08 6","29.86","3.00","48","000",,"0",,,,,,,,,,,,,,,,,,,,,,,,,,,,,,,,,,,,,"MET10003/20/20 07:30:02 SPECI KNYC 201230Z 00000KT 3SM BR OVC006 09/08 A3003 RMK AO2 CIG 004V008 T00940083","FM-16","7",,,,,,,,,,,,,,,,,,,,,,,,,,,,
"72505394728","2020-03-20T07:51:00","FM-15","7",,,,,,,,,,,,,,,,,,,,,,,,,,,,,,,,,,,,,,"30.02","46","50","0.00","BR:1 ||",,,"86","29.99","OVC:08 8","29.85","4.00","48","000",,"0",,,,,,,,,,,,,,,,,,,,,,,,,,,,,,,,,,,,,"MET09503/20/20 07:51:02 METAR KNYC 201251Z 00000KT 4SM BR OVC008 10/08 A3002 RMK AO2 SLP157 T01000078","FM-15","7",,,,,,,,,,,,,,,,,,,,,,,,,,,,
"72505394728","2020-03-20T08:51:00","FM-15","7",,,,,,,,,,,,,,,,,,,,,,,,,,,,,,,,,,,,,,"30.00","47","52","0.00","HZ:7 |FU |HZ",,,"83","29.98","OVC:08 8","29.83","6.00","49","070",,"3",,,,,,,,,,,,,,,,,,,,,,,,,,,,,,,,,,,,,"MET09503/20/20 08:51:02 METAR KNYC 201351Z 07003KT 6SM HZ OVC008 11/08 A3000 RMK AO2 SLP151 T01110083","FM-15","7",,,,,,,,,,,,,,,,,,,,,,,,,,,,
"72505394728","2020-03-20T09:51:00","FM-15","7",,,,,,,,,,,,,,,,,,,,,,,,,,,,,,,,,,,,,,"29.98","48","53","0.00","HZ:7 |FU |HZ","+0.05","8","83","29.96","OVC:08 9","29.81","6.00","50","VRB",,"3",,,,,,,,,,,,,,,,,,,,,,,,,,,,,,,,,,,,,"MET10103/20/20 09:51:02 METAR KNYC 201451Z VRB03KT 6SM HZ OVC009 12/09 A2998 RMK AO2 SLP145 T01170089 58017","FM-15","7",,,,,,,,,,,,,,,,,,,,,,,,,,,,
"72505394728","2020-03-20T10:51:00","FM-15","7",,,,,,,,,,,,,,,,,,,,,,,,,,,,,,,,,,,,,,"29.96","50","54","T","BR:1 ||",,,"87","29.94","OVC:08 6","29.79","4.00","52","VRB",,"3",,,,,,,,,,,,,,,,,,,,,,,,,,,,,,,,,,,,,"MET11003/20/20 10:51:02 METAR KNYC 201551Z VRB03KT 4SM BR OVC006 12/10 A2996 RMK AO2 RAB22E32 SLP138 P0000 T01220100","FM-15","7",,,,,,,,,,,,,,,,,,,,,,,,,,,,
"72505394728","2020-03-20T11:51:00","FM-15","7",,,,,,,,,,,,,,,,,,,,,,,,,,,,,,,,,,,,,,"29.94","53","59","0.00","HZ:7 |FU |HZ",,,"81","29.91","BKN:07 9 BKN:07 110","29.77","5.00","56","VRB","16","8",,,,,,,,,,,,,,,,,,,,,,,,,,,,,,,,,,,,,"MET10903/20/20 11:51:02 METAR KNYC 201651Z 25007G14KT 5SM HZ BKN009 BKN110 15/12 A2994 RMK AO2 SLP130 T01500117 RTX","FM-15","7",,,,,,,,,,,,,,,,,,,,,,,,,,,,
"72505394728","2020-03-20T12:07:00","FM-16","7",,,,,,,,,,,,,,,,,,,,,,,,,,,,,,,,,,,,,,"29.92","53","59",,"HZ:7 |FU |HZ",,,"81",,"FEW:02 9 BKN:07 100","29.75","5.00","56","VRB",,"8",,,,,,,,,,,,,,,,,,,,,,,,,,,,,,,,,,,,,"MET09503/20/20 12:07:02 SPECI KNYC 201707Z 23007KT 5SM HZ FEW009 BKN100 15/12 A2992 RMK AO2 T01500117","FM-16","7",,,,,,,,,,,,,,,,,,,,,,,,,,,,
"72505394728","2020-03-20T12:51:00","FM-15","7",,,,,,,,,,,,,,,,,,,,,,,,,,,,,,,,,,,,,,"29.87","55","62","T",,"+0.12","8","78","29.84","FEW:02 95","29.70","7.00","58","VRB",,"3",,,,,,,,,,,,,,,,,,,,,,,,,,,,,,,,,,,,,"MET13103/20/20 12:51:02 METAR KNYC 201751Z VRB03KT 7SM FEW095 17/13 A2987 RMK AO2 RAB30E45 SLP105 P0000 60000 T01670128 10167 20089 58039","FM-15","7",,,,,,,,,,,,,,,,,,,,,,,,,,,,
"72505394728","2020-03-20T13:51:00","FM-15","7",,,,,,,,,,,,,,,,,,,,,,,,,,,,,,,,,,,,,,"29.84","57","66","0.00",,,,"73","29.81","BKN:07 110","29.67","7.00","61","VRB",,"3",,,,,,,,,,,,,,,,,,,,,,,,,,,,,,,,,,,,,"MET09203/20/20 13:51:02 METAR KNYC 201851Z VRB03KT 7SM BKN110 19/14 A2984 RMK AO2 SLP095 T01890139","FM-15","7",,,,,,,,,,,,,,,,,,,,,,,,,,,,
"72505394728","2020-03-20T14:51:00","FM-15","7",,,,,,,,,,,,,,,,,,,,,,,,,,,,,,,,,,,,,,"29.80","58","71","0.00",,,,"63","29.77","CLR:00","29.63","9.00","63","160",,"6",,,,,,,,,,,,,,,,,,,,,,,,,,,,,,,,,,,,,"MET08903/20/20 14:51:02 METAR KNYC 201951Z 16005KT 9SM CLR 22/14 A2980 RMK AO2 SLP082 T02170144","FM-15","7",,,,,,,,,,,,,,,,,,,,,,,,,,,,
"72505394728","2020-03-20T15:51:00","FM-15","7",,,,,,,,,,,,,,,,,,,,,,,,,,,,,,,,,,,,,,"29.79","57","73","0.00",,"+0.08","6","57","29.76","CLR:00","29.62","10.00","63","000",,"0",,,,,,,,,,,,,,,,,,,,,,,,,,,,,,,,,,,,,"MET09603/20/20 15:51:02 METAR KNYC 202051Z 00000KT 10SM CLR 23/14 A2979 RMK AO2 SLP077 T02280139 56027","FM-15","7",,,,,,,,,,,,,,,,,,,,,,,,,,,,
"72505394728","2020-03-20T16:51:00","FM-15","7",,,,,,,,,,,,,,,,,,,,,,,,,,,,,,,,,,,,,,"29.79","57","77","0.00",,,,"50","29.77","BKN:07 50","29.62","10.00","65","250",,"8",,,,,,,,,,,,,,,,,,,,,,,,,,,,,,,,,,,,,"MET09303/20/20 16:51:02 METAR KNYC 202151Z 25007KT 10SM BKN050 25/14 A2979 RMK AO2 SLP080 T02500139","FM-15","7",,,,,,,,,,,,,,,,,,,,,,,,,,,,
"72505394728","2020-03-20T17:51:00","FM-15","7",,,,,,,,,,,,,,,,,,,,,,,,,,,,,,,,,,,,,,"29.84","55","75","0.00",,,,"50","29.81","SCT:04 70","29.67","10.00","63","VRB","18","6",,,,,,,,,,,,,,,,,,,,,,,,,,,,,,,,,,,,,"MET09603/20/20 17:51:02 METAR KNYC 202251Z VRB05G16KT 10SM SCT070 24/13 A2984 RMK AO2 SLP094 T02390128","FM-15","7",,,,,,,,,,,,,,,,,,,,,,,,,,,,
"72505394728","2020-03-20T18:51:00","FM-15","7",,,,,,,,,,,,,,,,,,,,,,,,,,,,,,,,,,,,,,"29.88","51","74","0.00",,"-0.09","3","45","29.85","FEW:02 55 SCT:04 95","29.71","10.00","61","VRB","28","17",,,,,,,,,,,,,,,,,,,,,,,,,,,,,,,,,,,,,"MET12103/20/20 18:51:02 METAR KNYC 202351Z 27015G24KT 10SM FEW055 SCT095 23/11 A2988 RMK AO2 SLP108 T02330106 10250 20167 53030","FM-15","7",,,,,,,,,,,,,,,,,,,,,,,,,,,,
"72505394728","2020-03-20T19:51:00","FM-15","7",,,,,,,,,,,,,,,,,,,,,,,,,,,,,,,,,,,,,,"29.89","47","72","T","-RA:02 |RA |RA",,,"41","29.86","BKN:07 70 OVC:08 80","29.72","10.00","58","280","28","11",,,,,,,,,,,,,,,,,,,,,,,,,,,,,,,,,,,,,"MET13703/20/20 19:51:01 METAR KNYC 210051Z 28010G24KT 10SM -RA BKN070 OVC080 22/08 A2989 RMK AO2 PK WND 25030/2352 RAB35 SLP113 P0000 T02220083","FM-15","7",,,,,,,,,,,,,,,,,,,,,,,,,,,,
"72505394728","2020-03-20T20:51:00","FM-15","7",,,,,,,,,,,,,,,,,,,,,,,,,,,,,,,,,,,,,,"29.90","46","70","T",,,,"42","29.87","FEW:02 75 BKN:07 100","29.73","10.00","57","260",,"7",,,,,,,,,,,,,,,,,,,,,,,,,,,,,,,,,,,,,"MET11203/20/20 20:51:01 METAR KNYC 210151Z 26006KT 10SM FEW075 BKN100 21/08 A2990 RMK AO2 RAE14 SLP115 P0000 T02110078","FM-15","7",,,,,,,,,,,,,,,,,,,,,,,,,,,,
"72505394728","2020-03-20T21:51:00","FM-15","7",,,,,,,,,,,,,,,,,,,,,,,,,,,,,,,,,,,,,,"29.93","47","70","0.00",,"-0.05","3","44","29.90","OVC:08 90","29.76","10.00","57","270","16","13",,,,,,,,,,,,,,,,,,,,,,,,,,,,,,,,,,,,,"MET10803/20/20 21:51:01 METAR KNYC 210251Z 27011G14KT 10SM OVC090 21/08 A2993 RMK AO2 SLP125 60000 T02110083 53017","FM-15","7",,,,,,,,,,,,,,,,,,,,,,,,,,,,
"72505394728","2020-03-20T22:51:00","FM-15","7",,,,,,,,,,,,,,,,,,,,,,,,,,,,,,,,,,,,,,"29.94","46","69","T","-RA:02 |RA |RA",,,"44","29.91","OVC:08 95","29.77","10.00","57","VRB","24","16",,,,,,,,,,,,,,,,,,,,,,,,,,,,,,,,,,,,,"MET11203/20/20 22:51:02 METAR KNYC 210351Z 28014G21KT 10SM -RA OVC095 21/08 A2994 RMK AO2 RAB45 SLP128 P0000 T02060078","FM-15","7",,,,,,,,,,,,,,,,,,,,,,,,,,,,
"72505394728","2020-03-20T23:51:00","FM-15","7",,,,,,,,,,,,,,,,,,,,,,,,,,,,,,,,,,,,,,"29.96","47","67","0.00",,,,"49","29.93","SCT:04 90 SCT:04 110","29.79","10.00","56","VRB","17","10",,,,,,,,,,,,,,,,,,,,,,,,,,,,,,,,,,,,,"MET12703/20/20 23:51:02 METAR KNYC 210451Z 30009G15KT 10SM SCT090 SCT110 19/08 A2996 RMK AO2 RAE0355 SLP137 P0000 T01940083 402500083","FM-15","7",,,,,,,,,,,,,,,,,,,,,,,,,,,,
"72505394728","2020-03-20T23:59:00","SOD  ","6",,,,,,,,,,,,,,,,"62",,,"29.81",,"5.9","0","18.4","3","77","47","250","34","T","0","0.0","280","18","RA BR HZ",,,,,,,,,,,,,,,,,,,,,,,,,,,,,,,,,,,,,,,,,,,,,,,,,,,,,,,,"SOD76124 HR PRECIPITATION (IN):    T SNOW DEPTH (IN):0     24 HR SNOWFALL (IN):0.0  WEATHER(CODE):18  24 HR MAX TEMP (F): 7724 HR MIN TEMP (F): 47AVERAGE STATION PRESSURE(D):29.813 MINIMUM SEA LEVEL PRESSURE:29.76 TIME OF OCCURRENCE:1641 PEAK WIND SPEED (MPH): 34 PEAK WIND DIR (DEG):250 PEAK WIND TIME (LST):      FASTEST 2MIN SPEED (MPH): 18FASTEST 2MIN DIR (DEG):280 FASTEST 2MIN TIME (LST):     AVERAGE WIND SPEED (MPH): 5.9 24 HR AVG TEMP (F): 62DEPART FROM NORMAL: 18  HEATING DEGREE DAYS:  3 COOLING DEGREE DAYS:  0 LATEST DAY MAX TEMP (0700-1900 LST): 77 LATEST NIGHT MIN TEMP(1900-0800 LST):47 HOURLY INCREMENTAL PRECIPITATION VALUES (IN):0.00 0.00 0.00 0.00 0.00 0.00 0.00 0.00 0.00 0.00T     0.00T     0.00 0.00 0.00 0.00 0.00 0.00T    T     0.00T     0.00","SOD  ","6",,,,,,,,,,,,,,,,,,,,,,,,,"0558","1809",,
"72505394728","2020-03-21T00:51:00","FM-15","7",,,,,,,,,,,,,,,,,,,,,,,,,,,,,,,,,,,,,,"30.02","44","59","0.00",,"-0.09","3","58","29.99","FEW:02 90","29.85","10.00","51","VRB","21","10",,,,,,,,,,,,,,,,,,,,,,,,,,,,,,,,,,,,,"MET12003/21/20 00:51:02 METAR KNYC 210551Z 35009G18KT 10SM FEW090 15/07 A3002 RMK AO2 SLP157 60000 T01500067 10233 20150 53032","FM-15","7",,,,,,,,,,,,,,,,,,,,,,,,,,,,
"72505394728","2020-03-21T01:51:00","FM-15","7",,,,,,,,,,,,,,,,,,,,,,,,,,,,,,,,,,,,,,"30.05","39","55","0.00",,,,"55","30.02","CLR:00","29.88","10.00","47",,,,,,,,,,,,,,,,,,,,,,,,,,,,,,,,,,,,,,,,"MET09003/21/20 01:51:02 METAR KNYC 210651Z      KT 10SM CLR 13/04 A3005 RMK AO2 SLP167 T01280039","FM-15","7",,,,,,,,,,,,,,,,,,,,,,,,,,,,
"72505394728","2020-03-21T02:51:00","FM-15","7",,,,,,,,,,,,,,,,,,,,,,,,,,,,,,,,,,,,,,"30.09","35","51","0.00",,,,"54","30.06","FEW:02 75","29.92","10.00","44","350",,"10",,,,,,,,,,,,,,,,,,,,,,,,,,,,,,,,,,,,,"MET09303/21/20 02:51:02 METAR KNYC 210751Z 35009KT 10SM FEW075 11/02 A3009 RMK AO2 SLP179 T01060017","FM-15","7",,,,,,,,,,,,,,,,,,,,,,,,,,,,
"72505394728","2020-03-21T03:51:00","FM-15","7",,,,,,,,,,,,,,,,,,,,,,,,,,,,,,,,,,,,,,"30.12","30","48","0.00",,"-0.10","3","50","30.09","SCT:04 100","29.95","10.00","40","VRB","22","7",,,,,,,,,,,,,,,,,,,,,,,,,,,,,,,,,,,,,"MET10303/21/20 03:51:02 METAR KNYC 210851Z VRB06G19KT 10SM SCT100 09/M01 A3012 RMK AO2 SLP191 T00891011 53034","FM-15","7",,,,,,,,,,,,,,,,,,,,,,,,,,,,
"72505394728","2020-03-21T04:51:00","FM-15","7",,,,,,,,,,,,,,,,,,,,,,,,,,,,,,,,,,,,,,"30.18","28","47","0.00",,,,"48","30.15","BKN:07 80","30.01","10.00","39",,,,,,,,,,,,,,,,,,,,,,,,,,,,,,,,,,,,,,,,"MET09803/21/20 04:51:02 METAR KNYC 210951Z      KT 10SM BKN080 08/M02 A3018 RMK AO2 SLP210 T00831022 RTX","FM-15","7",,,,,,,,,,,,,,,,,,,,,,,,,,,,
"72505394728","2020-03-21T05:51:00","FM-15","7",,,,,,,,,,,,,,,,,,,,,,,,,,,,,,,,,,,,,,"30.21","27","45","0.00",,,,"49","30.18","CLR:00","30.04","10.00","38","VRB",,"8",,,,,,,,,,,,,,,,,,,,,,,,,,,,,,,,,,,,,"MET09103/21/20 05:51:02 METAR KNYC 211051Z 36007KT 10SM CLR 07/M03 A3021 RMK AO2 SLP220 T00721028","FM-15","7",,,,,,,,,,,,,,,,,,,,,,,,,,,,
"72505394728","2020-03-21T06:51:00","FM-15","7",,,,,,,,,,,,,,,,,,,,,,,,,,,,,,,,,,,,,,"30.26","26","43","0.00",,"-0.13","1","51","30.23","BKN:07 90","30.09","10.00","36","VRB","16","7",,,,,,,,,,,,,,,,,,,,,,,,,,,,,,,,,,,,,"MET11903/21/20 06:51:02 METAR KNYC 211151Z VRB06G14KT 10SM BKN090 06/M03 A3026 RMK AO2 SLP236 T00611033 10150 20061 51045 RTX","FM-15","7",,,,,,,,,,,,,,,,,,,,,,,,,,,,
"72505394728","2020-03-21T07:51:00","FM-15","7",,,,,,,,,,,,,,,,,,,,,,,,,,,,,,,,,,,,,,"30.29","26","43","0.00",,,,"51","30.26","CLR:00","30.12","10.00","36","000",,"0",,,,,,,,,,,,,,,,,,,,,,,,,,,,,,,,,,,,,"MET09103/21/20 07:51:02 METAR KNYC 211251Z 00000KT 10SM CLR 06/M03 A3029 RMK AO2 SLP247 T00611033","FM-15","7",,,,,,,,,,,,,,,,,,,,,,,,,,,,
"72505394728","2020-03-21T08:51:00","FM-15","7",,,,,,,,,,,,,,,,,,,,,,,,,,,,,,,,,,,,,,"30.33","25","42","0.00",,,,"51","30.30","CLR:00","30.16","10.00","35","000",,"0",,,,,,,,,,,,,,,,,,,,,,,,,,,,,,,,,,,,,"MET09103/21/20 08:51:02 METAR KNYC 211351Z 00000KT 10SM CLR 06/M04 A3033 RMK AO2 SLP260 T00561039","FM-15","7",,,,,,,,,,,,,,,,,,,,,,,,,,,,
"72505394728","2020-03-21T09:51:00","FM-15","7",,,,,,,,,,,,,,,,,,,,,,,,,,,,,,,,,,,,,,"30.35","24","44","0.00",,"-0.09","1","45","30.32","CLR:00","30.18","10.00","36",,,,,,,,,,,,,,,,,,,,,,,,,,,,,,,,,,,,,,,,"MET09703/21/20 09:51:02 METAR KNYC 211451Z      KT 10SM CLR 07/M04 A3035 RMK AO2 SLP269 T00671044 51032","FM-15","7",,,,,,,,,,,,,,,,,,,,,,,,,,,,
"72505394728","2020-03-21T10:51:00","FM-15","7",,,,,,,,,,,,,,,,,,,,,,,,,,,,,,,,,,,,,,"30.35","21","47","0.00",,,,"36","30.32","CLR:00","30.18","10.00","37","VRB","18","10",,,,,,,,,,,,,,,,,,,,,,,,,,,,,,,,,,,,,"MET09403/21/20 10:51:02 METAR KNYC 211551Z 04009G16KT 10SM CLR 08/M06 A3035 RMK AO2 SLP269 T00831061","FM-15","7",,,,,,,,,,,,,,,,,,,,,,,,,,,,
"72505394728","2020-03-21T11:51:00","FM-15","7",,,,,,,,,,,,,,,,,,,,,,,,,,,,,,,,,,,,,,"30.35","20","48","0.00",,,,"33","30.33","CLR:00","30.18","10.00","37","030",,"13",,,,,,,,,,,,,,,,,,,,,,,,,,,,,,,,,,,,,"MET09503/21/20 11:51:02 METAR KNYC 211651Z 03011KT 10SM CLR 09/M07 A3035 RMK AO2 SLP270 T00891067 RTX","FM-15","7",,,,,,,,,,,,,,,,,,,,,,,,,,,,
"72505394728","2020-03-21T12:51:00","FM-15","7",,,,,,,,,,,,,,,,,,,,,,,,,,,,,,,,,,,,,,"30.35","18","50","0.00",,"+0.01","8","28","30.32","CLR:00","30.18","10.00","38","VRB","22","9",,,,,,,,,,,,,,,,,,,,,,,,,,,,,,,,,,,,,"MET11203/21/20 12:51:02 METAR KNYC 211751Z 05008G19KT 10SM CLR 10/M08 A3035 RMK AO2 SLP267 T01001078 10100 20056 58002","FM-15","7",,,,,,,,,,,,,,,,,,,,,,,,,,,,
"72505394728","2020-03-21T13:51:00","FM-15","7",,,,,,,,,,,,,,,,,,,,,,,,,,,,,,,,,,,,,,"30.34","18","51","0.00",,,,"27","30.31","CLR:00","30.17","10.00","39","VRB","23","9",,,,,,,,,,,,,,,,,,,,,,,,,,,,,,,,,,,,,"MET09403/21/20 13:51:02 METAR KNYC 211851Z 03008G20KT 10SM CLR 11/M08 A3034 RMK AO2 SLP265 T01061078","FM-15","7",,,,,,,,,,,,,,,,,,,,,,,,,,,,
"72505394728","2020-03-21T14:51:00","FM-15","7",,,,,,,,,,,,,,,,,,,,,,,,,,,,,,,,,,,,,,"30.33","15","51","0.00",,,,"24","30.31","CLR:00","30.16","10.00","38","VRB","18","7",,,,,,,,,,,,,,,,,,,,,,,,,,,,,,,,,,,,,"MET09403/21/20 14:51:02 METAR KNYC 211951Z VRB06G16KT 10SM CLR 11/M09 A3033 RMK AO2 SLP263 T01061094","FM-15","7",,,,,,,,,,,,,,,,,,,,,,,,,,,,
"72505394728","2020-03-21T15:51:00","FM-15","7",,,,,,,,,,,,,,,,,,,,,,,,,,,,,,,,,,,,,,"30.33","11","50","0.00",,"+0.02","6","21","30.30","CLR:00","30.16","10.00","36","050",,"6",,,,,,,,,,,,,,,,,,,,,,,,,,,,,,,,,,,,,"MET10103/21/20 15:51:02 METAR KNYC 212051Z 05005KT 10SM CLR 10/M12 A3033 RMK AO2 SLP261 T01001117 56006 RTX","FM-15","7",,,,,,,,,,,,,,,,,,,,,,,,,,,,
"72505394728","2020-03-21T16:51:00","FM-15","7",,,,,,,,,,,,,,,,,,,,,,,,,,,,,,,,,,,,,,"30.34","10","49","0.00",,,,"21","30.31","CLR:00","30.17","10.00","36","040",,"9",,,,,,,,,,,,,,,,,,,,,,,,,,,,,,,,,,,,,"MET09503/21/20 16:51:02 METAR KNYC 212151Z 04008KT 10SM CLR 09/M12 A3034 RMK AO2 SLP265 T00941122 RTX","FM-15","7",,,,,,,,,,,,,,,,,,,,,,,,,,,,
"72505394728","2020-03-21T17:51:00","FM-15","7",,,,,,,,,,,,,,,,,,,,,,,,,,,,,,,,,,,,,,"30.36","10","48","0.00",,,,"21","30.33","CLR:00","30.19","10.00","35","040",,"6",,,,,,,,,,,,,,,,,,,,,,,,,,,,,,,,,,,,,"MET09103/21/20 17:51:02 METAR KNYC 212251Z 04005KT 10SM CLR 09/M12 A3036 RMK AO2 SLP272 T00891122","FM-15","7",,,,,,,,,,,,,,,,,,,,,,,,,,,,
"72505394728","2020-03-21T18:51:00","FM-15","7",,,,,,,,,,,,,,,,,,,,,,,,,,,,,,,,,,,,,,"30.37","7","47","0.00",,"-0.05","3","19","30.35","OVC:08 75","30.20","10.00","34","070",,"9",,,,,,,,,,,,,,,,,,,,,,,,,,,,,,,,,,,,,"MET11603/21/20 18:51:02 METAR KNYC 212351Z 07008KT 10SM OVC075 08/M14 A3037 RMK AO2 SLP277 T00831139 10111 20083 53016 RTX","FM-15","7",,,,,,,,,,,,,,,,,,,,,,,,,,,,
"72505394728","2020-03-21T19:51:00","FM-15","7",,,,,,,,,,,,,,,,,,,,,,,,,,,,,,,,,,,,,,"30.40","9","47","0.00",,,,"21","30.37","OVC:08 75","30.23","10.00","34","030",,"9",,,,,,,,,,,,,,,,,,,,,,,,,,,,,,,,,,,,,"MET09403/21/20 19:51:01 METAR KNYC 220051Z 03008KT 10SM OVC075 08/M13 A3040 RMK AO2 SLP285 T00831128","FM-15","7",,,,,,,,,,,,,,,,,,,,,,,,,,,,
"72505394728","2020-03-21T20:51:00","FM-15","7",,,,,,,,,,,,,,,,,,,,,,,,,,,,,,,,,,,,,,"30.42","12","45","0.00",,,,"26","30.40","BKN:07 80","30.25","10.00","34","030",,"6",,,,,,,,,,,,,,,,,,,,,,,,,,,,,,,,,,,,,"MET09403/21/20 20:51:01 METAR KNYC 220151Z 03005KT 10SM BKN080 07/M11 A3042 RMK AO2 SLP293 T00721111","FM-15","7",,,,,,,,,,,,,,,,,,,,,,,,,,,,
"72505394728","2020-03-21T21:51:00","FM-15","7",,,,,,,,,,,,,,,,,,,,,,,,,,,,,,,,,,,,,,"30.45","12","43","0.00",,"-0.08","3","28","30.43","SCT:04 80","30.28","10.00","33","020","17","7",,,,,,,,,,,,,,,,,,,,,,,,,,,,,,,,,,,,,"MET10303/21/20 21:51:01 METAR KNYC 220251Z 02006G15KT 10SM SCT080 06/M11 A3045 RMK AO2 SLP304 T00611111 53027","FM-15","7",,,,,,,,,,,,,,,,,,,,,,,,,,,,
"72505394728","2020-03-21T22:51:00","FM-15","7",,,,,,,,,,,,,,,,,,,,,,,,,,,,,,,,,,,,,,"30.47","10","42","0.00",,,,"27","30.44","CLR:00","30.30","10.00","32","040","21","14",,,,,,,,,,,,,,,,,,,,,,,,,,,,,,,,,,,,,"MET09403/21/20 22:51:02 METAR KNYC 220351Z 04012G18KT 10SM CLR 06/M12 A3047 RMK AO2 SLP308 T00561122","FM-15","7",,,,,,,,,,,,,,,,,,,,,,,,,,,,
"72505394728","2020-03-21T23:51:00","FM-15","7",,,,,,,,,,,,,,,,,,,,,,,,,,,,,,,,,,,,,,"30.47","13","40","0.00",,,,"33","30.45","CLR:00","30.30","10.00","31","VRB","17","7",,,,,,,,,,,,,,,,,,,,,,,,,,,,,,,,,,,,,"MET10403/21/20 23:51:02 METAR KNYC 220451Z VRB06G15KT 10SM CLR 04/M11 A3047 RMK AO2 SLP310 T00441106 401830044","FM-15","7",,,,,,,,,,,,,,,,,,,,,,,,,,,,
"72505394728","2020-03-21T23:59:00","SOD  ","6",,,,,,,,,,,,,,,,"53s",,,"30.13",,"7.8","0s","9.1s","12s","65s","40","050","23","0.00","0","0.0","040","16",,,,,,,,,,,,,,,,,,,,,,,,,,,,,,,,,,,,,,,,,,,,,,,,,,,,,,,,,"SOD74324 HR PRECIPITATION (IN): 0.00 SNOW DEPTH (IN):0     24 HR SNOWFALL (IN):0.0  24 HR MAX TEMP (F): 6524 HR MIN TEMP (F): 40AVERAGE STATION PRESSURE(D):30.130 MINIMUM SEA LEVEL PRESSURE:29.95 TIME OF OCCURRENCE:0006 PEAK WIND SPEED (MPH): 23 PEAK WIND DIR (DEG): 50 PEAK WIND TIME (LST):      FASTEST 2MIN SPEED (MPH): 16FASTEST 2MIN DIR (DEG): 40 FASTEST 2MIN TIME (LST):     AVERAGE WIND SPEED (MPH): 7.8 24 HR AVG TEMP (F): 53DEPART FROM NORMAL:  9  HEATING DEGREE DAYS: 12 COOLING DEGREE DAYS:  0 LATEST DAY MAX TEMP (0700-1900 LST): 52 LATEST NIGHT MIN TEMP(1900-0800 LST):42 HOURLY INCREMENTAL PRECIPITATION VALUES (IN):0.00 0.00 0.00 0.00 0.00 0.00 0.00 0.00 0.00 0.00 0.00 0.00 0.00 0.00 0.00 0.00 0.00 0.00 0.00 0.00 0.00 0.00 0.00 0.00","SOD  ","6",,,,,,,,,,,,,,,,,,,,,,,,,"0556","1810",,
"72505394728","2020-03-22T00:51:00","FM-15","7",,,,,,,,,,,,,,,,,,,,,,,,,,,,,,,,,,,,,,"30.49","13","39","0.00",,"-0.04","3","34","30.47","CLR:00","30.32","10.00","31","030",,"9",,,,,,,,,,,,,,,,,,,,,,,,,,,,,,,,,,,,,"MET10903/22/20 00:51:02 METAR KNYC 220551Z 03008KT 10SM CLR 04/M11 A3049 RMK AO2 SLP318 T00391106 10083 20039 53013","FM-15","7",,,,,,,,,,,,,,,,,,,,,,,,,,,,
"72505394728","2020-03-22T01:51:00","FM-15","7",,,,,,,,,,,,,,,,,,,,,,,,,,,,,,,,,,,,,,"30.51","13","38","0.00",,,,"36","30.48","FEW:02 75","30.34","10.00","30","VRB","22","13",,,,,,,,,,,,,,,,,,,,,,,,,,,,,,,,,,,,,"MET10103/22/20 01:51:02 METAR KNYC 220651Z 02011G19KT 10SM FEW075 03/M11 A3051 RMK AO2 SLP322 T00331106 RTX","FM-15","7",,,,,,,,,,,,,,,,,,,,,,,,,,,,
"72505394728","2020-03-22T02:51:00","FM-15","7",,,,,,,,,,,,,,,,,,,,,,,,,,,,,,,,,,,,,,"30.52","12","36","0.00",,,,"37","30.49","CLR:00","30.35","10.00","28","030","17","10",,,,,,,,,,,,,,,,,,,,,,,,,,,,,,,,,,,,,"MET09403/22/20 02:51:02 METAR KNYC 220751Z 03009G15KT 10SM CLR 02/M11 A3052 RMK AO2 SLP326 T00221111","FM-15","7",,,,,,,,,,,,,,,,,,,,,,,,,,,,
"72505394728","2020-03-22T03:51:00","FM-15","7",,,,,,,,,,,,,,,,,,,,,,,,,,,,,,,,,,,,,,"30.53","13","35","0.00",,"-0.04","1","40","30.50","BKN:07 36","30.36","10.00","28","050","17","13",,,,,,,,,,,,,,,,,,,,,,,,,,,,,,,,,,,,,"MET11203/22/20 03:51:02 METAR KNYC 220851Z 05011G15KT 10SM BKN036 02/M11 A3053 RMK AO2 SLP329 T00171106 51012 RTX FIBI","FM-15","7",,,,,,,,,,,,,,,,,,,,,,,,,,,,
"72505394728","2020-03-22T04:51:00","FM-15","7",,,,,,,,,,,,,,,,,,,,,,,,,,,,,,,,,,,,,,"30.57","13","35","0.00",,,,"40","30.54","BKN:07 42 OVC:08 80","30.40","10.00","28","VRB","17","11",,,,,,,,,,,,,,,,,,,,,,,,,,,,,,,,,,,,,"MET10803/22/20 04:51:02 METAR KNYC 220951Z 04010G15KT 10SM BKN042 OVC080 02/M11 A3057 RMK AO2 SLP342 T00171106 RTX","FM-15","7",,,,,,,,,,,,,,,,,,,,,,,,,,,,
"72505394728","2020-03-22T05:51:00","FM-15","7",,,,,,,,,,,,,,,,,,,,,,,,,,,,,,,,,,,,,,"30.60","11","34","0.00",,,,"38","30.58","SCT:04 44","30.43","10.00","27","050","22","11",,,,,,,,,,,,,,,,,,,,,,,,,,,,,,,,,,,,,"MET09703/22/20 05:51:02 METAR KNYC 221051Z 05010G19KT 10SM SCT044 01/M12 A3060 RMK AO2 SLP354 T00111117","FM-15","7",,,,,,,,,,,,,,,,,,,,,,,,,,,,
"72505394728","2020-03-22T06:51:00","FM-15","7",,,,,,,,,,,,,,,,,,,,,,,,,,,,,,,,,,,,,,"30.63","9","33","0.00",,"-0.10","1","36","30.61","BKN:07 39","30.46","10.00","26","050","24","15",,,,,,,,,,,,,,,,,,,,,,,,,,,,,,,,,,,,,"MET11903/22/20 06:51:02 METAR KNYC 221151Z 05013G21KT 10SM BKN039 01/M13 A3063 RMK AO2 SLP365 T00061128 10039 20006 51035 RTX","FM-15","7",,,,,,,,,,,,,,,,,,,,,,,,,,,,
"72505394728","2020-03-22T07:51:00","FM-15","7",,,,,,,,,,,,,,,,,,,,,,,,,,,,,,,,,,,,,,"30.65","8","34","0.00",,,,"34","30.63","BKN:07 40","30.48","10.00","26","VRB","21","9",,,,,,,,,,,,,,,,,,,,,,,,,,,,,,,,,,,,,"MET09703/22/20 07:51:02 METAR KNYC 221251Z 05008G18KT 10SM BKN040 01/M13 A3065 RMK AO2 SLP372 T00111133","FM-15","7",,,,,,,,,,,,,,,,,,,,,,,,,,,,
"72505394728","2020-03-22T08:51:00","FM-15","7",,,,,,,,,,,,,,,,,,,,,,,,,,,,,,,,,,,,,,"30.68","8","36","0.00",,,,"31","30.65","OVC:08 43","30.51","10.00","28","040","22","16",,,,,,,,,,,,,,,,,,,,,,,,,,,,,,,,,,,,,"MET10103/22/20 08:51:02 METAR KNYC 221351Z 04014G19KT 10SM OVC043 02/M13 A3068 RMK AO2 SLP380 T00221133 RTX","FM-15","7",,,,,,,,,,,,,,,,,,,,,,,,,,,,
"72505394728","2020-03-22T09:51:00","FM-15","7",,,,,,,,,,,,,,,,,,,,,,,,,,,,,,,,,,,,,,"30.69","8","38","0.00",,"-0.05","1","29","30.66","OVC:08 45","30.52","10.00","29","040",,"14",,,,,,,,,,,,,,,,,,,,,,,,,,,,,,,,,,,,,"MET10003/22/20 09:51:02 METAR KNYC 221451Z 04012KT 10SM OVC045 03/M13 A3069 RMK AO2 SLP383 T00331133 51018","FM-15","7",,,,,,,,,,,,,,,,,,,,,,,,,,,,
"72505394728","2020-03-22T10:51:00","FM-15","7",,,,,,,,,,,,,,,,,,,,,,,,,,,,,,,,,,,,,,"30.69","13","39","0.00",,,,"34","30.67","BKN:07 49","30.52","10.00","31","VRB","17","8",,,,,,,,,,,,,,,,,,,,,,,,,,,,,,,,,,,,,"MET09703/22/20 10:51:02 METAR KNYC 221551Z 05007G15KT 10SM BKN049 04/M11 A3069 RMK AO2 SLP386 T00391106","FM-15","7",,,,,,,,,,,,,,,,,,,,,,,,,,,,
"72505394728","2020-03-22T11:51:00","FM-15","7",,,,,,,,,,,,,,,,,,,,,,,,,,,,,,,,,,,,,,"30.71","11","38","0.00",,,,"33","30.69","OVC:08 50","30.54","10.00","30","VRB",,"6",,,,,,,,,,,,,,,,,,,,,,,,,,,,,,,,,,,,,"MET09803/22/20 11:51:02 METAR KNYC 221651Z VRB05KT 10SM OVC050 03/M12 A3071 RMK AO2 SLP392 T00331117 RTX","FM-15","7",,,,,,,,,,,,,,,,,,,,,,,,,,,,
"72505394728","2020-03-22T12:51:00","FM-15","7",,,,,,,,,,,,,,,,,,,,,,,,,,,,,,,,,,,,,,"30.71","9","42","0.00",,"-0.02","0","25","30.68","FEW:02 55","30.54","10.00","32","VRB",,"9",,,,,,,,,,,,,,,,,,,,,,,,,,,,,,,,,,,,,"MET11603/22/20 12:51:02 METAR KNYC 221751Z 08008KT 10SM FEW055 06/M13 A3071 RMK AO2 SLP390 T00561128 10061 20006 50007 RTX","FM-15","7",,,,,,,,,,,,,,,,,,,,,,,,,,,,
"72505394728","2020-03-22T13:51:00","FM-15","7",,,,,,,,,,,,,,,,,,,,,,,,,,,,,,,,,,,,,,"30.67","11","43","0.00",,,,"27","30.65","CLR:00","30.50","10.00","33","060",,"10",,,,,,,,,,,,,,,,,,,,,,,,,,,,,,,,,,,,,"MET09103/22/20 13:51:02 METAR KNYC 221851Z 06009KT 10SM CLR 06/M12 A3067 RMK AO2 SLP379 T00611117","FM-15","7",,,,,,,,,,,,,,,,,,,,,,,,,,,,
"72505394728","2020-03-22T14:51:00","FM-15","7",,,,,,,,,,,,,,,,,,,,,,,,,,,,,,,,,,,,,,"30.66","13","45","0.00",,,,"27","30.63","CLR:00","30.49","10.00","34","VRB",,"6",,,,,,,,,,,,,,,,,,,,,,,,,,,,,,,,,,,,,"MET09103/22/20 14:51:02 METAR KNYC 221951Z VRB05KT 10SM CLR 07/M11 A3066 RMK AO2 SLP373 T00721106","FM-15","7",,,,,,,,,,,,,,,,,,,,,,,,,,,,
"72505394728","2020-03-22T15:51:00","FM-15","7",,,,,,,,,,,,,,,,,,,,,,,,,,,,,,,,,,,,,,"30.65","23","43","0.00",,"+0.05","6","45","30.63","SCT:04 43 SCT:04 50","30.48","10.00","35",,,,,,,,,,,,,,,,,,,,,,,,,,,,,,,,,,,,,,,,"MET11103/22/20 15:51:02 METAR KNYC 222051Z      KT 10SM SCT043 SCT050 06/M05 A3065 RMK AO2 SLP372 T00611050 56018 RTX","FM-15","7",,,,,,,,,,,,,,,,,,,,,,,,,,,,
"72505394728","2020-03-22T16:51:00","FM-15","7",,,,,,,,,,,,,,,,,,,,,,,,,,,,,,,,,,,,,,"30.67","23","40","0.00",,,,"51","30.64","OVC:08 42","30.50","10.00","34","160","18","8",,,,,,,,,,,,,,,,,,,,,,,,,,,,,,,,,,,,,"MET10103/22/20 16:51:02 METAR KNYC 222151Z 16007G16KT 10SM OVC042 04/M05 A3067 RMK AO2 SLP376 T00441050 RTX","FM-15","7",,,,,,,,,,,,,,,,,,,,,,,,,,,,
"72505394728","2020-03-22T17:51:00","FM-15","7",,,,,,,,,,,,,,,,,,,,,,,,,,,,,,,,,,,,,,"30.68","23","39","0.00",,,,"53","30.65","BKN:07 39","30.51","10.00","33","VRB",,"7",,,,,,,,,,,,,,,,,,,,,,,,,,,,,,,,,,,,,"MET09403/22/20 17:51:02 METAR KNYC 222251Z VRB06KT 10SM BKN039 04/M05 A3068 RMK AO2 SLP380 T00391050","FM-15","7",,,,,,,,,,,,,,,,,,,,,,,,,,,,
"72505394728","2020-03-22T18:51:00","FM-15","7",,,,,,,,,,,,,,,,,,,,,,,,,,,,,,,,,,,,,,"30.68","23","38","0.00",,"-0.03","1","55","30.66","CLR:00","30.51","10.00","33","160","20","7",,,,,,,,,,,,,,,,,,,,,,,,,,,,,,,,,,,,,"MET11203/22/20 18:51:02 METAR KNYC 222351Z 16006G17KT 10SM CLR 03/M05 A3068 RMK AO2 SLP384 T00331050 10072 20033 51010","FM-15","7",,,,,,,,,,,,,,,,,,,,,,,,,,,,
"72505394728","2020-03-22T19:51:00","FM-15","7",,,,,,,,,,,,,,,,,,,,,,,,,,,,,,,,,,,,,,"30.70","22","38","0.00",,,,"52","30.68","CLR:00","30.53","10.00","32","VRB","20","8",,,,,,,,,,,,,,,,,,,,,,,,,,,,,,,,,,,,,"MET09403/22/20 19:51:01 METAR KNYC 230051Z 12007G17KT 10SM CLR 03/M06 A3070 RMK AO2 SLP388 T00331056","FM-15","7",,,,,,,,,,,,,,,,,,,,,,,,,,,,
"72505394728","2020-03-22T20:51:00","FM-15","7",,,,,,,,,,,,,,,,,,,,,,,,,,,,,,,,,,,,,,"30.69","23","38","0.00",,,,"55","30.66","CLR:00","30.52","10.00","33",,,,,,,,,,,,,,,,,,,,,,,,,,,,,,,,,,,,,,,,"MET09103/22/20 20:51:01 METAR KNYC 230151Z      KT 10SM CLR 03/M05 A3069 RMK AO2 SLP383 T00331050","FM-15","7",,,,,,,,,,,,,,,,,,,,,,,,,,,,
"72505394728","2020-03-22T21:51:00","FM-15","7",,,,,,,,,,,,,,,,,,,,,,,,,,,,,,,,,,,,,,"30.69","23","37","0.00",,"-0.00","1","57","30.66","CLR:00","30.52","10.00","32","130","16","11",,,,,,,,,,,,,,,,,,,,,,,,,,,,,,,,,,,,,"MET10003/22/20 21:51:01 METAR KNYC 230251Z 13010G14KT 10SM CLR 03/M05 A3069 RMK AO2 SLP384 T00281050 51001","FM-15","7",,,,,,,,,,,,,,,,,,,,,,,,,,,,
"72505394728","2020-03-22T22:51:00","FM-15","7",,,,,,,,,,,,,,,,,,,,,,,,,,,,,,,,,,,,,,"30.70","23","37","0.00",,,,"57","30.67","SCT:04 30","30.53","10.00","32",,,,,,,,,,,,,,,,,,,,,,,,,,,,,,,,,,,,,,,,"MET09403/22/20 22:51:02 METAR KNYC 230351Z      KT 10SM SCT030 03/M05 A3070 RMK AO2 SLP386 T00281050","FM-15","7",,,,,,,,,,,,,,,,,,,,,,,,,,,,
"72505394728","2020-03-22T23:51:00","FM-15","7",,,,,,,,,,,,,,,,,,,,,,,,,,,,,,,,,,,,,,"30.68","24","37","0.00",,,,"59","30.65","CLR:00","30.51","10.00","32","130","20","9",,,,,,,,,,,,,,,,,,,,,,,,,,,,,,,,,,,,,"MET10403/22/20 23:51:02 METAR KNYC 230451Z 13008G17KT 10SM CLR 03/M04 A3068 RMK AO2 SLP380 T00281044 400720006","FM-15","7",,,,,,,,,,,,,,,,,,,,,,,,,,,,
"72505394728","2020-03-22T23:59:00","SOD  ","6",,,,,,,,,,,,,,,,"39",,,"30.47",,"10.1","0","-5.2","26","45","33","020","25","0.00","0","0.0","050","17",,,,,,,,,,,,,,,,,,,,,,,,,,,,,,,,,,,,,,,,,,,,,,,,,,,,,,,,,"SOD74324 HR PRECIPITATION (IN): 0.00 SNOW DEPTH (IN):0     24 HR SNOWFALL (IN):0.0  24 HR MAX TEMP (F): 4524 HR MIN TEMP (F): 33AVERAGE STATION PRESSURE(D):30.471 MINIMUM SEA LEVEL PRESSURE:30.45 TIME OF OCCURRENCE:0039 PEAK WIND SPEED (MPH): 25 PEAK WIND DIR (DEG): 20 PEAK WIND TIME (LST):      FASTEST 2MIN SPEED (MPH): 17FASTEST 2MIN DIR (DEG): 50 FASTEST 2MIN TIME (LST):     AVERAGE WIND SPEED (MPH):10.1 24 HR AVG TEMP (F): 39DEPART FROM NORMAL: -5  HEATING DEGREE DAYS: 26 COOLING DEGREE DAYS:  0 LATEST DAY MAX TEMP (0700-1900 LST): 45 LATEST NIGHT MIN TEMP(1900-0800 LST):33 HOURLY INCREMENTAL PRECIPITATION VALUES (IN):0.00 0.00 0.00 0.00 0.00 0.00 0.00 0.00 0.00 0.00 0.00 0.00 0.00 0.00 0.00 0.00 0.00 0.00 0.00 0.00 0.00 0.00 0.00 0.00","SOD  ","6",,,,,,,,,,,,,,,,,,,,,,,,,"0555","1811",,
"72505394728","2020-03-23T00:51:00","FM-15","7",,,,,,,,,,,,,,,,,,,,,,,,,,,,,,,,,,,,,,"30.64","24","37","0.00",,"+0.05","8","59","30.62","FEW:02 31 FEW:02 120","30.47","10.00","32","VRB","17","10",,,,,,,,,,,,,,,,,,,,,,,,,,,,,,,,,,,,,"MET13403/23/20 00:51:02 METAR KNYC 230551Z 11009G15KT 10SM FEW031 FEW120 03/M04 A3064 RMK AO2 PRESFR SLP368 T00281044 10033 20028 58016 (JE)","FM-15","7",,,,,,,,,,,,,,,,,,,,,,,,,,,,
"72505394728","2020-03-23T01:51:00","FM-15","7",,,,,,,,,,,,,,,,,,,,,,,,,,,,,,,,,,,,,,"30.64","23","37","0.00",,,,"57","30.61","FEW:02 33 SCT:04 120","30.47","10.00","32","100","20","11",,,,,,,,,,,,,,,,,,,,,,,,,,,,,,,,,,,,,"MET10903/23/20 01:51:02 METAR KNYC 230651Z 10010G17KT 10SM FEW033 SCT120 03/M05 A3064 RMK AO2 SLP366 T00281050 (JE)","FM-15","7",,,,,,,,,,,,,,,,,,,,,,,,,,,,
"72505394728","2020-03-23T02:39:00","FM-16","7",,,,,,,,,,,,,,,,,,,,,,,,,,,,,,,,,,,,,,"30.60","25","37",,,,,"62",,"OVC:08 28","30.43","10.00","33","VRB",,"5",,,,,,,,,,,,,,,,,,,,,,,,,,,,,,,,,,,,,"MET09203/23/20 02:39:02 SPECI KNYC 230739Z VRB04KT 10SM OVC028 03/M04 A3060 RMK AO2 T00281039 (JE)","FM-16","7",,,,,,,,,,,,,,,,,,,,,,,,,,,,
"72505394728","2020-03-23T02:51:00","FM-15","7",,,,,,,,,,,,,,,,,,,,,,,,,,,,,,,,,,,,,,"30.61","25","37","0.00",,,,"62","30.58","OVC:08 27","30.44","10.00","33","VRB","21","9",,,,,,,,,,,,,,,,,,,,,,,,,,,,,,,,,,,,,"MET10203/23/20 02:51:02 METAR KNYC 230751Z 10008G18KT 10SM OVC027 03/M04 A3061 RMK AO2 SLP356 T00281039 (JE)","FM-15","7",,,,,,,,,,,,,,,,,,,,,,,,,,,,
"72505394728","2020-03-23T03:51:00","FM-15","7",,,,,,,,,,,,,,,,,,,,,,,,,,,,,,,,,,,,,,"30.59","26","38","0.00",,"+0.05","8","62","30.57","OVC:08 25","30.42","10.00","33","110","18","13",,,,,,,,,,,,,,,,,,,,,,,,,,,,,,,,,,,,,"MET10803/23/20 03:51:02 METAR KNYC 230851Z 11011G16KT 10SM OVC025 03/M03 A3059 RMK AO2 SLP352 T00331033 58016 (JE)","FM-15","7",,,,,,,,,,,,,,,,,,,,,,,,,,,,
"72505394728","2020-03-23T04:51:00","FM-15","7",,,,,,,,,,,,,,,,,,,,,,,,,,,,,,,,,,,,,,"30.56","29","37","T",,,,"73","30.53","BKN:07 25 BKN:07 46 OVC:08 60","30.39","9.00","34","090","20","10",,,,,,,,,,,,,,,,,,,,,,,,,,,,,,,,,,,,,"MET13003/23/20 04:51:02 METAR KNYC 230951Z 09009G17KT 9SM BKN025 BKN046 OVC060 03/M02 A3056 RMK AO2 SNB25E46 SLP339 P0000 T00281017 (JE)","FM-15","7",,,,,,,,,,,,,,,,,,,,,,,,,,,,
"72505394728","2020-03-23T05:51:00","FM-15","7",,,,,,,,,,,,,,,,,,,,,,,,,,,,,,,,,,,,,,"30.54","29","37","T","-RA:02 |RA |RA",,,"73","30.52","OVC:08 23","30.37","9.00","34","070",,"8",,,,,,,,,,,,,,,,,,,,,,,,,,,,,,,,,,,,,"MET13203/23/20 05:51:02 METAR KNYC 231051Z 07007KT 9SM -RA OVC023 03/M02 A3054 RMK AO2 RAB36SNB10E23B40E50 SLP335 P0000 T00281017 RTX (JE)","FM-15","7",,,,,,,,,,,,,,,,,,,,,,,,,,,,
"72505394728","2020-03-23T06:51:00","FM-15","7",,,,,,,,,,,,,,,,,,,,,,,,,,,,,,,,,,,,,,"30.51","31","36","0.01","-SN:03 |SN |","+0.08","6","82","30.49","OVC:08 18","30.34","4.00","34","090",,"9",,,,,,,,,,,,,,,,,,,,,,,,,,,,,,,,,,,,,"MET17703/23/20 06:51:02 METAR KNYC 231151Z 09008KT 4SM -SN OVC018 02/M01 A3051 RMK AO2 RAE1053UPB1053E1054B21E30SNB1054E21B30 SLP324 P0001 60001 70001 T00221006 10033 20022 56027 (JE)","FM-15","7",,,,,,,,,,,,,,,,,,,,,,,,,,,,
"72505394728","2020-03-23T07:49:00","FM-16","7",,,,,,,,,,,,,,,,,,,,,,,,,,,,,,,,,,,,,,"30.50","32","36","T","-RA:02 |RA |RA",,,"87",,"OVC:08 14","30.33","7.00","34","VRB","17","9",,,,,,,,,,,,,,,,,,,,,,,,,,,,,,,,,,,,,"MET12103/23/20 07:49:02 SPECI KNYC 231249Z 11008G15KT 7SM -RA OVC014 02/00 A3050 RMK AO2 UPB1154E12RAB33SNE1154 P0000 FIBI (JE)","FM-16","7",,,,,,,,,,,,,,,,,,,,,,,,,,,,
"72505394728","2020-03-23T07:51:00","FM-15","7",,,,,,,,,,,,,,,,,,,,,,,,,,,,,,,,,,,,,,"30.50","31","36","T","-RA:02 |RA |RA",,,"82","30.47","OVC:08 14","30.33","8.00","34","VRB","17","8",,,,,,,,,,,,,,,,,,,,,,,,,,,,,,,,,,,,,"MET13803/23/20 07:51:02 METAR KNYC 231251Z 10007G15KT 8SM -RA OVC014 02/M01 A3050 RMK AO2 UPB1154E12RAB33SNE1154 SLP320 P0000 T00221006 RTX (JE)","FM-15","7",,,,,,,,,,,,,,,,,,,,,,,,,,,,
"72505394728","2020-03-23T07:59:00","FM-16","7",,,,,,,,,,,,,,,,,,,,,,,,,,,,,,,,,,,,,,"30.50","32","36","T",,,,"86",,"OVC:08 15","30.33","9.00","34","100","17","10",,,,,,,,,,,,,,,,,,,,,,,,,,,,,,,,,,,,,"MET11303/23/20 07:59:02 SPECI KNYC 231259Z 10009G15KT 9SM OVC015 02/00 A3050 RMK AO2 RAE58UPB56E57 P0000 T00220000 (JE)","FM-16","7",,,,,,,,,,,,,,,,,,,,,,,,,,,,
"72505394728","2020-03-23T08:17:00","FM-16","7",,,,,,,,,,,,,,,,,,,,,,,,,,,,,,,,,,,,,,"30.49","32","37","T",,,,"82",,"OVC:08 14","30.32","7.00","35",,,,,,,,,,,,,,,,,,,,,,,,,,,,,,,,,,,,,,,,"MET12003/23/20 08:17:02 SPECI KNYC 231317Z      KT 7SM OVC014 03/00 A3049 RMK AO2 RAE1258UPB1256E1257 P0000 T00280000 RTX (JE)","FM-16","7",,,,,,,,,,,,,,,,,,,,,,,,,,,,
"72505394728","2020-03-23T08:47:00","FM-16","7",,,,,,,,,,,,,,,,,,,,,,,,,,,,,,,,,,,,,,"30.48","32","37","T","-RA:02 |RA |RA",,,"81",,"OVC:08 15","30.31","6.00","35","VRB","18","8",,,,,,,,,,,,,,,,,,,,,,,,,,,,,,,,,,,,,"MET12603/23/20 08:47:02 SPECI KNYC 231347Z 07007G16KT 6SM -RA OVC015 03/00 A3048 RMK AO2 RAE1258B42UPB1256E1257B43E44 P0000 RTX (JE)","FM-16","7",,,,,,,,,,,,,,,,,,,,,,,,,,,,
"72505394728","2020-03-23T08:51:00","FM-15","7",,,,,,,,,,,,,,,,,,,,,,,,,,,,,,,,,,,,,,"30.48","33","37","T","-RA:02 BR:1 |RA |RA",,,"86","30.45","OVC:08 15","30.31","6.00","35","100","18","8",,,,,,,,,,,,,,,,,,,,,,,,,,,,,,,,,,,,,"MET14603/23/20 08:51:02 METAR KNYC 231351Z 10007G16KT 6SM -RA BR OVC015 03/01 A3048 RMK AO2 RAE1258B42UPB1256E1257B43E44 SLP312 P0000 T00280006 RTX (JE)","FM-15","7",,,,,,,,,,,,,,,,,,,,,,,,,,,,
"72505394728","2020-03-23T09:07:00","FM-16","7",,,,,,,,,,,,,,,,,,,,,,,,,,,,,,,,,,,,,,"30.47","33","37","0.01","-RA:02 BR:1 |RA |RA",,,"86",,"OVC:08 13","30.30","5.00","35","100","17","10",,,,,,,,,,,,,,,,,,,,,,,,,,,,,,,,,,,,,"MET10103/23/20 09:07:02 SPECI KNYC 231407Z 10009G15KT 5SM -RA BR OVC013 03/01 A3047 RMK AO2 P0001 T00280006","FM-16","7",,,,,,,,,,,,,,,,,,,,,,,,,,,,
"72505394728","2020-03-23T09:42:00","FM-16","7",,,,,,,,,,,,,,,,,,,,,,,,,,,,,,,,,,,,,,"30.45","33","37","0.03","RA:02 BR:1 |RA |RA",,,"86",,"OVC:08 12","30.28","2.00","35","VRB","21","7",,,,,,,,,,,,,,,,,,,,,,,,,,,,,,,,,,,,,"MET10003/23/20 09:42:02 SPECI KNYC 231442Z VRB06G18KT 2SM RA BR OVC012 03/01 A3045 RMK AO2 P0003 T00280006","FM-16","7",,,,,,,,,,,,,,,,,,,,,,,,,,,,
"72505394728","2020-03-23T09:51:00","FM-15","7",,,,,,,,,,,,,,,,,,,,,,,,,,,,,,,,,,,,,,"30.45","34","37","0.05","-RA:02 BR:1 |RA |RA","+0.05","8","89","30.43","OVC:08 12","30.28","2.50","36","070",,"8",,,,,,,,,,,,,,,,,,,,,,,,,,,,,,,,,,,,,"MET12103/23/20 09:51:02 METAR KNYC 231451Z 07007KT 2 1/2SM -RA BR OVC012 03/01 A3045 RMK AO2 SLP304 P0005 60005 T00280011 58016","FM-15","7",,,,,,,,,,,,,,,,,,,,,,,,,,,,
"72505394728","2020-03-23T09:59:00","FM-16","7",,,,,,,,,,,,,,,,,,,,,,,,,,,,,,,,,,,,,,"30.46","34","36","T","-RA:02 BR:1 |RA |RA",,,"93",,"BKN:07 9 OVC:08 13","30.29","3.00","35","070",,"8",,,,,,,,,,,,,,,,,,,,,,,,,,,,,,,,,,,,,"MET10503/23/20 09:59:02 SPECI KNYC 231459Z 07007KT 3SM -RA BR BKN009 OVC013 02/01 A3046 RMK AO2 P0000 T00220011","FM-16","7",,,,,,,,,,,,,,,,,,,,,,,,,,,,
"72505394728","2020-03-23T10:21:00","FM-16","7",,,,,,,,,,,,,,,,,,,,,,,,,,,,,,,,,,,,,,"30.42","34","37","0.02","-RA:02 BR:1 |RA |RA",,,"89",,"OVC:08 7","30.25","2.00","36","VRB",,"7",,,,,,,,,,,,,,,,,,,,,,,,,,,,,,,,,,,,,"MET09803/23/20 10:21:02 SPECI KNYC 231521Z VRB06KT 2SM -RA BR OVC007 03/01 A3042 RMK AO2 P0002 T00280011","FM-16","7",,,,,,,,,,,,,,,,,,,,,,,,,,,,
"72505394728","2020-03-23T10:37:00","FM-16","7",,,,,,,,,,,,,,,,,,,,,,,,,,,,,,,,,,,,,,"30.41","35","37","0.03","-RA:02 BR:1 |RA |RA",,,"93",,"BKN:07 7 OVC:08 11","30.24","3.00","36","070",,"8",,,,,,,,,,,,,,,,,,,,,,,,,,,,,,,,,,,,,"MET10503/23/20 10:37:02 SPECI KNYC 231537Z 07007KT 3SM -RA BR BKN007 OVC011 03/02 A3041 RMK AO2 P0003 T00280017","FM-16","7",,,,,,,,,,,,,,,,,,,,,,,,,,,,
"72505394728","2020-03-23T10:51:00","FM-15","7",,,,,,,,,,,,,,,,,,,,,,,,,,,,,,,,,,,,,,"30.40","34","37","0.06","-RA:02 BR:1 |RA |RA",,,"89","30.37","OVC:08 6","30.23","2.50","36","VRB",,"8",,,,,,,,,,,,,,,,,,,,,,,,,,,,,,,,,,,,,"MET12103/23/20 10:51:02 METAR KNYC 231551Z 06007KT 2 1/2SM -RA BR OVC006 03/01 A3040 RMK AO2 CIG 006V012 SLP286 P0004 T00280011","FM-15","7",,,,,,,,,,,,,,,,,,,,,,,,,,,,
"72505394728","2020-03-23T11:09:00","FM-16","7",,,,,,,,,,,,,,,,,,,,,,,,,,,,,,,,,,,,,,"30.39","35","37","0.02","-RA:02 BR:1 |RA |RA",,,"93",,"OVC:08 6","30.22","4.00","36","VRB","17","7",,,,,,,,,,,,,,,,,,,,,,,,,,,,,,,,,,,,,"MET10103/23/20 11:09:02 SPECI KNYC 231609Z VRB06G15KT 4SM -RA BR OVC006 03/02 A3039 RMK AO2 P0002 T00280017","FM-16","7",,,,,,,,,,,,,,,,,,,,,,,,,,,,
"72505394728","2020-03-23T11:49:00","FM-16","7",,,,,,,,,,,,,,,,,,,,,,,,,,,,,,,,,,,,,,"30.34","36","37","0.07","RA:02 BR:1 |RA |RA",,,"93",,"OVC:08 6","30.17","2.00","37","050","18","10",,,,,,,,,,,,,,,,,,,,,,,,,,,,,,,,,,,,,"MET09003/23/20 11:49:02 SPECI KNYC 231649Z 05009G16KT 2SM RA BR OVC006 03/02 A3034 RMK AO2 P0007","FM-16","7",,,,,,,,,,,,,,,,,,,,,,,,,,,,
"72505394728","2020-03-23T11:51:00","FM-15","7",,,,,,,,,,,,,,,,,,,,,,,,,,,,,,,,,,,,,,"30.34","35","37","0.06","RA:02 BR:1 |RA |RA",,,"93","30.31","OVC:08 6","30.17","2.00","36","050","18","9",,,,,,,,,,,,,,,,,,,,,,,,,,,,,,,,,,,,,"MET10703/23/20 11:51:02 METAR KNYC 231651Z 05008G16KT 2SM RA BR OVC006 03/02 A3034 RMK AO2 SLP265 P0007 T00280017","FM-15","7",,,,,,,,,,,,,,,,,,,,,,,,,,,,
"72505394728","2020-03-23T12:01:00","FM-16","7",,,,,,,,,,,,,,,,,,,,,,,,,,,,,,,,,,,,,,"30.32","35","37","0.01","-RA:02 BR:1 |RA |RA",,,"93",,"OVC:08 6","30.15","5.00","36","070","16","9",,,,,,,,,,,,,,,,,,,,,,,,,,,,,,,,,,,,,"MET10803/23/20 12:01:02 SPECI KNYC 231701Z 07008G14KT 5SM -RA BR OVC006 03/02 A3032 RMK AO2 PRESFR P0001 T00280017","FM-16","7",,,,,,,,,,,,,,,,,,,,,,,,,,,,
"72505394728","2020-03-23T12:28:00","FM-16","7",,,,,,,,,,,,,,,,,,,,,,,,,,,,,,,,,,,,,,"30.28","35","37","0.03","RA:02 BR:1 |RA |RA",,,"93",,"OVC:08 6","30.11","2.00","36","070","22","15",,,,,,,,,,,,,,,,,,,,,,,,,,,,,,,,,,,,,"MET10703/23/20 12:28:02 SPECI KNYC 231728Z 07013G19KT 2SM RA BR OVC006 03/02 A3028 RMK AO2 PRESFR P0003 T00280017","FM-16","7",,,,,,,,,,,,,,,,,,,,,,,,,,,,
"72505394728","2020-03-23T12:51:00","FM-15","7",,,,,,,,,,,,,,,,,,,,,,,,,,,,,,,,,,,,,,"30.26","36","38","0.07","-RA:02 BR:1 |RA |RA","+0.14","8","93","30.23","OVC:08 6","30.09","2.00","37","VRB","18","8",,,,,,,,,,,,,,,,,,,,,,,,,,,,,,,,,,,,,"MET13903/23/20 12:51:02 METAR KNYC 231751Z 07007G16KT 2SM -RA BR OVC006 03/02 A3026 RMK AO2 PRESFR SLP238 P0007 60023 T00330022 10033 20022 58048","FM-15","7",,,,,,,,,,,,,,,,,,,,,,,,,,,,
"72505394728","2020-03-23T13:15:00","FM-16","7",,,,,,,,,,,,,,,,,,,,,,,,,,,,,,,,,,,,,,"30.24","37","39","0.03","RA:02 BR:1 |RA |RA",,,"93",,"OVC:08 6","30.07","1.75","38","VRB","17","6",,,,,,,,,,,,,,,,,,,,,,,,,,,,,,,,,,,,,"MET10403/23/20 13:15:02 SPECI KNYC 231815Z VRB05G15KT 1 3/4SM RA BR OVC006 04/03 A3024 RMK AO2 P0003 T00390028","FM-16","7",,,,,,,,,,,,,,,,,,,,,,,,,,,,
"72505394728","2020-03-23T13:51:00","FM-15","7",,,,,,,,,,,,,,,,,,,,,,,,,,,,,,,,,,,,,,"30.19","37","39","0.10","RA:02 BR:1 |RA |RA",,,"93","30.16","OVC:08 5","30.02","1.25","38","060",,"11",,,,,,,,,,,,,,,,,,,,,,,,,,,,,,,,,,,,,"MET11503/23/20 13:51:02 METAR KNYC 231851Z 06010KT 1 1/4SM RA BR OVC005 04/03 A3019 RMK AO2 PRESFR SLP215 P0010 T00390028","FM-15","7",,,,,,,,,,,,,,,,,,,,,,,,,,,,
"72505394728","2020-03-23T14:18:00","FM-16","7",,,,,,,,,,,,,,,,,,,,,,,,,,,,,,,,,,,,,,"30.17","38","39","0.03","-RA:02 BR:1 |RA |RA",,,"96",,"OVC:08 5","30.00","2.00","39","VRB",,"11",,,,,,,,,,,,,,,,,,,,,,,,,,,,,,,,,,,,,"MET09803/23/20 14:18:02 SPECI KNYC 231918Z 07010KT 2SM -RA BR OVC005 04/03 A3017 RMK AO2 P0003 T00390033","FM-16","7",,,,,,,,,,,,,,,,,,,,,,,,,,,,
"72505394728","2020-03-23T14:26:00","FM-16","7",,,,,,,,,,,,,,,,,,,,,,,,,,,,,,,,,,,,,,"30.16","38","39","0.04","-RA:02 BR:1 |RA |RA",,,"96",,"OVC:08 6","29.99","1.50","39","060",,"9",,,,,,,,,,,,,,,,,,,,,,,,,,,,,,,,,,,,,"MET10203/23/20 14:26:02 SPECI KNYC 231926Z 06008KT 1 1/2SM -RA BR OVC006 04/03 A3016 RMK AO2 P0004 T00390033","FM-16","7",,,,,,,,,,,,,,,,,,,,,,,,,,,,
"72505394728","2020-03-23T14:51:00","FM-15","7",,,,,,,,,,,,,,,,,,,,,,,,,,,,,,,,,,,,,,"30.13","38","40","0.13","RA:02 BR:1 |RA |RA",,,"93","30.11","OVC:08 6","29.96","1.00","39","060",,"10",,,,,,,,,,,,,,,,,,,,,,,,,,,,,,,,,,,,,"MET10403/23/20 14:51:02 METAR KNYC 231951Z 06009KT 1SM RA BR OVC006 04/03 A3013 RMK AO2 SLP196 P0012 T00440033","FM-15","7",,,,,,,,,,,,,,,,,,,,,,,,,,,,
"72505394728","2020-03-23T15:04:00","FM-16","7",,,,,,,,,,,,,,,,,,,,,,,,,,,,,,,,,,,,,,"30.12","38","40","0.03","RA:02 BR:1 |RA |RA",,,"93",,"SCT:04 7 OVC:08 10","29.95","1.00","39","VRB","22","9",,,,,,,,,,,,,,,,,,,,,,,,,,,,,,,,,,,,,"MET10703/23/20 15:04:02 SPECI KNYC 232004Z 07008G19KT 1SM RA BR SCT007 OVC010 04/03 A3012 RMK AO2 P0003 T00440033","FM-16","7",,,,,,,,,,,,,,,,,,,,,,,,,,,,
"72505394728","2020-03-23T15:15:00","FM-16","7",,,,,,,,,,,,,,,,,,,,,,,,,,,,,,,,,,,,,,"30.11","38","40","0.08","+RA:02 BR:1 |RA |RA",,,"93",,"OVC:08 8","29.94","1.00","39","VRB",,"6",,,,,,,,,,,,,,,,,,,,,,,,,,,,,,,,,,,,,"MET09803/23/20 15:15:02 SPECI KNYC 232015Z VRB05KT 1SM +RA BR OVC008 04/03 A3011 RMK AO2 P0008 T00440033","FM-16","7",,,,,,,,,,,,,,,,,,,,,,,,,,,,
"72505394728","2020-03-23T15:39:00","FM-16","7",,,,,,,,,,,,,,,,,,,,,,,,,,,,,,,,,,,,,,"30.09","38","40","0.15","-RA:02 BR:1 |RA |RA",,,"93",,"OVC:08 7","29.92","3.00","39","050",,"8",,,,,,,,,,,,,,,,,,,,,,,,,,,,,,,,,,,,,"MET10503/23/20 15:39:02 SPECI KNYC 232039Z 05007KT 3SM -RA BR OVC007 04/03 A3009 RMK AO2 PRESFR P0015 T00440033","FM-16","7",,,,,,,,,,,,,,,,,,,,,,,,,,,,
"72505394728","2020-03-23T15:48:00","FM-16","6",,,,,,,,,,,,,,,,,,,,,,,,,,,,,,,,,,,,,,"30.09","37","39",,"RA:02 BR:1 |RA |RA",,,"93",,"OVC:08 7","29.92","1.75","38","VRB",,"9",,,,,,,,,,,,,,,,,,,,,,,,,,,,,,,,,,,,,"MET09603/23/20 15:48:02 SPECI KNYC 232048Z 09008KT 1 3/4SM RA BR OVC007 04/03 A3009 RMK AO2 P0017 FIBI","FM-16","6",,,,,,,,,,,,,,,,,,,,,,,,,,,,
"72505394728","2020-03-23T15:49:00","FM-15","7",,,,,,,,,,,,,,,,,,,,,,,,,,,,,,,,,,,,,,"30.09","38","40","0.18","+RA:02 BR:1 |RA |RA","+0.17","6","93","30.06","OVC:08 7","29.92","1.50","39","VRB","16","10",,,,,,,,,,,,,,,,,,,,,,,,,,,,,,,,,,,,,"MET12403/23/20 15:49:02 METAR KNYC 232049Z 09009G14KT 1 1/2SM +RA BR OVC007 04/03 A3009 RMK AO2 SLP180 P0017 60039 T00440033 56058","FM-15","7",,,,,,,,,,,,,,,,,,,,,,,,,,,,
"72505394728","2020-03-23T16:05:00","FM-16","7",,,,,,,,,,,,,,,,,,,,,,,,,,,,,,,,,,,,,,"30.06","38","40","0.04","-RA:02 BR:1 |RA |RA",,,"93",,"BKN:07 7 OVC:08 12","29.89","3.00","39","030","18","10",,,,,,,,,,,,,,,,,,,,,,,,,,,,,,,,,,,,,"MET11503/23/20 16:05:02 SPECI KNYC 232105Z 03009G16KT 3SM -RA BR BKN007 OVC012 04/03 A3006 RMK AO2 PRESFR P0004 T00440033","FM-16","7",,,,,,,,,,,,,,,,,,,,,,,,,,,,
"72505394728","2020-03-23T16:25:00","FM-16","7",,,,,,,,,,,,,,,,,,,,,,,,,,,,,,,,,,,,,,"30.05","38","40","0.07","+RA:02 BR:1 |RA |RA",,,"93",,"OVC:08 6","29.88","1.75","39","050","21","9",,,,,,,,,,,,,,,,,,,,,,,,,,,,,,,,,,,,,"MET10503/23/20 16:25:02 SPECI KNYC 232125Z 05008G18KT 1 3/4SM +RA BR OVC006 04/03 A3005 RMK AO2 P0007 T00440033","FM-16","7",,,,,,,,,,,,,,,,,,,,,,,,,,,,
"72505394728","2020-03-23T16:51:00","FM-15","7",,,,,,,,,,,,,,,,,,,,,,,,,,,,,,,,,,,,,,"30.03","39","40","0.15","RA:02 BR:1 |RA |RA",,,"97","30.01","OVC:08 6","29.86","1.25","40","050",,"7",,,,,,,,,,,,,,,,,,,,,,,,,,,,,,,,,,,,,"MET10803/23/20 16:51:02 METAR KNYC 232151Z 05006KT 1 1/4SM RA BR OVC006 04/04 A3003 RMK AO2 SLP161 P0016 T00440039","FM-15","7",,,,,,,,,,,,,,,,,,,,,,,,,,,,
"72505394728","2020-03-23T17:02:00","FM-16","7",,,,,,,,,,,,,,,,,,,,,,,,,,,,,,,,,,,,,,"30.03","39","41","0.02","RA:02 BR:1 |RA |RA",,,"93",,"OVC:08 6","29.86","2.00","40","VRB",,"7",,,,,,,,,,,,,,,,,,,,,,,,,,,,,,,,,,,,,"MET09703/23/20 17:02:02 SPECI KNYC 232202Z VRB06KT 2SM RA BR OVC006 05/04 A3003 RMK AO2 P0002 T00500039","FM-16","7",,,,,,,,,,,,,,,,,,,,,,,,,,,,
"72505394728","2020-03-23T17:09:00","FM-16","7",,,,,,,,,,,,,,,,,,,,,,,,,,,,,,,,,,,,,,"30.03","39","41","0.06","+RA:02 BR:1 |RA |RA",,,"93",,"OVC:08 6","29.86","1.00","40","040",,"8",,,,,,,,,,,,,,,,,,,,,,,,,,,,,,,,,,,,,"MET09803/23/20 17:09:02 SPECI KNYC 232209Z 04007KT 1SM +RA BR OVC006 05/04 A3003 RMK AO2 P0006 T00500039","FM-16","7",,,,,,,,,,,,,,,,,,,,,,,,,,,,
"72505394728","2020-03-23T17:25:00","FM-16","7",,,,,,,,,,,,,,,,,,,,,,,,,,,,,,,,,,,,,,"30.01","39","41","0.11","-RA:02 BR:1 |RA |RA",,,"93",,"OVC:08 6","29.84","3.00","40","040","20","8",,,,,,,,,,,,,,,,,,,,,,,,,,,,,,,,,,,,,"MET10103/23/20 17:25:02 SPECI KNYC 232225Z 04007G17KT 3SM -RA BR OVC006 05/04 A3001 RMK AO2 P0011 T00500039","FM-16","7",,,,,,,,,,,,,,,,,,,,,,,,,,,,
"72505394728","2020-03-23T17:43:00","FM-16","7",,,,,,,,,,,,,,,,,,,,,,,,,,,,,,,,,,,,,,"30.04","39","41","0.18","|RA |",,,"93",,,,"2.00",,"340","17","11",,,,,,,,,,,,,,,,,,,,,,,,,,,,,,,,,,,,,"MET05103/23/20 17:43:02 SPECI KNYC 232243Z 34010G15KT RMK","FM-16","7",,,,,,,,,,,,,,,,,,,,,,,,,,,,
"72505394728","2020-03-23T17:49:00","FM-16","6",,,,,,,,,,,,,,,,,,,,,,,,,,,,,,,,,,,,,,"30.06","39","41",,"+RA:02 BR:1 |RA |RA",,,"93",,"OVC:08 7","29.89","1.75","40","VRB","17","7",,,,,,,,,,,,,,,,,,,,,,,,,,,,,,,,,,,,,"MET10703/23/20 17:49:02 SPECI KNYC 232249Z VRB06G15KT 1 3/4SM +RA BR OVC007 05/04 A3006 RMK AO2 PRESRR P0022 FIBI","FM-16","6",,,,,,,,,,,,,,,,,,,,,,,,,,,,
"72505394728","2020-03-23T17:51:00","FM-15","7",,,,,,,,,,,,,,,,,,,,,,,,,,,,,,,,,,,,,,"30.06","39","41","0.28","+RA:02 BR:1 |RA |RA",,,"93","30.03","OVC:08 7","29.89","1.75","40","340","17","8",,,,,,,,,,,,,,,,,,,,,,,,,,,,,,,,,,,,,"MET11903/23/20 17:51:02 METAR KNYC 232251Z 34007G15KT 1 3/4SM +RA BR OVC007 05/04 A3006 RMK AO2 PRESRR SLP170 P0023 T00500039","FM-15","7",,,,,,,,,,,,,,,,,,,,,,,,,,,,
"72505394728","2020-03-23T18:09:00","FM-16","7",,,,,,,,,,,,,,,,,,,,,,,,,,,,,,,,,,,,,,"30.08","38","39","0.10","RA:02 BR:1 |RA |RA",,,"96",,"OVC:08 7","29.91","3.00","39","VRB",,"8",,,,,,,,,,,,,,,,,,,,,,,,,,,,,,,,,,,,,"MET09703/23/20 18:09:02 SPECI KNYC 232309Z 34007KT 3SM RA BR OVC007 04/03 A3008 RMK AO2 P0010 T00390033","FM-16","7",,,,,,,,,,,,,,,,,,,,,,,,,,,,
"72505394728","2020-03-23T18:51:00","FM-15","7",,,,,,,,,,,,,,,,,,,,,,,,,,,,,,,,,,,,,,"29.99","35","38","0.07","-RA:02 |RA |RA","+0.04","8","89","29.96","OVC:08 7","29.82","8.00","37","VRB","23","15",,,,,,,,,,,,,,,,,,,,,,,,,,,,,,,,,,,,,"MET13603/23/20 18:51:02 METAR KNYC 232351Z 04013G20KT 8SM -RA OVC007 03/02 A2999 RMK AO2 PRESFR SLP147 P0014 60092 T00330017 10050 20033 58014","FM-15","7",,,,,,,,,,,,,,,,,,,,,,,,,,,,
"72505394728","2020-03-23T19:17:00","FM-16","7",,,,,,,,,,,,,,,,,,,,,,,,,,,,,,,,,,,,,,"29.99","35","38","T",,,,"89",,"BKN:07 10 BKN:07 24","29.82","10.00","37","VRB","18","8",,,,,,,,,,,,,,,,,,,,,,,,,,,,,,,,,,,,,"MET12603/23/20 19:17:01 SPECI KNYC 240017Z 02007G16KT 10SM BKN010 BKN024 03/02 A2999 RMK AO2 PK WND 03027/2357 RAE07 P0000 T00330017","FM-16","7",,,,,,,,,,,,,,,,,,,,,,,,,,,,
"72505394728","2020-03-23T19:30:00","FM-16","7",,,,,,,,,,,,,,,,,,,,,,,,,,,,,,,,,,,,,,"30.00","34","37","T",,,,"89",,"SCT:04 10 BKN:07 19","29.83","10.00","36","VRB","20","10",,,,,,,,,,,,,,,,,,,,,,,,,,,,,,,,,,,,,"MET12603/23/20 19:30:01 SPECI KNYC 240030Z 02009G17KT 10SM SCT010 BKN019 03/01 A3000 RMK AO2 PK WND 03027/2357 RAE07 P0000 T00280011","FM-16","7",,,,,,,,,,,,,,,,,,,,,,,,,,,,
"72505394728","2020-03-23T19:51:00","FM-15","7",,,,,,,,,,,,,,,,,,,,,,,,,,,,,,,,,,,,,,"29.99","34","37","T",,,,"89","29.96",,,"10.00",,"VRB","21","8",,,,,,,,,,,,,,,,,,,,,,,,,,,,,,,,,,,,,"MET04803/23/20 19:51:01 METAR KNYC 240051Z      KT RMK","FM-15","7",,,,,,,,,,,,,,,,,,,,,,,,,,,,
"72505394728","2020-03-23T20:51:00","FM-15","7",,,,,,,,,,,,,,,,,,,,,,,,,,,,,,,,,,,,,,"29.99","34","37","0.00",,,,"89","29.97","SCT:04 11 OVC:08 20","29.82","10.00","36","VRB","16","7",,,,,,,,,,,,,,,,,,,,,,,,,,,,,,,,,,,,,"MET10303/23/20 20:51:01 METAR KNYC 240151Z VRB06G14KT 10SM SCT011 OVC020 03/01 A2999 RMK AO2 SLP148 T00280011","FM-15","7",,,,,,,,,,,,,,,,,,,,,,,,,,,,
"72505394728","2020-03-23T21:51:00","FM-15","7",,,,,,,,,,,,,,,,,,,,,,,,,,,,,,,,,,,,,,"30.00","33","38","0.00",,"-0.01","3","83","29.97","OVC:08 20","29.83","10.00","36","VRB",,"5",,,,,,,,,,,,,,,,,,,,,,,,,,,,,,,,,,,,,"MET10503/23/20 21:51:01 METAR KNYC 240251Z VRB04KT 10SM OVC020 03/01 A3000 RMK AO2 SLP150 60000 T00330006 53003","FM-15","7",,,,,,,,,,,,,,,,,,,,,,,,,,,,
"72505394728","2020-03-23T22:51:00","FM-15","7",,,,,,,,,,,,,,,,,,,,,,,,,,,,,,,,,,,,,,"30.01","33","38","0.00",,,,"83","29.98","BKN:07 23 OVC:08 30","29.84","10.00","36","VRB",,"8",,,,,,,,,,,,,,,,,,,,,,,,,,,,,,,,,,,,,"MET10003/23/20 22:51:01 METAR KNYC 240351Z 35007KT 10SM BKN023 OVC030 03/01 A3001 RMK AO2 SLP152 T00330006","FM-15","7",,,,,,,,,,,,,,,,,,,,,,,,,,,,
"72505394728","2020-03-23T23:23:00","FM-16","7",,,,,,,,,,,,,,,,,,,,,,,,,,,,,,,,,,,,,,"30.00","33","37",,,,,"86",,"SCT:04 13 SCT:04 22 OVC:08 32","29.83","10.00","35","290",,"8",,,,,,,,,,,,,,,,,,,,,,,,,,,,,,,,,,,,,"MET10003/23/20 23:23:01 SPECI KNYC 240423Z 29007KT 10SM SCT013 SCT022 OVC032 03/01 A3000 RMK AO2 T00280006","FM-16","7",,,,,,,,,,,,,,,,,,,,,,,,,,,,
"72505394728","2020-03-23T23:51:00","FM-15","7",,,,,,,,,,,,,,,,,,,,,,,,,,,,,,,,,,,,,,"30.01","33","37","0.00",,,,"86","29.98","FEW:02 24 OVC:08 33","29.84","10.00","35","290","16","7",,,,,,,,,,,,,,,,,,,,,,,,,,,,,,,,,,,,,"MET11303/23/20 23:51:01 METAR KNYC 240451Z 29006G14KT 10SM FEW024 OVC033 03/01 A3001 RMK AO2 SLP154 T00280006 400500022","FM-15","7",,,,,,,,,,,,,,,,,,,,,,,,,,,,
"72505394728","2020-03-23T23:59:00","SOD  ","6",,,,,,,,,,,,,,,,"39",,,"30.09",,"9.1","0","-5.6","26","41","36","030","31","1.16","0","T","040","20","RA SN BR",,,,,,,,,,,,,,,,,,,,,,,,,,,,,,,,,,,,,,,,,,,,,,,,,,,,,,,,"SOD76024 HR PRECIPITATION (IN): 1.16 SNOW DEPTH (IN):0     24 HR SNOWFALL (IN):T    WEATHER(CODE):1  24 HR MAX TEMP (F): 4124 HR MIN TEMP (F): 36AVERAGE STATION PRESSURE(D):30.096 MINIMUM SEA LEVEL PRESSURE:29.94 TIME OF OCCURRENCE:1902 PEAK WIND SPEED (MPH): 31 PEAK WIND DIR (DEG): 30 PEAK WIND TIME (LST):      FASTEST 2MIN SPEED (MPH): 20FASTEST 2MIN DIR (DEG): 40 FASTEST 2MIN TIME (LST):     AVERAGE WIND SPEED (MPH): 9.1 24 HR AVG TEMP (F): 39DEPART FROM NORMAL: -6  HEATING DEGREE DAYS: 26 COOLING DEGREE DAYS:  0 LATEST DAY MAX TEMP (0700-1900 LST): 41 LATEST NIGHT MIN TEMP(1900-0800 LST):36 HOURLY INCREMENTAL PRECIPITATION VALUES (IN):0.00 0.00 0.00 0.00T    T     0.01T    T     0.05 0.06 0.06 0.07 0.10 0.13 0.18 0.15 0.28 0.07T     0.00 0.00 0.00 0.00","SOD  ","6",,,,,,,,,,,,,,,,,,,,,,,,,"0553","1812",,
"72505394728","2020-03-24T00:29:00","FM-16","6",,,,,,,,,,,,,,,,,,,,,,,,,,,,,,,,,,,,,,"30.02","33","37",,,,,"86",,"BKN:07 26 OVC:08 33","29.85","10.00","35","300",,"10",,,,,,,,,,,,,,,,,,,,,,,,,,,,,,,,,,,,,"MET10203/24/20 00:29:02 SPECI KNYC 240529Z 30009KT 10SM BKN026 OVC033 03/01 A3002 RMK AO2 T00280006 RTX FIBI","FM-16","6",,,,,,,,,,,,,,,,,,,,,,,,,,,,
"72505394728","2020-03-24T00:49:00","FM-16","6",,,,,,,,,,,,,,,,,,,,,,,,,,,,,,,,,,,,,,"30.02","32","37",,,,,"81",,"SCT:04 26 OVC:08 33","29.85","10.00","35","290",,"8",,,,,,,,,,,,,,,,,,,,,,,,,,,,,,,,,,,,,"MET08803/24/20 00:49:02 SPECI KNYC 240549Z 29007KT 10SM SCT026 OVC033 03/00 A3002 RMK AO2 FIBI","FM-16","6",,,,,,,,,,,,,,,,,,,,,,,,,,,,
"72505394728","2020-03-24T00:51:00","FM-15","7",,,,,,,,,,,,,,,,,,,,,,,,,,,,,,,,,,,,,,"30.02","32","37","0.00",,"-0.03","3","82","30.00","FEW:02 20 SCT:04 26 OVC:08 35","29.85","10.00","35","300",,"9",,,,,,,,,,,,,,,,,,,,,,,,,,,,,,,,,,,,,"MET13503/24/20 00:51:02 METAR KNYC 240551Z 30008KT 10SM FEW020 SCT026 OVC035 03/00 A3002 RMK AO2 SLP159 60000 T00280000 10033 20028 53009 RTX","FM-15","7",,,,,,,,,,,,,,,,,,,,,,,,,,,,
"72505394728","2020-03-24T01:25:00","FM-16","7",,,,,,,,,,,,,,,,,,,,,,,,,,,,,,,,,,,,,,"30.03","32","37",,,,,"82",,"BKN:07 13 BKN:07 70","29.86","10.00","35","290","18","11",,,,,,,,,,,,,,,,,,,,,,,,,,,,,,,,,,,,,"MET09603/24/20 01:25:02 SPECI KNYC 240625Z 29010G16KT 10SM BKN013 BKN070 03/00 A3003 RMK AO2 T00280000","FM-16","7",,,,,,,,,,,,,,,,,,,,,,,,,,,,
"72505394728","2020-03-24T01:40:00","FM-16","7",,,,,,,,,,,,,,,,,,,,,,,,,,,,,,,,,,,,,,"30.02","31","36",,,,,"82",,"SCT:04 13","29.85","10.00","34","290","20","11",,,,,,,,,,,,,,,,,,,,,,,,,,,,,,,,,,,,,"MET09903/24/20 01:40:02 SPECI KNYC 240640Z 29010G17KT 10SM SCT013 02/M01 A3002 RMK AO2 T00221006 RTX FIBI","FM-16","7",,,,,,,,,,,,,,,,,,,,,,,,,,,,
"72505394728","2020-03-24T01:51:00","FM-15","7",,,,,,,,,,,,,,,,,,,,,,,,,,,,,,,,,,,,,,"30.02","31","36","0.00",,,,"82","29.99","FEW:02 13","29.85","10.00","34","300",,"11",,,,,,,,,,,,,,,,,,,,,,,,,,,,,,,,,,,,,"MET09803/24/20 01:51:02 METAR KNYC 240651Z 30010KT 10SM FEW013 02/M01 A3002 RMK AO2 SLP157 T00221006 RTX","FM-15","7",,,,,,,,,,,,,,,,,,,,,,,,,,,,
"72505394728","2020-03-24T02:20:00","FM-16","7",,,,,,,,,,,,,,,,,,,,,,,,,,,,,,,,,,,,,,"30.02","32","36",,,,,"86",,"BKN:07 26","29.85","10.00","34","300",,"8",,,,,,,,,,,,,,,,,,,,,,,,,,,,,,,,,,,,,"MET09503/24/20 02:20:02 SPECI KNYC 240720Z 30007KT 10SM BKN026 02/00 A3002 RMK AO2 T00220000 RTX FIBI","FM-16","7",,,,,,,,,,,,,,,,,,,,,,,,,,,,
"72505394728","2020-03-24T02:27:00","FM-16","7",,,,,,,,,,,,,,,,,,,,,,,,,,,,,,,,,,,,,,"30.02","31","36",,,,,"82",,"SCT:04 26","29.85","10.00","34","290",,"8",,,,,,,,,,,,,,,,,,,,,,,,,,,,,,,,,,,,,"MET09603/24/20 02:27:02 SPECI KNYC 240727Z 29007KT 10SM SCT026 02/M01 A3002 RMK AO2 T00221006 RTX FIBI","FM-16","7",,,,,,,,,,,,,,,,,,,,,,,,,,,,
"72505394728","2020-03-24T02:51:00","FM-15","7",,,,,,,,,,,,,,,,,,,,,,,,,,,,,,,,,,,,,,"30.02","31","36","0.00",,,,"82","30.00","FEW:02 15","29.85","10.00","34","VRB",,"5",,,,,,,,,,,,,,,,,,,,,,,,,,,,,,,,,,,,,"MET09403/24/20 02:51:02 METAR KNYC 240751Z VRB04KT 10SM FEW015 02/M01 A3002 RMK AO2 SLP158 T00221006","FM-15","7",,,,,,,,,,,,,,,,,,,,,,,,,,,,
"72505394728","2020-03-24T03:06:00","FM-16","7",,,,,,,,,,,,,,,,,,,,,,,,,,,,,,,,,,,,,,"30.03","31","37",,,,,"79",,"BKN:07 16","29.86","10.00","35","VRB",,"3",,,,,,,,,,,,,,,,,,,,,,,,,,,,,,,,,,,,,"MET08703/24/20 03:06:02 SPECI KNYC 240806Z VRB03KT 10SM BKN016 03/M01 A3003 RMK AO2 T00281006","FM-16","7",,,,,,,,,,,,,,,,,,,,,,,,,,,,
"72505394728","2020-03-24T03:51:00","FM-15","7",,,,,,,,,,,,,,,,,,,,,,,,,,,,,,,,,,,,,,"30.06","32","37","0.00",,"-0.03","3","82","30.03","OVC:08 17","29.89","10.00","35","VRB",,"7",,,,,,,,,,,,,,,,,,,,,,,,,,,,,,,,,,,,,"MET09903/24/20 03:51:02 METAR KNYC 240851Z VRB06KT 10SM OVC017 03/00 A3006 RMK AO2 SLP170 T00280000 53011","FM-15","7",,,,,,,,,,,,,,,,,,,,,,,,,,,,
"72505394728","2020-03-24T04:51:00","FM-15","7",,,,,,,,,,,,,,,,,,,,,,,,,,,,,,,,,,,,,,"30.07","32","37","0.00",,,,"82","30.05","OVC:08 25","29.90","10.00","35","VRB",,"3",,,,,,,,,,,,,,,,,,,,,,,,,,,,,,,,,,,,,"MET09703/24/20 04:51:02 METAR KNYC 240951Z VRB03KT 10SM OVC025 03/00 A3007 RMK AO2 SLP175 T00280000 RTX","FM-15","7",,,,,,,,,,,,,,,,,,,,,,,,,,,,
"72505394728","2020-03-24T05:51:00","FM-15","7",,,,,,,,,,,,,,,,,,,,,,,,,,,,,,,,,,,,,,"30.10","32","37","0.00",,,,"82","30.07","BKN:07 26","29.93","10.00","35","VRB",,"5",,,,,,,,,,,,,,,,,,,,,,,,,,,,,,,,,,,,,"MET09303/24/20 05:51:02 METAR KNYC 241051Z VRB04KT 10SM BKN026 03/00 A3010 RMK AO2 SLP183 T00280000","FM-15","7",,,,,,,,,,,,,,,,,,,,,,,,,,,,
"72505394728","2020-03-24T06:11:00","FM-16","7",,,,,,,,,,,,,,,,,,,,,,,,,,,,,,,,,,,,,,"30.11","32","37",,,,,"82",,"SCT:04 27","29.94","10.00","35","VRB",,"7",,,,,,,,,,,,,,,,,,,,,,,,,,,,,,,,,,,,,"MET08603/24/20 06:11:02 SPECI KNYC 241111Z VRB06KT 10SM SCT027 03/00 A3011 RMK AO2 T00280000","FM-16","7",,,,,,,,,,,,,,,,,,,,,,,,,,,,
"72505394728","2020-03-24T06:51:00","FM-15","7",,,,,,,,,,,,,,,,,,,,,,,,,,,,,,,,,,,,,,"30.13","32","38","0.00",,"-0.08","3","79","30.11","CLR:00","29.96","10.00","36","290",,"6",,,,,,,,,,,,,,,,,,,,,,,,,,,,,,,,,,,,,"MET11403/24/20 06:51:02 METAR KNYC 241151Z 29005KT 10SM CLR 03/00 A3013 RMK AO2 SLP196 70115 T00330000 10033 20022 53026","FM-15","7",,,,,,,,,,,,,,,,,,,,,,,,,,,,
"72505394728","2020-03-24T07:51:00","FM-15","7",,,,,,,,,,,,,,,,,,,,,,,,,,,,,,,,,,,,,,"30.16","32","40","0.00",,,,"73","30.14","CLR:00","29.99","10.00","37","VRB",,"7",,,,,,,,,,,,,,,,,,,,,,,,,,,,,,,,,,,,,"MET09003/24/20 07:51:02 METAR KNYC 241251Z VRB06KT 10SM CLR 04/00 A3016 RMK AO2 SLP205 T00440000","FM-15","7",,,,,,,,,,,,,,,,,,,,,,,,,,,,
"72505394728","2020-03-24T08:51:00","FM-15","7",,,,,,,,,,,,,,,,,,,,,,,,,,,,,,,,,,,,,,"30.16","32","44","0.00",,,,"63","30.14","CLR:00","29.99","10.00","39","350",,"8",,,,,,,,,,,,,,,,,,,,,,,,,,,,,,,,,,,,,"MET09003/24/20 08:51:02 METAR KNYC 241351Z 35007KT 10SM CLR 07/00 A3016 RMK AO2 SLP205 T00670000","FM-15","7",,,,,,,,,,,,,,,,,,,,,,,,,,,,
"72505394728","2020-03-24T09:51:00","FM-15","7",,,,,,,,,,,,,,,,,,,,,,,,,,,,,,,,,,,,,,"30.16","32","46","0.00",,"-0.02","0","58","30.13","CLR:00","29.99","10.00","40","VRB",,"8",,,,,,,,,,,,,,,,,,,,,,,,,,,,,,,,,,,,,"MET09603/24/20 09:51:02 METAR KNYC 241451Z 02007KT 10SM CLR 08/00 A3016 RMK AO2 SLP203 T00780000 50007","FM-15","7",,,,,,,,,,,,,,,,,,,,,,,,,,,,
"72505394728","2020-03-24T10:51:00","FM-15","7",,,,,,,,,,,,,,,,,,,,,,,,,,,,,,,,,,,,,,"30.17","32","48","0.00",,,,"54","30.14","CLR:00","30.00","10.00","41","VRB","16","9",,,,,,,,,,,,,,,,,,,,,,,,,,,,,,,,,,,,,"MET09303/24/20 10:51:02 METAR KNYC 241551Z 03008G14KT 10SM CLR 09/00 A3017 RMK AO2 SLP207 T00890000","FM-15","7",,,,,,,,,,,,,,,,,,,,,,,,,,,,
"72505394728","2020-03-24T11:51:00","FM-15","7",,,,,,,,,,,,,,,,,,,,,,,,,,,,,,,,,,,,,,"30.16","32","50","0.00",,,,"50","30.14","CLR:00","29.99","10.00","42","000",,"0",,,,,,,,,,,,,,,,,,,,,,,,,,,,,,,,,,,,,"MET09003/24/20 11:51:02 METAR KNYC 241651Z 00000KT 10SM CLR 10/00 A3016 RMK AO2 SLP206 T01000000","FM-15","7",,,,,,,,,,,,,,,,,,,,,,,,,,,,
"72505394728","2020-03-24T12:51:00","FM-15","7",,,,,,,,,,,,,,,,,,,,,,,,,,,,,,,,,,,,,,"30.14","32","53","0.00",,"+0.01","8","45","30.12","CLR:00","29.97","10.00","44","040",,"8",,,,,,,,,,,,,,,,,,,,,,,,,,,,,,,,,,,,,"MET10803/24/20 12:51:02 METAR KNYC 241751Z 04007KT 10SM CLR 12/00 A3014 RMK AO2 SLP200 T01170000 10117 20033 58003","FM-15","7",,,,,,,,,,,,,,,,,,,,,,,,,,,,
"72505394728","2020-03-24T13:51:00","FM-15","7",,,,,,,,,,,,,,,,,,,,,,,,,,,,,,,,,,,,,,"30.15","32","52","0.00",,,,"47","30.12","CLR:00","29.98","10.00","43","VRB","16","7",,,,,,,,,,,,,,,,,,,,,,,,,,,,,,,,,,,,,"MET09703/24/20 13:51:02 METAR KNYC 241851Z VRB06G14KT 10SM CLR 11/00 A3015 RMK AO2 SLP200 T01110000 RTX","FM-15","7",,,,,,,,,,,,,,,,,,,,,,,,,,,,
"72505394728","2020-03-24T14:51:00","FM-15","7",,,,,,,,,,,,,,,,,,,,,,,,,,,,,,,,,,,,,,"30.14","32","54","0.00",,,,"43","30.11","CLR:00","29.97","10.00","44","VRB",,"3",,,,,,,,,,,,,,,,,,,,,,,,,,,,,,,,,,,,,"MET09003/24/20 14:51:02 METAR KNYC 241951Z VRB03KT 10SM CLR 12/00 A3014 RMK AO2 SLP197 T01220000","FM-15","7",,,,,,,,,,,,,,,,,,,,,,,,,,,,
"72505394728","2020-03-24T15:51:00","FM-15","7",,,,,,,,,,,,,,,,,,,,,,,,,,,,,,,,,,,,,,"30.11","33","54","0.00",,"+0.03","8","45","30.09","CLR:00","29.94","10.00","45","VRB",,"7",,,,,,,,,,,,,,,,,,,,,,,,,,,,,,,,,,,,,"MET09603/24/20 15:51:02 METAR KNYC 242051Z VRB06KT 10SM CLR 12/01 A3011 RMK AO2 SLP189 T01220006 58011","FM-15","7",,,,,,,,,,,,,,,,,,,,,,,,,,,,
"72505394728","2020-03-24T16:51:00","FM-15","7",,,,,,,,,,,,,,,,,,,,,,,,,,,,,,,,,,,,,,"30.11","33","53","0.00",,,,"47","30.09","CLR:00","29.94","10.00","44","030",,"7",,,,,,,,,,,,,,,,,,,,,,,,,,,,,,,,,,,,,"MET09003/24/20 16:51:02 METAR KNYC 242151Z 03006KT 10SM CLR 12/01 A3011 RMK AO2 SLP189 T01170006","FM-15","7",,,,,,,,,,,,,,,,,,,,,,,,,,,,
"72505394728","2020-03-24T17:51:00","FM-15","7",,,,,,,,,,,,,,,,,,,,,,,,,,,,,,,,,,,,,,"30.14","33","51","0.00",,,,"50","30.11","CLR:00","29.97","10.00","43","050",,"7",,,,,,,,,,,,,,,,,,,,,,,,,,,,,,,,,,,,,"MET09403/24/20 17:51:02 METAR KNYC 242251Z 05006KT 10SM CLR 11/01 A3014 RMK AO2 SLP198 T01060006 RTX","FM-15","7",,,,,,,,,,,,,,,,,,,,,,,,,,,,
"72505394728","2020-03-24T18:51:00","FM-15","7",,,,,,,,,,,,,,,,,,,,,,,,,,,,,,,,,,,,,,"30.17","32","50","0.00",,"-0.06","3","50","30.14","CLR:00","30.00","10.00","42","040",,"7",,,,,,,,,,,,,,,,,,,,,,,,,,,,,,,,,,,,,"MET10803/24/20 18:51:02 METAR KNYC 242351Z 04006KT 10SM CLR 10/00 A3017 RMK AO2 SLP207 T01000000 10128 20100 53019","FM-15","7",,,,,,,,,,,,,,,,,,,,,,,,,,,,
"72505394728","2020-03-24T19:51:00","FM-15","7",,,,,,,,,,,,,,,,,,,,,,,,,,,,,,,,,,,,,,"30.18","33","49","0.00",,,,"55","30.16","CLR:00","30.01","10.00","42","VRB",,"7",,,,,,,,,,,,,,,,,,,,,,,,,,,,,,,,,,,,,"MET09003/24/20 19:51:01 METAR KNYC 250051Z VRB06KT 10SM CLR 09/01 A3018 RMK AO2 SLP212 T00940006","FM-15","7",,,,,,,,,,,,,,,,,,,,,,,,,,,,
"72505394728","2020-03-24T20:51:00","FM-15","7",,,,,,,,,,,,,,,,,,,,,,,,,,,,,,,,,,,,,,"30.19","33","47","0.00",,,,"59","30.17","CLR:00","30.02","10.00","41","060",,"6",,,,,,,,,,,,,,,,,,,,,,,,,,,,,,,,,,,,,"MET09003/24/20 20:51:01 METAR KNYC 250151Z 06005KT 10SM CLR 08/01 A3019 RMK AO2 SLP216 T00830006","FM-15","7",,,,,,,,,,,,,,,,,,,,,,,,,,,,
"72505394728","2020-03-24T21:51:00","FM-15","7",,,,,,,,,,,,,,,,,,,,,,,,,,,,,,,,,,,,,,"30.20","32","44","0.00",,"-0.03","1","63","30.17","CLR:00","30.03","10.00","39","040",,"10",,,,,,,,,,,,,,,,,,,,,,,,,,,,,,,,,,,,,"MET09603/24/20 21:51:01 METAR KNYC 250251Z 04009KT 10SM CLR 07/00 A3020 RMK AO2 SLP218 T00670000 51011","FM-15","7",,,,,,,,,,,,,,,,,,,,,,,,,,,,
"72505394728","2020-03-24T22:51:00","FM-15","7",,,,,,,,,,,,,,,,,,,,,,,,,,,,,,,,,,,,,,"30.20","29","43","0.00",,,,"58","30.18","CLR:00","30.03","10.00","37","060","17","6",,,,,,,,,,,,,,,,,,,,,,,,,,,,,,,,,,,,,"MET09403/24/20 22:51:01 METAR KNYC 250351Z 06005G15KT 10SM CLR 06/M02 A3020 RMK AO2 SLP220 T00611017","FM-15","7",,,,,,,,,,,,,,,,,,,,,,,,,,,,
"72505394728","2020-03-24T23:51:00","FM-15","7",,,,,,,,,,,,,,,,,,,,,,,,,,,,,,,,,,,,,,"30.18","29","42","0.00",,,,"60","30.16","CLR:00","30.01","10.00","37","050",,"7",,,,,,,,,,,,,,,,,,,,,,,,,,,,,,,,,,,,,"MET10103/24/20 23:51:01 METAR KNYC 250451Z 05006KT 10SM CLR 06/M02 A3018 RMK AO2 SLP213 T00561017 401280022","FM-15","7",,,,,,,,,,,,,,,,,,,,,,,,,,,,
"72505394728","2020-03-24T23:59:00","SOD  ","6",,,,,,,,,,,,,,,,"46",,,"29.93",,"6.7","0","1.1","19","55","36","300","20","0.00","0","0.0","040","15",,,,,,,,,,,,,,,,,,,,,,,,,,,,,,,,,,,,,,,,,,,,,,,,,,,,,,,,,"SOD74324 HR PRECIPITATION (IN): 0.00 SNOW DEPTH (IN):0     24 HR SNOWFALL (IN):0.0  24 HR MAX TEMP (F): 5524 HR MIN TEMP (F): 36AVERAGE STATION PRESSURE(D):29.936 MINIMUM SEA LEVEL PRESSURE:29.99 TIME OF OCCURRENCE:0207 PEAK WIND SPEED (MPH): 20 PEAK WIND DIR (DEG):300 PEAK WIND TIME (LST):      FASTEST 2MIN SPEED (MPH): 15FASTEST 2MIN DIR (DEG): 40 FASTEST 2MIN TIME (LST):     AVERAGE WIND SPEED (MPH): 6.7 24 HR AVG TEMP (F): 46DEPART FROM NORMAL:  1  HEATING DEGREE DAYS: 19 COOLING DEGREE DAYS:  0 LATEST DAY MAX TEMP (0700-1900 LST): 55 LATEST NIGHT MIN TEMP(1900-0800 LST):36 HOURLY INCREMENTAL PRECIPITATION VALUES (IN):0.00 0.00 0.00 0.00 0.00 0.00 0.00 0.00 0.00 0.00 0.00 0.00 0.00 0.00 0.00 0.00 0.00 0.00 0.00 0.00 0.00 0.00 0.00 0.00","SOD  ","6",,,,,,,,,,,,,,,,,,,,,,,,,"0551","1813",,
"72505394728","2020-03-25T00:51:00","FM-15","7",,,,,,,,,,,,,,,,,,,,,,,,,,,,,,,,,,,,,,"30.17","29","41","0.00",,"+0.02","8","62","30.15","CLR:00","30.00","10.00","36","060",,"9",,,,,,,,,,,,,,,,,,,,,,,,,,,,,,,,,,,,,"MET11403/25/20 00:51:02 METAR KNYC 250551Z 06008KT 10SM CLR 05/M02 A3017 RMK AO2 SLP210 T00501017 10100 20050 58008 (JE)","FM-15","7",,,,,,,,,,,,,,,,,,,,,,,,,,,,
"72505394728","2020-03-25T01:51:00","FM-15","7",,,,,,,,,,,,,,,,,,,,,,,,,,,,,,,,,,,,,,"30.15","30","41","0.00",,,,"65","30.13","CLR:00","29.98","10.00","37","VRB","21","13",,,,,,,,,,,,,,,,,,,,,,,,,,,,,,,,,,,,,"MET09903/25/20 01:51:02 METAR KNYC 250651Z 07011G18KT 10SM CLR 05/M01 A3015 RMK AO2 SLP202 T00501011 (JE)","FM-15","7",,,,,,,,,,,,,,,,,,,,,,,,,,,,
"72505394728","2020-03-25T02:51:00","FM-15","7",,,,,,,,,,,,,,,,,,,,,,,,,,,,,,,,,,,,,,"30.12","30","40","0.00",,,,"68","30.10","CLR:00","29.95","10.00","36","060","21","10",,,,,,,,,,,,,,,,,,,,,,,,,,,,,,,,,,,,,"MET10303/25/20 02:51:02 METAR KNYC 250751Z 06009G18KT 10SM CLR 04/M01 A3012 RMK AO2 SLP192 T00441011 RTX (JE)","FM-15","7",,,,,,,,,,,,,,,,,,,,,,,,,,,,
"72505394728","2020-03-25T03:51:00","FM-15","7",,,,,,,,,,,,,,,,,,,,,,,,,,,,,,,,,,,,,,"30.11","31","41","0.00",,"+0.06","6","67","30.09","CLR:00","29.94","10.00","37","050","18","11",,,,,,,,,,,,,,,,,,,,,,,,,,,,,,,,,,,,,"MET10503/25/20 03:51:02 METAR KNYC 250851Z 05010G16KT 10SM CLR 05/M01 A3011 RMK AO2 SLP188 T00501006 56021 (JE)","FM-15","7",,,,,,,,,,,,,,,,,,,,,,,,,,,,
"72505394728","2020-03-25T04:37:00","FM-16","7",,,,,,,,,,,,,,,,,,,,,,,,,,,,,,,,,,,,,,"30.11","31","41",,,,,"67",,"BKN:07 19 OVC:08 120","29.94","10.00","37","VRB","24","8",,,,,,,,,,,,,,,,,,,,,,,,,,,,,,,,,,,,,"MET10203/25/20 04:37:02 SPECI KNYC 250937Z 06007G21KT 10SM BKN019 OVC120 05/M01 A3011 RMK AO2 T00501006 (JE)","FM-16","7",,,,,,,,,,,,,,,,,,,,,,,,,,,,
"72505394728","2020-03-25T04:51:00","FM-15","7",,,,,,,,,,,,,,,,,,,,,,,,,,,,,,,,,,,,,,"30.11","31","41","0.00",,,,"67","30.09","OVC:08 19","29.94","10.00","37","VRB","20","10",,,,,,,,,,,,,,,,,,,,,,,,,,,,,,,,,,,,,"MET10603/25/20 04:51:02 METAR KNYC 250951Z 06009G17KT 10SM OVC019 05/M01 A3011 RMK AO2 SLP188 T00501006 RTX (JE)","FM-15","7",,,,,,,,,,,,,,,,,,,,,,,,,,,,
"72505394728","2020-03-25T05:51:00","FM-15","7",,,,,,,,,,,,,,,,,,,,,,,,,,,,,,,,,,,,,,"30.14","32","41","0.00",,,,"70","30.11","OVC:08 19","29.97","10.00","37","070",,"9",,,,,,,,,,,,,,,,,,,,,,,,,,,,,,,,,,,,,"MET09803/25/20 05:51:02 METAR KNYC 251051Z 07008KT 10SM OVC019 05/00 A3014 RMK AO2 SLP197 T00500000 (JE)","FM-15","7",,,,,,,,,,,,,,,,,,,,,,,,,,,,
"72505394728","2020-03-25T06:51:00","FM-15","7",,,,,,,,,,,,,,,,,,,,,,,,,,,,,,,,,,,,,,"30.13","33","41","0.00",,"-0.02","0","73","30.11","OVC:08 18","29.96","10.00","38","050",,"10",,,,,,,,,,,,,,,,,,,,,,,,,,,,,,,,,,,,,"MET11603/25/20 06:51:02 METAR KNYC 251151Z 05009KT 10SM OVC018 05/01 A3013 RMK AO2 SLP195 T00500006 10050 20044 50007 (JE)","FM-15","7",,,,,,,,,,,,,,,,,,,,,,,,,,,,
"72505394728","2020-03-25T07:51:00","FM-15","7",,,,,,,,,,,,,,,,,,,,,,,,,,,,,,,,,,,,,,"30.11","33","41","0.00",,,,"73","30.09",,,"10.00",,"080","16","10",,,,,,,,,,,,,,,,,,,,,,,,,,,,,,,,,,,,,"MET04803/25/20 07:51:02 METAR KNYC 251251Z      KT RMK","FM-15","7",,,,,,,,,,,,,,,,,,,,,,,,,,,,
"72505394728","2020-03-25T08:51:00","FM-15","7",,,,,,,,,,,,,,,,,,,,,,,,,,,,,,,,,,,,,,"30.12","34","42","0.00",,,,"73","30.10","OVC:08 16","29.95","10.00","39","050","18","10",,,,,,,,,,,,,,,,,,,,,,,,,,,,,,,,,,,,,"MET10103/25/20 08:51:02 METAR KNYC 251351Z 05009G16KT 10SM OVC016 06/01 A3012 RMK AO2 SLP192 T00560011 (JE)","FM-15","7",,,,,,,,,,,,,,,,,,,,,,,,,,,,
"72505394728","2020-03-25T09:51:00","FM-15","7",,,,,,,,,,,,,,,,,,,,,,,,,,,,,,,,,,,,,,"30.11","35","43","0.00",,"+0.02","6","74","30.09","BKN:07 16 OVC:08 21","29.94","10.00","40","050","20","8",,,,,,,,,,,,,,,,,,,,,,,,,,,,,,,,,,,,,"MET10903/25/20 09:51:02 METAR KNYC 251451Z 05007G17KT 10SM BKN016 OVC021 06/02 A3011 RMK AO2 SLP189 T00610017 56006","FM-15","7",,,,,,,,,,,,,,,,,,,,,,,,,,,,
"72505394728","2020-03-25T10:51:00","FM-15","7",,,,,,,,,,,,,,,,,,,,,,,,,,,,,,,,,,,,,,"30.09","35","43","0.00",,,,"74","30.07","OVC:08 23","29.92","10.00","40","VRB","16","8",,,,,,,,,,,,,,,,,,,,,,,,,,,,,,,,,,,,,"MET10003/25/20 10:51:02 METAR KNYC 251551Z 06007G14KT 10SM OVC023 06/02 A3009 RMK AO2 SLP182 T00610017 RTX","FM-15","7",,,,,,,,,,,,,,,,,,,,,,,,,,,,
"72505394728","2020-03-25T11:51:00","FM-15","7",,,,,,,,,,,,,,,,,,,,,,,,,,,,,,,,,,,,,,"30.09","36","44","0.00",,,,"73","30.07","BKN:07 26 OVC:08 31","29.92","10.00","40","050","21","13",,,,,,,,,,,,,,,,,,,,,,,,,,,,,,,,,,,,,"MET10303/25/20 11:51:02 METAR KNYC 251651Z 05011G18KT 10SM BKN026 OVC031 07/02 A3009 RMK AO2 SLP182 T00670022","FM-15","7",,,,,,,,,,,,,,,,,,,,,,,,,,,,
"72505394728","2020-03-25T12:51:00","FM-15","7",,,,,,,,,,,,,,,,,,,,,,,,,,,,,,,,,,,,,,"30.08","37","43","T","-RA:02 |RA |RA","+0.03","6","80","30.06","SCT:04 14 BKN:07 23 OVC:08 36","29.91","10.00","40","050","22","9",,,,,,,,,,,,,,,,,,,,,,,,,,,,,,,,,,,,,"MET15903/25/20 12:51:02 METAR KNYC 251751Z 05008G19KT 10SM -RA SCT014 BKN023 OVC036 06/03 A3008 RMK AO2 RAB41 SLP178 P0000 60000 T00610028 10067 20050 56011 RTX FIBI","FM-15","7",,,,,,,,,,,,,,,,,,,,,,,,,,,,
"72505394728","2020-03-25T13:51:00","FM-15","7",,,,,,,,,,,,,,,,,,,,,,,,,,,,,,,,,,,,,,"30.05","39","44","T","-RA:02 |RA |RA",,,"83","30.02","SCT:04 14 BKN:07 29 OVC:08 34","29.88","9.00","42","050","24","9",,,,,,,,,,,,,,,,,,,,,,,,,,,,,,,,,,,,,"MET13003/25/20 13:51:02 METAR KNYC 251851Z 05008G21KT 9SM -RA SCT014 BKN029 OVC034 07/04 A3005 RMK AO2 RAE1756B28 SLP166 P0000 T00670039","FM-15","7",,,,,,,,,,,,,,,,,,,,,,,,,,,,
"72505394728","2020-03-25T14:17:00","FM-16","7",,,,,,,,,,,,,,,,,,,,,,,,,,,,,,,,,,,,,,"30.04","38","45","0.01","-RA:02 |RA |RA",,,"77",,"BKN:07 14 BKN:07 28 OVC:08 35","29.87","10.00","42","VRB","21","10",,,,,,,,,,,,,,,,,,,,,,,,,,,,,,,,,,,,,"MET11303/25/20 14:17:02 SPECI KNYC 251917Z 05009G18KT 10SM -RA BKN014 BKN028 OVC035 07/03 A3004 RMK AO2 P0001 T00720033","FM-16","7",,,,,,,,,,,,,,,,,,,,,,,,,,,,
"72505394728","2020-03-25T14:24:00","FM-16","7",,,,,,,,,,,,,,,,,,,,,,,,,,,,,,,,,,,,,,"30.04","39","45","0.01","-RA:02 |RA |RA",,,"80",,"BKN:07 15 BKN:07 26 OVC:08 35","29.87","10.00","42","050","18","11",,,,,,,,,,,,,,,,,,,,,,,,,,,,,,,,,,,,,"MET11303/25/20 14:24:02 SPECI KNYC 251924Z 05010G16KT 10SM -RA BKN015 BKN026 OVC035 07/04 A3004 RMK AO2 P0001 T00720039","FM-16","7",,,,,,,,,,,,,,,,,,,,,,,,,,,,
"72505394728","2020-03-25T14:51:00","FM-15","7",,,,,,,,,,,,,,,,,,,,,,,,,,,,,,,,,,,,,,"30.03","37","44","0.01",,,,"76","30.01","FEW:02 18 OVC:08 29","29.86","10.00","41","050","23","14",,,,,,,,,,,,,,,,,,,,,,,,,,,,,,,,,,,,,"MET11503/25/20 14:51:02 METAR KNYC 251951Z 05012G20KT 10SM FEW018 OVC029 07/03 A3003 RMK AO2 RAE39 SLP162 P0001 T00670028","FM-15","7",,,,,,,,,,,,,,,,,,,,,,,,,,,,
"72505394728","2020-03-25T15:06:00","FM-16","7",,,,,,,,,,,,,,,,,,,,,,,,,,,,,,,,,,,,,,"30.02","36","44",,,,,"73",,"FEW:02 20 OVC:08 32","29.85","10.00","40","VRB","28","8",,,,,,,,,,,,,,,,,,,,,,,,,,,,,,,,,,,,,"MET09603/25/20 15:06:02 SPECI KNYC 252006Z 06007G24KT 10SM FEW020 OVC032 07/02 A3002 RMK AO2 T00670022","FM-16","7",,,,,,,,,,,,,,,,,,,,,,,,,,,,
"72505394728","2020-03-25T15:44:00","FM-16","7",,,,,,,,,,,,,,,,,,,,,,,,,,,,,,,,,,,,,,"30.03","36","45",,,,,"71",,"SCT:04 20 BKN:07 29 OVC:08 46","29.86","10.00","41","040","25","15",,,,,,,,,,,,,,,,,,,,,,,,,,,,,,,,,,,,,"MET12103/25/20 15:44:02 SPECI KNYC 252044Z 04013G22KT 10SM SCT020 BKN029 OVC046 07/02 A3003 RMK AO2 PK WND 07027/2014 T00720022","FM-16","7",,,,,,,,,,,,,,,,,,,,,,,,,,,,
"72505394728","2020-03-25T15:51:00","FM-15","7",,,,,,,,,,,,,,,,,,,,,,,,,,,,,,,,,,,,,,"30.02","35","45","0.00",,"+0.06","6","68","30.00","SCT:04 20 BKN:07 29 OVC:08 48","29.85","10.00","41","050","26","14",,,,,,,,,,,,,,,,,,,,,,,,,,,,,,,,,,,,,"MET14003/25/20 15:51:02 METAR KNYC 252051Z 05012G23KT 10SM SCT020 BKN029 OVC048 07/02 A3002 RMK AO2 PK WND 07027/2014 SLP158 60001 T00720017 56019","FM-15","7",,,,,,,,,,,,,,,,,,,,,,,,,,,,
"72505394728","2020-03-25T16:11:00","FM-16","7",,,,,,,,,,,,,,,,,,,,,,,,,,,,,,,,,,,,,,"30.02","34","44",,,,,"68",,"SCT:04 22 BKN:07 49 OVC:08 90","29.85","10.00","40","050","28","16",,,,,,,,,,,,,,,,,,,,,,,,,,,,,,,,,,,,,"MET12103/25/20 16:11:02 SPECI KNYC 252111Z 05014G24KT 10SM SCT022 BKN049 OVC090 07/01 A3002 RMK AO2 PK WND 06029/2055 T00670011","FM-16","7",,,,,,,,,,,,,,,,,,,,,,,,,,,,
"72505394728","2020-03-25T16:51:00","FM-15","7",,,,,,,,,,,,,,,,,,,,,,,,,,,,,,,,,,,,,,"30.03","34","43","0.00",,,,"71","30.00","BKN:07 24 OVC:08 80","29.86","10.00","39","040","25","11",,,,,,,,,,,,,,,,,,,,,,,,,,,,,,,,,,,,,"MET12503/25/20 16:51:02 METAR KNYC 252151Z 04010G22KT 10SM BKN024 OVC080 06/01 A3003 RMK AO2 PK WND 06029/2055 SLP159 T00610011 RTX","FM-15","7",,,,,,,,,,,,,,,,,,,,,,,,,,,,
"72505394728","2020-03-25T17:51:00","FM-15","7",,,,,,,,,,,,,,,,,,,,,,,,,,,,,,,,,,,,,,"30.04","35","43","0.00",,,,"74","30.01","BKN:07 21 BKN:07 28 OVC:08 34","29.87","10.00","40","VRB","20","10",,,,,,,,,,,,,,,,,,,,,,,,,,,,,,,,,,,,,"MET11003/25/20 17:51:02 METAR KNYC 252251Z 05009G17KT 10SM BKN021 BKN028 OVC034 06/02 A3004 RMK AO2 SLP164 T00610017","FM-15","7",,,,,,,,,,,,,,,,,,,,,,,,,,,,
"72505394728","2020-03-25T18:51:00","FM-15","7",,,,,,,,,,,,,,,,,,,,,,,,,,,,,,,,,,,,,,"30.04","35","42","0.00",,"-0.02","3","76","30.02","SCT:04 17 OVC:08 28","29.87","10.00","39","060",,"8",,,,,,,,,,,,,,,,,,,,,,,,,,,,,,,,,,,,,"MET12803/25/20 18:51:02 METAR KNYC 252351Z 06007KT 10SM SCT017 OVC028 06/02 A3004 RMK AO2 SLP166 60001 T00560017 10072 20056 53007 RTX","FM-15","7",,,,,,,,,,,,,,,,,,,,,,,,,,,,
"72505394728","2020-03-25T19:49:00","FM-16","6",,,,,,,,,,,,,,,,,,,,,,,,,,,,,,,,,,,,,,"30.05","36","43",,,,,"76",,"FEW:02 16 BKN:07 30 OVC:08 40","29.88","10.00","40","050",,"8",,,,,,,,,,,,,,,,,,,,,,,,,,,,,,,,,,,,,"MET09503/25/20 19:49:03 SPECI KNYC 260049Z 05007KT 10SM FEW016 BKN030 OVC040 06/02 A3005 RMK AO2 FIBI","FM-16","6",,,,,,,,,,,,,,,,,,,,,,,,,,,,
"72505394728","2020-03-25T19:51:00","FM-15","7",,,,,,,,,,,,,,,,,,,,,,,,,,,,,,,,,,,,,,"30.05","36","43","0.00",,,,"76","30.02","FEW:02 18 BKN:07 27 OVC:08 40","29.88","10.00","40","040",,"7",,,,,,,,,,,,,,,,,,,,,,,,,,,,,,,,,,,,,"MET10703/25/20 19:51:01 METAR KNYC 260051Z 04006KT 10SM FEW018 BKN027 OVC040 06/02 A3005 RMK AO2 SLP167 T00610022","FM-15","7",,,,,,,,,,,,,,,,,,,,,,,,,,,,
"72505394728","2020-03-25T20:51:00","FM-15","7",,,,,,,,,,,,,,,,,,,,,,,,,,,,,,,,,,,,,,"30.06","35","43","0.00",,,,"74","30.04","OVC:08 22","29.89","10.00","40","010","17","9",,,,,,,,,,,,,,,,,,,,,,,,,,,,,,,,,,,,,"MET09603/25/20 20:51:01 METAR KNYC 260151Z 01008G15KT 10SM OVC022 06/02 A3006 RMK AO2 SLP172 T00610017","FM-15","7",,,,,,,,,,,,,,,,,,,,,,,,,,,,
"72505394728","2020-03-25T21:21:00","FM-16","7",,,,,,,,,,,,,,,,,,,,,,,,,,,,,,,,,,,,,,"30.08","33","42",,,,,"71",,"FEW:02 21","29.91","10.00","38","020","21","11",,,,,,,,,,,,,,,,,,,,,,,,,,,,,,,,,,,,,"MET08903/25/20 21:21:01 SPECI KNYC 260221Z 02010G18KT 10SM FEW021 06/01 A3008 RMK AO2 T00560006","FM-16","7",,,,,,,,,,,,,,,,,,,,,,,,,,,,
"72505394728","2020-03-25T21:51:00","FM-15","7",,,,,,,,,,,,,,,,,,,,,,,,,,,,,,,,,,,,,,"30.07","33","42","0.00",,"-0.03","3","71","30.05","FEW:02 95","29.90","10.00","38","VRB",,"8",,,,,,,,,,,,,,,,,,,,,,,,,,,,,,,,,,,,,"MET09903/25/20 21:51:01 METAR KNYC 260251Z 03007KT 10SM FEW095 06/01 A3007 RMK AO2 SLP175 T00560006 53009","FM-15","7",,,,,,,,,,,,,,,,,,,,,,,,,,,,
"72505394728","2020-03-25T22:51:00","FM-15","7",,,,,,,,,,,,,,,,,,,,,,,,,,,,,,,,,,,,,,"30.07","32","41","0.00",,,,"70","30.05","CLR:00","29.90","10.00","37","VRB",,"9",,,,,,,,,,,,,,,,,,,,,,,,,,,,,,,,,,,,,"MET09003/25/20 22:51:01 METAR KNYC 260351Z 02008KT 10SM CLR 05/00 A3007 RMK AO2 SLP176 T00500000","FM-15","7",,,,,,,,,,,,,,,,,,,,,,,,,,,,
"72505394728","2020-03-25T23:51:00","FM-15","7",,,,,,,,,,,,,,,,,,,,,,,,,,,,,,,,,,,,,,"30.07","31","41","0.00",,,,"67","30.04","CLR:00","29.90","10.00","37","VRB",,"3",,,,,,,,,,,,,,,,,,,,,,,,,,,,,,,,,,,,,"MET10103/25/20 23:51:01 METAR KNYC 260451Z VRB03KT 10SM CLR 05/M01 A3007 RMK AO2 SLP174 T00501006 400720044","FM-15","7",,,,,,,,,,,,,,,,,,,,,,,,,,,,
"72505394728","2020-03-25T23:59:00","SOD  ","6",,,,,,,,,,,,,,,,"43",,,"29.91",,"9.9","0","-2.3","22","45","40","060","33","0.01","0","0.0","050","22","RA",,,,,,,,,,,,,,,,,,,,,,,,,,,,,,,,,,,,,,,,,,,,,,,,,,,,,,,,"SOD74324 HR PRECIPITATION (IN): 0.01 SNOW DEPTH (IN):0     24 HR SNOWFALL (IN):0.0  24 HR MAX TEMP (F): 4524 HR MIN TEMP (F): 40AVERAGE STATION PRESSURE(D):29.905 MINIMUM SEA LEVEL PRESSURE:29.99 TIME OF OCCURRENCE:1618 PEAK WIND SPEED (MPH): 33 PEAK WIND DIR (DEG): 60 PEAK WIND TIME (LST):      FASTEST 2MIN SPEED (MPH): 22FASTEST 2MIN DIR (DEG): 50 FASTEST 2MIN TIME (LST):     AVERAGE WIND SPEED (MPH): 9.9 24 HR AVG TEMP (F): 43DEPART FROM NORMAL: -2  HEATING DEGREE DAYS: 22 COOLING DEGREE DAYS:  0 LATEST DAY MAX TEMP (0700-1900 LST): 45 LATEST NIGHT MIN TEMP(1900-0800 LST):40 HOURLY INCREMENTAL PRECIPITATION VALUES (IN):0.00 0.00 0.00 0.00 0.00 0.00 0.00 0.00 0.00 0.00 0.00 0.00T    T     0.01 0.00 0.00 0.00 0.00 0.00 0.00 0.00 0.00 0.00","SOD  ","6",,,,,,,,,,,,,,,,,,,,,,,,,"0550","1814",,
"72505394728","2020-03-26T00:51:00","FM-15","7",,,,,,,,,,,,,,,,,,,,,,,,,,,,,,,,,,,,,,"30.08","31","40","0.00",,"-0.01","3","70","30.05","CLR:00","29.91","10.00","36","000",,"0",,,,,,,,,,,,,,,,,,,,,,,,,,,,,,,,,,,,,"MET10903/26/20 00:51:02 METAR KNYC 260551Z 00000KT 10SM CLR 04/M01 A3008 RMK AO2 SLP176 T00441006 10067 20039 53002","FM-15","7",,,,,,,,,,,,,,,,,,,,,,,,,,,,
"72505394728","2020-03-26T01:51:00","FM-15","7",,,,,,,,,,,,,,,,,,,,,,,,,,,,,,,,,,,,,,"30.05","30","39","0.00",,,,"70","30.03","CLR:00","29.88","10.00","35","VRB",,"7",,,,,,,,,,,,,,,,,,,,,,,,,,,,,,,,,,,,,"MET09103/26/20 01:51:02 METAR KNYC 260651Z VRB06KT 10SM CLR 04/M01 A3005 RMK AO2 SLP169 T00391011","FM-15","7",,,,,,,,,,,,,,,,,,,,,,,,,,,,
"72505394728","2020-03-26T02:51:00","FM-15","7",,,,,,,,,,,,,,,,,,,,,,,,,,,,,,,,,,,,,,"30.06","29","39","0.00",,,,"67","30.03","CLR:00","29.89","10.00","35","000",,"0",,,,,,,,,,,,,,,,,,,,,,,,,,,,,,,,,,,,,"MET09103/26/20 02:51:02 METAR KNYC 260751Z 00000KT 10SM CLR 04/M02 A3006 RMK AO2 SLP169 T00391017","FM-15","7",,,,,,,,,,,,,,,,,,,,,,,,,,,,
"72505394728","2020-03-26T03:51:00","FM-15","7",,,,,,,,,,,,,,,,,,,,,,,,,,,,,,,,,,,,,,"30.07","30","38","0.00",,"+0.01","5","73","30.04","CLR:00","29.90","10.00","35","VRB",,"3",,,,,,,,,,,,,,,,,,,,,,,,,,,,,,,,,,,,,"MET09703/26/20 03:51:02 METAR KNYC 260851Z VRB03KT 10SM CLR 03/M01 A3007 RMK AO2 SLP173 T00331011 55003","FM-15","7",,,,,,,,,,,,,,,,,,,,,,,,,,,,
"72505394728","2020-03-26T04:51:00","FM-15","7",,,,,,,,,,,,,,,,,,,,,,,,,,,,,,,,,,,,,,"30.08","29","39","0.00",,,,"67","30.05","CLR:00","29.91","10.00","35","VRB",,"6",,,,,,,,,,,,,,,,,,,,,,,,,,,,,,,,,,,,,"MET09503/26/20 04:51:02 METAR KNYC 260951Z VRB05KT 10SM CLR 04/M02 A3008 RMK AO2 SLP177 T00391017 RTX","FM-15","7",,,,,,,,,,,,,,,,,,,,,,,,,,,,
"72505394728","2020-03-26T05:51:00","FM-15","7",,,,,,,,,,,,,,,,,,,,,,,,,,,,,,,,,,,,,,"30.08","28","38","0.00",,,,"68","30.06","CLR:00","29.91","10.00","34","020",,"6",,,,,,,,,,,,,,,,,,,,,,,,,,,,,,,,,,,,,"MET09103/26/20 05:51:02 METAR KNYC 261051Z 02005KT 10SM CLR 03/M02 A3008 RMK AO2 SLP179 T00331022","FM-15","7",,,,,,,,,,,,,,,,,,,,,,,,,,,,
"72505394728","2020-03-26T06:51:00","FM-15","7",,,,,,,,,,,,,,,,,,,,,,,,,,,,,,,,,,,,,,"30.09","27","39","0.00",,"-0.03","2","62","30.07","CLR:00","29.92","10.00","34","VRB",,"7",,,,,,,,,,,,,,,,,,,,,,,,,,,,,,,,,,,,,"MET11903/26/20 06:51:02 METAR KNYC 261151Z VRB06KT 10SM CLR 04/M03 A3009 RMK AO2 SLP182 70001 T00391028 10044 20033 52009 RTX","FM-15","7",,,,,,,,,,,,,,,,,,,,,,,,,,,,
"72505394728","2020-03-26T07:51:00","FM-15","7",,,,,,,,,,,,,,,,,,,,,,,,,,,,,,,,,,,,,,"30.09","26","42","0.00",,,,"53","30.07","CLR:00","29.92","10.00","36","VRB",,"3",,,,,,,,,,,,,,,,,,,,,,,,,,,,,,,,,,,,,"MET09103/26/20 07:51:02 METAR KNYC 261251Z VRB03KT 10SM CLR 06/M03 A3009 RMK AO2 SLP182 T00561033","FM-15","7",,,,,,,,,,,,,,,,,,,,,,,,,,,,
"72505394728","2020-03-26T08:51:00","FM-15","7",,,,,,,,,,,,,,,,,,,,,,,,,,,,,,,,,,,,,,"30.09","27","45","0.00",,,,"49","30.07","CLR:00","29.92","10.00","38","VRB",,"3",,,,,,,,,,,,,,,,,,,,,,,,,,,,,,,,,,,,,"MET09103/26/20 08:51:02 METAR KNYC 261351Z VRB03KT 10SM CLR 07/M03 A3009 RMK AO2 SLP182 T00721028","FM-15","7",,,,,,,,,,,,,,,,,,,,,,,,,,,,
"72505394728","2020-03-26T09:51:00","FM-15","7",,,,,,,,,,,,,,,,,,,,,,,,,,,,,,,,,,,,,,"30.09","29","47","0.00",,"+0.01","8","50","30.06","CLR:00","29.92","10.00","40","290",,"3",,,,,,,,,,,,,,,,,,,,,,,,,,,,,,,,,,,,,"MET10103/26/20 09:51:02 METAR KNYC 261451Z 29003KT 10SM CLR 08/M02 A3009 RMK AO2 SLP180 T00831017 58002 RTX","FM-15","7",,,,,,,,,,,,,,,,,,,,,,,,,,,,
"72505394728","2020-03-26T10:51:00","FM-15","7",,,,,,,,,,,,,,,,,,,,,,,,,,,,,,,,,,,,,,"30.07","29","48","0.00",,,,"48","30.05","CLR:00","29.90","10.00","40","260",,"6",,,,,,,,,,,,,,,,,,,,,,,,,,,,,,,,,,,,,"MET09103/26/20 10:51:02 METAR KNYC 261551Z 26005KT 10SM CLR 09/M02 A3007 RMK AO2 SLP176 T00891017","FM-15","7",,,,,,,,,,,,,,,,,,,,,,,,,,,,
"72505394728","2020-03-26T11:51:00","FM-15","7",,,,,,,,,,,,,,,,,,,,,,,,,,,,,,,,,,,,,,"30.03","31","52","0.00",,,,"45","30.01","CLR:00","29.86","10.00","43","VRB",,"5",,,,,,,,,,,,,,,,,,,,,,,,,,,,,,,,,,,,,"MET09503/26/20 11:51:02 METAR KNYC 261651Z VRB04KT 10SM CLR 11/M01 A3003 RMK AO2 SLP161 T01111006 RTX","FM-15","7",,,,,,,,,,,,,,,,,,,,,,,,,,,,
"72505394728","2020-03-26T12:51:00","FM-15","7",,,,,,,,,,,,,,,,,,,,,,,,,,,,,,,,,,,,,,"29.99","32","55","0.00",,"+0.10","8","42","29.96","CLR:00","29.82","10.00","45","VRB",,"6",,,,,,,,,,,,,,,,,,,,,,,,,,,,,,,,,,,,,"MET10803/26/20 12:51:02 METAR KNYC 261751Z VRB05KT 10SM CLR 13/00 A2999 RMK AO2 SLP147 T01280000 10133 20039 58033","FM-15","7",,,,,,,,,,,,,,,,,,,,,,,,,,,,
"72505394728","2020-03-26T13:51:00","FM-15","7",,,,,,,,,,,,,,,,,,,,,,,,,,,,,,,,,,,,,,"29.96","33","57","0.00",,,,"41","29.93","CLR:00","29.79","10.00","46","VRB",,"6",,,,,,,,,,,,,,,,,,,,,,,,,,,,,,,,,,,,,"MET09003/26/20 13:51:02 METAR KNYC 261851Z VRB05KT 10SM CLR 14/01 A2996 RMK AO2 SLP136 T01390006","FM-15","7",,,,,,,,,,,,,,,,,,,,,,,,,,,,
"72505394728","2020-03-26T14:51:00","FM-15","7",,,,,,,,,,,,,,,,,,,,,,,,,,,,,,,,,,,,,,"29.93","34","58","0.00",,,,"41","29.90","CLR:00","29.76","10.00","47","VRB",,"3",,,,,,,,,,,,,,,,,,,,,,,,,,,,,,,,,,,,,"MET09003/26/20 14:51:02 METAR KNYC 261951Z VRB03KT 10SM CLR 14/01 A2993 RMK AO2 SLP126 T01440011","FM-15","7",,,,,,,,,,,,,,,,,,,,,,,,,,,,
"72505394728","2020-03-26T15:51:00","FM-15","7",,,,,,,,,,,,,,,,,,,,,,,,,,,,,,,,,,,,,,"29.92","35","58","0.00",,"+0.07","6","42","29.89","CLR:00","29.75","10.00","47","230",,"9",,,,,,,,,,,,,,,,,,,,,,,,,,,,,,,,,,,,,"MET09603/26/20 15:51:02 METAR KNYC 262051Z 23008KT 10SM CLR 14/02 A2992 RMK AO2 SLP123 T01440017 56024","FM-15","7",,,,,,,,,,,,,,,,,,,,,,,,,,,,
"72505394728","2020-03-26T16:51:00","FM-15","7",,,,,,,,,,,,,,,,,,,,,,,,,,,,,,,,,,,,,,"29.92","34","53","0.00",,,,"48","29.90","CLR:00","29.75","10.00","44",,,,,,,,,,,,,,,,,,,,,,,,,,,,,,,,,,,,,,,,"MET09003/26/20 16:51:02 METAR KNYC 262151Z      KT 10SM CLR 12/01 A2992 RMK AO2 SLP124 T01170011","FM-15","7",,,,,,,,,,,,,,,,,,,,,,,,,,,,
"72505394728","2020-03-26T17:51:00","FM-15","7",,,,,,,,,,,,,,,,,,,,,,,,,,,,,,,,,,,,,,"29.89","36","50","0.00",,,,"59","29.87","CLR:00","29.72","10.00","44","VRB",,"3",,,,,,,,,,,,,,,,,,,,,,,,,,,,,,,,,,,,,"MET09003/26/20 17:51:02 METAR KNYC 262251Z VRB03KT 10SM CLR 10/02 A2989 RMK AO2 SLP114 T01000022","FM-15","7",,,,,,,,,,,,,,,,,,,,,,,,,,,,
"72505394728","2020-03-26T18:51:00","FM-15","7",,,,,,,,,,,,,,,,,,,,,,,,,,,,,,,,,,,,,,"29.89","38","48","0.00",,"+0.03","8","68","29.86","CLR:00","29.72","10.00","43","000",,"0",,,,,,,,,,,,,,,,,,,,,,,,,,,,,,,,,,,,,"MET11203/26/20 18:51:02 METAR KNYC 262351Z 00000KT 10SM CLR 09/03 A2989 RMK AO2 SLP112 T00890033 10156 20089 58011 RTX","FM-15","7",,,,,,,,,,,,,,,,,,,,,,,,,,,,
"72505394728","2020-03-26T19:51:00","FM-15","7",,,,,,,,,,,,,,,,,,,,,,,,,,,,,,,,,,,,,,"29.88","39","48","0.00",,,,"71","29.85","CLR:00","29.71","10.00","44","000",,"0",,,,,,,,,,,,,,,,,,,,,,,,,,,,,,,,,,,,,"MET09003/26/20 19:51:01 METAR KNYC 270051Z 00000KT 10SM CLR 09/04 A2988 RMK AO2 SLP109 T00890039","FM-15","7",,,,,,,,,,,,,,,,,,,,,,,,,,,,
"72505394728","2020-03-26T20:51:00","FM-15","7",,,,,,,,,,,,,,,,,,,,,,,,,,,,,,,,,,,,,,"29.86","39","49","0.00",,,,"69","29.84","CLR:00","29.69","10.00","44","000",,"0",,,,,,,,,,,,,,,,,,,,,,,,,,,,,,,,,,,,,"MET09003/26/20 20:51:01 METAR KNYC 270151Z 00000KT 10SM CLR 09/04 A2986 RMK AO2 SLP105 T00940039","FM-15","7",,,,,,,,,,,,,,,,,,,,,,,,,,,,
"72505394728","2020-03-26T21:51:00","FM-15","7",,,,,,,,,,,,,,,,,,,,,,,,,,,,,,,,,,,,,,"29.84","39","53","0.00",,"+0.05","8","59","29.81","CLR:00","29.67","10.00","46","220",,"8",,,,,,,,,,,,,,,,,,,,,,,,,,,,,,,,,,,,,"MET09603/26/20 21:51:01 METAR KNYC 270251Z 22007KT 10SM CLR 12/04 A2984 RMK AO2 SLP096 T01170039 58016","FM-15","7",,,,,,,,,,,,,,,,,,,,,,,,,,,,
"72505394728","2020-03-26T22:51:00","FM-15","7",,,,,,,,,,,,,,,,,,,,,,,,,,,,,,,,,,,,,,"29.84","40","52","0.00",,,,"64","29.81","CLR:00","29.67","10.00","46","VRB",,"5",,,,,,,,,,,,,,,,,,,,,,,,,,,,,,,,,,,,,"MET09003/26/20 22:51:02 METAR KNYC 270351Z VRB04KT 10SM CLR 11/04 A2984 RMK AO2 SLP096 T01110044","FM-15","7",,,,,,,,,,,,,,,,,,,,,,,,,,,,
"72505394728","2020-03-26T23:51:00","FM-15","7",,,,,,,,,,,,,,,,,,,,,,,,,,,,,,,,,,,,,,"29.83","40","51","0.00",,,,"66","29.81","CLR:00","29.66","10.00","46","230","18","11",,,,,,,,,,,,,,,,,,,,,,,,,,,,,,,,,,,,,"MET10303/26/20 23:51:02 METAR KNYC 270451Z 23010G16KT 10SM CLR 11/04 A2983 RMK AO2 SLP094 T01060044 401560033","FM-15","7",,,,,,,,,,,,,,,,,,,,,,,,,,,,
"72505394728","2020-03-26T23:59:00","SOD  ","6",,,,,,,,,,,,,,,,"49",,,"29.83",,"4.4","0","3.4","16","60","38","220","20","0.00","0","0.0","050","14",,,,,,,,,,,,,,,,,,,,,,,,,,,,,,,,,,,,,,,,,,,,,,,,,,,,,,,,,"SOD73924 HR PRECIPITATION (IN): 0.00 SNOW DEPTH (IN):0     24 HR SNOWFALL (IN):0.0  24 HR MAX TEMP (F): 6024 HR MIN TEMP (F): 38AVERAGE STATION PRESSURE:29.835 MINIMUM SEA LEVEL PRESSURE:29.81 TIME OF OCCURRENCE:2359 PEAK WIND SPEED (MPH): 20 PEAK WIND DIR (DEG):220 PEAK WIND TIME (LST):      FASTEST 2MIN SPEED (MPH): 14FASTEST 2MIN DIR (DEG): 50 FASTEST 2MIN TIME (LST):     AVERAGE WIND SPEED (MPH): 4.4 24 HR AVG TEMP (F): 49DEPART FROM NORMAL:  3  HEATING DEGREE DAYS: 16 COOLING DEGREE DAYS:  0 LATEST DAY MAX TEMP (0700-1900 LST):60  LATEST NIGHT MIN TEMP(1900-0800 LST):38 HOURLY INCREMENTAL PRECIPITATION VALUES (IN):.00 0.00 0.00 0.00 0.00 0.00 0.00 0.00 0.00 0.00 0.00 0.00 0.00 0.00 0.00 0.00 0.00 0.00 0.00 0.00 0.00 0.00 0.00 0.00","SOD  ","6",,,,,,,,,,,,,,,,,,,,,,,,,"0548","1815",,
"72505394728","2020-03-27T00:51:00","FM-15","7",,,,,,,,,,,,,,,,,,,,,,,,,,,,,,,,,,,,,,"29.81","41","51","0.00",,"+0.02","8","69","29.79","FEW:02 120","29.64","10.00","46",,,,,,,,,,,,,,,,,,,,,,,,,,,,,,,,,,,,,,,,"MET11503/27/20 00:51:02 METAR KNYC 270551Z      KT 10SM FEW120 11/05 A2981 RMK AO2 SLP088 T01060050 10117 20089 58008 RTX","FM-15","7",,,,,,,,,,,,,,,,,,,,,,,,,,,,
"72505394728","2020-03-27T01:51:00","FM-15","7",,,,,,,,,,,,,,,,,,,,,,,,,,,,,,,,,,,,,,"29.81","41","51","T",,,,"69","29.79","FEW:02 60 BKN:07 95 OVC:08 110","29.64","10.00","46","240",,"8",,,,,,,,,,,,,,,,,,,,,,,,,,,,,,,,,,,,,"MET10703/27/20 01:51:02 METAR KNYC 270651Z 24007KT 10SM FEW060 BKN095 OVC110 11/05 A2981 RMK AO2 SLP087 T01060050","FM-15","7",,,,,,,,,,,,,,,,,,,,,,,,,,,,
"72505394728","2020-03-27T02:51:00","FM-15","7",,,,,,,,,,,,,,,,,,,,,,,,,,,,,,,,,,,,,,"29.78","42","51","T","-RA:02 |RA |RA",,,"71","29.76","FEW:02 55 BKN:07 75 OVC:08 90","29.61","10.00","47","240",,"7",,,,,,,,,,,,,,,,,,,,,,,,,,,,,,,,,,,,,"MET13103/27/20 02:51:02 METAR KNYC 270751Z 24006KT 10SM -RA FEW055 BKN075 OVC090 11/06 A2978 RMK AO2 RAB0656E10B51 SLP077 P0000 T01060056","FM-15","7",,,,,,,,,,,,,,,,,,,,,,,,,,,,
"72505394728","2020-03-27T03:51:00","FM-15","7",,,,,,,,,,,,,,,,,,,,,,,,,,,,,,,,,,,,,,"29.78","43","50","T",,"+0.03","7","77","29.76","BKN:07 80 OVC:08 110","29.61","10.00","47","230",,"7",,,,,,,,,,,,,,,,,,,,,,,,,,,,,,,,,,,,,"MET12403/27/20 03:51:02 METAR KNYC 270851Z 23006KT 10SM BKN080 OVC110 10/06 A2978 RMK AO2 RAE51 SLP077 P0000 60000 T01000061 57011","FM-15","7",,,,,,,,,,,,,,,,,,,,,,,,,,,,
"72505394728","2020-03-27T04:51:00","FM-15","7",,,,,,,,,,,,,,,,,,,,,,,,,,,,,,,,,,,,,,"29.79","43","50","0.00",,,,"77","29.76","OVC:08 80","29.62","10.00","47","VRB",,"5",,,,,,,,,,,,,,,,,,,,,,,,,,,,,,,,,,,,,"MET09303/27/20 04:51:02 METAR KNYC 270951Z VRB04KT 10SM OVC080 10/06 A2979 RMK AO2 SLP079 T01000061","FM-15","7",,,,,,,,,,,,,,,,,,,,,,,,,,,,
"72505394728","2020-03-27T05:51:00","FM-15","7",,,,,,,,,,,,,,,,,,,,,,,,,,,,,,,,,,,,,,"29.80","43","50","0.00",,,,"77","29.77","OVC:08 75","29.63","10.00","47","VRB",,"6",,,,,,,,,,,,,,,,,,,,,,,,,,,,,,,,,,,,,"MET09303/27/20 05:51:02 METAR KNYC 271051Z VRB05KT 10SM OVC075 10/06 A2980 RMK AO2 SLP082 T01000061","FM-15","7",,,,,,,,,,,,,,,,,,,,,,,,,,,,
"72505394728","2020-03-27T06:51:00","FM-15","7",,,,,,,,,,,,,,,,,,,,,,,,,,,,,,,,,,,,,,"29.80","44","51","0.00",,"-0.02","3","77","29.78","OVC:08 70","29.63","10.00","48","000",,"0",,,,,,,,,,,,,,,,,,,,,,,,,,,,,,,,,,,,,"MET11703/27/20 06:51:02 METAR KNYC 271151Z 00000KT 10SM OVC070 11/07 A2980 RMK AO2 SLP084 60000 T01060067 10111 20100 53007","FM-15","7",,,,,,,,,,,,,,,,,,,,,,,,,,,,
"72505394728","2020-03-27T07:51:00","FM-15","7",,,,,,,,,,,,,,,,,,,,,,,,,,,,,,,,,,,,,,"29.82","44","53","0.00",,,,"72","29.80","OVC:08 80","29.65","10.00","49","000",,"0",,,,,,,,,,,,,,,,,,,,,,,,,,,,,,,,,,,,,"MET09303/27/20 07:51:02 METAR KNYC 271251Z 00000KT 10SM OVC080 12/07 A2982 RMK AO2 SLP091 T01170067","FM-15","7",,,,,,,,,,,,,,,,,,,,,,,,,,,,
"72505394728","2020-03-27T08:51:00","FM-15","7",,,,,,,,,,,,,,,,,,,,,,,,,,,,,,,,,,,,,,"29.83","43","56","0.00",,,,"62","29.80","CLR:00","29.66","10.00","50","000",,"0",,,,,,,,,,,,,,,,,,,,,,,,,,,,,,,,,,,,,"MET09003/27/20 08:51:02 METAR KNYC 271351Z 00000KT 10SM CLR 13/06 A2983 RMK AO2 SLP093 T01330061","FM-15","7",,,,,,,,,,,,,,,,,,,,,,,,,,,,
"72505394728","2020-03-27T09:51:00","FM-15","7",,,,,,,,,,,,,,,,,,,,,,,,,,,,,,,,,,,,,,"29.85","40","60","0.00",,"-0.04","1","47","29.82","CLR:00","29.68","10.00","50","VRB",,"7",,,,,,,,,,,,,,,,,,,,,,,,,,,,,,,,,,,,,"MET10303/27/20 09:51:02 METAR KNYC 271451Z VRB06KT 10SM CLR 16/04 A2985 RMK AO2 PRESRR SLP099 T01560044 51015","FM-15","7",,,,,,,,,,,,,,,,,,,,,,,,,,,,
"72505394728","2020-03-27T10:51:00","FM-15","7",,,,,,,,,,,,,,,,,,,,,,,,,,,,,,,,,,,,,,"29.87","40","63","0.00",,,,"43","29.84","BKN:07 95","29.70","10.00","51","VRB",,"7",,,,,,,,,,,,,,,,,,,,,,,,,,,,,,,,,,,,,"MET09303/27/20 10:51:02 METAR KNYC 271551Z VRB06KT 10SM BKN095 17/04 A2987 RMK AO2 SLP104 T01720044","FM-15","7",,,,,,,,,,,,,,,,,,,,,,,,,,,,
"72505394728","2020-03-27T11:51:00","FM-15","7",,,,,,,,,,,,,,,,,,,,,,,,,,,,,,,,,,,,,,"29.86","36","65","0.00",,,,"34","29.84","CLR:00","29.69","10.00","51","030",,"9",,,,,,,,,,,,,,,,,,,,,,,,,,,,,,,,,,,,,"MET09003/27/20 11:51:02 METAR KNYC 271651Z 03008KT 10SM CLR 18/02 A2986 RMK AO2 SLP104 T01830022","FM-15","7",,,,,,,,,,,,,,,,,,,,,,,,,,,,
"72505394728","2020-03-27T12:51:00","FM-15","7",,,,,,,,,,,,,,,,,,,,,,,,,,,,,,,,,,,,,,"29.87","29","67","0.00",,"-0.02","1","24","29.84","CLR:00","29.70","10.00","49",,,,,,,,,,,,,,,,,,,,,,,,,,,,,,,,,,,,,,,,"MET10903/27/20 12:51:02 METAR KNYC 271751Z      KT 10SM CLR 19/M02 A2987 RMK AO2 SLP106 T01941017 10194 20106 51007","FM-15","7",,,,,,,,,,,,,,,,,,,,,,,,,,,,
"72505394728","2020-03-27T13:51:00","FM-15","7",,,,,,,,,,,,,,,,,,,,,,,,,,,,,,,,,,,,,,"29.86","27","67","0.00",,,,"22","29.83","CLR:00","29.69","10.00","49","050",,"7",,,,,,,,,,,,,,,,,,,,,,,,,,,,,,,,,,,,,"MET09103/27/20 13:51:02 METAR KNYC 271851Z 05006KT 10SM CLR 19/M03 A2986 RMK AO2 SLP102 T01941028","FM-15","7",,,,,,,,,,,,,,,,,,,,,,,,,,,,
"72505394728","2020-03-27T14:51:00","FM-15","7",,,,,,,,,,,,,,,,,,,,,,,,,,,,,,,,,,,,,,"29.87","26","68","0.00",,,,"21","29.85","CLR:00","29.70","10.00","49","VRB",,"3",,,,,,,,,,,,,,,,,,,,,,,,,,,,,,,,,,,,,"MET09503/27/20 14:51:02 METAR KNYC 271951Z VRB03KT 10SM CLR 20/M03 A2987 RMK AO2 SLP107 T02001033 RTX","FM-15","7",,,,,,,,,,,,,,,,,,,,,,,,,,,,
"72505394728","2020-03-27T15:51:00","FM-15","7",,,,,,,,,,,,,,,,,,,,,,,,,,,,,,,,,,,,,,"29.88","22","67","0.00",,"-0.01","3","18","29.85","CLR:00","29.71","10.00","48","VRB",,"6",,,,,,,,,,,,,,,,,,,,,,,,,,,,,,,,,,,,,"MET09703/27/20 15:51:02 METAR KNYC 272051Z VRB05KT 10SM CLR 19/M06 A2988 RMK AO2 SLP109 T01941056 53003","FM-15","7",,,,,,,,,,,,,,,,,,,,,,,,,,,,
"72505394728","2020-03-27T16:51:00","FM-15","7",,,,,,,,,,,,,,,,,,,,,,,,,,,,,,,,,,,,,,"29.90","23","66","0.00",,,,"19","29.87","CLR:00","29.73","10.00","47","350",,"7",,,,,,,,,,,,,,,,,,,,,,,,,,,,,,,,,,,,,"MET09103/27/20 16:51:02 METAR KNYC 272151Z 35006KT 10SM CLR 19/M05 A2990 RMK AO2 SLP115 T01891050","FM-15","7",,,,,,,,,,,,,,,,,,,,,,,,,,,,
"72505394728","2020-03-27T17:51:00","FM-15","7",,,,,,,,,,,,,,,,,,,,,,,,,,,,,,,,,,,,,,"29.94","19","65","0.00",,,,"17","29.91","CLR:00","29.77","10.00","46","VRB",,"3",,,,,,,,,,,,,,,,,,,,,,,,,,,,,,,,,,,,,"MET09103/27/20 17:51:02 METAR KNYC 272251Z VRB03KT 10SM CLR 18/M07 A2994 RMK AO2 SLP130 T01831072","FM-15","7",,,,,,,,,,,,,,,,,,,,,,,,,,,,
"72505394728","2020-03-27T18:51:00","FM-15","7",,,,,,,,,,,,,,,,,,,,,,,,,,,,,,,,,,,,,,"29.97","16","63","0.00",,"-0.09","3","16","29.95","CLR:00","29.80","10.00","44","330",,"3",,,,,,,,,,,,,,,,,,,,,,,,,,,,,,,,,,,,,"MET10903/27/20 18:51:02 METAR KNYC 272351Z 33003KT 10SM CLR 17/M09 A2997 RMK AO2 SLP141 T01721089 10206 20172 53031","FM-15","7",,,,,,,,,,,,,,,,,,,,,,,,,,,,
"72505394728","2020-03-27T19:51:00","FM-15","7",,,,,,,,,,,,,,,,,,,,,,,,,,,,,,,,,,,,,,"30.01","16","61","0.00",,,,"17","29.98","CLR:00","29.84","10.00","43","000",,"0",,,,,,,,,,,,,,,,,,,,,,,,,,,,,,,,,,,,,"MET09103/27/20 19:51:01 METAR KNYC 280051Z 00000KT 10SM CLR 16/M09 A3001 RMK AO2 SLP153 T01611089","FM-15","7",,,,,,,,,,,,,,,,,,,,,,,,,,,,
"72505394728","2020-03-27T20:51:00","FM-15","7",,,,,,,,,,,,,,,,,,,,,,,,,,,,,,,,,,,,,,"30.04","20","59","0.00",,,,"22","30.01","CLR:00","29.87","10.00","43","280",,"3",,,,,,,,,,,,,,,,,,,,,,,,,,,,,,,,,,,,,"MET09103/27/20 20:51:01 METAR KNYC 280151Z 28003KT 10SM CLR 15/M07 A3004 RMK AO2 SLP163 T01501067","FM-15","7",,,,,,,,,,,,,,,,,,,,,,,,,,,,
"72505394728","2020-03-27T21:51:00","FM-15","7",,,,,,,,,,,,,,,,,,,,,,,,,,,,,,,,,,,,,,"30.05","28","56","0.00",,"-0.08","1","34","30.03","CLR:00","29.88","10.00","44","060",,"9",,,,,,,,,,,,,,,,,,,,,,,,,,,,,,,,,,,,,"MET09703/27/20 21:51:01 METAR KNYC 280251Z 06008KT 10SM CLR 13/M02 A3005 RMK AO2 SLP168 T01331022 51027","FM-15","7",,,,,,,,,,,,,,,,,,,,,,,,,,,,
"72505394728","2020-03-27T22:51:00","FM-15","7",,,,,,,,,,,,,,,,,,,,,,,,,,,,,,,,,,,,,,"30.09","25","55","0.00",,,,"31","30.06","CLR:00","29.92","10.00","42","060",,"7",,,,,,,,,,,,,,,,,,,,,,,,,,,,,,,,,,,,,"MET09103/27/20 22:51:02 METAR KNYC 280351Z 06006KT 10SM CLR 13/M04 A3009 RMK AO2 SLP179 T01281039","FM-15","7",,,,,,,,,,,,,,,,,,,,,,,,,,,,
"72505394728","2020-03-27T23:51:00","FM-15","7",,,,,,,,,,,,,,,,,,,,,,,,,,,,,,,,,,,,,,"30.10","23","55","0.00",,,,"29","30.07","CLR:00","29.93","10.00","42","VRB",,"3",,,,,,,,,,,,,,,,,,,,,,,,,,,,,,,,,,,,,"MET10103/27/20 23:51:02 METAR KNYC 280451Z VRB03KT 10SM CLR 13/M05 A3010 RMK AO2 SLP182 T01281050 402060100","FM-15","7",,,,,,,,,,,,,,,,,,,,,,,,,,,,
"72505394728","2020-03-27T23:59:00","SOD  ","6",,,,,,,,,,,,,,,,"60",,,"29.72",,"4.9","0","14.0","5","69","50","020","20","T","0","0.0","060","13","RA",,,,,,,,,,,,,,,,,,,,,,,,,,,,,,,,,,,,,,,,,,,,,,,,,,,,,,,,"SOD74324 HR PRECIPITATION (IN):    T SNOW DEPTH (IN):0     24 HR SNOWFALL (IN):0.0  24 HR MAX TEMP (F): 6924 HR MIN TEMP (F): 50AVERAGE STATION PRESSURE(D):29.721 MINIMUM SEA LEVEL PRESSURE:29.75 TIME OF OCCURRENCE:0424 PEAK WIND SPEED (MPH): 20 PEAK WIND DIR (DEG): 20 PEAK WIND TIME (LST):      FASTEST 2MIN SPEED (MPH): 13FASTEST 2MIN DIR (DEG): 60 FASTEST 2MIN TIME (LST):     AVERAGE WIND SPEED (MPH): 4.9 24 HR AVG TEMP (F): 60DEPART FROM NORMAL: 14  HEATING DEGREE DAYS:  5 COOLING DEGREE DAYS:  0 LATEST DAY MAX TEMP (0700-1900 LST): 69 LATEST NIGHT MIN TEMP(1900-0800 LST):48 HOURLY INCREMENTAL PRECIPITATION VALUES (IN):0.00T    T    T     0.00 0.00 0.00 0.00 0.00 0.00 0.00 0.00 0.00 0.00 0.00 0.00 0.00 0.00 0.00 0.00 0.00 0.00 0.00 0.00","SOD  ","6",,,,,,,,,,,,,,,,,,,,,,,,,"0547","1816",,
"72505394728","2020-03-28T00:51:00","FM-15","7",,,,,,,,,,,,,,,,,,,,,,,,,,,,,,,,,,,,,,"30.11","20","53","0.00",,"-0.06","1","27","30.08","CLR:00","29.94","10.00","40","VRB",,"7",,,,,,,,,,,,,,,,,,,,,,,,,,,,,,,,,,,,,"MET11803/28/20 00:51:02 METAR KNYC 280551Z VRB06KT 10SM CLR 12/M07 A3011 RMK AO2 SLP187 T01171067 10172 20117 51019 RTX FIBI","FM-15","7",,,,,,,,,,,,,,,,,,,,,,,,,,,,
"72505394728","2020-03-28T01:51:00","FM-15","7",,,,,,,,,,,,,,,,,,,,,,,,,,,,,,,,,,,,,,"30.11","21","51","0.00",,,,"31","30.08","CLR:00","29.94","10.00","39","050",,"8",,,,,,,,,,,,,,,,,,,,,,,,,,,,,,,,,,,,,"MET09503/28/20 01:51:02 METAR KNYC 280651Z 05007KT 10SM CLR 11/M06 A3011 RMK AO2 SLP187 T01061061 RTX","FM-15","7",,,,,,,,,,,,,,,,,,,,,,,,,,,,
"72505394728","2020-03-28T02:51:00","FM-15","7",,,,,,,,,,,,,,,,,,,,,,,,,,,,,,,,,,,,,,"30.09","23","50","0.00",,,,"35","30.06","CLR:00","29.92","10.00","39","VRB",,"6",,,,,,,,,,,,,,,,,,,,,,,,,,,,,,,,,,,,,"MET09503/28/20 02:51:02 METAR KNYC 280751Z VRB05KT 10SM CLR 10/M05 A3009 RMK AO2 SLP181 T01001050 RTX","FM-15","7",,,,,,,,,,,,,,,,,,,,,,,,,,,,
"72505394728","2020-03-28T03:51:00","FM-15","7",,,,,,,,,,,,,,,,,,,,,,,,,,,,,,,,,,,,,,"30.10","23","50","0.00",,"+0.01","5","35","30.07","CLR:00","29.93","10.00","39","060",,"7",,,,,,,,,,,,,,,,,,,,,,,,,,,,,,,,,,,,,"MET10603/28/20 03:51:02 METAR KNYC 280851Z 06006KT 10SM CLR 10/M05 A3010 RMK AO2 SLP183 T01001050 55004 RTX FIBI","FM-15","7",,,,,,,,,,,,,,,,,,,,,,,,,,,,
"72505394728","2020-03-28T04:51:00","FM-15","7",,,,,,,,,,,,,,,,,,,,,,,,,,,,,,,,,,,,,,"30.12","25","50","0.00",,,,"38","30.09","FEW:02 120","29.95","10.00","40","060",,"6",,,,,,,,,,,,,,,,,,,,,,,,,,,,,,,,,,,,,"MET09403/28/20 04:51:02 METAR KNYC 280951Z 06005KT 10SM FEW120 10/M04 A3012 RMK AO2 SLP190 T01001039","FM-15","7",,,,,,,,,,,,,,,,,,,,,,,,,,,,
"72505394728","2020-03-28T05:51:00","FM-15","7",,,,,,,,,,,,,,,,,,,,,,,,,,,,,,,,,,,,,,"30.11","26","49","0.00",,,,"41","30.09","CLR:00","29.94","10.00","40","100",,"11",,,,,,,,,,,,,,,,,,,,,,,,,,,,,,,,,,,,,"MET09103/28/20 05:51:02 METAR KNYC 281051Z 10010KT 10SM CLR 09/M03 A3011 RMK AO2 SLP188 T00941033","FM-15","7",,,,,,,,,,,,,,,,,,,,,,,,,,,,
"72505394728","2020-03-28T06:51:00","FM-15","7",,,,,,,,,,,,,,,,,,,,,,,,,,,,,,,,,,,,,,"30.12","29","49","0.00",,"-0.02","1","46","30.09","CLR:00","29.95","10.00","41","080",,"6",,,,,,,,,,,,,,,,,,,,,,,,,,,,,,,,,,,,,"MET11303/28/20 06:51:02 METAR KNYC 281151Z 08005KT 10SM CLR 09/M02 A3012 RMK AO2 SLP191 T00941017 10117 20089 51008 RTX","FM-15","7",,,,,,,,,,,,,,,,,,,,,,,,,,,,
"72505394728","2020-03-28T07:51:00","FM-15","7",,,,,,,,,,,,,,,,,,,,,,,,,,,,,,,,,,,,,,"30.15","30","50","0.00",,,,"46","30.12","BKN:07 48 OVC:08 120","29.98","10.00","41","VRB",,"5",,,,,,,,,,,,,,,,,,,,,,,,,,,,,,,,,,,,,"MET10103/28/20 07:51:02 METAR KNYC 281251Z VRB04KT 10SM BKN048 OVC120 10/M01 A3015 RMK AO2 SLP199 T01001011","FM-15","7",,,,,,,,,,,,,,,,,,,,,,,,,,,,
"72505394728","2020-03-28T08:51:00","FM-15","7",,,,,,,,,,,,,,,,,,,,,,,,,,,,,,,,,,,,,,"30.17","34","50","T","-RA:02 |RA |RA",,,"54","30.14","FEW:02 55 BKN:07 70 OVC:08 100","30.00","10.00","43","080",,"6",,,,,,,,,,,,,,,,,,,,,,,,,,,,,,,,,,,,,"MET12303/28/20 08:51:02 METAR KNYC 281351Z 08005KT 10SM -RA FEW055 BKN070 OVC100 10/01 A3017 RMK AO2 RAB35 SLP208 P0000 T01000011","FM-15","7",,,,,,,,,,,,,,,,,,,,,,,,,,,,
"72505394728","2020-03-28T09:51:00","FM-15","7",,,,,,,,,,,,,,,,,,,,,,,,,,,,,,,,,,,,,,"30.15","37","48","0.02","-RA:02 |RA |RA","-0.03","0","66","30.13","SCT:04 75 OVC:08 100","29.98","10.00","43","VRB",,"5",,,,,,,,,,,,,,,,,,,,,,,,,,,,,,,,,,,,,"MET12203/28/20 09:51:02 METAR KNYC 281451Z VRB04KT 10SM -RA SCT075 OVC100 09/03 A3015 RMK AO2 SLP203 P0002 60002 T00890028 50011","FM-15","7",,,,,,,,,,,,,,,,,,,,,,,,,,,,
"72505394728","2020-03-28T10:51:00","FM-15","7",,,,,,,,,,,,,,,,,,,,,,,,,,,,,,,,,,,,,,"30.15","41","47","0.03","-RA:02 |RA |RA",,,"80","30.13","BKN:07 75 OVC:08 90","29.98","6.00","44","070",,"6",,,,,,,,,,,,,,,,,,,,,,,,,,,,,,,,,,,,,"MET10903/28/20 10:51:02 METAR KNYC 281551Z 07005KT 6SM -RA BKN075 OVC090 08/05 A3015 RMK AO2 SLP202 P0003 T00830050","FM-15","7",,,,,,,,,,,,,,,,,,,,,,,,,,,,
"72505394728","2020-03-28T11:51:00","FM-15","7",,,,,,,,,,,,,,,,,,,,,,,,,,,,,,,,,,,,,,"30.13","41","47","0.01","-RA:02 |RA |RA",,,"80","30.11","SCT:04 38 BKN:07 80 OVC:08 100","29.96","9.00","44","050",,"8",,,,,,,,,,,,,,,,,,,,,,,,,,,,,,,,,,,,,"MET11603/28/20 11:51:02 METAR KNYC 281651Z 05007KT 9SM -RA SCT038 BKN080 OVC100 08/05 A3013 RMK AO2 SLP196 P0001 T00830050","FM-15","7",,,,,,,,,,,,,,,,,,,,,,,,,,,,
"72505394728","2020-03-28T12:51:00","FM-15","7",,,,,,,,,,,,,,,,,,,,,,,,,,,,,,,,,,,,,,"30.15","41","47","0.01","-RA:02 |RA |RA","+0.00","5","80","30.13","OVC:08 60","29.98","8.00","44","VRB",,"6",,,,,,,,,,,,,,,,,,,,,,,,,,,,,,,,,,,,,"MET12603/28/20 12:51:02 METAR KNYC 281751Z VRB05KT 8SM -RA OVC060 08/05 A3015 RMK AO2 SLP202 P0000 60006 T00830050 10106 20078 55001","FM-15","7",,,,,,,,,,,,,,,,,,,,,,,,,,,,
"72505394728","2020-03-28T13:09:00","FM-16","7",,,,,,,,,,,,,,,,,,,,,,,,,,,,,,,,,,,,,,"30.13","42","46","0.04","-RA:02 BR:1 |RA |RA",,,"86",,"OVC:08 60","29.96","2.50","44","060",,"8",,,,,,,,,,,,,,,,,,,,,,,,,,,,,,,,,,,,,"MET10203/28/20 13:09:02 SPECI KNYC 281809Z 06007KT 2 1/2SM -RA BR OVC060 08/06 A3013 RMK AO2 P0004 T00780056","FM-16","7",,,,,,,,,,,,,,,,,,,,,,,,,,,,
"72505394728","2020-03-28T13:18:00","FM-16","7",,,,,,,,,,,,,,,,,,,,,,,,,,,,,,,,,,,,,,"30.11","42","46","0.05","RA:02 BR:1 |RA |RA",,,"86",,"OVC:08 65","29.94","3.00","44","060",,"9",,,,,,,,,,,,,,,,,,,,,,,,,,,,,,,,,,,,,"MET10803/28/20 13:18:02 SPECI KNYC 281818Z 06008KT 3SM RA BR OVC065 08/06 A3011 RMK AO2 PRESFR P0005 T00780056 RTX","FM-16","7",,,,,,,,,,,,,,,,,,,,,,,,,,,,
"72505394728","2020-03-28T13:42:00","FM-16","7",,,,,,,,,,,,,,,,,,,,,,,,,,,,,,,,,,,,,,"30.14","42","45","0.09","RA:02 BR:1 |RA |RA",,,"90",,"SCT:04 47 BKN:07 55 OVC:08 75","29.97","1.75","44","VRB",,"3",,,,,,,,,,,,,,,,,,,,,,,,,,,,,,,,,,,,,"MET12403/28/20 13:42:02 SPECI KNYC 281842Z VRB03KT 1 3/4SM RA BR SCT047 BKN055 OVC075 07/06 A3014 RMK AO2 P0009 T00720056 RTX FIBI","FM-16","7",,,,,,,,,,,,,,,,,,,,,,,,,,,,
"72505394728","2020-03-28T13:51:00","FM-15","7",,,,,,,,,,,,,,,,,,,,,,,,,,,,,,,,,,,,,,"30.13","42","45","0.12","RA:02 BR:1 |RA |RA",,,"90","30.11","BKN:07 49 OVC:08 70","29.96","1.75","44","030",,"6",,,,,,,,,,,,,,,,,,,,,,,,,,,,,,,,,,,,,"MET11503/28/20 13:51:02 METAR KNYC 281851Z 03005KT 1 3/4SM RA BR BKN049 OVC070 07/06 A3013 RMK AO2 SLP195 P0012 T00720056","FM-15","7",,,,,,,,,,,,,,,,,,,,,,,,,,,,
"72505394728","2020-03-28T13:57:00","FM-16","7",,,,,,,,,,,,,,,,,,,,,,,,,,,,,,,,,,,,,,"30.13","42","45","0.01","-RA:02 BR:1 |RA |RA",,,"90",,"OVC:08 50","29.96","3.00","44","050",,"6",,,,,,,,,,,,,,,,,,,,,,,,,,,,,,,,,,,,,"MET09803/28/20 13:57:02 SPECI KNYC 281857Z 05005KT 3SM -RA BR OVC050 07/06 A3013 RMK AO2 P0001 T00720056","FM-16","7",,,,,,,,,,,,,,,,,,,,,,,,,,,,
"72505394728","2020-03-28T14:51:00","FM-15","7",,,,,,,,,,,,,,,,,,,,,,,,,,,,,,,,,,,,,,"30.08","42","45","0.01",,,,"90","30.05","FEW:02 10 OVC:08 48","29.91","10.00","44","VRB",,"6",,,,,,,,,,,,,,,,,,,,,,,,,,,,,,,,,,,,,"MET11203/28/20 14:51:02 METAR KNYC 281951Z VRB05KT 10SM FEW010 OVC048 07/06 A3008 RMK AO2 RAE26 SLP176 P0002 T00720056","FM-15","7",,,,,,,,,,,,,,,,,,,,,,,,,,,,
"72505394728","2020-03-28T15:51:00","FM-15","7",,,,,,,,,,,,,,,,,,,,,,,,,,,,,,,,,,,,,,"30.06","40","45","0.00",,"+0.09","6","83","30.03","OVC:08 43","29.89","10.00","43","VRB",,"3",,,,,,,,,,,,,,,,,,,,,,,,,,,,,,,,,,,,,"MET10503/28/20 15:51:02 METAR KNYC 282051Z VRB03KT 10SM OVC043 07/04 A3006 RMK AO2 SLP171 60014 T00720044 56030","FM-15","7",,,,,,,,,,,,,,,,,,,,,,,,,,,,
"72505394728","2020-03-28T16:27:00","FM-16","7",,,,,,,,,,,,,,,,,,,,,,,,,,,,,,,,,,,,,,"30.07","39","45",,,,,"80",,"SCT:04 18 BKN:07 26 OVC:08 39","29.90","10.00","42","050",,"7",,,,,,,,,,,,,,,,,,,,,,,,,,,,,,,,,,,,,"MET10003/28/20 16:27:02 SPECI KNYC 282127Z 05006KT 10SM SCT018 BKN026 OVC039 07/04 A3007 RMK AO2 T00720039","FM-16","7",,,,,,,,,,,,,,,,,,,,,,,,,,,,
"72505394728","2020-03-28T16:49:00","FM-16","7",,,,,,,,,,,,,,,,,,,,,,,,,,,,,,,,,,,,,,"30.08","39","45",,,,,"81",,"FEW:02 19 SCT:04 26 OVC:08 35","29.91","10.00","42","VRB",,"5",,,,,,,,,,,,,,,,,,,,,,,,,,,,,,,,,,,,,"MET09003/28/20 16:49:02 SPECI KNYC 282149Z VRB04KT 10SM FEW019 SCT026 OVC035 07/04 A3008 RMK AO2","FM-16","7",,,,,,,,,,,,,,,,,,,,,,,,,,,,
"72505394728","2020-03-28T16:51:00","FM-15","7",,,,,,,,,,,,,,,,,,,,,,,,,,,,,,,,,,,,,,"30.08","40","45","0.00",,,,"83","30.05","FEW:02 19 FEW:02 27 OVC:08 35","29.91","10.00","43","050",,"7",,,,,,,,,,,,,,,,,,,,,,,,,,,,,,,,,,,,,"MET10703/28/20 16:51:02 METAR KNYC 282151Z 05006KT 10SM FEW019 FEW027 OVC035 07/04 A3008 RMK AO2 SLP177 T00720044","FM-15","7",,,,,,,,,,,,,,,,,,,,,,,,,,,,
"72505394728","2020-03-28T17:13:00","FM-16","7",,,,,,,,,,,,,,,,,,,,,,,,,,,,,,,,,,,,,,"30.08","40","45","T","-RA:02 |RA |RA",,,"83",,"BKN:07 25 OVC:08 33","29.91","10.00","43","060",,"8",,,,,,,,,,,,,,,,,,,,,,,,,,,,,,,,,,,,,"MET11803/28/20 17:13:02 SPECI KNYC 282213Z 06007KT 10SM -RA BKN025 OVC033 07/04 A3008 RMK AO2 RAB06 P0000 T00720044 RTX FIBI","FM-16","7",,,,,,,,,,,,,,,,,,,,,,,,,,,,
"72505394728","2020-03-28T17:51:00","FM-15","7",,,,,,,,,,,,,,,,,,,,,,,,,,,,,,,,,,,,,,"30.08","41","45","0.05","-RA:02 BR:1 |RA |RA",,,"86","30.05","OVC:08 18","29.91","5.00","43","050",,"9",,,,,,,,,,,,,,,,,,,,,,,,,,,,,,,,,,,,,"MET11103/28/20 17:51:02 METAR KNYC 282251Z 05008KT 5SM -RA BR OVC018 07/05 A3008 RMK AO2 RAB06 SLP177 P0002 T00720050","FM-15","7",,,,,,,,,,,,,,,,,,,,,,,,,,,,
"72505394728","2020-03-28T18:01:00","FM-16","7",,,,,,,,,,,,,,,,,,,,,,,,,,,,,,,,,,,,,,"30.10","41","44","0.03","+RA:02 BR:1 |RA |RA",,,"89",,"OVC:08 17","29.93","1.75","43","050",,"6",,,,,,,,,,,,,,,,,,,,,,,,,,,,,,,,,,,,,"MET10603/28/20 18:01:02 SPECI KNYC 282301Z 05005KT 1 3/4SM +RA BR OVC017 07/05 A3010 RMK AO2 P0003 T00670050 RTX","FM-16","7",,,,,,,,,,,,,,,,,,,,,,,,,,,,
"72505394728","2020-03-28T18:16:00","FM-16","7",,,,,,,,,,,,,,,,,,,,,,,,,,,,,,,,,,,,,,"30.04","42","44","0.15","-RA:02 BR:1 |RA |RA",,,"93",,"SCT:04 15 BKN:07 25 OVC:08 39","29.87","3.00","43","080","17","10",,,,,,,,,,,,,,,,,,,,,,,,,,,,,,,,,,,,,"MET12603/28/20 18:16:02 SPECI KNYC 282316Z 08009G15KT 3SM -RA BR SCT015 BKN025 OVC039 07/06 A3004 RMK AO2 PRESFR P0015 T00670056 RTX","FM-16","7",,,,,,,,,,,,,,,,,,,,,,,,,,,,
"72505394728","2020-03-28T18:22:00","FM-16","7",,,,,,,,,,,,,,,,,,,,,,,,,,,,,,,,,,,,,,"30.06","42","45","0.15","-RA:02 BR:1 |RA |RA",,,"90",,"FEW:02 8 BKN:07 14 OVC:08 27","29.89","6.00","44","050",,"9",,,,,,,,,,,,,,,,,,,,,,,,,,,,,,,,,,,,,"MET12103/28/20 18:22:02 SPECI KNYC 282322Z 05008KT 6SM -RA BR FEW008 BKN014 OVC027 07/06 A3006 RMK AO2 P0015 T00720056 RTX FIBI","FM-16","7",,,,,,,,,,,,,,,,,,,,,,,,,,,,
"72505394728","2020-03-28T18:36:00","FM-16","7",,,,,,,,,,,,,,,,,,,,,,,,,,,,,,,,,,,,,,"30.08","43","45","0.15",,,,"93",,"BKN:07 7 BKN:07 14 OVC:08 30","29.91","7.00","44","VRB",,"8",,,,,,,,,,,,,,,,,,,,,,,,,,,,,,,,,,,,,"MET11503/28/20 18:36:02 SPECI KNYC 282336Z 05007KT 7SM BKN007 BKN014 OVC030 07/06 A3008 RMK AO2 RAE36 P0015 T00720061 RTX","FM-16","7",,,,,,,,,,,,,,,,,,,,,,,,,,,,
"72505394728","2020-03-28T18:51:00","FM-15","7",,,,,,,,,,,,,,,,,,,,,,,,,,,,,,,,,,,,,,"30.08","43","45","0.12","BR:1 ||","-0.01","3","93","30.06","OVC:08 6","29.91","6.00","44","060",,"9",,,,,,,,,,,,,,,,,,,,,,,,,,,,,,,,,,,,,"MET14003/28/20 18:51:02 METAR KNYC 282351Z 06008KT 6SM BR OVC006 07/06 A3008 RMK AO2 RAE36 SLP178 P0015 60031 T00720061 10083 20067 53002 RTX FIBI","FM-15","7",,,,,,,,,,,,,,,,,,,,,,,,,,,,
"72505394728","2020-03-28T19:18:00","FM-16","7",,,,,,,,,,,,,,,,,,,,,,,,,,,,,,,,,,,,,,"30.07","43","45","0.02","-RA:02 BR:1 |RA |RA",,,"93",,"OVC:08 6","29.90","2.00","44","050",,"11",,,,,,,,,,,,,,,,,,,,,,,,,,,,,,,,,,,,,"MET10403/28/20 19:18:01 SPECI KNYC 290018Z 05010KT 2SM -RA BR OVC006 07/06 A3007 RMK AO2 RAB08 P0002 T00720061","FM-16","7",,,,,,,,,,,,,,,,,,,,,,,,,,,,
"72505394728","2020-03-28T19:43:00","FM-16","7",,,,,,,,,,,,,,,,,,,,,,,,,,,,,,,,,,,,,,"30.09","44","46","0.04","-RA:02 BR:1 |RA |RA",,,"93",,"OVC:08 5","29.92","3.00","45","VRB",,"7",,,,,,,,,,,,,,,,,,,,,,,,,,,,,,,,,,,,,"MET10403/28/20 19:43:01 SPECI KNYC 290043Z VRB06KT 3SM -RA BR OVC005 08/07 A3009 RMK AO2 RAB08 P0004 T00780067","FM-16","7",,,,,,,,,,,,,,,,,,,,,,,,,,,,
"72505394728","2020-03-28T19:51:00","FM-15","7",,,,,,,,,,,,,,,,,,,,,,,,,,,,,,,,,,,,,,"30.09","44","46","0.05","BR:1 ||",,,"93","30.06","OVC:08 5","29.92","4.00","45","VRB",,"8",,,,,,,,,,,,,,,,,,,,,,,,,,,,,,,,,,,,,"MET11003/28/20 19:51:01 METAR KNYC 290051Z 09007KT 4SM BR OVC005 08/07 A3009 RMK AO2 RAB08E50 SLP181 P0005 T00780067","FM-15","7",,,,,,,,,,,,,,,,,,,,,,,,,,,,
"72505394728","2020-03-28T20:16:00","FM-16","7",,,,,,,,,,,,,,,,,,,,,,,,,,,,,,,,,,,,,,"30.09","44","46","T","-RA:02 BR:1 |RA |RA",,,"93",,"OVC:08 5","29.92","2.00","45","060",,"11",,,,,,,,,,,,,,,,,,,,,,,,,,,,,,,,,,,,,"MET10403/28/20 20:16:01 SPECI KNYC 290116Z 06010KT 2SM -RA BR OVC005 08/07 A3009 RMK AO2 RAB05 P0000 T00780067","FM-16","7",,,,,,,,,,,,,,,,,,,,,,,,,,,,
"72505394728","2020-03-28T20:32:00","FM-16","7",,,,,,,,,,,,,,,,,,,,,,,,,,,,,,,,,,,,,,"30.09","44","46","0.01","-RA:02 BR:1 |RA |RA",,,"93",,"OVC:08 5","29.92","4.00","45","060",,"11",,,,,,,,,,,,,,,,,,,,,,,,,,,,,,,,,,,,,"MET10403/28/20 20:32:01 SPECI KNYC 290132Z 06010KT 4SM -RA BR OVC005 08/07 A3009 RMK AO2 RAB05 P0001 T00780067","FM-16","7",,,,,,,,,,,,,,,,,,,,,,,,,,,,
"72505394728","2020-03-28T20:51:00","FM-15","7",,,,,,,,,,,,,,,,,,,,,,,,,,,,,,,,,,,,,,"30.07","44","46","0.01","BR:1 ||",,,"93","30.05","OVC:08 5","29.90","4.00","45","060",,"11",,,,,,,,,,,,,,,,,,,,,,,,,,,,,,,,,,,,,"MET11003/28/20 20:51:01 METAR KNYC 290151Z 06010KT 4SM BR OVC005 08/07 A3007 RMK AO2 RAB05E33 SLP176 P0001 T00780067","FM-15","7",,,,,,,,,,,,,,,,,,,,,,,,,,,,
"72505394728","2020-03-28T21:51:00","FM-15","7",,,,,,,,,,,,,,,,,,,,,,,,,,,,,,,,,,,,,,"30.05","44","45","0.00","BR:1 ||","+0.04","8","97","30.02","OVC:08 5","29.88","3.00","45","050",,"10",,,,,,,,,,,,,,,,,,,,,,,,,,,,,,,,,,,,,"MET10703/28/20 21:51:01 METAR KNYC 290251Z 05009KT 3SM BR OVC005 07/07 A3005 RMK AO2 SLP167 60006 T00720067 58012","FM-15","7",,,,,,,,,,,,,,,,,,,,,,,,,,,,
"72505394728","2020-03-28T22:03:00","FM-16","7",,,,,,,,,,,,,,,,,,,,,,,,,,,,,,,,,,,,,,"30.03","43","45",,"BR:1 ||",,,"93",,"OVC:08 4","29.86","3.00","44","060","23","14",,,,,,,,,,,,,,,,,,,,,,,,,,,,,,,,,,,,,"MET09103/28/20 22:03:01 SPECI KNYC 290303Z 06012G20KT 3SM BR OVC004 07/06 A3003 RMK AO2 T00720061","FM-16","7",,,,,,,,,,,,,,,,,,,,,,,,,,,,
"72505394728","2020-03-28T22:49:00","FM-16","6",,,,,,,,,,,,,,,,,,,,,,,,,,,,,,,,,,,,,,"30.04","45","46",,"BR:1 ||",,,"93",,"OVC:08 4","29.87","2.50","46","070",,"14",,,,,,,,,,,,,,,,,,,,,,,,,,,,,,,,,,,,,"MET08703/28/20 22:49:03 SPECI KNYC 290349Z 07012KT 2 1/2SM BR OVC004 08/07 A3004 RMK AO2 FIBI","FM-16","6",,,,,,,,,,,,,,,,,,,,,,,,,,,,
"72505394728","2020-03-28T22:51:00","FM-15","7",,,,,,,,,,,,,,,,,,,,,,,,,,,,,,,,,,,,,,"30.04","44","46","T","BR:1 ||",,,"93","30.01","OVC:08 4","29.87","2.50","45","060",,"10",,,,,,,,,,,,,,,,,,,,,,,,,,,,,,,,,,,,,"MET09903/28/20 22:51:02 METAR KNYC 290351Z 06009KT 2 1/2SM BR OVC004 08/07 A3004 RMK AO2 SLP164 T00780067","FM-15","7",,,,,,,,,,,,,,,,,,,,,,,,,,,,
"72505394728","2020-03-28T23:36:00","FM-16","7",,,,,,,,,,,,,,,,,,,,,,,,,,,,,,,,,,,,,,"30.05","44","46","0.02","BR:1 ||",,,"93",,"OVC:08 4","29.88","3.00","45","080","25","11",,,,,,,,,,,,,,,,,,,,,,,,,,,,,,,,,,,,,"MET10803/28/20 23:36:02 SPECI KNYC 290436Z 08010G22KT 3SM BR OVC004 08/07 A3005 RMK AO2 RAB0359E15 P0002 T00780067","FM-16","7",,,,,,,,,,,,,,,,,,,,,,,,,,,,
"72505394728","2020-03-28T23:49:00","FM-16","6",,,,,,,,,,,,,,,,,,,,,,,,,,,,,,,,,,,,,,"30.05","45","46",,"BR:1 ||",,,"93",,"OVC:08 5","29.88","3.00","46","070","23","13",,,,,,,,,,,,,,,,,,,,,,,,,,,,,,,,,,,,,"MET10303/28/20 23:49:03 SPECI KNYC 290449Z 07011G20KT 3SM BR OVC005 08/07 A3005 RMK AO2 RAB0359E15 P0002 FIBI","FM-16","6",,,,,,,,,,,,,,,,,,,,,,,,,,,,
"72505394728","2020-03-28T23:51:00","FM-15","7",,,,,,,,,,,,,,,,,,,,,,,,,,,,,,,,,,,,,,"30.05","44","46","0.02","BR:1 ||",,,"93","30.02","OVC:08 5","29.88","3.00","45","060","23","11",,,,,,,,,,,,,,,,,,,,,,,,,,,,,,,,,,,,,"MET12503/28/20 23:51:02 METAR KNYC 290451Z 06010G20KT 3SM BR OVC005 08/07 A3005 RMK AO2 RAB0359E15 SLP167 P0002 T00780067 401220067","FM-15","7",,,,,,,,,,,,,,,,,,,,,,,,,,,,
"72505394728","2020-03-28T23:59:00","SOD  ","6",,,,,,,,,,,,,,,,"49",,,"29.94",,"7.4","0","2.6","16","54","44","070","25","0.45","0","0.0","070","17","RA BR",,,,,,,,,,,,,,,,,,,,,,,,,,,,,,,,,,,,,,,,,,,,,,,,,,,,,,,,"SOD75624 HR PRECIPITATION (IN): 0.45 SNOW DEPTH (IN):0     24 HR SNOWFALL (IN):0.0  WEATHER(CODE):1  24 HR MAX TEMP (F): 5424 HR MIN TEMP (F): 44AVERAGE STATION PRESSURE:29.940 MINIMUM SEA LEVEL PRESSURE:30.00 TIME OF OCCURRENCE:2234 PEAK WIND SPEED (MPH): 25 PEAK WIND DIR (DEG): 70 PEAK WIND TIME (LST):      FASTEST 2MIN SPEED (MPH): 17FASTEST 2MIN DIR (DEG): 70 FASTEST 2MIN TIME (LST):     AVERAGE WIND SPEED (MPH): 7.4 24 HR AVG TEMP (F): 49DEPART FROM NORMAL:  3  HEATING DEGREE DAYS: 16 COOLING DEGREE DAYS:  0 LATEST DAY MAX TEMP (0700-1900 LST):51  LATEST NIGHT MIN TEMP(1900-0800 LST):48 HOURLY INCREMENTAL PRECIPITATION VALUES (IN):.00 0.00 0.00 0.00 0.00 0.00 0.00 0.00 T    0.02 0.03 0.01 0.01 0.12 0.01 0.00 0.00 0.05 0.12 0.05 0.01 0.00 T    0.02","SOD  ","6",,,,,,,,,,,,,,,,,,,,,,,,,"0545","1817",,
"72505394728","2020-03-29T00:31:00","FM-16","7",,,,,,,,,,,,,,,,,,,,,,,,,,,,,,,,,,,,,,"30.04","44","45",,"BR:1 ||",,,"97",,"OVC:08 4","29.87","4.00","45","VRB","22","14",,,,,,,,,,,,,,,,,,,,,,,,,,,,,,,,,,,,,"MET09103/29/20 00:31:02 SPECI KNYC 290531Z 07012G19KT 4SM BR OVC004 07/07 A3004 RMK AO2 T00720067","FM-16","7",,,,,,,,,,,,,,,,,,,,,,,,,,,,
"72505394728","2020-03-29T00:51:00","FM-15","7",,,,,,,,,,,,,,,,,,,,,,,,,,,,,,,,,,,,,,"30.04","44","45","0.00","BR:1 ||","-0.00","0","97","30.02","OVC:08 4","29.87","5.00","45","VRB","17","8",,,,,,,,,,,,,,,,,,,,,,,,,,,,,,,,,,,,,"MET12203/29/20 00:51:02 METAR KNYC 290551Z 07007G15KT 5SM BR OVC004 07/07 A3004 RMK AO2 SLP165 60008 T00720067 10078 20072 50001","FM-15","7",,,,,,,,,,,,,,,,,,,,,,,,,,,,
"72505394728","2020-03-29T01:13:00","FM-16","7",,,,,,,,,,,,,,,,,,,,,,,,,,,,,,,,,,,,,,"30.05","44","45",,"BR:1 ||",,,"97",,"OVC:08 5","29.88","4.00","45","VRB",,"9",,,,,,,,,,,,,,,,,,,,,,,,,,,,,,,,,,,,,"MET08803/29/20 01:13:02 SPECI KNYC 290613Z 07008KT 4SM BR OVC005 07/07 A3005 RMK AO2 T00720067","FM-16","7",,,,,,,,,,,,,,,,,,,,,,,,,,,,
"72505394728","2020-03-29T01:24:00","FM-16","7",,,,,,,,,,,,,,,,,,,,,,,,,,,,,,,,,,,,,,"30.05","44","45",,"BR:1 ||",,,"97",,"OVC:08 4","29.88","3.00","45","060","20","10",,,,,,,,,,,,,,,,,,,,,,,,,,,,,,,,,,,,,"MET09103/29/20 01:24:02 SPECI KNYC 290624Z 06009G17KT 3SM BR OVC004 07/07 A3005 RMK AO2 T00720067","FM-16","7",,,,,,,,,,,,,,,,,,,,,,,,,,,,
"72505394728","2020-03-29T01:34:00","FM-16","7",,,,,,,,,,,,,,,,,,,,,,,,,,,,,,,,,,,,,,"30.05","43","45","T","-RA:02 BR:1 |RA |RA",,,"93",,"OVC:08 4","29.88","2.50","44","060","21","11",,,,,,,,,,,,,,,,,,,,,,,,,,,,,,,,,,,,,"MET11103/29/20 01:34:02 SPECI KNYC 290634Z 06010G18KT 2 1/2SM -RA BR OVC004 07/06 A3005 RMK AO2 RAB31 P0000 T00720061","FM-16","7",,,,,,,,,,,,,,,,,,,,,,,,,,,,
"72505394728","2020-03-29T01:51:00","FM-15","7",,,,,,,,,,,,,,,,,,,,,,,,,,,,,,,,,,,,,,"30.03","43","45","0.01","-RA:02 BR:1 |RA |RA",,,"93","30.00","OVC:08 4","29.86","2.50","44","070","24","15",,,,,,,,,,,,,,,,,,,,,,,,,,,,,,,,,,,,,"MET11803/29/20 01:51:02 METAR KNYC 290651Z 07013G21KT 2 1/2SM -RA BR OVC004 07/06 A3003 RMK AO2 RAB31 SLP160 P0001 T00720061","FM-15","7",,,,,,,,,,,,,,,,,,,,,,,,,,,,
"72505394728","2020-03-29T02:01:00","FM-16","7",,,,,,,,,,,,,,,,,,,,,,,,,,,,,,,,,,,,,,"30.03","43","45","T","-RA:02 BR:1 |RA |RA",,,"93",,"OVC:08 4","29.86","3.00","44","050","23","10",,,,,,,,,,,,,,,,,,,,,,,,,,,,,,,,,,,,,"MET10103/29/20 02:01:02 SPECI KNYC 290701Z 05009G20KT 3SM -RA BR OVC004 07/06 A3003 RMK AO2 P0000 T00720061","FM-16","7",,,,,,,,,,,,,,,,,,,,,,,,,,,,
"72505394728","2020-03-29T02:51:00","FM-15","7",,,,,,,,,,,,,,,,,,,,,,,,,,,,,,,,,,,,,,"30.02","43","45","T","BR:1 ||",,,"93","30.00","OVC:08 4","29.85","4.00","44","050","20","13",,,,,,,,,,,,,,,,,,,,,,,,,,,,,,,,,,,,,"MET11603/29/20 02:51:02 METAR KNYC 290751Z 05011G17KT 4SM BR OVC004 07/06 A3002 RMK AO2 RAE07B42E51 SLP158 P0000 T00720061","FM-15","7",,,,,,,,,,,,,,,,,,,,,,,,,,,,
"72505394728","2020-03-29T03:49:00","FM-16","6",,,,,,,,,,,,,,,,,,,,,,,,,,,,,,,,,,,,,,"30.01","43","45",,"BR:1 ||",,,"93",,"OVC:08 5","29.84","5.00","44","070","25","14",,,,,,,,,,,,,,,,,,,,,,,,,,,,,,,,,,,,,"MET10303/29/20 03:49:02 SPECI KNYC 290849Z 07012G22KT 5SM BR OVC005 07/06 A3001 RMK AO2 RAB0758E31 P0001 FIBI","FM-16","6",,,,,,,,,,,,,,,,,,,,,,,,,,,,
"72505394728","2020-03-29T03:51:00","FM-15","7",,,,,,,,,,,,,,,,,,,,,,,,,,,,,,,,,,,,,,"30.01","43","45","0.01","BR:1 ||","+0.03","6","93","29.99","OVC:08 5","29.84","5.00","44","VRB","25","15",,,,,,,,,,,,,,,,,,,,,,,,,,,,,,,,,,,,,"MET12703/29/20 03:51:02 METAR KNYC 290851Z 06013G22KT 5SM BR OVC005 07/06 A3001 RMK AO2 RAB0758E31 SLP156 P0001 60002 T00720061 56009","FM-15","7",,,,,,,,,,,,,,,,,,,,,,,,,,,,
"72505394728","2020-03-29T04:12:00","FM-16","7",,,,,,,,,,,,,,,,,,,,,,,,,,,,,,,,,,,,,,"30.00","43","45",,"BR:1 ||",,,"93",,"OVC:08 4","29.83","5.00","44","070","29","18",,,,,,,,,,,,,,,,,,,,,,,,,,,,,,,,,,,,,"MET09103/29/20 04:12:02 SPECI KNYC 290912Z 07016G25KT 5SM BR OVC004 07/06 A3000 RMK AO2 T00720061","FM-16","7",,,,,,,,,,,,,,,,,,,,,,,,,,,,
"72505394728","2020-03-29T04:49:00","FM-16","6",,,,,,,,,,,,,,,,,,,,,,,,,,,,,,,,,,,,,,"30.02","43","45",,,,,"93",,"OVC:08 5","29.85","7.00","44","VRB","21","11",,,,,,,,,,,,,,,,,,,,,,,,,,,,,,,,,,,,,"MET08303/29/20 04:49:02 SPECI KNYC 290949Z 06010G18KT 7SM OVC005 07/06 A3002 RMK AO2 FIBI","FM-16","6",,,,,,,,,,,,,,,,,,,,,,,,,,,,
"72505394728","2020-03-29T04:51:00","FM-15","7",,,,,,,,,,,,,,,,,,,,,,,,,,,,,,,,,,,,,,"30.02","43","45","0.00",,,,"93","29.99","OVC:08 5","29.85","7.00","44","070","21","14",,,,,,,,,,,,,,,,,,,,,,,,,,,,,,,,,,,,,"MET09903/29/20 04:51:02 METAR KNYC 290951Z 07012G18KT 7SM OVC005 07/06 A3002 RMK AO2 SLP157 T00720061 RTX","FM-15","7",,,,,,,,,,,,,,,,,,,,,,,,,,,,
"72505394728","2020-03-29T05:49:00","FM-16","6",,,,,,,,,,,,,,,,,,,,,,,,,,,,,,,,,,,,,,"30.02","43","45",,"BR:1 ||",,,"93",,"OVC:08 4","29.85","5.00","44","070","26","15",,,,,,,,,,,,,,,,,,,,,,,,,,,,,,,,,,,,,"MET08603/29/20 05:49:02 SPECI KNYC 291049Z 07013G23KT 5SM BR OVC004 07/06 A3002 RMK AO2 FIBI","FM-16","6",,,,,,,,,,,,,,,,,,,,,,,,,,,,
"72505394728","2020-03-29T05:51:00","FM-15","7",,,,,,,,,,,,,,,,,,,,,,,,,,,,,,,,,,,,,,"30.02","43","45","T","BR:1 ||",,,"93","29.99","OVC:08 4","29.85","4.00","44","VRB","26","13",,,,,,,,,,,,,,,,,,,,,,,,,,,,,,,,,,,,,"MET09803/29/20 05:51:02 METAR KNYC 291051Z 05011G23KT 4SM BR OVC004 07/06 A3002 RMK AO2 SLP157 T00720061","FM-15","7",,,,,,,,,,,,,,,,,,,,,,,,,,,,
"72505394728","2020-03-29T06:23:00","FM-16","7",,,,,,,,,,,,,,,,,,,,,,,,,,,,,,,,,,,,,,"30.03","43","45","T","BR:1 ||",,,"93",,"OVC:08 4","29.86","2.50","44","080","24","15",,,,,,,,,,,,,,,,,,,,,,,,,,,,,,,,,,,,,"MET11203/29/20 06:23:02 SPECI KNYC 291123Z 08013G21KT 2 1/2SM BR OVC004 07/06 A3003 RMK AO2 RAB1057E13 P0000 T00720061","FM-16","7",,,,,,,,,,,,,,,,,,,,,,,,,,,,
"72505394728","2020-03-29T06:35:00","FM-16","7",,,,,,,,,,,,,,,,,,,,,,,,,,,,,,,,,,,,,,"30.03","43","45","T","BR:1 ||",,,"93",,"OVC:08 4","29.86","3.00","44","VRB","24","13",,,,,,,,,,,,,,,,,,,,,,,,,,,,,,,,,,,,,"MET10803/29/20 06:35:02 SPECI KNYC 291135Z 07011G21KT 3SM BR OVC004 07/06 A3003 RMK AO2 RAB1057E13 P0000 T00720061","FM-16","7",,,,,,,,,,,,,,,,,,,,,,,,,,,,
"72505394728","2020-03-29T06:51:00","FM-15","7",,,,,,,,,,,,,,,,,,,,,,,,,,,,,,,,,,,,,,"30.04","44","45","T","BR:1 ||","-0.02","3","97","30.01","OVC:08 4","29.87","3.00","45","050","25","17",,,,,,,,,,,,,,,,,,,,,,,,,,,,,,,,,,,,,"MET14903/29/20 06:51:02 METAR KNYC 291151Z 05015G22KT 3SM BR OVC004 07/07 A3004 RMK AO2 RAB1057E13 SLP164 P0000 60002 70047 T00720067 10072 20067 53008 RTX","FM-15","7",,,,,,,,,,,,,,,,,,,,,,,,,,,,
"72505394728","2020-03-29T07:25:00","FM-16","7",,,,,,,,,,,,,,,,,,,,,,,,,,,,,,,,,,,,,,"30.03","43","45",,"BR:1 ||",,,"93",,"OVC:08 4","29.86","2.50","44","060","29","15",,,,,,,,,,,,,,,,,,,,,,,,,,,,,,,,,,,,,"MET09503/29/20 07:25:02 SPECI KNYC 291225Z 06013G25KT 2 1/2SM BR OVC004 07/06 A3003 RMK AO2 T00720061","FM-16","7",,,,,,,,,,,,,,,,,,,,,,,,,,,,
"72505394728","2020-03-29T07:49:00","FM-16","6",,,,,,,,,,,,,,,,,,,,,,,,,,,,,,,,,,,,,,"30.05","45","45",,"BR:1 ||",,,"100",,"OVC:08 4","29.88","1.75","45","060","21","9",,,,,,,,,,,,,,,,,,,,,,,,,,,,,,,,,,,,,"MET09003/29/20 07:49:02 SPECI KNYC 291249Z 06008G18KT 1 3/4SM BR OVC004 07/07 A3005 RMK AO2 FIBI","FM-16","6",,,,,,,,,,,,,,,,,,,,,,,,,,,,
"72505394728","2020-03-29T07:51:00","FM-15","7",,,,,,,,,,,,,,,,,,,,,,,,,,,,,,,,,,,,,,"30.04","44","45","T","BR:1 ||",,,"97","30.02","OVC:08 4","29.87","1.75","45","050","21","13",,,,,,,,,,,,,,,,,,,,,,,,,,,,,,,,,,,,,"MET10603/29/20 07:51:02 METAR KNYC 291251Z 05011G18KT 1 3/4SM BR OVC004 07/07 A3004 RMK AO2 SLP165 T00720067 RTX","FM-15","7",,,,,,,,,,,,,,,,,,,,,,,,,,,,
"72505394728","2020-03-29T08:23:00","FM-16","7",,,,,,,,,,,,,,,,,,,,,,,,,,,,,,,,,,,,,,"30.03","44","46","0.01","BR:1 ||",,,"93",,"OVC:08 4","29.86","2.50","45","VRB","23","11",,,,,,,,,,,,,,,,,,,,,,,,,,,,,,,,,,,,,"MET11203/29/20 08:23:02 SPECI KNYC 291323Z 07010G20KT 2 1/2SM BR OVC004 08/07 A3003 RMK AO2 RAB1258E04 P0001 T00780067","FM-16","7",,,,,,,,,,,,,,,,,,,,,,,,,,,,
"72505394728","2020-03-29T08:51:00","FM-15","7",,,,,,,,,,,,,,,,,,,,,,,,,,,,,,,,,,,,,,"30.02","44","46","0.01","BR:1 ||",,,"93","30.00","OVC:08 4","29.85","2.50","45","070","22","14",,,,,,,,,,,,,,,,,,,,,,,,,,,,,,,,,,,,,"MET11903/29/20 08:51:02 METAR KNYC 291351Z 07012G19KT 2 1/2SM BR OVC004 08/07 A3002 RMK AO2 RAB1258E04 SLP158 P0001 T00780067","FM-15","7",,,,,,,,,,,,,,,,,,,,,,,,,,,,
"72505394728","2020-03-29T09:30:00","FM-16","7",,,,,,,,,,,,,,,,,,,,,,,,,,,,,,,,,,,,,,"30.04","45","46",,"BR:1 ||",,,"96",,"OVC:08 4","29.87","1.50","46","050","21","14",,,,,,,,,,,,,,,,,,,,,,,,,,,,,,,,,,,,,"MET09903/29/20 09:30:02 SPECI KNYC 291430Z 05012G18KT 1 1/2SM BR OVC004 08/07 A3004 RMK AO2 T00780072 RTX","FM-16","7",,,,,,,,,,,,,,,,,,,,,,,,,,,,
"72505394728","2020-03-29T09:51:00","FM-15","7",,,,,,,,,,,,,,,,,,,,,,,,,,,,,,,,,,,,,,"30.05","45","47","0.00","BR:1 ||","-0.01","3","93","30.02","OVC:08 4","29.88","1.75","46","VRB","21","7",,,,,,,,,,,,,,,,,,,,,,,,,,,,,,,,,,,,,"MET11403/29/20 09:51:02 METAR KNYC 291451Z VRB06G18KT 1 3/4SM BR OVC004 08/07 A3005 RMK AO2 SLP167 60001 T00830072 53003","FM-15","7",,,,,,,,,,,,,,,,,,,,,,,,,,,,
"72505394728","2020-03-29T10:41:00","FM-16","7",,,,,,,,,,,,,,,,,,,,,,,,,,,,,,,,,,,,,,"30.01","45","46","0.01","BR:1 ||",,,"96",,"OVC:08 4","29.84","2.00","46","VRB","23","9",,,,,,,,,,,,,,,,,,,,,,,,,,,,,,,,,,,,,"MET11303/29/20 10:41:02 SPECI KNYC 291541Z 08008G20KT 2SM BR OVC004 08/07 A3001 RMK AO2 RAB15E34 PRESFR P0001 T00780072","FM-16","7",,,,,,,,,,,,,,,,,,,,,,,,,,,,
"72505394728","2020-03-29T10:51:00","FM-15","7",,,,,,,,,,,,,,,,,,,,,,,,,,,,,,,,,,,,,,"29.99","45","46","0.01","BR:1 ||",,,"96","29.96","OVC:08 4","29.82","3.00","46","VRB","22","13",,,,,,,,,,,,,,,,,,,,,,,,,,,,,,,,,,,,,"MET12403/29/20 10:51:02 METAR KNYC 291551Z 09011G19KT 3SM BR OVC004 08/07 A2999 RMK AO2 RAB15E34 PRESFR SLP146 P0001 T00780072 RTX","FM-15","7",,,,,,,,,,,,,,,,,,,,,,,,,,,,
"72505394728","2020-03-29T11:06:00","FM-16","7",,,,,,,,,,,,,,,,,,,,,,,,,,,,,,,,,,,,,,"29.99","44","46",,"BR:1 ||",,,"93",,"OVC:08 4","29.82","2.50","45","070","24","17",,,,,,,,,,,,,,,,,,,,,,,,,,,,,,,,,,,,,"MET09503/29/20 11:06:02 SPECI KNYC 291606Z 07015G21KT 2 1/2SM BR OVC004 08/07 A2999 RMK AO2 T00780067","FM-16","7",,,,,,,,,,,,,,,,,,,,,,,,,,,,
"72505394728","2020-03-29T11:51:00","FM-15","7",,,,,,,,,,,,,,,,,,,,,,,,,,,,,,,,,,,,,,"29.97","44","46","0.01","BR:1 ||",,,"93","29.94","OVC:08 4","29.80","2.00","45","VRB","23","8",,,,,,,,,,,,,,,,,,,,,,,,,,,,,,,,,,,,,"MET10403/29/20 11:51:02 METAR KNYC 291651Z 04007G20KT 2SM BR OVC004 08/07 A2997 RMK AO2 SLP140 P0001 T00780067","FM-15","7",,,,,,,,,,,,,,,,,,,,,,,,,,,,
"72505394728","2020-03-29T12:47:00","FM-16","7",,,,,,,,,,,,,,,,,,,,,,,,,,,,,,,,,,,,,,"29.96","45","45",,"BR:1 ||",,,"100",,"OVC:08 4","29.79","3.00","45","060","22","14",,,,,,,,,,,,,,,,,,,,,,,,,,,,,,,,,,,,,"MET09003/29/20 12:47:02 SPECI KNYC 291747Z 06012G19KT 3SM BR OVC004 07/07 A2996 RMK AO2 RTX FIBI","FM-16","7",,,,,,,,,,,,,,,,,,,,,,,,,,,,
"72505394728","2020-03-29T12:51:00","FM-15","7",,,,,,,,,,,,,,,,,,,,,,,,,,,,,,,,,,,,,,"29.95","44","45","0.00","BR:1 ||","+0.04","6","97","29.93","OVC:08 4","29.78","4.00","45","060","23","13",,,,,,,,,,,,,,,,,,,,,,,,,,,,,,,,,,,,,"MET12603/29/20 12:51:02 METAR KNYC 291751Z 06011G20KT 4SM BR OVC004 07/07 A2995 RMK AO2 SLP134 60003 T00720067 10083 20072 56012 RTX","FM-15","7",,,,,,,,,,,,,,,,,,,,,,,,,,,,
"72505394728","2020-03-29T13:51:00","FM-15","7",,,,,,,,,,,,,,,,,,,,,,,,,,,,,,,,,,,,,,"29.89","43","45","0.00","BR:1 ||",,,"93","29.87","OVC:08 4","29.72","3.00","44","070","25","14",,,,,,,,,,,,,,,,,,,,,,,,,,,,,,,,,,,,,"MET10903/29/20 13:51:02 METAR KNYC 291851Z 07012G22KT 3SM BR OVC004 07/06 A2989 RMK AO2 PRESFR SLP114 T00720061 RTX","FM-15","7",,,,,,,,,,,,,,,,,,,,,,,,,,,,
"72505394728","2020-03-29T14:08:00","FM-16","7",,,,,,,,,,,,,,,,,,,,,,,,,,,,,,,,,,,,,,"29.87","43","44",,"BR:1 ||",,,"96",,"OVC:08 3","29.70","2.50","44","060","26","18",,,,,,,,,,,,,,,,,,,,,,,,,,,,,,,,,,,,,"MET10203/29/20 14:08:02 SPECI KNYC 291908Z 06016G23KT 2 1/2SM BR OVC003 07/06 A2987 RMK AO2 PRESFR T00670061","FM-16","7",,,,,,,,,,,,,,,,,,,,,,,,,,,,
"72505394728","2020-03-29T14:51:00","FM-15","7",,,,,,,,,,,,,,,,,,,,,,,,,,,,,,,,,,,,,,"29.84","43","45","0.00","BR:1 ||",,,"93","29.82","OVC:08 3","29.67","2.00","44","VRB","28","15",,,,,,,,,,,,,,,,,,,,,,,,,,,,,,,,,,,,,"MET09803/29/20 14:51:02 METAR KNYC 291951Z 06013G24KT 2SM BR OVC003 07/06 A2984 RMK AO2 SLP098 T00720061","FM-15","7",,,,,,,,,,,,,,,,,,,,,,,,,,,,
"72505394728","2020-03-29T15:51:00","FM-15","7",,,,,,,,,,,,,,,,,,,,,,,,,,,,,,,,,,,,,,"29.87","43","45","0.00","BR:1 ||","+0.08","5","93","29.84","OVC:08 3","29.70","2.50","44","VRB","24","11",,,,,,,,,,,,,,,,,,,,,,,,,,,,,,,,,,,,,"MET10803/29/20 15:51:02 METAR KNYC 292051Z 07010G21KT 2 1/2SM BR OVC003 07/06 A2987 RMK AO2 SLP106 T00720061 55027","FM-15","7",,,,,,,,,,,,,,,,,,,,,,,,,,,,
"72505394728","2020-03-29T16:07:00","FM-16","7",,,,,,,,,,,,,,,,,,,,,,,,,,,,,,,,,,,,,,"29.89","43","45",,"BR:1 ||",,,"93",,"OVC:08 3","29.72","1.75","44","050","24","14",,,,,,,,,,,,,,,,,,,,,,,,,,,,,,,,,,,,,"MET09503/29/20 16:07:02 SPECI KNYC 292107Z 05012G21KT 1 3/4SM BR OVC003 07/06 A2989 RMK AO2 T00720061","FM-16","7",,,,,,,,,,,,,,,,,,,,,,,,,,,,
"72505394728","2020-03-29T16:51:00","FM-15","7",,,,,,,,,,,,,,,,,,,,,,,,,,,,,,,,,,,,,,"29.91","43","45","0.00","BR:1 ||",,,"93","29.88","OVC:08 3","29.74","1.75","44","060",,"13",,,,,,,,,,,,,,,,,,,,,,,,,,,,,,,,,,,,,"MET09903/29/20 16:51:02 METAR KNYC 292151Z 06011KT 1 3/4SM BR OVC003 07/06 A2991 RMK AO2 SLP119 T00720061","FM-15","7",,,,,,,,,,,,,,,,,,,,,,,,,,,,
"72505394728","2020-03-29T17:02:00","FM-16","7",,,,,,,,,,,,,,,,,,,,,,,,,,,,,,,,,,,,,,"29.91","43","45",,"BR:1 ||",,,"93",,"OVC:08 4","29.74","2.00","44","040","18","13",,,,,,,,,,,,,,,,,,,,,,,,,,,,,,,,,,,,,"MET09103/29/20 17:02:02 SPECI KNYC 292202Z 04011G16KT 2SM BR OVC004 07/06 A2991 RMK AO2 T00720061","FM-16","7",,,,,,,,,,,,,,,,,,,,,,,,,,,,
"72505394728","2020-03-29T17:49:00","FM-16","6",,,,,,,,,,,,,,,,,,,,,,,,,,,,,,,,,,,,,,"29.89","45","45",,"BR:1 ||",,,"100",,"OVC:08 4","29.72","3.00","45","060","21","15",,,,,,,,,,,,,,,,,,,,,,,,,,,,,,,,,,,,,"MET08603/29/20 17:49:02 SPECI KNYC 292249Z 06013G18KT 3SM BR OVC004 07/07 A2989 RMK AO2 FIBI","FM-16","6",,,,,,,,,,,,,,,,,,,,,,,,,,,,
"72505394728","2020-03-29T17:51:00","FM-15","7",,,,,,,,,,,,,,,,,,,,,,,,,,,,,,,,,,,,,,"29.89","44","45","0.00","BR:1 ||",,,"97","29.86","OVC:08 4","29.72","3.00","45","050","21","11",,,,,,,,,,,,,,,,,,,,,,,,,,,,,,,,,,,,,"MET09803/29/20 17:51:02 METAR KNYC 292251Z 05010G18KT 3SM BR OVC004 07/07 A2989 RMK AO2 SLP113 T00720067","FM-15","7",,,,,,,,,,,,,,,,,,,,,,,,,,,,
"72505394728","2020-03-29T17:58:00","FM-16","7",,,,,,,,,,,,,,,,,,,,,,,,,,,,,,,,,,,,,,"29.89","43","45",,"BR:1 ||",,,"93",,"OVC:08 4","29.72","2.50","44","060",,"11",,,,,,,,,,,,,,,,,,,,,,,,,,,,,,,,,,,,,"MET10103/29/20 17:58:02 SPECI KNYC 292258Z 06010KT 2 1/2SM BR OVC004 07/06 A2989 RMK AO2 T00720061 RTX FIBI","FM-16","7",,,,,,,,,,,,,,,,,,,,,,,,,,,,
"72505394728","2020-03-29T18:13:00","FM-16","7",,,,,,,,,,,,,,,,,,,,,,,,,,,,,,,,,,,,,,"29.87","44","45",,"BR:1 ||",,,"97",,"OVC:08 4","29.70","4.00","45","070","21","14",,,,,,,,,,,,,,,,,,,,,,,,,,,,,,,,,,,,,"MET09103/29/20 18:13:02 SPECI KNYC 292313Z 07012G18KT 4SM BR OVC004 07/07 A2987 RMK AO2 T00720067","FM-16","7",,,,,,,,,,,,,,,,,,,,,,,,,,,,
"72505394728","2020-03-29T18:51:00","FM-15","7",,,,,,,,,,,,,,,,,,,,,,,,,,,,,,,,,,,,,,"29.88","44","45","0.00",,"-0.01","0","97","29.85","OVC:08 4","29.71","7.00","45","VRB","23","6",,,,,,,,,,,,,,,,,,,,,,,,,,,,,,,,,,,,,"MET11303/29/20 18:51:02 METAR KNYC 292351Z VRB05G20KT 7SM OVC004 07/07 A2988 RMK AO2 SLP110 T00720067 10072 20067 50003","FM-15","7",,,,,,,,,,,,,,,,,,,,,,,,,,,,
"72505394728","2020-03-29T19:51:00","FM-15","7",,,,,,,,,,,,,,,,,,,,,,,,,,,,,,,,,,,,,,"29.91","44","45","0.00","BR:1 ||",,,"97","29.89","OVC:08 5","29.74","6.00","45","050","20","9",,,,,,,,,,,,,,,,,,,,,,,,,,,,,,,,,,,,,"MET09803/29/20 19:51:01 METAR KNYC 300051Z 05008G17KT 6SM BR OVC005 07/07 A2991 RMK AO2 SLP121 T00720067","FM-15","7",,,,,,,,,,,,,,,,,,,,,,,,,,,,
"72505394728","2020-03-29T20:51:00","FM-15","7",,,,,,,,,,,,,,,,,,,,,,,,,,,,,,,,,,,,,,"29.91","44","45","0.00",,,,"97","29.88","OVC:08 5","29.74","7.00","45","060","21","16",,,,,,,,,,,,,,,,,,,,,,,,,,,,,,,,,,,,,"MET09503/29/20 20:51:01 METAR KNYC 300151Z 06014G18KT 7SM OVC005 07/07 A2991 RMK AO2 SLP119 T00720067","FM-15","7",,,,,,,,,,,,,,,,,,,,,,,,,,,,
"72505394728","2020-03-29T21:51:00","FM-15","7",,,,,,,,,,,,,,,,,,,,,,,,,,,,,,,,,,,,,,"29.89","44","45","0.00",,"-0.01","0","97","29.87","OVC:08 5","29.72","10.00","45","060","18","10",,,,,,,,,,,,,,,,,,,,,,,,,,,,,,,,,,,,,"MET10203/29/20 21:51:01 METAR KNYC 300251Z 06009G16KT 10SM OVC005 07/07 A2989 RMK AO2 SLP115 T00720067 50005","FM-15","7",,,,,,,,,,,,,,,,,,,,,,,,,,,,
"72505394728","2020-03-29T22:51:00","FM-15","7",,,,,,,,,,,,,,,,,,,,,,,,,,,,,,,,,,,,,,"29.91","45","46","0.00",,,,"96","29.88","OVC:08 5","29.74","8.00","46","VRB",,"3",,,,,,,,,,,,,,,,,,,,,,,,,,,,,,,,,,,,,"MET09203/29/20 22:51:02 METAR KNYC 300351Z VRB03KT 8SM OVC005 08/07 A2991 RMK AO2 SLP119 T00780072","FM-15","7",,,,,,,,,,,,,,,,,,,,,,,,,,,,
"72505394728","2020-03-29T22:58:00","FM-16","7",,,,,,,,,,,,,,,,,,,,,,,,,,,,,,,,,,,,,,"29.91","45","46",,,,,"96",,"OVC:08 4","29.74","7.00","46","050",,"8",,,,,,,,,,,,,,,,,,,,,,,,,,,,,,,,,,,,,"MET08503/29/20 22:58:02 SPECI KNYC 300358Z 05007KT 7SM OVC004 08/07 A2991 RMK AO2 T00780072","FM-16","7",,,,,,,,,,,,,,,,,,,,,,,,,,,,
"72505394728","2020-03-29T23:24:00","FM-16","7",,,,,,,,,,,,,,,,,,,,,,,,,,,,,,,,,,,,,,"29.91","45","47",,,,,"93",,"OVC:08 6","29.74","9.00","46","040",,"11",,,,,,,,,,,,,,,,,,,,,,,,,,,,,,,,,,,,,"MET09703/29/20 23:24:02 SPECI KNYC 300424Z 04010KT 9SM OVC006 08/07 A2991 RMK AO2 CIG 004V009 T00830072","FM-16","7",,,,,,,,,,,,,,,,,,,,,,,,,,,,
"72505394728","2020-03-29T23:51:00","FM-15","7",,,,,,,,,,,,,,,,,,,,,,,,,,,,,,,,,,,,,,"29.92","45","47","0.00","BR:1 ||",,,"93","29.90","OVC:08 7","29.75","5.00","46","030",,"8",,,,,,,,,,,,,,,,,,,,,,,,,,,,,,,,,,,,,"MET10503/29/20 23:51:02 METAR KNYC 300451Z 03007KT 5SM BR OVC007 08/07 A2992 RMK AO2 SLP124 T00830072 400830067","FM-15","7",,,,,,,,,,,,,,,,,,,,,,,,,,,,
"72505394728","2020-03-29T23:59:00","SOD  ","6",,,,,,,,,,,,,,,,"46",,,"29.80",,"11.6","0","-0.7","19","47","44","040","29","0.05","0","0.0","060","21","RA BR",,,,,,,,,,,,,,,,,,,,,,,,,,,,,,,,,,,,,,,,,,,,,,,,,,,,,,,,"SOD78724 HR PRECIPITATION (IN): 0.05 SNOW DEPTH (IN):0     24 HR SNOWFALL (IN):0.0  WEATHER(CODE):1  24 HR MAX TEMP (F): 4724 HR MIN TEMP (F): 44AVERAGE STATION PRESSURE(D):29.802 MINIMUM SEA LEVEL PRESSURE:29.81 TIME OF OCCURRENCE:1502 PEAK WIND SPEED (MPH): 29 PEAK WIND DIR (DEG): 40 PEAK WIND TIME (LST):      FASTEST 2MIN SPEED (MPH): 21FASTEST 2MIN DIR (DEG): 60 FASTEST 2MIN TIME (LST):     AVERAGE WIND SPEED (MPH):11.6 24 HR AVG TEMP (F): 46DEPART FROM NORMAL: -1  SKY COVER SR-SS (TENTHS): 1HEATING DEGREE DAYS: 19 COOLING DEGREE DAYS:  0 LATEST DAY MAX TEMP (0700-1900 LST): 47 LATEST NIGHT MIN TEMP(1900-0800 LST):44 HOURLY INCREMENTAL PRECIPITATION VALUES (IN):0.00 0.01T     0.01 0.00T    T    T     0.01 0.00 0.01 0.01 0.00 0.00 0.00 0.00 0.00 0.00 0.00 0.00 0.00 0.00 0.00 0.00","SOD  ","6",,,,,,,,,,,,,,,,,,,,,,,,,"0543","1818",,
"72505394728","2020-03-30T00:51:00","FM-15","7",,,,,,,,,,,,,,,,,,,,,,,,,,,,,,,,,,,,,,"29.93","45","47","0.00",,"-0.04","1","93","29.90","OVC:08 7","29.76","9.00","46","VRB",,"5",,,,,,,,,,,,,,,,,,,,,,,,,,,,,,,,,,,,,"MET11003/30/20 00:51:02 METAR KNYC 300551Z VRB04KT 9SM OVC007 08/07 A2993 RMK AO2 SLP126 T00830072 10083 20072 51012","FM-15","7",,,,,,,,,,,,,,,,,,,,,,,,,,,,
"72505394728","2020-03-30T01:51:00","FM-15","7",,,,,,,,,,,,,,,,,,,,,,,,,,,,,,,,,,,,,,"29.94","44","46","0.00",,,,"93","29.91","OVC:08 9","29.77","10.00","45","VRB",,"7",,,,,,,,,,,,,,,,,,,,,,,,,,,,,,,,,,,,,"MET09303/30/20 01:51:02 METAR KNYC 300651Z VRB06KT 10SM OVC009 08/07 A2994 RMK AO2 SLP129 T00780067","FM-15","7",,,,,,,,,,,,,,,,,,,,,,,,,,,,
"72505394728","2020-03-30T02:28:00","FM-16","7",,,,,,,,,,,,,,,,,,,,,,,,,,,,,,,,,,,,,,"29.96","43","46",,,,,"89",,"OVC:08 10","29.79","10.00","45","040",,"5",,,,,,,,,,,,,,,,,,,,,,,,,,,,,,,,,,,,,"MET09803/30/20 02:28:02 SPECI KNYC 300728Z 04004KT 10SM OVC010 08/06 A2996 RMK AO2 CIG 008V013 T00780061","FM-16","7",,,,,,,,,,,,,,,,,,,,,,,,,,,,
"72505394728","2020-03-30T02:38:00","FM-16","7",,,,,,,,,,,,,,,,,,,,,,,,,,,,,,,,,,,,,,"29.96","44","46",,,,,"93",,"OVC:08 9","29.79","10.00","45","000",,"0",,,,,,,,,,,,,,,,,,,,,,,,,,,,,,,,,,,,,"MET08603/30/20 02:38:02 SPECI KNYC 300738Z 00000KT 10SM OVC009 08/07 A2996 RMK AO2 T00780067","FM-16","7",,,,,,,,,,,,,,,,,,,,,,,,,,,,
"72505394728","2020-03-30T02:51:00","FM-15","7",,,,,,,,,,,,,,,,,,,,,,,,,,,,,,,,,,,,,,"29.97","43","46","0.00",,,,"89","29.95","OVC:08 9","29.80","10.00","45",,,,,,,,,,,,,,,,,,,,,,,,,,,,,,,,,,,,,,,,"MET09303/30/20 02:51:02 METAR KNYC 300751Z      KT 10SM OVC009 08/06 A2997 RMK AO2 SLP141 T00780061","FM-15","7",,,,,,,,,,,,,,,,,,,,,,,,,,,,
"72505394728","2020-03-30T03:36:00","FM-16","7",,,,,,,,,,,,,,,,,,,,,,,,,,,,,,,,,,,,,,"29.97","42","45",,,,,"90",,"OVC:08 10","29.80","10.00","44","050",,"7",,,,,,,,,,,,,,,,,,,,,,,,,,,,,,,,,,,,,"MET08603/30/20 03:36:02 SPECI KNYC 300836Z 05006KT 10SM OVC010 07/06 A2997 RMK AO2 T00720056","FM-16","7",,,,,,,,,,,,,,,,,,,,,,,,,,,,
"72505394728","2020-03-30T03:51:00","FM-15","7",,,,,,,,,,,,,,,,,,,,,,,,,,,,,,,,,,,,,,"29.97","42","45","0.00",,"-0.04","0","90","29.95","OVC:08 10","29.80","10.00","44","VRB",,"6",,,,,,,,,,,,,,,,,,,,,,,,,,,,,,,,,,,,,"MET09903/30/20 03:51:02 METAR KNYC 300851Z VRB05KT 10SM OVC010 07/06 A2997 RMK AO2 SLP141 T00720056 50014","FM-15","7",,,,,,,,,,,,,,,,,,,,,,,,,,,,
"72505394728","2020-03-30T04:20:00","FM-16","7",,,,,,,,,,,,,,,,,,,,,,,,,,,,,,,,,,,,,,"29.96","41","44",,,,,"89",,"OVC:08 9","29.79","10.00","43","VRB",,"3",,,,,,,,,,,,,,,,,,,,,,,,,,,,,,,,,,,,,"MET08603/30/20 04:20:02 SPECI KNYC 300920Z VRB03KT 10SM OVC009 07/05 A2996 RMK AO2 T00670050","FM-16","7",,,,,,,,,,,,,,,,,,,,,,,,,,,,
"72505394728","2020-03-30T04:51:00","FM-15","7",,,,,,,,,,,,,,,,,,,,,,,,,,,,,,,,,,,,,,"29.97","40","43","0.00",,,,"89","29.94","OVC:08 9","29.80","10.00","42","060",,"6",,,,,,,,,,,,,,,,,,,,,,,,,,,,,,,,,,,,,"MET09303/30/20 04:51:02 METAR KNYC 300951Z 06005KT 10SM OVC009 06/04 A2997 RMK AO2 SLP139 T00610044","FM-15","7",,,,,,,,,,,,,,,,,,,,,,,,,,,,
"72505394728","2020-03-30T05:18:00","FM-16","7",,,,,,,,,,,,,,,,,,,,,,,,,,,,,,,,,,,,,,"29.97","40","43",,,,,"89",,"OVC:08 10","29.80","10.00","42","060",,"5",,,,,,,,,,,,,,,,,,,,,,,,,,,,,,,,,,,,,"MET08603/30/20 05:18:02 SPECI KNYC 301018Z 06004KT 10SM OVC010 06/04 A2997 RMK AO2 T00610044","FM-16","7",,,,,,,,,,,,,,,,,,,,,,,,,,,,
"72505394728","2020-03-30T05:51:00","FM-15","7",,,,,,,,,,,,,,,,,,,,,,,,,,,,,,,,,,,,,,"29.99","39","42","0.00",,,,"89","29.96","OVC:08 11","29.82","10.00","41","050",,"6",,,,,,,,,,,,,,,,,,,,,,,,,,,,,,,,,,,,,"MET09303/30/20 05:51:02 METAR KNYC 301051Z 05005KT 10SM OVC011 06/04 A2999 RMK AO2 SLP147 T00560039","FM-15","7",,,,,,,,,,,,,,,,,,,,,,,,,,,,
"72505394728","2020-03-30T06:51:00","FM-15","7",,,,,,,,,,,,,,,,,,,,,,,,,,,,,,,,,,,,,,"30.01","39","42","0.00",,"-0.04","3","89","29.98","OVC:08 10","29.84","10.00","41","030",,"5",,,,,,,,,,,,,,,,,,,,,,,,,,,,,,,,,,,,,"MET12103/30/20 06:51:02 METAR KNYC 301151Z 03004KT 10SM OVC010 06/04 A3001 RMK AO2 SLP152 70003 T00560039 10083 20056 53012 RTX","FM-15","7",,,,,,,,,,,,,,,,,,,,,,,,,,,,
"72505394728","2020-03-30T07:00:00","FM-16","6",,,,,,,,,,,,,,,,,,,,,,,,,,,,,,,,,,,,,,"30.00","38","42",,,,,"85",,"OVC:08 9","29.83","10.00","40","030",,"8",,,,,,,,,,,,,,,,,,,,,,,,,,,,,,,,,,,,,"MET08603/30/20 07:00:02 SPECI KNYC 301200Z 03007KT 10SM OVC009 06/03 A3000 RMK AO2 T00560033","FM-16","6",,,,,,,,,,,,,,,,,,,,,,,,,,,,
"72505394728","2020-03-30T07:51:00","FM-15","7",,,,,,,,,,,,,,,,,,,,,,,,,,,,,,,,,,,,,,"30.00","38","42","0.00",,,,"85","29.97","OVC:08 9","29.83","10.00","40","060",,"5",,,,,,,,,,,,,,,,,,,,,,,,,,,,,,,,,,,,,"MET09303/30/20 07:51:02 METAR KNYC 301251Z 06004KT 10SM OVC009 06/03 A3000 RMK AO2 SLP149 T00560033","FM-15","7",,,,,,,,,,,,,,,,,,,,,,,,,,,,
"72505394728","2020-03-30T08:49:00","FM-16","6",,,,,,,,,,,,,,,,,,,,,,,,,,,,,,,,,,,,,,"30.00","39","43",,,,,"87",,"OVC:08 10","29.83","10.00","41","000",,"0",,,,,,,,,,,,,,,,,,,,,,,,,,,,,,,,,,,,,"MET08103/30/20 08:49:02 SPECI KNYC 301349Z 00000KT 10SM OVC010 06/04 A3000 RMK AO2 FIBI","FM-16","6",,,,,,,,,,,,,,,,,,,,,,,,,,,,
"72505394728","2020-03-30T08:51:00","FM-15","7",,,,,,,,,,,,,,,,,,,,,,,,,,,,,,,,,,,,,,"30.00","39","43","0.00",,,,"86","29.98","OVC:08 10","29.83","10.00","41","000",,"0",,,,,,,,,,,,,,,,,,,,,,,,,,,,,,,,,,,,,"MET09303/30/20 08:51:02 METAR KNYC 301351Z 00000KT 10SM OVC010 06/04 A3000 RMK AO2 SLP152 T00610039","FM-15","7",,,,,,,,,,,,,,,,,,,,,,,,,,,,
"72505394728","2020-03-30T09:51:00","FM-15","7",,,,,,,,,,,,,,,,,,,,,,,,,,,,,,,,,,,,,,"29.99","40","45","0.00",,"+0.02","8","83","29.96","OVC:08 12","29.82","10.00","43","VRB",,"5",,,,,,,,,,,,,,,,,,,,,,,,,,,,,,,,,,,,,"MET09903/30/20 09:51:02 METAR KNYC 301451Z VRB04KT 10SM OVC012 07/04 A2999 RMK AO2 SLP146 T00720044 58007","FM-15","7",,,,,,,,,,,,,,,,,,,,,,,,,,,,
"72505394728","2020-03-30T10:51:00","FM-15","7",,,,,,,,,,,,,,,,,,,,,,,,,,,,,,,,,,,,,,"29.96","40","47","0.00",,,,"77","29.94","OVC:08 13","29.79","10.00","44","VRB",,"5",,,,,,,,,,,,,,,,,,,,,,,,,,,,,,,,,,,,,"MET09303/30/20 10:51:02 METAR KNYC 301551Z VRB04KT 10SM OVC013 08/04 A2996 RMK AO2 SLP138 T00830044","FM-15","7",,,,,,,,,,,,,,,,,,,,,,,,,,,,
"72505394728","2020-03-30T11:33:00","FM-16","7",,,,,,,,,,,,,,,,,,,,,,,,,,,,,,,,,,,,,,"29.95","40","48",,,,,"74",,"OVC:08 15","29.78","10.00","44","030",,"5",,,,,,,,,,,,,,,,,,,,,,,,,,,,,,,,,,,,,"MET08603/30/20 11:33:02 SPECI KNYC 301633Z 03004KT 10SM OVC015 09/04 A2995 RMK AO2 T00890044","FM-16","7",,,,,,,,,,,,,,,,,,,,,,,,,,,,
"72505394728","2020-03-30T11:51:00","FM-15","7",,,,,,,,,,,,,,,,,,,,,,,,,,,,,,,,,,,,,,"29.94","41","49","0.00",,,,"74","29.92","OVC:08 15","29.77","10.00","45","VRB",,"5",,,,,,,,,,,,,,,,,,,,,,,,,,,,,,,,,,,,,"MET09303/30/20 11:51:02 METAR KNYC 301651Z VRB04KT 10SM OVC015 09/05 A2994 RMK AO2 SLP132 T00940050","FM-15","7",,,,,,,,,,,,,,,,,,,,,,,,,,,,
"72505394728","2020-03-30T12:51:00","FM-15","7",,,,,,,,,,,,,,,,,,,,,,,,,,,,,,,,,,,,,,"29.92","42","52","0.00",,"+0.06","6","69","29.90","OVC:08 17","29.75","9.00","47","VRB",,"5",,,,,,,,,,,,,,,,,,,,,,,,,,,,,,,,,,,,,"MET11003/30/20 12:51:02 METAR KNYC 301751Z VRB04KT 9SM OVC017 11/06 A2992 RMK AO2 SLP125 T01110056 10111 20050 56021","FM-15","7",,,,,,,,,,,,,,,,,,,,,,,,,,,,
"72505394728","2020-03-30T13:51:00","FM-15","7",,,,,,,,,,,,,,,,,,,,,,,,,,,,,,,,,,,,,,"29.92","43","51","0.00",,,,"74","29.89","OVC:08 15","29.75","8.00","47","000",,"0",,,,,,,,,,,,,,,,,,,,,,,,,,,,,,,,,,,,,"MET09203/30/20 13:51:02 METAR KNYC 301851Z 00000KT 8SM OVC015 11/06 A2992 RMK AO2 SLP123 T01060061","FM-15","7",,,,,,,,,,,,,,,,,,,,,,,,,,,,
"72505394728","2020-03-30T14:51:00","FM-15","7",,,,,,,,,,,,,,,,,,,,,,,,,,,,,,,,,,,,,,"29.91","41","49","0.00",,,,"74","29.89","OVC:08 15","29.74","10.00","45","090",,"6",,,,,,,,,,,,,,,,,,,,,,,,,,,,,,,,,,,,,"MET09303/30/20 14:51:02 METAR KNYC 301951Z 09005KT 10SM OVC015 09/05 A2991 RMK AO2 SLP121 T00940050","FM-15","7",,,,,,,,,,,,,,,,,,,,,,,,,,,,
"72505394728","2020-03-30T15:51:00","FM-15","7",,,,,,,,,,,,,,,,,,,,,,,,,,,,,,,,,,,,,,"29.91","40","48","0.00",,"+0.01","6","74","29.89","BKN:07 20","29.74","10.00","44","090",,"7",,,,,,,,,,,,,,,,,,,,,,,,,,,,,,,,,,,,,"MET09903/30/20 15:51:02 METAR KNYC 302051Z 09006KT 10SM BKN020 09/04 A2991 RMK AO2 SLP121 T00890044 56004","FM-15","7",,,,,,,,,,,,,,,,,,,,,,,,,,,,
"72505394728","2020-03-30T16:05:00","FM-16","7",,,,,,,,,,,,,,,,,,,,,,,,,,,,,,,,,,,,,,"29.91","41","49",,,,,"74",,"FEW:02 21","29.74","10.00","45","100",,"6",,,,,,,,,,,,,,,,,,,,,,,,,,,,,,,,,,,,,"MET08603/30/20 16:05:02 SPECI KNYC 302105Z 10005KT 10SM FEW021 09/05 A2991 RMK AO2 T00940050","FM-16","7",,,,,,,,,,,,,,,,,,,,,,,,,,,,
"72505394728","2020-03-30T16:47:00","FM-16","7",,,,,,,,,,,,,,,,,,,,,,,,,,,,,,,,,,,,,,"29.93","41","48",,,,,"76",,"BKN:07 19 OVC:08 75","29.76","10.00","45","050",,"7",,,,,,,,,,,,,,,,,,,,,,,,,,,,,,,,,,,,,"MET08303/30/20 16:47:02 SPECI KNYC 302147Z 05006KT 10SM BKN019 OVC075 09/05 A2993 RMK AO2","FM-16","7",,,,,,,,,,,,,,,,,,,,,,,,,,,,
"72505394728","2020-03-30T16:51:00","FM-15","7",,,,,,,,,,,,,,,,,,,,,,,,,,,,,,,,,,,,,,"29.93","41","49","0.00",,,,"74","29.91","BKN:07 19 OVC:08 70","29.76","10.00","45","050",,"7",,,,,,,,,,,,,,,,,,,,,,,,,,,,,,,,,,,,,"MET10003/30/20 16:51:02 METAR KNYC 302151Z 05006KT 10SM BKN019 OVC070 09/05 A2993 RMK AO2 SLP128 T00940050","FM-15","7",,,,,,,,,,,,,,,,,,,,,,,,,,,,
"72505394728","2020-03-30T17:28:00","FM-16","7",,,,,,,,,,,,,,,,,,,,,,,,,,,,,,,,,,,,,,"29.94","40","48",,,,,"74",,"SCT:04 19 OVC:08 100","29.77","9.00","44","040",,"7",,,,,,,,,,,,,,,,,,,,,,,,,,,,,,,,,,,,,"MET09203/30/20 17:28:02 SPECI KNYC 302228Z 04006KT 9SM SCT019 OVC100 09/04 A2994 RMK AO2 T00890044","FM-16","7",,,,,,,,,,,,,,,,,,,,,,,,,,,,
"72505394728","2020-03-30T17:51:00","FM-15","7",,,,,,,,,,,,,,,,,,,,,,,,,,,,,,,,,,,,,,"29.94","40","48","0.00",,,,"74","29.92","OVC:08 100","29.77","10.00","44","VRB",,"6",,,,,,,,,,,,,,,,,,,,,,,,,,,,,,,,,,,,,"MET09303/30/20 17:51:02 METAR KNYC 302251Z VRB05KT 10SM OVC100 09/04 A2994 RMK AO2 SLP131 T00890044","FM-15","7",,,,,,,,,,,,,,,,,,,,,,,,,,,,
"72505394728","2020-03-30T18:35:00","FM-16","7",,,,,,,,,,,,,,,,,,,,,,,,,,,,,,,,,,,,,,"29.96","41","48",,,,,"77",,"BKN:07 19 BKN:07 85 OVC:08 110","29.79","10.00","45","060",,"5",,,,,,,,,,,,,,,,,,,,,,,,,,,,,,,,,,,,,"MET10003/30/20 18:35:02 SPECI KNYC 302335Z 06004KT 10SM BKN019 BKN085 OVC110 09/05 A2996 RMK AO2 T00890050","FM-16","7",,,,,,,,,,,,,,,,,,,,,,,,,,,,
"72505394728","2020-03-30T18:51:00","FM-15","7",,,,,,,,,,,,,,,,,,,,,,,,,,,,,,,,,,,,,,"29.96","41","48","0.00",,"-0.03","3","77","29.93","OVC:08 20","29.79","10.00","45","VRB",,"6",,,,,,,,,,,,,,,,,,,,,,,,,,,,,,,,,,,,,"MET11103/30/20 18:51:02 METAR KNYC 302351Z VRB05KT 10SM OVC020 09/05 A2996 RMK AO2 SLP137 T00890050 10111 20089 53010","FM-15","7",,,,,,,,,,,,,,,,,,,,,,,,,,,,
"72505394728","2020-03-30T19:27:00","FM-16","7",,,,,,,,,,,,,,,,,,,,,,,,,,,,,,,,,,,,,,"29.98","41","47",,,,,"80",,"BKN:07 14 OVC:08 21","29.81","9.00","44","130",,"3",,,,,,,,,,,,,,,,,,,,,,,,,,,,,,,,,,,,,"MET09203/30/20 19:27:03 SPECI KNYC 310027Z 13003KT 9SM BKN014 OVC021 08/05 A2998 RMK AO2 T00830050","FM-16","7",,,,,,,,,,,,,,,,,,,,,,,,,,,,
"72505394728","2020-03-30T19:38:00","FM-16","7",,,,,,,,,,,,,,,,,,,,,,,,,,,,,,,,,,,,,,"29.99","41","47",,,,,"80",,"BKN:07 15 OVC:08 21","29.82","10.00","44","050",,"5",,,,,,,,,,,,,,,,,,,,,,,,,,,,,,,,,,,,,"MET09703/30/20 19:38:03 SPECI KNYC 310038Z 05004KT 10SM BKN015 OVC021 08/05 A2999 RMK AO2 T00830050 RTX","FM-16","7",,,,,,,,,,,,,,,,,,,,,,,,,,,,
"72505394728","2020-03-30T19:51:00","FM-15","7",,,,,,,,,,,,,,,,,,,,,,,,,,,,,,,,,,,,,,"29.99","41","47","T",,,,"80","29.97","BKN:07 15 OVC:08 22","29.82","10.00","44","330",,"5",,,,,,,,,,,,,,,,,,,,,,,,,,,,,,,,,,,,,"MET10003/30/20 19:51:03 METAR KNYC 310051Z 33004KT 10SM BKN015 OVC022 08/05 A2999 RMK AO2 SLP149 T00830050","FM-15","7",,,,,,,,,,,,,,,,,,,,,,,,,,,,
"72505394728","2020-03-30T20:40:00","FM-16","7",,,,,,,,,,,,,,,,,,,,,,,,,,,,,,,,,,,,,,"30.00","42","45","0.04",,,,"90",,"SCT:04 19 SCT:04 40 OVC:08 60","29.83","10.00","44","VRB",,"3",,,,,,,,,,,,,,,,,,,,,,,,,,,,,,,,,,,,,"MET11703/30/20 20:40:03 SPECI KNYC 310140Z VRB03KT 10SM SCT019 SCT040 OVC060 07/06 A3000 RMK AO2 RAB0058E33 P0004 T00720056","FM-16","7",,,,,,,,,,,,,,,,,,,,,,,,,,,,
"72505394728","2020-03-30T20:51:00","FM-15","7",,,,,,,,,,,,,,,,,,,,,,,,,,,,,,,,,,,,,,"30.00","42","45","0.04",,,,"90","29.98","FEW:02 40 OVC:08 65","29.83","10.00","44","VRB",,"6",,,,,,,,,,,,,,,,,,,,,,,,,,,,,,,,,,,,,"MET12603/30/20 20:51:03 METAR KNYC 310151Z VRB05KT 10SM FEW040 OVC065 07/06 A3000 RMK AO2 RAB0058E33 SLP151 P0004 T00720056 RTX FIBI","FM-15","7",,,,,,,,,,,,,,,,,,,,,,,,,,,,
"72505394728","2020-03-30T21:37:00","FM-16","7",,,,,,,,,,,,,,,,,,,,,,,,,,,,,,,,,,,,,,"30.01","42","45",,,,,"90",,"BKN:07 10 OVC:08 50","29.84","9.00","44","040",,"7",,,,,,,,,,,,,,,,,,,,,,,,,,,,,,,,,,,,,"MET10103/30/20 21:37:03 SPECI KNYC 310237Z 04006KT 9SM BKN010 OVC050 07/06 A3001 RMK AO2 T00720056 RTX FIBI","FM-16","7",,,,,,,,,,,,,,,,,,,,,,,,,,,,
"72505394728","2020-03-30T21:51:00","FM-15","7",,,,,,,,,,,,,,,,,,,,,,,,,,,,,,,,,,,,,,"30.01","42","45","0.00",,"-0.05","1","90","29.98","OVC:08 10","29.84","8.00","44","050",,"7",,,,,,,,,,,,,,,,,,,,,,,,,,,,,,,,,,,,,"MET11603/30/20 21:51:03 METAR KNYC 310251Z 05006KT 8SM OVC010 07/06 A3001 RMK AO2 CIG 009V015 SLP153 60004 T00720056 51016","FM-15","7",,,,,,,,,,,,,,,,,,,,,,,,,,,,
"72505394728","2020-03-30T22:18:00","FM-16","7",,,,,,,,,,,,,,,,,,,,,,,,,,,,,,,,,,,,,,"30.01","42","45","T","-RA:02 |RA |RA",,,"90",,"OVC:08 9","29.84","9.00","44","050",,"7",,,,,,,,,,,,,,,,,,,,,,,,,,,,,,,,,,,,,"MET10103/30/20 22:18:03 SPECI KNYC 310318Z 05006KT 9SM -RA OVC009 07/06 A3001 RMK AO2 RAB12 P0000 T00720056","FM-16","7",,,,,,,,,,,,,,,,,,,,,,,,,,,,
"72505394728","2020-03-30T22:49:00","FM-16","6",,,,,,,,,,,,,,,,,,,,,,,,,,,,,,,,,,,,,,"30.01","43","45",,,,,"93",,"OVC:08 11","29.84","7.00","44","000",,"0",,,,,,,,,,,,,,,,,,,,,,,,,,,,,,,,,,,,,"MET09503/30/20 22:49:03 SPECI KNYC 310349Z 00000KT 7SM OVC011 07/06 A3001 RMK AO2 RAB12E41 P0000 FIBI","FM-16","6",,,,,,,,,,,,,,,,,,,,,,,,,,,,
"72505394728","2020-03-30T22:51:00","FM-15","7",,,,,,,,,,,,,,,,,,,,,,,,,,,,,,,,,,,,,,"30.01","43","45","T",,,,"93","29.98","OVC:08 11","29.84","7.00","44","000",,"0",,,,,,,,,,,,,,,,,,,,,,,,,,,,,,,,,,,,,"MET11103/30/20 22:51:03 METAR KNYC 310351Z 00000KT 7SM OVC011 07/06 A3001 RMK AO2 RAB12E41 SLP153 P0000 T00720061 RTX","FM-15","7",,,,,,,,,,,,,,,,,,,,,,,,,,,,
"72505394728","2020-03-30T23:51:00","FM-15","7",,,,,,,,,,,,,,,,,,,,,,,,,,,,,,,,,,,,,,"30.01","41","45","T","-RA:02 |RA |RA",,,"86","29.99","OVC:08 12","29.84","10.00","43","VRB",,"3",,,,,,,,,,,,,,,,,,,,,,,,,,,,,,,,,,,,,"MET11903/30/20 23:51:03 METAR KNYC 310451Z VRB03KT 10SM -RA OVC012 07/05 A3001 RMK AO2 RAB51 SLP155 P0000 T00720050 401110050","FM-15","7",,,,,,,,,,,,,,,,,,,,,,,,,,,,
"72505394728","2020-03-30T23:59:00","SOD  ","6",,,,,,,,,,,,,,,,"47",,,"29.80",,"4.7","0","-0.1","18","52","41","050","16","0.04","0","0.0","050","13","RA",,,,,,,,,,,,,,,,,,,,,,,,,,,,,,,,,,,,,,,,,,,,,,,,,,,,,,,,"SOD78324 HR PRECIPITATION (IN): 0.04 SNOW DEPTH (IN):0     24 HR SNOWFALL (IN):0.0  WEATHER(CODE):1  24 HR MAX TEMP (F): 5224 HR MIN TEMP (F): 41AVERAGE STATION PRESSURE(D):29.799 MINIMUM SEA LEVEL PRESSURE:29.89 TIME OF OCCURRENCE:1622 PEAK WIND SPEED (MPH): 16 PEAK WIND DIR (DEG): 50 PEAK WIND TIME (LST):      FASTEST 2MIN SPEED (MPH): 13FASTEST 2MIN DIR (DEG): 50 FASTEST 2MIN TIME (LST):     AVERAGE WIND SPEED (MPH): 4.7 24 HR AVG TEMP (F): 47DEPART FROM NORMAL:  0  SKY COVER SR-SS (TENTHS): 1HEATING DEGREE DAYS: 18 COOLING DEGREE DAYS:  0 LATEST DAY MAX TEMP (0700-1900 LST): 52 LATEST NIGHT MIN TEMP(1900-0800 LST):41 HOURLY INCREMENTAL PRECIPITATION VALUES (IN):0.00 0.00 0.00 0.00 0.00 0.00 0.00 0.00 0.00 0.00 0.00 0.00 0.00 0.00 0.00 0.00 0.00 0.00 0.00T     0.04 0.00T    T","SOD  ","6",,,,,,,,,,,,,,,,,,,,,,,,,"0542","1819",,
"72505394728","2020-03-31T00:30:00","FM-16","7",,,,,,,,,,,,,,,,,,,,,,,,,,,,,,,,,,,,,,"30.01","42","44","0.03","-RA:02 BR:1 |RA |RA",,,"93",,"OVC:08 12","29.84","2.50","43","VRB",,"3",,,,,,,,,,,,,,,,,,,,,,,,,,,,,,,,,,,,,"MET10603/31/20 00:30:02 SPECI KNYC 310530Z VRB03KT 2 1/2SM -RA BR OVC012 07/06 A3001 RMK AO2 P0003 T00670056 RTX","FM-16","7",,,,,,,,,,,,,,,,,,,,,,,,,,,,
"72505394728","2020-03-31T00:42:00","FM-16","7",,,,,,,,,,,,,,,,,,,,,,,,,,,,,,,,,,,,,,"30.01","42","44","0.04","-RA:02 BR:1 |RA |RA",,,"93",,"BKN:07 10 OVC:08 15","29.84","3.00","43","VRB",,"3",,,,,,,,,,,,,,,,,,,,,,,,,,,,,,,,,,,,,"MET12103/31/20 00:42:02 SPECI KNYC 310542Z VRB03KT 3SM -RA BR BKN010 OVC015 07/06 A3001 RMK AO2 CIG 007V011 P0004 T00670056 RTX","FM-16","7",,,,,,,,,,,,,,,,,,,,,,,,,,,,
"72505394728","2020-03-31T00:51:00","FM-15","7",,,,,,,,,,,,,,,,,,,,,,,,,,,,,,,,,,,,,,"30.01","42","44","0.05","-RA:02 BR:1 |RA |RA","-0.00","0","93","29.98","BKN:07 10 BKN:07 15 OVC:08 19","29.84","3.00","43","120",,"3",,,,,,,,,,,,,,,,,,,,,,,,,,,,,,,,,,,,,"MET15503/31/20 00:51:02 METAR KNYC 310551Z 12003KT 3SM -RA BR BKN010 BKN015 OVC019 07/06 A3001 RMK AO2 CIG 007V011 SLP153 P0005 60009 T00670056 10089 20067 50000","FM-15","7",,,,,,,,,,,,,,,,,,,,,,,,,,,,
"72505394728","2020-03-31T00:58:00","FM-16","7",,,,,,,,,,,,,,,,,,,,,,,,,,,,,,,,,,,,,,"30.00","42","44","T","-RA:02 BR:1 |RA |RA",,,"93",,"BKN:07 8 OVC:08 17","29.83","4.00","43","VRB",,"3",,,,,,,,,,,,,,,,,,,,,,,,,,,,,,,,,,,,,"MET12103/31/20 00:58:02 SPECI KNYC 310558Z VRB03KT 4SM -RA BR BKN008 OVC017 07/06 A3000 RMK AO2 CIG 007V011 P0000 T00670056 RTX","FM-16","7",,,,,,,,,,,,,,,,,,,,,,,,,,,,
"72505394728","2020-03-31T01:51:00","FM-15","7",,,,,,,,,,,,,,,,,,,,,,,,,,,,,,,,,,,,,,"30.00","41","43","0.01","BR:1 ||",,,"93","29.97","BKN:07 6 BKN:07 14 OVC:08 18","29.83","6.00","42","070",,"7",,,,,,,,,,,,,,,,,,,,,,,,,,,,,,,,,,,,,"MET13703/31/20 01:51:02 METAR KNYC 310651Z 07006KT 6SM BR BKN006 BKN014 OVC018 06/05 A3000 RMK AO2 RAE42 CIG 005V008 SLP150 P0001 T00610050 RTX","FM-15","7",,,,,,,,,,,,,,,,,,,,,,,,,,,,
"72505394728","2020-03-31T02:49:00","FM-16","6",,,,,,,,,,,,,,,,,,,,,,,,,,,,,,,,,,,,,,"30.01","39","43",,,,,"87",,"SCT:04 7 BKN:07 14 OVC:08 18","29.84","10.00","41","VRB","18","10",,,,,,,,,,,,,,,,,,,,,,,,,,,,,,,,,,,,,"MET09803/31/20 02:49:02 SPECI KNYC 310749Z 06009G16KT 10SM SCT007 BKN014 OVC018 06/04 A3001 RMK AO2 FIBI","FM-16","6",,,,,,,,,,,,,,,,,,,,,,,,,,,,
"72505394728","2020-03-31T02:51:00","FM-15","7",,,,,,,,,,,,,,,,,,,,,,,,,,,,,,,,,,,,,,"30.01","39","42","0.00",,,,"89","29.98","SCT:04 7 BKN:07 13 OVC:08 18","29.84","10.00","41","VRB","18","6",,,,,,,,,,,,,,,,,,,,,,,,,,,,,,,,,,,,,"MET11003/31/20 02:51:02 METAR KNYC 310751Z VRB05G16KT 10SM SCT007 BKN013 OVC018 06/04 A3001 RMK AO2 SLP153 T00560039","FM-15","7",,,,,,,,,,,,,,,,,,,,,,,,,,,,
"72505394728","2020-03-31T03:00:00","FM-16","7",,,,,,,,,,,,,,,,,,,,,,,,,,,,,,,,,,,,,,"30.01","39","42",,,,,"89",,"SCT:04 11 OVC:08 18","29.84","10.00","41","060",,"7",,,,,,,,,,,,,,,,,,,,,,,,,,,,,,,,,,,,,"MET09303/31/20 03:00:02 SPECI KNYC 310800Z 06006KT 10SM SCT011 OVC018 06/04 A3001 RMK AO2 T00560039","FM-16","7",,,,,,,,,,,,,,,,,,,,,,,,,,,,
"72505394728","2020-03-31T03:07:00","FM-16","7",,,,,,,,,,,,,,,,,,,,,,,,,,,,,,,,,,,,,,"30.00","39","42",,,,,"89",,"BKN:07 12 OVC:08 18","29.83","10.00","41","VRB",,"3",,,,,,,,,,,,,,,,,,,,,,,,,,,,,,,,,,,,,"MET09303/31/20 03:07:02 SPECI KNYC 310807Z VRB03KT 10SM BKN012 OVC018 06/04 A3000 RMK AO2 T00560039","FM-16","7",,,,,,,,,,,,,,,,,,,,,,,,,,,,
"72505394728","2020-03-31T03:51:00","FM-15","7",,,,,,,,,,,,,,,,,,,,,,,,,,,,,,,,,,,,,,"30.01","39","42","0.00",,"-0.01","1","89","29.98","OVC:08 10","29.84","10.00","41","VRB",,"3",,,,,,,,,,,,,,,,,,,,,,,,,,,,,,,,,,,,,"MET11403/31/20 03:51:02 METAR KNYC 310851Z VRB03KT 10SM OVC010 06/04 A3001 RMK AO2 SLP154 60001 T00560039 51003 RTX FIBI","FM-15","7",,,,,,,,,,,,,,,,,,,,,,,,,,,,
"72505394728","2020-03-31T04:47:00","FM-16","7",,,,,,,,,,,,,,,,,,,,,,,,,,,,,,,,,,,,,,"30.03","36","43",,,,,"76",,"OVC:08 15","29.86","10.00","40","080","17","10",,,,,,,,,,,,,,,,,,,,,,,,,,,,,,,,,,,,,"MET07903/31/20 04:47:02 SPECI KNYC 310947Z 08009G15KT 10SM OVC015 06/02 A3003 RMK AO2","FM-16","7",,,,,,,,,,,,,,,,,,,,,,,,,,,,
"72505394728","2020-03-31T04:51:00","FM-15","7",,,,,,,,,,,,,,,,,,,,,,,,,,,,,,,,,,,,,,"30.03","36","42","0.00",,,,"79","30.01","OVC:08 15","29.86","10.00","39","VRB","17","11",,,,,,,,,,,,,,,,,,,,,,,,,,,,,,,,,,,,,"MET10503/31/20 04:51:02 METAR KNYC 310951Z 06010G15KT 10SM OVC015 06/02 A3003 RMK AO2 SLP161 T00560022 RTX FIBI","FM-15","7",,,,,,,,,,,,,,,,,,,,,,,,,,,,
"72505394728","2020-03-31T05:13:00","FM-16","7",,,,,,,,,,,,,,,,,,,,,,,,,,,,,,,,,,,,,,"30.04","37","42",,,,,"82",,"OVC:08 13","29.87","10.00","40","VRB",,"3",,,,,,,,,,,,,,,,,,,,,,,,,,,,,,,,,,,,,"MET08603/31/20 05:13:02 SPECI KNYC 311013Z VRB03KT 10SM OVC013 06/03 A3004 RMK AO2 T00560028","FM-16","7",,,,,,,,,,,,,,,,,,,,,,,,,,,,
"72505394728","2020-03-31T05:37:00","FM-16","7",,,,,,,,,,,,,,,,,,,,,,,,,,,,,,,,,,,,,,"30.06","35","41",,,,,"79",,"OVC:08 15","29.89","10.00","38","VRB","20","9",,,,,,,,,,,,,,,,,,,,,,,,,,,,,,,,,,,,,"MET08903/31/20 05:37:02 SPECI KNYC 311037Z 07008G17KT 10SM OVC015 05/02 A3006 RMK AO2 T00500017","FM-16","7",,,,,,,,,,,,,,,,,,,,,,,,,,,,
"72505394728","2020-03-31T05:51:00","FM-15","7",,,,,,,,,,,,,,,,,,,,,,,,,,,,,,,,,,,,,,"30.06","36","41","0.00",,,,"82","30.04","OVC:08 17","29.89","10.00","39","VRB",,"9",,,,,,,,,,,,,,,,,,,,,,,,,,,,,,,,,,,,,"MET09303/31/20 05:51:02 METAR KNYC 311051Z 06008KT 10SM OVC017 05/02 A3006 RMK AO2 SLP172 T00500022","FM-15","7",,,,,,,,,,,,,,,,,,,,,,,,,,,,
"72505394728","2020-03-31T06:51:00","FM-15","7",,,,,,,,,,,,,,,,,,,,,,,,,,,,,,,,,,,,,,"30.07","35","41","0.00",,"-0.04","3","79","30.05","FEW:02 18 BKN:07 23 OVC:08 39","29.90","10.00","38","060",,"10",,,,,,,,,,,,,,,,,,,,,,,,,,,,,,,,,,,,,"MET13703/31/20 06:51:02 METAR KNYC 311151Z 06009KT 10SM FEW018 BKN023 OVC039 05/02 A3007 RMK AO2 SLP175 60001 70010 T00500017 10067 20050 53015","FM-15","7",,,,,,,,,,,,,,,,,,,,,,,,,,,,
"72505394728","2020-03-31T07:09:00","FM-16","7",,,,,,,,,,,,,,,,,,,,,,,,,,,,,,,,,,,,,,"30.07","35","41",,,,,"79",,"FEW:02 17 SCT:04 23 OVC:08 42","29.90","10.00","38","060",,"8",,,,,,,,,,,,,,,,,,,,,,,,,,,,,,,,,,,,,"MET10003/31/20 07:09:02 SPECI KNYC 311209Z 06007KT 10SM FEW017 SCT023 OVC042 05/02 A3007 RMK AO2 T00500017","FM-16","7",,,,,,,,,,,,,,,,,,,,,,,,,,,,
"72505394728","2020-03-31T07:17:00","FM-16","7",,,,,,,,,,,,,,,,,,,,,,,,,,,,,,,,,,,,,,"30.07","35","41",,,,,"79",,"SCT:04 16 BKN:07 25 OVC:08 42","29.90","10.00","38","VRB",,"8",,,,,,,,,,,,,,,,,,,,,,,,,,,,,,,,,,,,,"MET10003/31/20 07:17:02 SPECI KNYC 311217Z 08007KT 10SM SCT016 BKN025 OVC042 05/02 A3007 RMK AO2 T00500017","FM-16","7",,,,,,,,,,,,,,,,,,,,,,,,,,,,
"72505394728","2020-03-31T07:51:00","FM-15","7",,,,,,,,,,,,,,,,,,,,,,,,,,,,,,,,,,,,,,"30.08","34","41","0.00",,,,"76","30.05","OVC:08 17","29.91","10.00","38","050","16","10",,,,,,,,,,,,,,,,,,,,,,,,,,,,,,,,,,,,,"MET09603/31/20 07:51:02 METAR KNYC 311251Z 05009G14KT 10SM OVC017 05/01 A3008 RMK AO2 SLP176 T00500011","FM-15","7",,,,,,,,,,,,,,,,,,,,,,,,,,,,
"72505394728","2020-03-31T08:51:00","FM-15","7",,,,,,,,,,,,,,,,,,,,,,,,,,,,,,,,,,,,,,"30.09","34","42","0.00",,,,"73","30.06","OVC:08 22","29.92","10.00","39","050",,"9",,,,,,,,,,,,,,,,,,,,,,,,,,,,,,,,,,,,,"MET09303/31/20 08:51:02 METAR KNYC 311351Z 05008KT 10SM OVC022 06/01 A3009 RMK AO2 SLP180 T00560011","FM-15","7",,,,,,,,,,,,,,,,,,,,,,,,,,,,
"72505394728","2020-03-31T09:51:00","FM-15","7",,,,,,,,,,,,,,,,,,,,,,,,,,,,,,,,,,,,,,"30.08","34","42","0.00",,"-0.01","0","73","30.06","OVC:08 19","29.91","10.00","39","050",,"9",,,,,,,,,,,,,,,,,,,,,,,,,,,,,,,,,,,,,"MET09903/31/20 09:51:02 METAR KNYC 311451Z 05008KT 10SM OVC019 06/01 A3008 RMK AO2 SLP178 T00560011 50004","FM-15","7",,,,,,,,,,,,,,,,,,,,,,,,,,,,
"72505394728","2020-03-31T10:51:00","FM-15","7",,,,,,,,,,,,,,,,,,,,,,,,,,,,,,,,,,,,,,"30.06","35","44","0.00",,,,"71","30.03","BKN:07 20 OVC:08 46","29.89","10.00","40","VRB",,"8",,,,,,,,,,,,,,,,,,,,,,,,,,,,,,,,,,,,,"MET10003/31/20 10:51:02 METAR KNYC 311551Z 10007KT 10SM BKN020 OVC046 07/02 A3006 RMK AO2 SLP171 T00670017","FM-15","7",,,,,,,,,,,,,,,,,,,,,,,,,,,,
"72505394728","2020-03-31T11:51:00","FM-15","7",,,,,,,,,,,,,,,,,,,,,,,,,,,,,,,,,,,,,,"30.07","34","45","0.00",,,,"66","30.04","BKN:07 24 OVC:08 49","29.90","10.00","40","VRB",,"5",,,,,,,,,,,,,,,,,,,,,,,,,,,,,,,,,,,,,"MET10003/31/20 11:51:02 METAR KNYC 311651Z VRB04KT 10SM BKN024 OVC049 07/01 A3007 RMK AO2 SLP174 T00720011","FM-15","7",,,,,,,,,,,,,,,,,,,,,,,,,,,,
"72505394728","2020-03-31T12:51:00","FM-15","7",,,,,,,,,,,,,,,,,,,,,,,,,,,,,,,,,,,,,,"30.03","34","47","0.00",,"+0.05","8","61","30.01","OVC:08 27","29.86","10.00","41","320",,"3",,,,,,,,,,,,,,,,,,,,,,,,,,,,,,,,,,,,,"MET11103/31/20 12:51:02 METAR KNYC 311751Z 32003KT 10SM OVC027 08/01 A3003 RMK AO2 SLP162 T00830011 10083 20050 58016","FM-15","7",,,,,,,,,,,,,,,,,,,,,,,,,,,,
"72505394728","2020-03-31T13:31:00","FM-16","7",,,,,,,,,,,,,,,,,,,,,,,,,,,,,,,,,,,,,,"30.02","32","48",,,,,"54",,"OVC:08 30","29.85","10.00","41","VRB",,"3",,,,,,,,,,,,,,,,,,,,,,,,,,,,,,,,,,,,,"MET08603/31/20 13:31:02 SPECI KNYC 311831Z VRB03KT 10SM OVC030 09/00 A3002 RMK AO2 T00890000","FM-16","7",,,,,,,,,,,,,,,,,,,,,,,,,,,,
"72505394728","2020-03-31T13:51:00","FM-15","7",,,,,,,,,,,,,,,,,,,,,,,,,,,,,,,,,,,,,,"30.01","34","48","0.00",,,,"58","29.98","OVC:08 30","29.84","10.00","42","040",,"7",,,,,,,,,,,,,,,,,,,,,,,,,,,,,,,,,,,,,"MET09703/31/20 13:51:02 METAR KNYC 311851Z 04006KT 10SM OVC030 09/01 A3001 RMK AO2 SLP154 T00890011 RTX","FM-15","7",,,,,,,,,,,,,,,,,,,,,,,,,,,,
"72505394728","2020-03-31T14:51:00","FM-15","7",,,,,,,,,,,,,,,,,,,,,,,,,,,,,,,,,,,,,,"29.99","34","48","0.00",,,,"58","29.97","OVC:08 32","29.82","10.00","42","040",,"3",,,,,,,,,,,,,,,,,,,,,,,,,,,,,,,,,,,,,"MET09303/31/20 14:51:02 METAR KNYC 311951Z 04003KT 10SM OVC032 09/01 A2999 RMK AO2 SLP148 T00890011","FM-15","7",,,,,,,,,,,,,,,,,,,,,,,,,,,,
"72505394728","2020-03-31T15:51:00","FM-15","7",,,,,,,,,,,,,,,,,,,,,,,,,,,,,,,,,,,,,,"29.98","33","48","0.00",,"+0.06","6","56","29.95","OVC:08 33","29.81","10.00","41","VRB",,"6",,,,,,,,,,,,,,,,,,,,,,,,,,,,,,,,,,,,,"MET09903/31/20 15:51:02 METAR KNYC 312051Z VRB05KT 10SM OVC033 09/01 A2998 RMK AO2 SLP143 T00890006 56019","FM-15","7",,,,,,,,,,,,,,,,,,,,,,,,,,,,
"72505394728","2020-03-31T16:51:00","FM-15","7",,,,,,,,,,,,,,,,,,,,,,,,,,,,,,,,,,,,,,"29.97","35","46","0.00",,,,"66","29.95","OVC:08 31","29.80","10.00","41","150",,"7",,,,,,,,,,,,,,,,,,,,,,,,,,,,,,,,,,,,,"MET09303/31/20 16:51:02 METAR KNYC 312151Z 15006KT 10SM OVC031 08/02 A2997 RMK AO2 SLP141 T00780017","FM-15","7",,,,,,,,,,,,,,,,,,,,,,,,,,,,
"72505394728","2020-03-31T17:51:00","FM-15","7",,,,,,,,,,,,,,,,,,,,,,,,,,,,,,,,,,,,,,"29.97","34","44","0.00",,,,"68","29.94","OVC:08 34","29.80","10.00","40","190",,"5",,,,,,,,,,,,,,,,,,,,,,,,,,,,,,,,,,,,,"MET09303/31/20 17:51:02 METAR KNYC 312251Z 19004KT 10SM OVC034 07/01 A2997 RMK AO2 SLP140 T00670011","FM-15","7",,,,,,,,,,,,,,,,,,,,,,,,,,,,
"72505394728","2020-03-31T18:51:00","FM-15","7",,,,,,,,,,,,,,,,,,,,,,,,,,,,,,,,,,,,,,"29.98","34","43","0.00",,"+0.00","5","71","29.95","OVC:08 40","29.81","10.00","39","160",,"6",,,,,,,,,,,,,,,,,,,,,,,,,,,,,,,,,,,,,"MET11103/31/20 18:51:02 METAR KNYC 312351Z 16005KT 10SM OVC040 06/01 A2998 RMK AO2 SLP143 T00610011 10094 20061 55000","FM-15","7",,,,,,,,,,,,,,,,,,,,,,,,,,,,
"72505394728","2020-03-31T19:51:00","FM-15","7",,,,,,,,,,,,,,,,,,,,,,,,,,,,,,,,,,,,,,"29.98","34","43","0.00",,,,"71","29.95","OVC:08 41","29.81","10.00","39","160",,"5",,,,,,,,,,,,,,,,,,,,,,,,,,,,,,,,,,,,,"MET09303/31/20 19:51:03 METAR KNYC 010051Z 16004KT 10SM OVC041 06/01 A2998 RMK AO2 SLP143 T00610011","FM-15","7",,,,,,,,,,,,,,,,,,,,,,,,,,,,
"72505394728","2020-03-31T20:35:00","FM-16","7",,,,,,,,,,,,,,,,,,,,,,,,,,,,,,,,,,,,,,"29.99","35","43",,,,,"74",,"BKN:07 21 OVC:08 45","29.82","10.00","40","150",,"6",,,,,,,,,,,,,,,,,,,,,,,,,,,,,,,,,,,,,"MET09703/31/20 20:35:03 SPECI KNYC 010135Z 15005KT 10SM BKN021 OVC045 06/02 A2999 RMK AO2 T00610017 RTX","FM-16","7",,,,,,,,,,,,,,,,,,,,,,,,,,,,
"72505394728","2020-03-31T20:51:00","FM-15","7",,,,,,,,,,,,,,,,,,,,,,,,,,,,,,,,,,,,,,"29.99","35","43","0.00",,,,"74","29.96","BKN:07 19 OVC:08 45","29.82","10.00","40",,,,,,,,,,,,,,,,,,,,,,,,,,,,,,,,,,,,,,,,"MET10003/31/20 20:51:03 METAR KNYC 010151Z      KT 10SM BKN019 OVC045 06/02 A2999 RMK AO2 SLP147 T00610017","FM-15","7",,,,,,,,,,,,,,,,,,,,,,,,,,,,
"72505394728","2020-03-31T21:51:00","FM-15","7",,,,,,,,,,,,,,,,,,,,,,,,,,,,,,,,,,,,,,"29.97","34","43","0.00",,"+0.01","8","71","29.94","OVC:08 21","29.80","10.00","39","VRB",,"7",,,,,,,,,,,,,,,,,,,,,,,,,,,,,,,,,,,,,"MET09903/31/20 21:51:03 METAR KNYC 010251Z VRB06KT 10SM OVC021 06/01 A2997 RMK AO2 SLP140 T00610011 58002","FM-15","7",,,,,,,,,,,,,,,,,,,,,,,,,,,,
"72505394728","2020-03-31T22:51:00","FM-15","7",,,,,,,,,,,,,,,,,,,,,,,,,,,,,,,,,,,,,,"29.95","34","42","0.00",,,,"73","29.92","OVC:08 19","29.78","10.00","39","VRB",,"7",,,,,,,,,,,,,,,,,,,,,,,,,,,,,,,,,,,,,"MET09303/31/20 22:51:03 METAR KNYC 010351Z VRB06KT 10SM OVC019 06/01 A2995 RMK AO2 SLP133 T00560011","FM-15","7",,,,,,,,,,,,,,,,,,,,,,,,,,,,
"72505394728","2020-03-31T23:51:00","FM-15","7",,,,,,,,,,,,,,,,,,,,,,,,,,,,,,,,,,,,,,"29.93","32","42","0.00",,,,"68","29.91","OVC:08 21","29.76","10.00","38","090",,"9",,,,,,,,,,,,,,,,,,,,,,,,,,,,,,,,,,,,,"MET11203/31/20 23:51:03 METAR KNYC 010451Z 09008KT 10SM OVC021 06/00 A2993 RMK AO2 SLP127 T00560000 400940050 RTX FIBI","FM-15","7",,,,,,,,,,,,,,,,,,,,,,,,,,,,
"72505394728","2020-03-31T23:59:00","SOD  ","6",,,,,,,,,,,,,,,,"45",,,"29.85",,"6.8","0","-2.5","20","49","41","040","21","0.06","0","0.0","050","16","RA BR",,,,,,,,,,,,,,,,,,,,,,,,,,,,,,,,,,,,,,,,,,,,,,,,,,,,,,,,"SOD78724 HR PRECIPITATION (IN): 0.06 SNOW DEPTH (IN):0     24 HR SNOWFALL (IN):0.0  WEATHER(CODE):1  24 HR MAX TEMP (F): 4924 HR MIN TEMP (F): 41AVERAGE STATION PRESSURE(D):29.847 MINIMUM SEA LEVEL PRESSURE:29.90 TIME OF OCCURRENCE:2359 PEAK WIND SPEED (MPH): 21 PEAK WIND DIR (DEG): 40 PEAK WIND TIME (LST):      FASTEST 2MIN SPEED (MPH): 16FASTEST 2MIN DIR (DEG): 50 FASTEST 2MIN TIME (LST):     AVERAGE WIND SPEED (MPH): 6.8 24 HR AVG TEMP (F): 45DEPART FROM NORMAL: -3  SKY COVER SR-SS (TENTHS): 1HEATING DEGREE DAYS: 20 COOLING DEGREE DAYS:  0 LATEST DAY MAX TEMP (0700-1900 LST): 49 LATEST NIGHT MIN TEMP(1900-0800 LST):41 HOURLY INCREMENTAL PRECIPITATION VALUES (IN):0.05 0.01 0.00 0.00 0.00 0.00 0.00 0.00 0.00 0.00 0.00 0.00 0.00 0.00 0.00 0.00 0.00 0.00 0.00 0.00 0.00 0.00 0.00 0.00","SOD  ","6",,,,,,,,,,,,,,,,,,,,,,,,,"0540","1820",,
"72505394728","2020-03-31T23:59:00","SOM  ","6","6.9",,,,,,,,,,,"0","0","0",,,,,,,,,,,,,,,,,,,,,"3699","527",,,,,,,,,,,,,,,,,,,"12","7","1","0","0","0","5.5","-1","-173","5.4","5.7","-0.58",,"1.16","23-23",,,,,"30.69","22","2026","55.1","48.0","29.43","03","2257","40.9","30.12","29.97","3.78",,,"1","700","SOM790PCP MTOT:3.78 PCP GT 24HRS:1.16 DATE(S):23 DAYS W/PCP >=.01:12 DAYS W/PCP >=.10:7  DAYS W/ PCP >=.50:2 DAYS W/PCP >=1.00:1 MSDP AMTS W/DATE-TIME TAGS:MIN:5 0.07  28/1807 MIN:10 0.11  28/1812 MIN:15 0.13  28/1812 MIN:20 0.15  28/1812 MIN:30 0.19  23/1803 MIN:45 0.23  19/0454 MIN:60 0.29  23/1803 MIN:80 0.36  23/1808 MIN:100 0.42  23/1803 MIN:120 0.47  19/0510 MIN:150 0.56  19/0510 MIN:180 0.63  19/0510 AVG DLY MIN:40.9  AVG DLY MAX:55.1  AVG MLY TMP:48.0  MIN TMP:25 DATE(S):01 MAX TMP:77  DATE(S):20 DAYS MAX <=32:0 DAYS MAX >=90:0  DAYS MIN <=32:1  DAYS MIN  <=0:0  AVG STP:29.970 LWST SLP:29.43 DATE/TIME:032257 HGST SLP:30.69 DATE/TIME:222026 HDD MTH TOT:519 DEP NORM:-2553 SEASON(JUL 1-JUN 30):3656 DEP NORM:-25536 CDD MTH TOT:0 DEP NORM:-2553 SEASON(JAN 1-DEC 31):0 DEP NORM:-25536","SOM  ","6","2020-03-28 18:07","2020-03-28 18:12","2020-03-28 18:12","2020-03-28 18:12","2020-03-23 18:03","2020-03-19 04:54","2020-03-23 18:03","2020-03-23 18:08","2020-03-23 18:03","2020-03-19 05:10","2020-03-19 05:10","2020-03-19 05:10","0.07","0.11","0.13","0.15","0.19","0.23","0.29","0.36","0.42","0.47","0.56","0.63",,,,
"72505394728","2020-04-01T00:51:00","FM-15","7",,,,,,,,,,,,,,,,,,,,,,,,,,,,,,,,,,,,,,"29.90","32","41","0.00",,"+0.07","8","70","29.88","SCT:04 22 OVC:08 29","29.73","10.00","37","050",,"6",,,,,,,,,,,,,,,,,,,,,,,,,,,,,,,,,,,,,"MET11804/01/20 00:51:02 METAR KNYC 010551Z 05005KT 10SM SCT022 OVC029 05/00 A2990 RMK AO2 SLP117 T00500000 10061 20050 58023","FM-15","7",,,,,,,,,,,,,,,,,,,,,,,,,,,,
"72505394728","2020-04-01T01:51:00","FM-15","7",,,,,,,,,,,,,,,,,,,,,,,,,,,,,,,,,,,,,,"29.89","32","41","0.00",,,,"70","29.86","OVC:08 24","29.72","10.00","37","VRB",,"7",,,,,,,,,,,,,,,,,,,,,,,,,,,,,,,,,,,,,"MET09304/01/20 01:51:02 METAR KNYC 010651Z VRB06KT 10SM OVC024 05/00 A2989 RMK AO2 SLP113 T00500000","FM-15","7",,,,,,,,,,,,,,,,,,,,,,,,,,,,
"72505394728","2020-04-01T02:51:00","FM-15","7",,,,,,,,,,,,,,,,,,,,,,,,,,,,,,,,,,,,,,"29.87","31","40","0.00",,,,"70","29.84","OVC:08 22","29.70","10.00","36","VRB","17","9",,,,,,,,,,,,,,,,,,,,,,,,,,,,,,,,,,,,,"MET09704/01/20 02:51:02 METAR KNYC 010751Z 07008G15KT 10SM OVC022 04/M01 A2987 RMK AO2 SLP106 T00441006","FM-15","7",,,,,,,,,,,,,,,,,,,,,,,,,,,,
"72505394728","2020-04-01T03:21:00","FM-16","7",,,,,,,,,,,,,,,,,,,,,,,,,,,,,,,,,,,,,,"29.86","31","40",,,,,"70",,"FEW:02 23","29.69","10.00","36","VRB",,"6",,,,,,,,,,,,,,,,,,,,,,,,,,,,,,,,,,,,,"MET09104/01/20 03:21:02 SPECI KNYC 010821Z VRB05KT 10SM FEW023 04/M01 A2986 RMK AO2 T00441006 RTX","FM-16","7",,,,,,,,,,,,,,,,,,,,,,,,,,,,
"72505394728","2020-04-01T03:51:00","FM-15","7",,,,,,,,,,,,,,,,,,,,,,,,,,,,,,,,,,,,,,"29.85","31","40","0.00",,"+0.05","8","70","29.83","CLR:00","29.68","10.00","36","050","16","6",,,,,,,,,,,,,,,,,,,,,,,,,,,,,,,,,,,,,"MET10904/01/20 03:51:02 METAR KNYC 010851Z 05005G14KT 10SM CLR 04/M01 A2985 RMK AO2 SLP101 T00441006 58016 RTX FIBI","FM-15","7",,,,,,,,,,,,,,,,,,,,,,,,,,,,
"72505394728","2020-04-01T04:51:00","FM-15","7",,,,,,,,,,,,,,,,,,,,,,,,,,,,,,,,,,,,,,"29.84","30","40","0.00",,,,"68","29.81","SCT:04 25","29.67","10.00","36","060","20","11",,,,,,,,,,,,,,,,,,,,,,,,,,,,,,,,,,,,,"MET09704/01/20 04:51:02 METAR KNYC 010951Z 06010G17KT 10SM SCT025 04/M01 A2984 RMK AO2 SLP096 T00441011","FM-15","7",,,,,,,,,,,,,,,,,,,,,,,,,,,,
"72505394728","2020-04-01T05:51:00","FM-15","7",,,,,,,,,,,,,,,,,,,,,,,,,,,,,,,,,,,,,,"29.84","28","38","0.00",,,,"68","29.81","CLR:00","29.67","10.00","34","050","20","14",,,,,,,,,,,,,,,,,,,,,,,,,,,,,,,,,,,,,"MET09404/01/20 05:51:02 METAR KNYC 011051Z 05012G17KT 10SM CLR 03/M02 A2984 RMK AO2 SLP095 T00331022","FM-15","7",,,,,,,,,,,,,,,,,,,,,,,,,,,,
"72505394728","2020-04-01T06:51:00","FM-15","7",,,,,,,,,,,,,,,,,,,,,,,,,,,,,,,,,,,,,,"29.87","27","39","0.00",,"-0.01","3","62","29.84","CLR:00","29.70","10.00","34","050","18","13",,,,,,,,,,,,,,,,,,,,,,,,,,,,,,,,,,,,,"MET11204/01/20 06:51:02 METAR KNYC 011151Z 05011G16KT 10SM CLR 04/M03 A2987 RMK AO2 SLP105 T00391028 10050 20033 53004","FM-15","7",,,,,,,,,,,,,,,,,,,,,,,,,,,,
"72505394728","2020-04-01T07:51:00","FM-15","7",,,,,,,,,,,,,,,,,,,,,,,,,,,,,,,,,,,,,,"29.87","28","41","0.00",,,,"60","29.84","FEW:02 30","29.70","10.00","36","VRB",,"9",,,,,,,,,,,,,,,,,,,,,,,,,,,,,,,,,,,,,"MET09404/01/20 07:51:02 METAR KNYC 011251Z 04008KT 10SM FEW030 05/M02 A2987 RMK AO2 SLP106 T00501022","FM-15","7",,,,,,,,,,,,,,,,,,,,,,,,,,,,
"72505394728","2020-04-01T08:51:00","FM-15","7",,,,,,,,,,,,,,,,,,,,,,,,,,,,,,,,,,,,,,"29.86","27","45","0.00",,,,"49","29.84","CLR:00","29.69","10.00","38","VRB",,"5",,,,,,,,,,,,,,,,,,,,,,,,,,,,,,,,,,,,,"MET09104/01/20 08:51:02 METAR KNYC 011351Z VRB04KT 10SM CLR 07/M03 A2986 RMK AO2 SLP104 T00721028","FM-15","7",,,,,,,,,,,,,,,,,,,,,,,,,,,,
"72505394728","2020-04-01T09:51:00","FM-15","7",,,,,,,,,,,,,,,,,,,,,,,,,,,,,,,,,,,,,,"29.84","27","47","0.00",,"+0.03","8","46","29.81","FEW:02 40","29.67","10.00","39","050",,"10",,,,,,,,,,,,,,,,,,,,,,,,,,,,,,,,,,,,,"MET10004/01/20 09:51:02 METAR KNYC 011451Z 05009KT 10SM FEW040 08/M03 A2984 RMK AO2 SLP096 T00831028 58010","FM-15","7",,,,,,,,,,,,,,,,,,,,,,,,,,,,
"72505394728","2020-04-01T10:51:00","FM-15","7",,,,,,,,,,,,,,,,,,,,,,,,,,,,,,,,,,,,,,"29.82","26","47","0.00",,,,"44","29.80","BKN:07 43","29.65","10.00","39",,,,,,,,,,,,,,,,,,,,,,,,,,,,,,,,,,,,,,,,"MET09404/01/20 10:51:02 METAR KNYC 011551Z      KT 10SM BKN043 08/M03 A2982 RMK AO2 SLP090 T00831033","FM-15","7",,,,,,,,,,,,,,,,,,,,,,,,,,,,
"72505394728","2020-04-01T11:51:00","FM-15","7",,,,,,,,,,,,,,,,,,,,,,,,,,,,,,,,,,,,,,"29.80","26","52","0.00",,,,"37","29.78","CLR:00","29.63","10.00","41","040","18","14",,,,,,,,,,,,,,,,,,,,,,,,,,,,,,,,,,,,,"MET09404/01/20 11:51:02 METAR KNYC 011651Z 04012G16KT 10SM CLR 11/M03 A2980 RMK AO2 SLP083 T01111033","FM-15","7",,,,,,,,,,,,,,,,,,,,,,,,,,,,
"72505394728","2020-04-01T12:51:00","FM-15","7",,,,,,,,,,,,,,,,,,,,,,,,,,,,,,,,,,,,,,"29.78","26","53","0.00",,"+0.05","7","35","29.76","SCT:04 50","29.61","10.00","42","VRB","20","10",,,,,,,,,,,,,,,,,,,,,,,,,,,,,,,,,,,,,"MET11504/01/20 12:51:02 METAR KNYC 011751Z 03009G17KT 10SM SCT050 12/M03 A2978 RMK AO2 SLP077 T01171033 10117 20039 57018","FM-15","7",,,,,,,,,,,,,,,,,,,,,,,,,,,,
"72505394728","2020-04-01T13:51:00","FM-15","7",,,,,,,,,,,,,,,,,,,,,,,,,,,,,,,,,,,,,,"29.77","26","55","0.00",,,,"33","29.74","FEW:02 55","29.60","10.00","43","VRB",,"9",,,,,,,,,,,,,,,,,,,,,,,,,,,,,,,,,,,,,"MET09404/01/20 13:51:02 METAR KNYC 011851Z 03008KT 10SM FEW055 13/M03 A2977 RMK AO2 SLP072 T01281033","FM-15","7",,,,,,,,,,,,,,,,,,,,,,,,,,,,
"72505394728","2020-04-01T14:51:00","FM-15","7",,,,,,,,,,,,,,,,,,,,,,,,,,,,,,,,,,,,,,"29.75","25","55","0.00",,,,"31","29.72","CLR:00","29.58","10.00","42","VRB",,"7",,,,,,,,,,,,,,,,,,,,,,,,,,,,,,,,,,,,,"MET09104/01/20 14:51:02 METAR KNYC 011951Z VRB06KT 10SM CLR 13/M04 A2975 RMK AO2 SLP065 T01281039","FM-15","7",,,,,,,,,,,,,,,,,,,,,,,,,,,,
"72505394728","2020-04-01T15:51:00","FM-15","7",,,,,,,,,,,,,,,,,,,,,,,,,,,,,,,,,,,,,,"29.74","24","54","0.00",,"+0.04","6","31","29.72","CLR:00","29.57","10.00","42","VRB","18","8",,,,,,,,,,,,,,,,,,,,,,,,,,,,,,,,,,,,,"MET10004/01/20 15:51:02 METAR KNYC 012051Z 36007G16KT 10SM CLR 12/M04 A2974 RMK AO2 SLP063 T01221044 56014","FM-15","7",,,,,,,,,,,,,,,,,,,,,,,,,,,,
"72505394728","2020-04-01T16:51:00","FM-15","7",,,,,,,,,,,,,,,,,,,,,,,,,,,,,,,,,,,,,,"29.75","26","54","0.00",,,,"34","29.72","FEW:02 65","29.58","10.00","42",,,,,,,,,,,,,,,,,,,,,,,,,,,,,,,,,,,,,,,,"MET09404/01/20 16:51:02 METAR KNYC 012151Z      KT 10SM FEW065 12/M03 A2975 RMK AO2 SLP066 T01221033","FM-15","7",,,,,,,,,,,,,,,,,,,,,,,,,,,,
"72505394728","2020-04-01T17:51:00","FM-15","7",,,,,,,,,,,,,,,,,,,,,,,,,,,,,,,,,,,,,,"29.75","26","53","0.00",,,,"35","29.73","FEW:02 65","29.58","10.00","42","VRB",,"8",,,,,,,,,,,,,,,,,,,,,,,,,,,,,,,,,,,,,"MET09404/01/20 17:51:02 METAR KNYC 012251Z 01007KT 10SM FEW065 12/M03 A2975 RMK AO2 SLP067 T01171033","FM-15","7",,,,,,,,,,,,,,,,,,,,,,,,,,,,
"72505394728","2020-04-01T18:51:00","FM-15","7",,,,,,,,,,,,,,,,,,,,,,,,,,,,,,,,,,,,,,"29.76","25","51","0.00",,"-0.02","3","36","29.74","CLR:00","29.59","10.00","40","VRB",,"3",,,,,,,,,,,,,,,,,,,,,,,,,,,,,,,,,,,,,"MET10904/01/20 18:51:02 METAR KNYC 012351Z VRB03KT 10SM CLR 11/M04 A2976 RMK AO2 SLP070 T01061039 10133 20106 53007","FM-15","7",,,,,,,,,,,,,,,,,,,,,,,,,,,,
"72505394728","2020-04-01T19:51:00","FM-15","7",,,,,,,,,,,,,,,,,,,,,,,,,,,,,,,,,,,,,,"29.78","25","50","0.00",,,,"38","29.75","CLR:00","29.61","10.00","40","VRB",,"5",,,,,,,,,,,,,,,,,,,,,,,,,,,,,,,,,,,,,"MET09104/01/20 19:51:01 METAR KNYC 020051Z VRB04KT 10SM CLR 10/M04 A2978 RMK AO2 SLP075 T01001039","FM-15","7",,,,,,,,,,,,,,,,,,,,,,,,,,,,
"72505394728","2020-04-01T20:51:00","FM-15","7",,,,,,,,,,,,,,,,,,,,,,,,,,,,,,,,,,,,,,"29.78","26","49","0.00",,,,"41","29.75","CLR:00","29.61","10.00","40","VRB",,"5",,,,,,,,,,,,,,,,,,,,,,,,,,,,,,,,,,,,,"MET09104/01/20 20:51:01 METAR KNYC 020151Z VRB04KT 10SM CLR 09/M03 A2978 RMK AO2 SLP076 T00941033","FM-15","7",,,,,,,,,,,,,,,,,,,,,,,,,,,,
"72505394728","2020-04-01T21:51:00","FM-15","7",,,,,,,,,,,,,,,,,,,,,,,,,,,,,,,,,,,,,,"29.77","26","48","0.00",,"-0.01","0","42","29.75","CLR:00","29.60","10.00","39","000",,"0",,,,,,,,,,,,,,,,,,,,,,,,,,,,,,,,,,,,,"MET09704/01/20 21:51:01 METAR KNYC 020251Z 00000KT 10SM CLR 09/M03 A2977 RMK AO2 SLP074 T00891033 50004","FM-15","7",,,,,,,,,,,,,,,,,,,,,,,,,,,,
"72505394728","2020-04-01T22:51:00","FM-15","7",,,,,,,,,,,,,,,,,,,,,,,,,,,,,,,,,,,,,,"29.78","25","47","0.00",,,,"42","29.76","CLR:00","29.61","10.00","38","VRB",,"6",,,,,,,,,,,,,,,,,,,,,,,,,,,,,,,,,,,,,"MET09104/01/20 22:51:02 METAR KNYC 020351Z VRB05KT 10SM CLR 08/M04 A2978 RMK AO2 SLP077 T00831039","FM-15","7",,,,,,,,,,,,,,,,,,,,,,,,,,,,
"72505394728","2020-04-01T23:51:00","FM-15","7",,,,,,,,,,,,,,,,,,,,,,,,,,,,,,,,,,,,,,"29.78","25","45","0.00",,,,"46","29.76","CLR:00","29.61","10.00","37","VRB",,"6",,,,,,,,,,,,,,,,,,,,,,,,,,,,,,,,,,,,,"MET10104/01/20 23:51:02 METAR KNYC 020451Z VRB05KT 10SM CLR 07/M04 A2978 RMK AO2 SLP078 T00721039 401330033","FM-15","7",,,,,,,,,,,,,,,,,,,,,,,,,,,,
"72505394728","2020-04-01T23:59:00","SOD  ","6",,,,,,,,,,,,,,,,"47",,,"29.65",,"7.7","0","-0.8","18","56","38","040","23","0.00","0","0.0","050","17",,,,,,,,,,,,,,,,,,,,,,,,,,,,,,,,,,,,,,,,,,,,,,,,,,,,,,,,,"SOD73924 HR PRECIPITATION (IN): 0.00 SNOW DEPTH (IN):0     24 HR SNOWFALL (IN):0.0  24 HR MAX TEMP (F): 5624 HR MIN TEMP (F): 38AVERAGE STATION PRESSURE:29.655 MINIMUM SEA LEVEL PRESSURE:29.71 TIME OF OCCURRENCE:1628 PEAK WIND SPEED (MPH): 23 PEAK WIND DIR (DEG): 40 PEAK WIND TIME (LST):      FASTEST 2MIN SPEED (MPH): 17FASTEST 2MIN DIR (DEG): 50 FASTEST 2MIN TIME (LST):     AVERAGE WIND SPEED (MPH): 7.7 24 HR AVG TEMP (F): 47DEPART FROM NORMAL: -1  HEATING DEGREE DAYS: 18 COOLING DEGREE DAYS:  0 LATEST DAY MAX TEMP (0700-1900 LST):56  LATEST NIGHT MIN TEMP(1900-0800 LST):38 HOURLY INCREMENTAL PRECIPITATION VALUES (IN):.00 0.00 0.00 0.00 0.00 0.00 0.00 0.00 0.00 0.00 0.00 0.00 0.00 0.00 0.00 0.00 0.00 0.00 0.00 0.00 0.00 0.00 0.00 0.00","SOD  ","6",,,,,,,,,,,,,,,,,,,,,,,,,"0538","1821",,
"72505394728","2020-04-02T00:51:00","FM-15","7",,,,,,,,,,,,,,,,,,,,,,,,,,,,,,,,,,,,,,"29.79","25","44","0.00",,"-0.01","1","47","29.76","CLR:00","29.62","10.00","37","VRB",,"6",,,,,,,,,,,,,,,,,,,,,,,,,,,,,,,,,,,,,"MET11304/02/20 00:51:02 METAR KNYC 020551Z VRB05KT 10SM CLR 07/M04 A2979 RMK AO2 SLP079 T00671039 10106 20067 51005 RTX","FM-15","7",,,,,,,,,,,,,,,,,,,,,,,,,,,,
"72505394728","2020-04-02T01:51:00","FM-15","7",,,,,,,,,,,,,,,,,,,,,,,,,,,,,,,,,,,,,,"29.78","25","43","0.00",,,,"49","29.75","CLR:00","29.61","10.00","36","VRB",,"6",,,,,,,,,,,,,,,,,,,,,,,,,,,,,,,,,,,,,"MET09104/02/20 01:51:02 METAR KNYC 020651Z VRB05KT 10SM CLR 06/M04 A2978 RMK AO2 SLP076 T00611039","FM-15","7",,,,,,,,,,,,,,,,,,,,,,,,,,,,
"72505394728","2020-04-02T02:51:00","FM-15","7",,,,,,,,,,,,,,,,,,,,,,,,,,,,,,,,,,,,,,"29.77","25","42","0.00",,,,"51","29.75","CLR:00","29.60","10.00","35","300",,"6",,,,,,,,,,,,,,,,,,,,,,,,,,,,,,,,,,,,,"MET09104/02/20 02:51:02 METAR KNYC 020751Z 30005KT 10SM CLR 06/M04 A2977 RMK AO2 SLP073 T00561039","FM-15","7",,,,,,,,,,,,,,,,,,,,,,,,,,,,
"72505394728","2020-04-02T03:51:00","FM-15","7",,,,,,,,,,,,,,,,,,,,,,,,,,,,,,,,,,,,,,"29.77","25","40","0.00",,"+0.02","6","55","29.74","CLR:00","29.60","10.00","34","VRB",,"5",,,,,,,,,,,,,,,,,,,,,,,,,,,,,,,,,,,,,"MET10104/02/20 03:51:02 METAR KNYC 020851Z VRB04KT 10SM CLR 04/M04 A2977 RMK AO2 SLP072 T00441039 56007 RTX","FM-15","7",,,,,,,,,,,,,,,,,,,,,,,,,,,,
"72505394728","2020-04-02T04:51:00","FM-15","7",,,,,,,,,,,,,,,,,,,,,,,,,,,,,,,,,,,,,,"29.77","25","39","0.00",,,,"57","29.74","CLR:00","29.60","10.00","34","300","16","10",,,,,,,,,,,,,,,,,,,,,,,,,,,,,,,,,,,,,"MET09804/02/20 04:51:02 METAR KNYC 020951Z 30009G14KT 10SM CLR 04/M04 A2977 RMK AO2 SLP072 T00391039 RTX","FM-15","7",,,,,,,,,,,,,,,,,,,,,,,,,,,,
"72505394728","2020-04-02T05:51:00","FM-15","7",,,,,,,,,,,,,,,,,,,,,,,,,,,,,,,,,,,,,,"29.77","25","38","0.00",,,,"60","29.75","CLR:00","29.60","10.00","33","VRB","20","8",,,,,,,,,,,,,,,,,,,,,,,,,,,,,,,,,,,,,"MET09804/02/20 05:51:02 METAR KNYC 021051Z 31007G17KT 10SM CLR 03/M04 A2977 RMK AO2 SLP073 T00331039 RTX","FM-15","7",,,,,,,,,,,,,,,,,,,,,,,,,,,,
"72505394728","2020-04-02T06:51:00","FM-15","7",,,,,,,,,,,,,,,,,,,,,,,,,,,,,,,,,,,,,,"29.77","26","40","0.00",,"-0.01","3","58","29.75","CLR:00","29.60","10.00","35","VRB","16","8",,,,,,,,,,,,,,,,,,,,,,,,,,,,,,,,,,,,,"MET11204/02/20 06:51:02 METAR KNYC 021151Z 29007G14KT 10SM CLR 04/M03 A2977 RMK AO2 SLP074 T00441033 10067 20033 53002","FM-15","7",,,,,,,,,,,,,,,,,,,,,,,,,,,,
"72505394728","2020-04-02T07:51:00","FM-15","7",,,,,,,,,,,,,,,,,,,,,,,,,,,,,,,,,,,,,,"29.76","26","43","0.00",,,,"51","29.73","OVC:08 40","29.59","10.00","36","290","22","11",,,,,,,,,,,,,,,,,,,,,,,,,,,,,,,,,,,,,"MET09704/02/20 07:51:02 METAR KNYC 021251Z 29010G19KT 10SM OVC040 06/M03 A2976 RMK AO2 SLP068 T00611033","FM-15","7",,,,,,,,,,,,,,,,,,,,,,,,,,,,
"72505394728","2020-04-02T08:51:00","FM-15","7",,,,,,,,,,,,,,,,,,,,,,,,,,,,,,,,,,,,,,"29.75","27","45","0.00",,,,"49","29.73","OVC:08 40","29.58","10.00","38",,,,,,,,,,,,,,,,,,,,,,,,,,,,,,,,,,,,,,,,"MET09804/02/20 08:51:02 METAR KNYC 021351Z      KT 10SM OVC040 07/M03 A2975 RMK AO2 SLP067 T00721028 RTX","FM-15","7",,,,,,,,,,,,,,,,,,,,,,,,,,,,
"72505394728","2020-04-02T09:51:00","FM-15","7",,,,,,,,,,,,,,,,,,,,,,,,,,,,,,,,,,,,,,"29.73","27","48","0.00",,"+0.04","8","44","29.71","BKN:07 42","29.56","10.00","39","340",,"5",,,,,,,,,,,,,,,,,,,,,,,,,,,,,,,,,,,,,"MET10004/02/20 09:51:02 METAR KNYC 021451Z 34004KT 10SM BKN042 09/M03 A2973 RMK AO2 SLP060 T00891028 58014","FM-15","7",,,,,,,,,,,,,,,,,,,,,,,,,,,,
"72505394728","2020-04-02T10:51:00","FM-15","7",,,,,,,,,,,,,,,,,,,,,,,,,,,,,,,,,,,,,,"29.71","27","50","0.00",,,,"41","29.69","BKN:07 47","29.54","10.00","40","290","21","13",,,,,,,,,,,,,,,,,,,,,,,,,,,,,,,,,,,,,"MET09704/02/20 10:51:02 METAR KNYC 021551Z 29011G18KT 10SM BKN047 10/M03 A2971 RMK AO2 SLP053 T01001028","FM-15","7",,,,,,,,,,,,,,,,,,,,,,,,,,,,
"72505394728","2020-04-02T11:51:00","FM-15","7",,,,,,,,,,,,,,,,,,,,,,,,,,,,,,,,,,,,,,"29.69","27","53","0.00",,,,"37","29.66","SCT:04 55","29.52","10.00","42",,,,,,,,,,,,,,,,,,,,,,,,,,,,,,,,,,,,,,,,"MET10304/02/20 11:51:02 METAR KNYC 021651Z      KT 10SM SCT055 12/M03 A2969 RMK AO2 SLP044 T01171028 RTX FIBI","FM-15","7",,,,,,,,,,,,,,,,,,,,,,,,,,,,
"72505394728","2020-04-02T12:51:00","FM-15","7",,,,,,,,,,,,,,,,,,,,,,,,,,,,,,,,,,,,,,"29.66","27","55","0.00",,"+0.07","8","34","29.64","SCT:04 60","29.49","10.00","43","VRB","24","7",,,,,,,,,,,,,,,,,,,,,,,,,,,,,,,,,,,,,"MET11504/02/20 12:51:02 METAR KNYC 021751Z VRB06G21KT 10SM SCT060 13/M03 A2966 RMK AO2 SLP036 T01281028 10128 20044 58023","FM-15","7",,,,,,,,,,,,,,,,,,,,,,,,,,,,
"72505394728","2020-04-02T13:51:00","FM-15","7",,,,,,,,,,,,,,,,,,,,,,,,,,,,,,,,,,,,,,"29.64","27","55","0.00",,,,"34","29.62","BKN:07 65","29.47","10.00","43","VRB","23","8",,,,,,,,,,,,,,,,,,,,,,,,,,,,,,,,,,,,,"MET10104/02/20 13:51:02 METAR KNYC 021851Z 30007G20KT 10SM BKN065 13/M03 A2964 RMK AO2 SLP029 T01281028 RTX","FM-15","7",,,,,,,,,,,,,,,,,,,,,,,,,,,,
"72505394728","2020-04-02T14:51:00","FM-15","7",,,,,,,,,,,,,,,,,,,,,,,,,,,,,,,,,,,,,,"29.63","27","57","0.00",,,,"32","29.60","FEW:02 70","29.46","10.00","44","VRB","29","14",,,,,,,,,,,,,,,,,,,,,,,,,,,,,,,,,,,,,"MET11704/02/20 14:51:02 METAR KNYC 021951Z 29012G25KT 10SM FEW070 14/M03 A2963 RMK AO2 PK WND 29027/1858 SLP024 T01391028 $","FM-15","7",,,,,,,,,,,,,,,,,,,,,,,,,,,,
"72505394728","2020-04-02T15:51:00","FM-15","7",,,,,,,,,,,,,,,,,,,,,,,,,,,,,,,,,,,,,,"29.63","27","56","0.00",,"+0.03","5","33","29.61","OVC:08 95","29.46","10.00","44","VRB","25","9",,,,,,,,,,,,,,,,,,,,,,,,,,,,,,,,,,,,,"MET13204/02/20 15:51:02 METAR KNYC 022051Z 31008G22KT 10SM OVC095 13/M03 A2963 RMK AO2 PK WND 28031/2014 SLP026 T01331028 55010 $ RTX FIBI","FM-15","7",,,,,,,,,,,,,,,,,,,,,,,,,,,,
"72505394728","2020-04-02T16:51:00","FM-15","7",,,,,,,,,,,,,,,,,,,,,,,,,,,,,,,,,,,,,,"29.63","27","56","0.00",,,,"33","29.61","FEW:02 65 BKN:07 110","29.46","10.00","44","300","28","15",,,,,,,,,,,,,,,,,,,,,,,,,,,,,,,,,,,,,"MET12404/02/20 16:51:02 METAR KNYC 022151Z 30013G24KT 10SM FEW065 BKN110 13/M03 A2963 RMK AO2 PK WND 29026/2120 SLP027 T01331028 $","FM-15","7",,,,,,,,,,,,,,,,,,,,,,,,,,,,
"72505394728","2020-04-02T17:51:00","FM-15","7",,,,,,,,,,,,,,,,,,,,,,,,,,,,,,,,,,,,,,"29.65","27","55","0.00",,,,"34","29.62","SCT:04 80 BKN:07 95 OVC:08 120","29.48","10.00","43","VRB","31","15",,,,,,,,,,,,,,,,,,,,,,,,,,,,,,,,,,,,,"MET13504/02/20 17:51:02 METAR KNYC 022251Z 29013G27KT 10SM SCT080 BKN095 OVC120 13/M03 A2965 RMK AO2 PK WND 29027/2246 SLP031 T01281028 $ RTX","FM-15","7",,,,,,,,,,,,,,,,,,,,,,,,,,,,
"72505394728","2020-04-02T18:51:00","FM-15","7",,,,,,,,,,,,,,,,,,,,,,,,,,,,,,,,,,,,,,"29.66","28","53","0.00",,"-0.03","3","38","29.64","OVC:08 85","29.49","10.00","42","300","30","17",,,,,,,,,,,,,,,,,,,,,,,,,,,,,,,,,,,,,"MET13504/02/20 18:51:02 METAR KNYC 022351Z 30015G26KT 10SM OVC085 12/M02 A2966 RMK AO2 PK WND 30029/2252 SLP036 T01171022 10144 20117 53010 $","FM-15","7",,,,,,,,,,,,,,,,,,,,,,,,,,,,
"72505394728","2020-04-02T19:51:00","FM-15","7",,,,,,,,,,,,,,,,,,,,,,,,,,,,,,,,,,,,,,"29.68","28","52","0.00",,,,"40","29.66","SCT:04 90 BKN:07 110","29.51","10.00","42","VRB","26","11",,,,,,,,,,,,,,,,,,,,,,,,,,,,,,,,,,,,,"MET12404/02/20 19:51:01 METAR KNYC 030051Z 30010G23KT 10SM SCT090 BKN110 11/M02 A2968 RMK AO2 PK WND 31028/0029 SLP043 T01111022 $","FM-15","7",,,,,,,,,,,,,,,,,,,,,,,,,,,,
"72505394728","2020-04-02T20:51:00","FM-15","7",,,,,,,,,,,,,,,,,,,,,,,,,,,,,,,,,,,,,,"29.67","27","51","0.00",,,,"39","29.65","OVC:08 110","29.50","10.00","41","VRB","22","9",,,,,,,,,,,,,,,,,,,,,,,,,,,,,,,,,,,,,"MET11704/02/20 20:51:01 METAR KNYC 030151Z 31008G19KT 10SM OVC110 11/M03 A2967 RMK AO2 PK WND 28027/0100 SLP040 T01061028 $","FM-15","7",,,,,,,,,,,,,,,,,,,,,,,,,,,,
"72505394728","2020-04-02T21:51:00","FM-15","7",,,,,,,,,,,,,,,,,,,,,,,,,,,,,,,,,,,,,,"29.66","27","51","0.00",,,,"39","29.63",,,"10.00",,"300","22","9",,,,,,,,,,,,,,,,,,,,,,,,,,,,,,,,,,,,,"MET05104/02/20 21:51:01 METAR KNYC 030251Z 30008G19KT RMK","FM-15","7",,,,,,,,,,,,,,,,,,,,,,,,,,,,
"72505394728","2020-04-02T22:51:00","FM-15","7",,,,,,,,,,,,,,,,,,,,,,,,,,,,,,,,,,,,,,"29.65","28","50","0.00",,,,"43","29.63","OVC:08 90","29.48","10.00","41","VRB","17","7",,,,,,,,,,,,,,,,,,,,,,,,,,,,,,,,,,,,,"MET09904/02/20 22:51:02 METAR KNYC 030351Z VRB06G15KT 10SM OVC090 10/M02 A2965 RMK AO2 SLP033 T01001022 $","FM-15","7",,,,,,,,,,,,,,,,,,,,,,,,,,,,
"72505394728","2020-04-02T23:51:00","FM-15","7",,,,,,,,,,,,,,,,,,,,,,,,,,,,,,,,,,,,,,"29.63","29","50","0.00",,,,"44","29.61","BKN:07 80 OVC:08 110","29.46","10.00","41","VRB","17","8",,,,,,,,,,,,,,,,,,,,,,,,,,,,,,,,,,,,,"MET11604/02/20 23:51:02 METAR KNYC 030451Z 32007G15KT 10SM BKN080 OVC110 10/M02 A2963 RMK AO2 SLP027 T01001017 401440033 $","FM-15","7",,,,,,,,,,,,,,,,,,,,,,,,,,,,
"72505394728","2020-04-02T23:59:00","SOD  ","6",,,,,,,,,,,,,,,,"48",,,"29.54",,"9.4","0","-0.2","17","58","38","280","35","0.00","0","0.0","300","21",,,,,,,,,,,,,,,,,,,,,,,,,,,,,,,,,,,,,,,,,,,,,,,,,,,,,,,,,"SOD74324 HR PRECIPITATION (IN): 0.00 SNOW DEPTH (IN):0     24 HR SNOWFALL (IN):0.0  24 HR MAX TEMP (F): 5824 HR MIN TEMP (F): 38AVERAGE STATION PRESSURE(D):29.535 MINIMUM SEA LEVEL PRESSURE:29.60 TIME OF OCCURRENCE:1629 PEAK WIND SPEED (MPH): 35 PEAK WIND DIR (DEG):280 PEAK WIND TIME (LST):      FASTEST 2MIN SPEED (MPH): 21FASTEST 2MIN DIR (DEG):300 FASTEST 2MIN TIME (LST):     AVERAGE WIND SPEED (MPH): 9.4 24 HR AVG TEMP (F): 48DEPART FROM NORMAL:  0  HEATING DEGREE DAYS: 17 COOLING DEGREE DAYS:  0 LATEST DAY MAX TEMP (0700-1900 LST): 58 LATEST NIGHT MIN TEMP(1900-0800 LST):38 HOURLY INCREMENTAL PRECIPITATION VALUES (IN):0.00 0.00 0.00 0.00 0.00 0.00 0.00 0.00 0.00 0.00 0.00 0.00 0.00 0.00 0.00 0.00 0.00 0.00 0.00 0.00 0.00 0.00 0.00 0.00","SOD  ","6",,,,,,,,,,,,,,,,,,,,,,,,,"0537","1823",,
"72505394728","2020-04-03T00:51:00","FM-15","7",,,,,,,,,,,,,,,,,,,,,,,,,,,,,,,,,,,,,,"29.62","31","49","T","-RA:02 |RA |RA","+0.03","8","50","29.60","BKN:07 46 OVC:08 70","29.45","10.00","41",,,,,,,,,,,,,,,,,,,,,,,,,,,,,,,,,,,,,,,,"MET14704/03/20 00:51:02 METAR KNYC 030551Z      KT 10SM -RA BKN046 OVC070 09/M01 A2962 RMK AO2 RAB35 SLP023 P0000 60000 T00941006 10117 20094 58011 $ RTX","FM-15","7",,,,,,,,,,,,,,,,,,,,,,,,,,,,
"72505394728","2020-04-03T01:51:00","FM-15","7",,,,,,,,,,,,,,,,,,,,,,,,,,,,,,,,,,,,,,"29.62","34","46","0.01","-RA:02 |RA |RA",,,"63","29.59","OVC:08 41","29.45","9.00","41","VRB","18","7",,,,,,,,,,,,,,,,,,,,,,,,,,,,,,,,,,,,,"MET10704/03/20 01:51:02 METAR KNYC 030651Z VRB06G16KT 9SM -RA OVC041 08/01 A2962 RMK AO2 SLP021 P0000 T00780011 $","FM-15","7",,,,,,,,,,,,,,,,,,,,,,,,,,,,
"72505394728","2020-04-03T02:51:00","FM-15","7",,,,,,,,,,,,,,,,,,,,,,,,,,,,,,,,,,,,,,"29.60","31","49","T",,,,"50","29.58","FEW:02 47 OVC:08 70","29.43","10.00","41","VRB","16","8",,,,,,,,,,,,,,,,,,,,,,,,,,,,,,,,,,,,,"MET11804/03/20 02:51:02 METAR KNYC 030751Z 36007G14KT 10SM FEW047 OVC070 09/M01 A2960 RMK AO2 RAE16 SLP016 P0001 T00941006 $","FM-15","7",,,,,,,,,,,,,,,,,,,,,,,,,,,,
"72505394728","2020-04-03T03:51:00","FM-15","7",,,,,,,,,,,,,,,,,,,,,,,,,,,,,,,,,,,,,,"29.61","33","47","T",,"+0.01","5","59","29.59","BKN:07 42 OVC:08 49","29.44","10.00","41","VRB",,"9",,,,,,,,,,,,,,,,,,,,,,,,,,,,,,,,,,,,,"MET12904/03/20 03:51:02 METAR KNYC 030851Z 29008KT 10SM BKN042 OVC049 08/01 A2961 RMK AO2 RAB02E42 SLP019 P0000 60001 T00830006 55004 $","FM-15","7",,,,,,,,,,,,,,,,,,,,,,,,,,,,
"72505394728","2020-04-03T04:51:00","FM-15","7",,,,,,,,,,,,,,,,,,,,,,,,,,,,,,,,,,,,,,"29.62","34","47","T","-RA:02 |RA |RA",,,"61","29.60","BKN:07 38 OVC:08 45","29.45","10.00","41","290","16","9",,,,,,,,,,,,,,,,,,,,,,,,,,,,,,,,,,,,,"MET12304/03/20 04:51:02 METAR KNYC 030951Z 29008G14KT 10SM -RA BKN038 OVC045 08/01 A2962 RMK AO2 RAB0852 SLP023 P0000 T00830011 $","FM-15","7",,,,,,,,,,,,,,,,,,,,,,,,,,,,
"72505394728","2020-04-03T05:51:00","FM-15","7",,,,,,,,,,,,,,,,,,,,,,,,,,,,,,,,,,,,,,"29.65","35","46","T","-RA:02 |RA |RA",,,"66","29.62","BKN:07 34 OVC:08 43","29.48","10.00","41",,,,,,,,,,,,,,,,,,,,,,,,,,,,,,,,,,,,,,,,"MET11204/03/20 05:51:02 METAR KNYC 031051Z      KT 10SM -RA BKN034 OVC043 08/02 A2965 RMK AO2 SLP031 P0000 T00780017 $","FM-15","7",,,,,,,,,,,,,,,,,,,,,,,,,,,,
"72505394728","2020-04-03T06:51:00","FM-15","7",,,,,,,,,,,,,,,,,,,,,,,,,,,,,,,,,,,,,,"29.66","36","45","T","-RA:02 |RA |RA","-0.05","1","71","29.63","OVC:08 55","29.49","10.00","41","VRB",,"6",,,,,,,,,,,,,,,,,,,,,,,,,,,,,,,,,,,,,"MET14404/03/20 06:51:02 METAR KNYC 031151Z VRB05KT 10SM -RA OVC055 07/02 A2966 RMK AO2 SLP035 P0000 60001 70001 T00720022 10094 20072 51016 $ RTX FIBI","FM-15","7",,,,,,,,,,,,,,,,,,,,,,,,,,,,
"72505394728","2020-04-03T07:51:00","FM-15","7",,,,,,,,,,,,,,,,,,,,,,,,,,,,,,,,,,,,,,"29.66","35","47","0.01",,,,"63","29.64","FEW:02 30 BKN:07 48 OVC:08 60","29.49","10.00","42","VRB","22","7",,,,,,,,,,,,,,,,,,,,,,,,,,,,,,,,,,,,,"MET12404/03/20 07:51:02 METAR KNYC 031251Z VRB06G19KT 10SM FEW030 BKN048 OVC060 08/02 A2966 RMK AO2 RAE21 SLP037 P0001 T00830017 $","FM-15","7",,,,,,,,,,,,,,,,,,,,,,,,,,,,
"72505394728","2020-04-03T08:51:00","FM-15","7",,,,,,,,,,,,,,,,,,,,,,,,,,,,,,,,,,,,,,"29.67","36","49","T",,,,"61","29.65","BKN:07 49 OVC:08 55","29.50","10.00","43","VRB","24","9",,,,,,,,,,,,,,,,,,,,,,,,,,,,,,,,,,,,,"MET12004/03/20 08:51:02 METAR KNYC 031351Z 34008G21KT 10SM BKN049 OVC055 09/02 A2967 RMK AO2 RAB14E29 SLP041 P0000 T00940022 $","FM-15","7",,,,,,,,,,,,,,,,,,,,,,,,,,,,
"72505394728","2020-04-03T09:51:00","FM-15","7",,,,,,,,,,,,,,,,,,,,,,,,,,,,,,,,,,,,,,"29.69","36","49","0.00",,"-0.03","3","61","29.66","FEW:02 30 OVC:08 48","29.52","10.00","43","VRB","20","9",,,,,,,,,,,,,,,,,,,,,,,,,,,,,,,,,,,,,"MET11704/03/20 09:51:02 METAR KNYC 031451Z 35008G17KT 10SM FEW030 OVC048 09/02 A2969 RMK AO2 SLP045 60001 T00940022 53010 $","FM-15","7",,,,,,,,,,,,,,,,,,,,,,,,,,,,
"72505394728","2020-04-03T10:51:00","FM-15","7",,,,,,,,,,,,,,,,,,,,,,,,,,,,,,,,,,,,,,"29.69","41","48","0.01","-RA:02 |RA |RA",,,"77","29.67","OVC:08 48","29.52","7.00","45","350","21","11",,,,,,,,,,,,,,,,,,,,,,,,,,,,,,,,,,,,,"MET11304/03/20 10:51:02 METAR KNYC 031551Z 35010G18KT 7SM -RA OVC048 09/05 A2969 RMK AO2 RAB15 SLP046 P0001 T00890050 $","FM-15","7",,,,,,,,,,,,,,,,,,,,,,,,,,,,
"72505394728","2020-04-03T11:51:00","FM-15","7",,,,,,,,,,,,,,,,,,,,,,,,,,,,,,,,,,,,,,"29.69","43","50","0.01","-RA:02 |RA |RA",,,"77","29.67","OVC:08 50","29.52","9.00","47","VRB",,"6",,,,,,,,,,,,,,,,,,,,,,,,,,,,,,,,,,,,,"MET10404/03/20 11:51:02 METAR KNYC 031651Z VRB05KT 9SM -RA OVC050 10/06 A2969 RMK AO2 SLP047 P0001 T01000061 $","FM-15","7",,,,,,,,,,,,,,,,,,,,,,,,,,,,
"72505394728","2020-04-03T12:51:00","FM-15","7",,,,,,,,,,,,,,,,,,,,,,,,,,,,,,,,,,,,,,"29.70","43","50","0.02","-RA:02 |RA |RA","-0.01","3","77","29.68","OVC:08 55","29.53","6.00","47","VRB","20","10",,,,,,,,,,,,,,,,,,,,,,,,,,,,,,,,,,,,,"MET13104/03/20 12:51:02 METAR KNYC 031751Z 36009G17KT 6SM -RA OVC055 10/06 A2970 RMK AO2 SLP050 P0002 60005 T01000061 10106 20072 53005 $","FM-15","7",,,,,,,,,,,,,,,,,,,,,,,,,,,,
"72505394728","2020-04-03T13:51:00","FM-15","7",,,,,,,,,,,,,,,,,,,,,,,,,,,,,,,,,,,,,,"29.70","43","51","0.01","-RA:02 |RA |RA",,,"74","29.68","BKN:07 32 BKN:07 39 OVC:08 55","29.53","10.00","47","VRB","20","9",,,,,,,,,,,,,,,,,,,,,,,,,,,,,,,,,,,,,"MET12204/03/20 13:51:02 METAR KNYC 031851Z 35008G17KT 10SM -RA BKN032 BKN039 OVC055 11/06 A2970 RMK AO2 SLP051 P0001 T01060061 $","FM-15","7",,,,,,,,,,,,,,,,,,,,,,,,,,,,
"72505394728","2020-04-03T14:51:00","FM-15","7",,,,,,,,,,,,,,,,,,,,,,,,,,,,,,,,,,,,,,"29.72","43","50","0.03","-RA:02 |RA |RA",,,"77","29.70","OVC:08 33","29.55","7.00","47","VRB",,"8",,,,,,,,,,,,,,,,,,,,,,,,,,,,,,,,,,,,,"MET10404/03/20 14:51:02 METAR KNYC 031951Z 34007KT 7SM -RA OVC033 10/06 A2972 RMK AO2 SLP057 P0002 T01000061 $","FM-15","7",,,,,,,,,,,,,,,,,,,,,,,,,,,,
"72505394728","2020-04-03T15:51:00","FM-15","7",,,,,,,,,,,,,,,,,,,,,,,,,,,,,,,,,,,,,,"29.74","44","50","0.03","-RA:02 |RA |RA","-0.04","3","80","29.72","OVC:08 31","29.57","10.00","47","360","20","14",,,,,,,,,,,,,,,,,,,,,,,,,,,,,,,,,,,,,"MET12004/03/20 15:51:02 METAR KNYC 032051Z 36012G17KT 10SM -RA OVC031 10/07 A2974 RMK AO2 SLP063 P0004 60007 T01000067 53013 $","FM-15","7",,,,,,,,,,,,,,,,,,,,,,,,,,,,
"72505394728","2020-04-03T16:51:00","FM-15","7",,,,,,,,,,,,,,,,,,,,,,,,,,,,,,,,,,,,,,"29.77","43","52","T",,,,"72","29.75","OVC:08 30","29.60","10.00","48","000",,"0",,,,,,,,,,,,,,,,,,,,,,,,,,,,,,,,,,,,,"MET10704/03/20 16:51:02 METAR KNYC 032151Z 00000KT 10SM OVC030 11/06 A2977 RMK AO2 RAE33 SLP074 P0000 T01110061 $","FM-15","7",,,,,,,,,,,,,,,,,,,,,,,,,,,,
"72505394728","2020-04-03T17:44:00","FM-16","7",,,,,,,,,,,,,,,,,,,,,,,,,,,,,,,,,,,,,,"29.80","43","52",,,,,"72",,"BKN:07 26 OVC:08 32","29.63","10.00","48","360","23","13",,,,,,,,,,,,,,,,,,,,,,,,,,,,,,,,,,,,,"MET09804/03/20 17:44:02 SPECI KNYC 032244Z 36011G20KT 10SM BKN026 OVC032 11/06 A2980 RMK AO2 T01110061 $","FM-16","7",,,,,,,,,,,,,,,,,,,,,,,,,,,,
"72505394728","2020-04-03T17:51:00","FM-15","7",,,,,,,,,,,,,,,,,,,,,,,,,,,,,,,,,,,,,,"29.80","43","52","0.00",,,,"72","29.78","BKN:07 26 OVC:08 34","29.63","10.00","48","350","23","10",,,,,,,,,,,,,,,,,,,,,,,,,,,,,,,,,,,,,"MET10504/03/20 17:51:02 METAR KNYC 032251Z 35009G20KT 10SM BKN026 OVC034 11/06 A2980 RMK AO2 SLP084 T01110061 $","FM-15","7",,,,,,,,,,,,,,,,,,,,,,,,,,,,
"72505394728","2020-04-03T18:35:00","FM-16","7",,,,,,,,,,,,,,,,,,,,,,,,,,,,,,,,,,,,,,"29.82","43","52",,,,,"72",,"SCT:04 28 BKN:07 35 OVC:08 45","29.65","10.00","48","VRB",,"6",,,,,,,,,,,,,,,,,,,,,,,,,,,,,,,,,,,,,"MET10604/03/20 18:35:02 SPECI KNYC 032335Z VRB05KT 10SM SCT028 BKN035 OVC045 11/06 A2982 RMK AO2 T01110061 $ RTX","FM-16","7",,,,,,,,,,,,,,,,,,,,,,,,,,,,
"72505394728","2020-04-03T18:51:00","FM-15","7",,,,,,,,,,,,,,,,,,,,,,,,,,,,,,,,,,,,,,"29.83","43","52","0.00",,"-0.09","1","72","29.80","BKN:07 28 BKN:07 37 OVC:08 49","29.66","10.00","48","VRB",,"5",,,,,,,,,,,,,,,,,,,,,,,,,,,,,,,,,,,,,"MET13304/03/20 18:51:02 METAR KNYC 032351Z VRB04KT 10SM BKN028 BKN037 OVC049 11/06 A2983 RMK AO2 SLP093 60007 T01110061 10111 20100 51030 $","FM-15","7",,,,,,,,,,,,,,,,,,,,,,,,,,,,
"72505394728","2020-04-03T19:09:00","FM-16","7",,,,,,,,,,,,,,,,,,,,,,,,,,,,,,,,,,,,,,"29.84","42","52",,,,,"69",,"SCT:04 28 OVC:08 42","29.67","10.00","47","020","18","8",,,,,,,,,,,,,,,,,,,,,,,,,,,,,,,,,,,,,"MET09804/03/20 19:09:01 SPECI KNYC 040009Z 02007G16KT 10SM SCT028 OVC042 11/06 A2984 RMK AO2 T01110056 $","FM-16","7",,,,,,,,,,,,,,,,,,,,,,,,,,,,
"72505394728","2020-04-03T19:51:00","FM-15","7",,,,,,,,,,,,,,,,,,,,,,,,,,,,,,,,,,,,,,"29.85","42","52","0.00",,,,"69","29.83","FEW:02 26 BKN:07 37 OVC:08 70","29.68","10.00","47","VRB","21","10",,,,,,,,,,,,,,,,,,,,,,,,,,,,,,,,,,,,,"MET11204/03/20 19:51:01 METAR KNYC 040051Z 02009G18KT 10SM FEW026 BKN037 OVC070 11/06 A2985 RMK AO2 SLP100 T01110056 $","FM-15","7",,,,,,,,,,,,,,,,,,,,,,,,,,,,
"72505394728","2020-04-03T20:51:00","FM-15","7",,,,,,,,,,,,,,,,,,,,,,,,,,,,,,,,,,,,,,"29.87","42","51","0.00",,,,"71","29.84","OVC:08 75","29.70","10.00","47","020","24","8",,,,,,,,,,,,,,,,,,,,,,,,,,,,,,,,,,,,,"MET09804/03/20 20:51:01 METAR KNYC 040151Z 02007G21KT 10SM OVC075 11/06 A2987 RMK AO2 SLP106 T01060056 $","FM-15","7",,,,,,,,,,,,,,,,,,,,,,,,,,,,
"72505394728","2020-04-03T21:51:00","FM-15","7",,,,,,,,,,,,,,,,,,,,,,,,,,,,,,,,,,,,,,"29.88","42","51","0.00",,"-0.05","1","71","29.85","FEW:02 30 OVC:08 36","29.71","10.00","47","VRB","23","14",,,,,,,,,,,,,,,,,,,,,,,,,,,,,,,,,,,,,"MET11104/03/20 21:51:01 METAR KNYC 040251Z 02012G20KT 10SM FEW030 OVC036 11/06 A2988 RMK AO2 SLP109 T01060056 51016 $","FM-15","7",,,,,,,,,,,,,,,,,,,,,,,,,,,,
"72505394728","2020-04-03T22:49:00","FM-16","6",,,,,,,,,,,,,,,,,,,,,,,,,,,,,,,,,,,,,,"29.88","41","52",,,,,"67",,"BKN:07 29 OVC:08 37","29.71","10.00","47","360","20","10",,,,,,,,,,,,,,,,,,,,,,,,,,,,,,,,,,,,,"MET09304/03/20 22:49:03 SPECI KNYC 040349Z 36009G17KT 10SM BKN029 OVC037 11/05 A2988 RMK AO2 $ FIBI","FM-16","6",,,,,,,,,,,,,,,,,,,,,,,,,,,,
"72505394728","2020-04-03T22:51:00","FM-15","7",,,,,,,,,,,,,,,,,,,,,,,,,,,,,,,,,,,,,,"29.88","42","51","0.00",,,,"71","29.86",,,"10.00",,"VRB","20","10",,,,,,,,,,,,,,,,,,,,,,,,,,,,,,,,,,,,,"MET04804/03/20 22:51:02 METAR KNYC 040351Z      KT RMK","FM-15","7",,,,,,,,,,,,,,,,,,,,,,,,,,,,
"72505394728","2020-04-03T22:58:00","FM-16","7",,,,,,,,,,,,,,,,,,,,,,,,,,,,,,,,,,,,,,"29.89","42","50",,,,,"74",,"SCT:04 25 OVC:08 35","29.72","10.00","46","VRB",,"8",,,,,,,,,,,,,,,,,,,,,,,,,,,,,,,,,,,,,"MET09504/03/20 22:58:02 SPECI KNYC 040358Z 04007KT 10SM SCT025 OVC035 10/06 A2989 RMK AO2 T01000056 $","FM-16","7",,,,,,,,,,,,,,,,,,,,,,,,,,,,
"72505394728","2020-04-03T23:51:00","FM-15","7",,,,,,,,,,,,,,,,,,,,,,,,,,,,,,,,,,,,,,"29.89","41","51","0.00",,,,"69","29.87","OVC:08 30","29.72","10.00","46","020","16","10",,,,,,,,,,,,,,,,,,,,,,,,,,,,,,,,,,,,,"MET10804/03/20 23:51:02 METAR KNYC 040451Z 02009G14KT 10SM OVC030 11/05 A2989 RMK AO2 SLP114 T01060050 401110072 $","FM-15","7",,,,,,,,,,,,,,,,,,,,,,,,,,,,
"72505394728","2020-04-03T23:59:00","SOD  ","6",,,,,,,,,,,,,,,,"49",,,"29.57",,"8.7","0","0.4","16","52","45","020","25","0.13","0","0.0","010","17","RA",,,,,,,,,,,,,,,,,,,,,,,,,,,,,,,,,,,,,,,,,,,,,,,,,,,,,,,,"SOD77024 HR PRECIPITATION (IN): 0.13 SNOW DEPTH (IN):0     24 HR SNOWFALL (IN):0.0  24 HR MAX TEMP (F): 5224 HR MIN TEMP (F): 45AVERAGE STATION PRESSURE(D):29.573 MINIMUM SEA LEVEL PRESSURE:29.58 TIME OF OCCURRENCE:0345 PEAK WIND SPEED (MPH): 25 PEAK WIND DIR (DEG): 20 PEAK WIND TIME (LST):      FASTEST 2MIN SPEED (MPH): 17FASTEST 2MIN DIR (DEG): 10 FASTEST 2MIN TIME (LST):     AVERAGE WIND SPEED (MPH): 8.7 24 HR AVG TEMP (F): 49DEPART FROM NORMAL:  0  SKY COVER SR-SS (TENTHS): 1HEATING DEGREE DAYS: 16 COOLING DEGREE DAYS:  0 LATEST DAY MAX TEMP (0700-1900 LST): 52 LATEST NIGHT MIN TEMP(1900-0800 LST):45 HOURLY INCREMENTAL PRECIPITATION VALUES (IN):     0.01T    T    T    T    T     0.01T     0.00 0.01 0.01 0.02 0.01 0.03 0.03T     0.00 0.00 0.00 0.00 0.00 0.00 0.00","SOD  ","6",,,,,,,,,,,,,,,,,,,,,,,,,"0535","1824",,
"72505394728","2020-04-04T00:51:00","FM-15","7",,,,,,,,,,,,,,,,,,,,,,,,,,,,,,,,,,,,,,"29.89","40","50","0.00",,"-0.01","2","68","29.87","OVC:08 32","29.72","10.00","45","030","18","11",,,,,,,,,,,,,,,,,,,,,,,,,,,,,,,,,,,,,"MET12204/04/20 00:51:02 METAR KNYC 040551Z 03010G16KT 10SM OVC032 10/04 A2989 RMK AO2 SLP114 T01000044 10111 20100 52003 $ (DRJ)","FM-15","7",,,,,,,,,,,,,,,,,,,,,,,,,,,,
"72505394728","2020-04-04T01:49:00","FM-16","6",,,,,,,,,,,,,,,,,,,,,,,,,,,,,,,,,,,,,,"29.90","39","50",,,,,"67",,"BKN:07 27 OVC:08 33","29.73","10.00","45","VRB",,"8",,,,,,,,,,,,,,,,,,,,,,,,,,,,,,,,,,,,,"MET09604/04/20 01:49:02 SPECI KNYC 040649Z 04007KT 10SM BKN027 OVC033 10/04 A2990 RMK AO2 $ FIBI (DRJ)","FM-16","6",,,,,,,,,,,,,,,,,,,,,,,,,,,,
"72505394728","2020-04-04T01:51:00","FM-15","7",,,,,,,,,,,,,,,,,,,,,,,,,,,,,,,,,,,,,,"29.90","40","50","0.00",,,,"68","29.87","BKN:07 27 OVC:08 33","29.73","10.00","45","040",,"7",,,,,,,,,,,,,,,,,,,,,,,,,,,,,,,,,,,,,"MET11204/04/20 01:51:02 METAR KNYC 040651Z 04006KT 10SM BKN027 OVC033 10/04 A2990 RMK AO2 SLP116 T01000044 $ RTX (DRJ)","FM-15","7",,,,,,,,,,,,,,,,,,,,,,,,,,,,
"72505394728","2020-04-04T02:51:00","FM-15","7",,,,,,,,,,,,,,,,,,,,,,,,,,,,,,,,,,,,,,"29.90","41","50","0.00",,,,"71","29.88","OVC:08 26","29.73","10.00","46","VRB",,"7",,,,,,,,,,,,,,,,,,,,,,,,,,,,,,,,,,,,,"MET10104/04/20 02:51:02 METAR KNYC 040751Z VRB06KT 10SM OVC026 10/05 A2990 RMK AO2 SLP118 T01000050 $ (DRJ)","FM-15","7",,,,,,,,,,,,,,,,,,,,,,,,,,,,
"72505394728","2020-04-04T03:51:00","FM-15","7",,,,,,,,,,,,,,,,,,,,,,,,,,,,,,,,,,,,,,"29.92","41","49","0.00",,"-0.03","3","74","29.90","OVC:08 24","29.75","10.00","45","VRB","20","7",,,,,,,,,,,,,,,,,,,,,,,,,,,,,,,,,,,,,"MET11004/04/20 03:51:02 METAR KNYC 040851Z VRB06G17KT 10SM OVC024 09/05 A2992 RMK AO2 SLP125 T00940050 53010 $ (DRJ)","FM-15","7",,,,,,,,,,,,,,,,,,,,,,,,,,,,
"72505394728","2020-04-04T04:51:00","FM-15","7",,,,,,,,,,,,,,,,,,,,,,,,,,,,,,,,,,,,,,"29.94","43","47","T","-RA:02 BR:1 |RA |RA",,,"86","29.92","BKN:07 17 BKN:07 23 OVC:08 32","29.77","4.00","45","VRB",,"3",,,,,,,,,,,,,,,,,,,,,,,,,,,,,,,,,,,,,"MET13304/04/20 04:51:02 METAR KNYC 040951Z VRB03KT 4SM -RA BR BKN017 BKN023 OVC032 08/06 A2994 RMK AO2 RAB29 SLP132 P0000 T00830061 $ (DRJ)","FM-15","7",,,,,,,,,,,,,,,,,,,,,,,,,,,,
"72505394728","2020-04-04T05:20:00","FM-16","7",,,,,,,,,,,,,,,,,,,,,,,,,,,,,,,,,,,,,,"29.96","44","47","0.01","-RA:02 BR:1 |RA |RA",,,"90",,"FEW:02 9 BKN:07 14 OVC:08 25","29.79","3.00","46","360",,"7",,,,,,,,,,,,,,,,,,,,,,,,,,,,,,,,,,,,,"MET12404/04/20 05:20:02 SPECI KNYC 041020Z 36006KT 3SM -RA BR FEW009 BKN014 OVC025 08/07 A2996 RMK AO2 P0001 T00830067 $ RTX (DRJ)","FM-16","7",,,,,,,,,,,,,,,,,,,,,,,,,,,,
"72505394728","2020-04-04T05:34:00","FM-16","7",,,,,,,,,,,,,,,,,,,,,,,,,,,,,,,,,,,,,,"29.96","43","46","0.01","-RA:02 BR:1 |RA |RA",,,"89",,"FEW:02 9 BKN:07 15 OVC:08 22","29.79","5.00","45","010",,"6",,,,,,,,,,,,,,,,,,,,,,,,,,,,,,,,,,,,,"MET12004/04/20 05:34:02 SPECI KNYC 041034Z 01005KT 5SM -RA BR FEW009 BKN015 OVC022 08/06 A2996 RMK AO2 P0001 T00780061 $ (DRJ)","FM-16","7",,,,,,,,,,,,,,,,,,,,,,,,,,,,
"72505394728","2020-04-04T05:51:00","FM-15","7",,,,,,,,,,,,,,,,,,,,,,,,,,,,,,,,,,,,,,"29.97","43","46","0.01",,,,"89","29.95","FEW:02 12 BKN:07 20 OVC:08 29","29.80","10.00","45","040",,"10",,,,,,,,,,,,,,,,,,,,,,,,,,,,,,,,,,,,,"MET13104/04/20 05:51:02 METAR KNYC 041051Z 04009KT 10SM FEW012 BKN020 OVC029 08/06 A2997 RMK AO2 RAE50 SLP141 P0001 T00780061 $ RTX (DRJ)","FM-15","7",,,,,,,,,,,,,,,,,,,,,,,,,,,,
"72505394728","2020-04-04T06:36:00","FM-16","7",,,,,,,,,,,,,,,,,,,,,,,,,,,,,,,,,,,,,,"29.99","43","46","T","BR:1 ||",,,"89",,"FEW:02 9 BKN:07 14 OVC:08 23","29.82","6.00","45","040",,"7",,,,,,,,,,,,,,,,,,,,,,,,,,,,,,,,,,,,,"MET13404/04/20 06:36:02 SPECI KNYC 041136Z 04006KT 6SM BR FEW009 BKN014 OVC023 08/06 A2999 RMK AO2 RAB25E35 P0000 T00780061 $ RTX FIBI (DRJ)","FM-16","7",,,,,,,,,,,,,,,,,,,,,,,,,,,,
"72505394728","2020-04-04T06:48:00","FM-16","7",,,,,,,,,,,,,,,,,,,,,,,,,,,,,,,,,,,,,,"30.00","43","46","T","-RA:02 BR:1 |RA |RA",,,"87",,"BKN:07 9 OVC:08 14","29.83","2.50","45","040",,"8",,,,,,,,,,,,,,,,,,,,,,,,,,,,,,,,,,,,,"MET12804/04/20 06:48:02 SPECI KNYC 041148Z 04007KT 2 1/2SM -RA BR BKN009 OVC014 08/06 A3000 RMK AO2 RAB25E35B48 P0000 $ RTX FIBI (DRJ)","FM-16","7",,,,,,,,,,,,,,,,,,,,,,,,,,,,
"72505394728","2020-04-04T06:51:00","FM-15","7",,,,,,,,,,,,,,,,,,,,,,,,,,,,,,,,,,,,,,"30.00","43","46","T","-RA:02 BR:1 |RA |RA","-0.07","3","89","29.97","SCT:04 9 OVC:08 12","29.83","2.00","45","VRB",,"6",,,,,,,,,,,,,,,,,,,,,,,,,,,,,,,,,,,,,"MET16204/04/20 06:51:02 METAR KNYC 041151Z VRB05KT 2SM -RA BR SCT009 OVC012 08/06 A3000 RMK AO2 RAB25E35B48 SLP150 P0000 60001 70013 T00780061 10100 20078 53025 $ (DRJ)","FM-15","7",,,,,,,,,,,,,,,,,,,,,,,,,,,,
"72505394728","2020-04-04T06:58:00","FM-16","7",,,,,,,,,,,,,,,,,,,,,,,,,,,,,,,,,,,,,,"30.00","43","46","T","-RA:02 BR:1 |RA |RA",,,"89",,"SCT:04 9 BKN:07 15 OVC:08 22","29.83","2.50","45","030",,"8",,,,,,,,,,,,,,,,,,,,,,,,,,,,,,,,,,,,,"MET12404/04/20 06:58:02 SPECI KNYC 041158Z 03007KT 2 1/2SM -RA BR SCT009 BKN015 OVC022 08/06 A3000 RMK AO2 P0000 T00780061 $ (DRJ)","FM-16","7",,,,,,,,,,,,,,,,,,,,,,,,,,,,
"72505394728","2020-04-04T07:01:00","FM-16","7",,,,,,,,,,,,,,,,,,,,,,,,,,,,,,,,,,,,,,"30.00","43","46","T","-RA:02 BR:1 |RA |RA",,,"89",,"BKN:07 9 BKN:07 15 OVC:08 22","29.83","4.00","45","040","20","11",,,,,,,,,,,,,,,,,,,,,,,,,,,,,,,,,,,,,"MET12704/04/20 07:01:02 SPECI KNYC 041201Z 04010G17KT 4SM -RA BR BKN009 BKN015 OVC022 08/06 A3000 RMK AO2 P0000 T00780061 $ RTX (DRJ)","FM-16","7",,,,,,,,,,,,,,,,,,,,,,,,,,,,
"72505394728","2020-04-04T07:11:00","FM-16","7",,,,,,,,,,,,,,,,,,,,,,,,,,,,,,,,,,,,,,"30.01","43","46","T","-RA:02 |RA |RA",,,"89",,"FEW:02 9 BKN:07 15 OVC:08 24","29.84","8.00","45","050",,"6",,,,,,,,,,,,,,,,,,,,,,,,,,,,,,,,,,,,,"MET11704/04/20 07:11:02 SPECI KNYC 041211Z 05005KT 8SM -RA FEW009 BKN015 OVC024 08/06 A3001 RMK AO2 P0000 T00780061 $ (DRJ)","FM-16","7",,,,,,,,,,,,,,,,,,,,,,,,,,,,
"72505394728","2020-04-04T07:51:00","FM-15","7",,,,,,,,,,,,,,,,,,,,,,,,,,,,,,,,,,,,,,"30.02","42","47","0.01","|RA |",,,"83","29.99",,,"3.00",,"VRB",,"6",,,,,,,,,,,,,,,,,,,,,,,,,,,,,,,,,,,,,"MET04804/04/20 07:51:02 METAR KNYC 041251Z      KT RMK","FM-15","7",,,,,,,,,,,,,,,,,,,,,,,,,,,,
"72505394728","2020-04-04T08:03:00","FM-16","7",,,,,,,,,,,,,,,,,,,,,,,,,,,,,,,,,,,,,,"30.02","43","46","T","-RA:02 BR:1 |RA |RA",,,"89",,"FEW:02 9 BKN:07 13 OVC:08 25","29.85","6.00","45","040",,"8",,,,,,,,,,,,,,,,,,,,,,,,,,,,,,,,,,,,,"MET12404/04/20 08:03:02 SPECI KNYC 041303Z 04007KT 6SM -RA BR FEW009 BKN013 OVC025 08/06 A3002 RMK AO2 P0000 T00780061 $ RTX (DRJ)","FM-16","7",,,,,,,,,,,,,,,,,,,,,,,,,,,,
"72505394728","2020-04-04T08:27:00","FM-16","7",,,,,,,,,,,,,,,,,,,,,,,,,,,,,,,,,,,,,,"30.03","42","47","T",,,,"83",,"SCT:04 14 OVC:08 21","29.86","10.00","45","030","16","11",,,,,,,,,,,,,,,,,,,,,,,,,,,,,,,,,,,,,"MET12004/04/20 08:27:02 SPECI KNYC 041327Z 03010G14KT 10SM SCT014 OVC021 08/06 A3003 RMK AO2 RAE04 P0000 T00830056 $ RTX (DRJ)","FM-16","7",,,,,,,,,,,,,,,,,,,,,,,,,,,,
"72505394728","2020-04-04T08:51:00","FM-15","7",,,,,,,,,,,,,,,,,,,,,,,,,,,,,,,,,,,,,,"30.04","42","48","T",,,,"80","30.01","BKN:07 17 BKN:07 25 OVC:08 30","29.87","10.00","45","040",,"8",,,,,,,,,,,,,,,,,,,,,,,,,,,,,,,,,,,,,"MET13104/04/20 08:51:02 METAR KNYC 041351Z 04007KT 10SM BKN017 BKN025 OVC030 09/06 A3004 RMK AO2 RAE04 SLP164 P0000 T00890056 $ RTX (DRJ)","FM-15","7",,,,,,,,,,,,,,,,,,,,,,,,,,,,
"72505394728","2020-04-04T09:51:00","FM-15","7",,,,,,,,,,,,,,,,,,,,,,,,,,,,,,,,,,,,,,"30.05","40","50","0.00",,"-0.05","1","68","30.02","OVC:08 22","29.88","10.00","45","VRB",,"5",,,,,,,,,,,,,,,,,,,,,,,,,,,,,,,,,,,,,"MET10704/04/20 09:51:02 METAR KNYC 041451Z VRB04KT 10SM OVC022 10/04 A3005 RMK AO2 SLP166 60001 T01000044 51016 $","FM-15","7",,,,,,,,,,,,,,,,,,,,,,,,,,,,
"72505394728","2020-04-04T10:51:00","FM-15","7",,,,,,,,,,,,,,,,,,,,,,,,,,,,,,,,,,,,,,"30.04","40","51","0.00",,,,"66","30.01","OVC:08 23","29.87","10.00","46","060",,"6",,,,,,,,,,,,,,,,,,,,,,,,,,,,,,,,,,,,,"MET09504/04/20 10:51:02 METAR KNYC 041551Z 06005KT 10SM OVC023 11/04 A3004 RMK AO2 SLP164 T01060044 $","FM-15","7",,,,,,,,,,,,,,,,,,,,,,,,,,,,
"72505394728","2020-04-04T11:51:00","FM-15","7",,,,,,,,,,,,,,,,,,,,,,,,,,,,,,,,,,,,,,"30.04","40","55","0.00",,,,"57","30.01","BKN:07 27","29.87","10.00","48","000",,"0",,,,,,,,,,,,,,,,,,,,,,,,,,,,,,,,,,,,,"MET09504/04/20 11:51:02 METAR KNYC 041651Z 00000KT 10SM BKN027 13/04 A3004 RMK AO2 SLP164 T01280044 $","FM-15","7",,,,,,,,,,,,,,,,,,,,,,,,,,,,
"72505394728","2020-04-04T12:21:00","FM-16","7",,,,,,,,,,,,,,,,,,,,,,,,,,,,,,,,,,,,,,"30.03","41","57",,,,,"55",,"BKN:07 30","29.86","10.00","49","030",,"5",,,,,,,,,,,,,,,,,,,,,,,,,,,,,,,,,,,,,"MET08804/04/20 12:21:02 SPECI KNYC 041721Z 03004KT 10SM BKN030 14/05 A3003 RMK AO2 T01390050 $","FM-16","7",,,,,,,,,,,,,,,,,,,,,,,,,,,,
"72505394728","2020-04-04T12:51:00","FM-15","7",,,,,,,,,,,,,,,,,,,,,,,,,,,,,,,,,,,,,,"30.03","40","59","0.00",,"+0.01","8","49","30.00","FEW:02 34","29.86","10.00","50","000",,"0",,,,,,,,,,,,,,,,,,,,,,,,,,,,,,,,,,,,,"MET11904/04/20 12:51:02 METAR KNYC 041751Z 00000KT 10SM FEW034 15/04 A3003 RMK AO2 SLP160 60001 T01500044 10150 20078 58005 $","FM-15","7",,,,,,,,,,,,,,,,,,,,,,,,,,,,
"72505394728","2020-04-04T13:51:00","FM-15","7",,,,,,,,,,,,,,,,,,,,,,,,,,,,,,,,,,,,,,"30.01","39","59","0.00",,,,"48","29.98","FEW:02 38","29.84","10.00","49","330",,"5",,,,,,,,,,,,,,,,,,,,,,,,,,,,,,,,,,,,,"MET09504/04/20 13:51:02 METAR KNYC 041851Z 33004KT 10SM FEW038 15/04 A3001 RMK AO2 SLP153 T01500039 $","FM-15","7",,,,,,,,,,,,,,,,,,,,,,,,,,,,
"72505394728","2020-04-04T14:51:00","FM-15","7",,,,,,,,,,,,,,,,,,,,,,,,,,,,,,,,,,,,,,"29.99","39","60","0.00",,,,"46","29.96","FEW:02 42","29.82","10.00","50","260",,"5",,,,,,,,,,,,,,,,,,,,,,,,,,,,,,,,,,,,,"MET09504/04/20 14:51:02 METAR KNYC 041951Z 26004KT 10SM FEW042 16/04 A2999 RMK AO2 SLP147 T01560039 $","FM-15","7",,,,,,,,,,,,,,,,,,,,,,,,,,,,
"72505394728","2020-04-04T15:51:00","FM-15","7",,,,,,,,,,,,,,,,,,,,,,,,,,,,,,,,,,,,,,"29.99","38","61","0.00",,"+0.04","6","43","29.96","OVC:08 55","29.82","10.00","50","000",,"0",,,,,,,,,,,,,,,,,,,,,,,,,,,,,,,,,,,,,"MET10104/04/20 15:51:02 METAR KNYC 042051Z 00000KT 10SM OVC055 16/03 A2999 RMK AO2 SLP145 T01610033 56015 $","FM-15","7",,,,,,,,,,,,,,,,,,,,,,,,,,,,
"72505394728","2020-04-04T16:51:00","FM-15","7",,,,,,,,,,,,,,,,,,,,,,,,,,,,,,,,,,,,,,"29.99","39","59","0.00",,,,"48","29.97","OVC:08 50","29.82","10.00","49","000",,"0",,,,,,,,,,,,,,,,,,,,,,,,,,,,,,,,,,,,,"MET09504/04/20 16:51:02 METAR KNYC 042151Z 00000KT 10SM OVC050 15/04 A2999 RMK AO2 SLP149 T01500039 $","FM-15","7",,,,,,,,,,,,,,,,,,,,,,,,,,,,
"72505394728","2020-04-04T17:51:00","FM-15","7",,,,,,,,,,,,,,,,,,,,,,,,,,,,,,,,,,,,,,"30.01","42","54","0.00",,,,"64","29.98","FEW:02 50 OVC:08 65","29.84","10.00","48","000",,"0",,,,,,,,,,,,,,,,,,,,,,,,,,,,,,,,,,,,,"MET10204/04/20 17:51:02 METAR KNYC 042251Z 00000KT 10SM FEW050 OVC065 12/06 A3001 RMK AO2 SLP154 T01220056 $","FM-15","7",,,,,,,,,,,,,,,,,,,,,,,,,,,,
"72505394728","2020-04-04T18:51:00","FM-15","7",,,,,,,,,,,,,,,,,,,,,,,,,,,,,,,,,,,,,,"30.02","40","49","0.00",,"-0.04","3","71","30.00","OVC:08 70","29.85","10.00","45","150",,"9",,,,,,,,,,,,,,,,,,,,,,,,,,,,,,,,,,,,,"MET11304/04/20 18:51:02 METAR KNYC 042351Z 15008KT 10SM OVC070 09/04 A3002 RMK AO2 SLP159 T00940044 10167 20094 53013 $","FM-15","7",,,,,,,,,,,,,,,,,,,,,,,,,,,,
"72505394728","2020-04-04T19:51:00","FM-15","7",,,,,,,,,,,,,,,,,,,,,,,,,,,,,,,,,,,,,,"30.04","41","48","0.00",,,,"77","30.02","SCT:04 55 OVC:08 70","29.87","10.00","45","VRB",,"6",,,,,,,,,,,,,,,,,,,,,,,,,,,,,,,,,,,,,"MET10204/04/20 19:51:01 METAR KNYC 050051Z VRB05KT 10SM SCT055 OVC070 09/05 A3004 RMK AO2 SLP165 T00890050 $","FM-15","7",,,,,,,,,,,,,,,,,,,,,,,,,,,,
"72505394728","2020-04-04T20:51:00","FM-15","7",,,,,,,,,,,,,,,,,,,,,,,,,,,,,,,,,,,,,,"30.05","41","48","0.00",,,,"77","30.03","BKN:07 55 OVC:08 70","29.88","10.00","45","000",,"0",,,,,,,,,,,,,,,,,,,,,,,,,,,,,,,,,,,,,"MET10204/04/20 20:51:01 METAR KNYC 050151Z 00000KT 10SM BKN055 OVC070 09/05 A3005 RMK AO2 SLP168 T00890050 $","FM-15","7",,,,,,,,,,,,,,,,,,,,,,,,,,,,
"72505394728","2020-04-04T21:51:00","FM-15","7",,,,,,,,,,,,,,,,,,,,,,,,,,,,,,,,,,,,,,"30.06","41","48","0.00",,"-0.03","1","77","30.03","BKN:07 50 OVC:08 70","29.89","10.00","45","000",,"0",,,,,,,,,,,,,,,,,,,,,,,,,,,,,,,,,,,,,"MET10804/04/20 21:51:01 METAR KNYC 050251Z 00000KT 10SM BKN050 OVC070 09/05 A3006 RMK AO2 SLP170 T00890050 51011 $","FM-15","7",,,,,,,,,,,,,,,,,,,,,,,,,,,,
"72505394728","2020-04-04T22:51:00","FM-15","7",,,,,,,,,,,,,,,,,,,,,,,,,,,,,,,,,,,,,,"30.05","42","49","0.00",,,,"77","30.03","OVC:08 70","29.88","10.00","46","000",,"0",,,,,,,,,,,,,,,,,,,,,,,,,,,,,,,,,,,,,"MET09504/04/20 22:51:02 METAR KNYC 050351Z 00000KT 10SM OVC070 09/06 A3005 RMK AO2 SLP169 T00940056 $","FM-15","7",,,,,,,,,,,,,,,,,,,,,,,,,,,,
"72505394728","2020-04-04T23:51:00","FM-15","7",,,,,,,,,,,,,,,,,,,,,,,,,,,,,,,,,,,,,,"30.06","42","50","0.00",,,,"74","30.03","OVC:08 50","29.89","10.00","46","000",,"0",,,,,,,,,,,,,,,,,,,,,,,,,,,,,,,,,,,,,"MET10504/04/20 23:51:02 METAR KNYC 050451Z 00000KT 10SM OVC050 10/06 A3006 RMK AO2 SLP169 T01000056 401670078 $","FM-15","7",,,,,,,,,,,,,,,,,,,,,,,,,,,,
"72505394728","2020-04-04T23:59:00","SOD  ","6",,,,,,,,,,,,,,,,"54",,,"29.83",,"4.2","0","5.1","11","62","46","030","23","0.02","0","0.0","040","15","RA BR",,,,,,,,,,,,,,,,,,,,,,,,,,,,,,,,,,,,,,,,,,,,,,,,,,,,,,,,"SOD76024 HR PRECIPITATION (IN): 0.02 SNOW DEPTH (IN):0     24 HR SNOWFALL (IN):0.0  WEATHER(CODE):1  24 HR MAX TEMP (F): 6224 HR MIN TEMP (F): 46AVERAGE STATION PRESSURE(D):29.827 MINIMUM SEA LEVEL PRESSURE:29.87 TIME OF OCCURRENCE:0238 PEAK WIND SPEED (MPH): 23 PEAK WIND DIR (DEG): 30 PEAK WIND TIME (LST):      FASTEST 2MIN SPEED (MPH): 15FASTEST 2MIN DIR (DEG): 40 FASTEST 2MIN TIME (LST):     AVERAGE WIND SPEED (MPH): 4.2 24 HR AVG TEMP (F): 54DEPART FROM NORMAL:  5  HEATING DEGREE DAYS: 11 COOLING DEGREE DAYS:  0 LATEST DAY MAX TEMP (0700-1900 LST): 62 LATEST NIGHT MIN TEMP(1900-0800 LST):46 HOURLY INCREMENTAL PRECIPITATION VALUES (IN):0.00 0.00 0.00 0.00T     0.01T     0.01T     0.00 0.00 0.00 0.00 0.00 0.00 0.00 0.00 0.00 0.00 0.00 0.00 0.00 0.00 0.00","SOD  ","6",,,,,,,,,,,,,,,,,,,,,,,,,"0533","1825",,
"72505394728","2020-04-05T00:51:00","FM-15","7",,,,,,,,,,,,,,,,,,,,,,,,,,,,,,,,,,,,,,"30.05","42","50","0.00",,"+0.01","8","74","30.02","BKN:07 48 OVC:08 70","29.88","10.00","46","000",,"0",,,,,,,,,,,,,,,,,,,,,,,,,,,,,,,,,,,,,"MET12004/05/20 00:51:02 METAR KNYC 050551Z 00000KT 10SM BKN048 OVC070 10/06 A3005 RMK AO2 SLP167 T01000056 10100 20089 58002 $","FM-15","7",,,,,,,,,,,,,,,,,,,,,,,,,,,,
"72505394728","2020-04-05T01:51:00","FM-15","7",,,,,,,,,,,,,,,,,,,,,,,,,,,,,,,,,,,,,,"30.04","42","48","0.00",,,,"80","30.02","SCT:04 70","29.87","10.00","45","040",,"3",,,,,,,,,,,,,,,,,,,,,,,,,,,,,,,,,,,,,"MET09504/05/20 01:51:02 METAR KNYC 050651Z 04003KT 10SM SCT070 09/06 A3004 RMK AO2 SLP166 T00890056 $","FM-15","7",,,,,,,,,,,,,,,,,,,,,,,,,,,,
"72505394728","2020-04-05T02:51:00","FM-15","7",,,,,,,,,,,,,,,,,,,,,,,,,,,,,,,,,,,,,,"30.05","42","48","0.00",,,,"80","30.02","BKN:07 60","29.88","10.00","45","000",,"0",,,,,,,,,,,,,,,,,,,,,,,,,,,,,,,,,,,,,"MET09504/05/20 02:51:02 METAR KNYC 050751Z 00000KT 10SM BKN060 09/06 A3005 RMK AO2 SLP166 T00890056 $","FM-15","7",,,,,,,,,,,,,,,,,,,,,,,,,,,,
"72505394728","2020-04-05T03:51:00","FM-15","7",,,,,,,,,,,,,,,,,,,,,,,,,,,,,,,,,,,,,,"30.04","42","47","0.00",,"+0.01","6","83","30.02","FEW:02 55","29.87","10.00","45","030",,"5",,,,,,,,,,,,,,,,,,,,,,,,,,,,,,,,,,,,,"MET10104/05/20 03:51:02 METAR KNYC 050851Z 03004KT 10SM FEW055 08/06 A3004 RMK AO2 SLP165 T00830056 56003 $","FM-15","7",,,,,,,,,,,,,,,,,,,,,,,,,,,,
"72505394728","2020-04-05T04:51:00","FM-15","7",,,,,,,,,,,,,,,,,,,,,,,,,,,,,,,,,,,,,,"30.04","43","48","0.00",,,,"83","30.01","OVC:08 70","29.87","10.00","46","030",,"3",,,,,,,,,,,,,,,,,,,,,,,,,,,,,,,,,,,,,"MET09504/05/20 04:51:02 METAR KNYC 050951Z 03003KT 10SM OVC070 09/06 A3004 RMK AO2 SLP164 T00890061 $","FM-15","7",,,,,,,,,,,,,,,,,,,,,,,,,,,,
"72505394728","2020-04-05T05:51:00","FM-15","7",,,,,,,,,,,,,,,,,,,,,,,,,,,,,,,,,,,,,,"30.05","43","48","0.00",,,,"83","30.03",,,"10.00",,"020",,"3",,,,,,,,,,,,,,,,,,,,,,,,,,,,,,,,,,,,,"MET04804/05/20 05:51:02 METAR KNYC 051051Z 02003KT RMK","FM-15","7",,,,,,,,,,,,,,,,,,,,,,,,,,,,
"72505394728","2020-04-05T06:51:00","FM-15","7",,,,,,,,,,,,,,,,,,,,,,,,,,,,,,,,,,,,,,"30.08","43","48","0.00",,"-0.04","3","83","30.05","FEW:02 60","29.91","10.00","46","000",,"0",,,,,,,,,,,,,,,,,,,,,,,,,,,,,,,,,,,,,"MET11904/05/20 06:51:02 METAR KNYC 051151Z 00000KT 10SM FEW060 09/06 A3008 RMK AO2 SLP176 70001 T00890061 10100 20083 53012 $","FM-15","7",,,,,,,,,,,,,,,,,,,,,,,,,,,,
"72505394728","2020-04-05T07:51:00","FM-15","7",,,,,,,,,,,,,,,,,,,,,,,,,,,,,,,,,,,,,,"30.08","44","52","0.00",,,,"75","30.05","BKN:07 50","29.91","10.00","48","000",,"0",,,,,,,,,,,,,,,,,,,,,,,,,,,,,,,,,,,,,"MET10404/05/20 07:51:02 METAR KNYC 051251Z 00000KT 10SM BKN050 11/07 A3008 RMK AO2 SLP177 T01110067 $ RTX FIBI","FM-15","7",,,,,,,,,,,,,,,,,,,,,,,,,,,,
"72505394728","2020-04-05T08:51:00","FM-15","7",,,,,,,,,,,,,,,,,,,,,,,,,,,,,,,,,,,,,,"30.08","44","54","0.00",,,,"69","30.06","OVC:08 65","29.91","10.00","49","000",,"0",,,,,,,,,,,,,,,,,,,,,,,,,,,,,,,,,,,,,"MET09904/05/20 08:51:02 METAR KNYC 051351Z 00000KT 10SM OVC065 12/07 A3008 RMK AO2 SLP178 T01220067 $ RTX","FM-15","7",,,,,,,,,,,,,,,,,,,,,,,,,,,,
"72505394728","2020-04-05T09:51:00","FM-15","7",,,,,,,,,,,,,,,,,,,,,,,,,,,,,,,,,,,,,,"30.08","44","55","0.00",,"-0.01","2","67","30.06","OVC:08 60","29.91","10.00","50","000",,"0",,,,,,,,,,,,,,,,,,,,,,,,,,,,,,,,,,,,,"MET10104/05/20 09:51:02 METAR KNYC 051451Z 00000KT 10SM OVC060 13/07 A3008 RMK AO2 SLP179 T01280067 52003 $","FM-15","7",,,,,,,,,,,,,,,,,,,,,,,,,,,,
"72505394728","2020-04-05T10:51:00","FM-15","7",,,,,,,,,,,,,,,,,,,,,,,,,,,,,,,,,,,,,,"30.07","44","56","0.00",,,,"65","30.05","OVC:08 65","29.90","10.00","50","000",,"0",,,,,,,,,,,,,,,,,,,,,,,,,,,,,,,,,,,,,"MET09504/05/20 10:51:02 METAR KNYC 051551Z 00000KT 10SM OVC065 13/07 A3007 RMK AO2 SLP176 T01330067 $","FM-15","7",,,,,,,,,,,,,,,,,,,,,,,,,,,,
"72505394728","2020-04-05T11:51:00","FM-15","7",,,,,,,,,,,,,,,,,,,,,,,,,,,,,,,,,,,,,,"30.06","45","58","0.00",,,,"62","30.03","OVC:08 70","29.89","10.00","51","130",,"5",,,,,,,,,,,,,,,,,,,,,,,,,,,,,,,,,,,,,"MET09904/05/20 11:51:02 METAR KNYC 051651Z 13004KT 10SM OVC070 14/07 A3006 RMK AO2 SLP170 T01440072 $ RTX","FM-15","7",,,,,,,,,,,,,,,,,,,,,,,,,,,,
"72505394728","2020-04-05T12:51:00","FM-15","7",,,,,,,,,,,,,,,,,,,,,,,,,,,,,,,,,,,,,,"30.04","44","63","0.00",,"+0.05","8","50","30.01","CLR:00","29.87","10.00","53","VRB",,"3",,,,,,,,,,,,,,,,,,,,,,,,,,,,,,,,,,,,,"MET11004/05/20 12:51:02 METAR KNYC 051751Z VRB03KT 10SM CLR 17/07 A3004 RMK AO2 SLP162 T01720067 10172 20089 58017 $","FM-15","7",,,,,,,,,,,,,,,,,,,,,,,,,,,,
"72505394728","2020-04-05T13:51:00","FM-15","7",,,,,,,,,,,,,,,,,,,,,,,,,,,,,,,,,,,,,,"30.01","43","64","0.00",,,,"46","29.98","FEW:02 65","29.84","10.00","53","VRB",,"5",,,,,,,,,,,,,,,,,,,,,,,,,,,,,,,,,,,,,"MET09504/05/20 13:51:02 METAR KNYC 051851Z VRB04KT 10SM FEW065 18/06 A3001 RMK AO2 SLP154 T01780061 $","FM-15","7",,,,,,,,,,,,,,,,,,,,,,,,,,,,
"72505394728","2020-04-05T14:51:00","FM-15","7",,,,,,,,,,,,,,,,,,,,,,,,,,,,,,,,,,,,,,"30.00","44","65","0.00",,,,"47","29.97","OVC:08 60","29.83","10.00","54","VRB",,"5",,,,,,,,,,,,,,,,,,,,,,,,,,,,,,,,,,,,,"MET09904/05/20 14:51:02 METAR KNYC 051951Z VRB04KT 10SM OVC060 18/07 A3000 RMK AO2 SLP149 T01830067 $ RTX","FM-15","7",,,,,,,,,,,,,,,,,,,,,,,,,,,,
"72505394728","2020-04-05T15:51:00","FM-15","7",,,,,,,,,,,,,,,,,,,,,,,,,,,,,,,,,,,,,,"30.00","44","59","0.00",,"+0.04","6","58","29.97","OVC:08 60","29.83","10.00","51",,,,,,,,,,,,,,,,,,,,,,,,,,,,,,,,,,,,,,,,"MET10504/05/20 15:51:02 METAR KNYC 052051Z      KT 10SM OVC060 15/07 A3000 RMK AO2 SLP150 T01500067 56013 $ RTX","FM-15","7",,,,,,,,,,,,,,,,,,,,,,,,,,,,
"72505394728","2020-04-05T16:51:00","FM-15","7",,,,,,,,,,,,,,,,,,,,,,,,,,,,,,,,,,,,,,"30.01","45","56","0.00",,,,"67","29.98","OVC:08 60","29.84","10.00","50","000",,"0",,,,,,,,,,,,,,,,,,,,,,,,,,,,,,,,,,,,,"MET10404/05/20 16:51:02 METAR KNYC 052151Z 00000KT 10SM OVC060 13/07 A3001 RMK AO2 SLP152 T01330072 $ RTX FIBI","FM-15","7",,,,,,,,,,,,,,,,,,,,,,,,,,,,
"72505394728","2020-04-05T17:51:00","FM-15","7",,,,,,,,,,,,,,,,,,,,,,,,,,,,,,,,,,,,,,"30.00","44","57","0.00",,,,"62","29.97","SCT:04 55 OVC:08 70","29.83","10.00","50","160",,"5",,,,,,,,,,,,,,,,,,,,,,,,,,,,,,,,,,,,,"MET10204/05/20 17:51:02 METAR KNYC 052251Z 16004KT 10SM SCT055 OVC070 14/07 A3000 RMK AO2 SLP150 T01390067 $","FM-15","7",,,,,,,,,,,,,,,,,,,,,,,,,,,,
"72505394728","2020-04-05T18:51:00","FM-15","7",,,,,,,,,,,,,,,,,,,,,,,,,,,,,,,,,,,,,,"29.99","45","55","0.00",,"+0.00","8","69","29.97","FEW:02 70","29.82","10.00","50","140",,"5",,,,,,,,,,,,,,,,,,,,,,,,,,,,,,,,,,,,,"MET11704/05/20 18:51:02 METAR KNYC 052351Z 14004KT 10SM FEW070 13/07 A2999 RMK AO2 SLP149 T01280072 10183 20128 58001 $ RTX","FM-15","7",,,,,,,,,,,,,,,,,,,,,,,,,,,,
"72505394728","2020-04-05T19:51:00","FM-15","7",,,,,,,,,,,,,,,,,,,,,,,,,,,,,,,,,,,,,,"30.01","46","54","0.00",,,,"75","29.98","FEW:02 80","29.84","10.00","50","000",,"0",,,,,,,,,,,,,,,,,,,,,,,,,,,,,,,,,,,,,"MET09504/05/20 19:51:01 METAR KNYC 060051Z 00000KT 10SM FEW080 12/08 A3001 RMK AO2 SLP152 T01220078 $","FM-15","7",,,,,,,,,,,,,,,,,,,,,,,,,,,,
"72505394728","2020-04-05T20:51:00","FM-15","7",,,,,,,,,,,,,,,,,,,,,,,,,,,,,,,,,,,,,,"30.01","46","53","0.00",,,,"77","29.98","FEW:02 75","29.84","10.00","49","010",,"3",,,,,,,,,,,,,,,,,,,,,,,,,,,,,,,,,,,,,"MET09504/05/20 20:51:01 METAR KNYC 060151Z 01003KT 10SM FEW075 12/08 A3001 RMK AO2 SLP153 T01170078 $","FM-15","7",,,,,,,,,,,,,,,,,,,,,,,,,,,,
"72505394728","2020-04-05T21:51:00","FM-15","7",,,,,,,,,,,,,,,,,,,,,,,,,,,,,,,,,,,,,,"30.00","46","52","0.00",,"-0.01","0","80","29.98","CLR:00","29.83","10.00","49","030",,"3",,,,,,,,,,,,,,,,,,,,,,,,,,,,,,,,,,,,,"MET09804/05/20 21:51:01 METAR KNYC 060251Z 03003KT 10SM CLR 11/08 A3000 RMK AO2 SLP152 T01110078 50003 $","FM-15","7",,,,,,,,,,,,,,,,,,,,,,,,,,,,
"72505394728","2020-04-05T22:51:00","FM-15","7",,,,,,,,,,,,,,,,,,,,,,,,,,,,,,,,,,,,,,"30.00","46","52","0.00",,,,"80","29.98","CLR:00","29.83","10.00","49","050",,"3",,,,,,,,,,,,,,,,,,,,,,,,,,,,,,,,,,,,,"MET09204/05/20 22:51:02 METAR KNYC 060351Z 05003KT 10SM CLR 11/08 A3000 RMK AO2 SLP152 T01110078 $","FM-15","7",,,,,,,,,,,,,,,,,,,,,,,,,,,,
"72505394728","2020-04-05T23:51:00","FM-15","7",,,,,,,,,,,,,,,,,,,,,,,,,,,,,,,,,,,,,,"30.00","45","51","0.00",,,,"80","29.97","CLR:00","29.83","10.00","48","030",,"5",,,,,,,,,,,,,,,,,,,,,,,,,,,,,,,,,,,,,"MET10204/05/20 23:51:02 METAR KNYC 060451Z 03004KT 10SM CLR 11/07 A3000 RMK AO2 SLP150 T01060072 401830083 $","FM-15","7",,,,,,,,,,,,,,,,,,,,,,,,,,,,
"72505394728","2020-04-05T23:59:00","SOD  ","6",,,,,,,,,,,,,,,,"56",,,"29.86",,"2.5","0","6.7","9","65","47","150","16","0.00","0","0.0","140","10",,,,,,,,,,,,,,,,,,,,,,,,,,,,,,,,,,,,,,,,,,,,,,,,,,,,,,,,,"SOD74324 HR PRECIPITATION (IN): 0.00 SNOW DEPTH (IN):0     24 HR SNOWFALL (IN):0.0  24 HR MAX TEMP (F): 6524 HR MIN TEMP (F): 47AVERAGE STATION PRESSURE(D):29.862 MINIMUM SEA LEVEL PRESSURE:29.97 TIME OF OCCURRENCE:2359 PEAK WIND SPEED (MPH): 16 PEAK WIND DIR (DEG):150 PEAK WIND TIME (LST):      FASTEST 2MIN SPEED (MPH): 10FASTEST 2MIN DIR (DEG):140 FASTEST 2MIN TIME (LST):     AVERAGE WIND SPEED (MPH): 2.5 24 HR AVG TEMP (F): 56DEPART FROM NORMAL:  7  HEATING DEGREE DAYS:  9 COOLING DEGREE DAYS:  0 LATEST DAY MAX TEMP (0700-1900 LST): 65 LATEST NIGHT MIN TEMP(1900-0800 LST):47 HOURLY INCREMENTAL PRECIPITATION VALUES (IN):0.00 0.00 0.00 0.00 0.00 0.00 0.00 0.00 0.00 0.00 0.00 0.00 0.00 0.00 0.00 0.00 0.00 0.00 0.00 0.00 0.00 0.00 0.00 0.00","SOD  ","6",,,,,,,,,,,,,,,,,,,,,,,,,"0532","1826",,
"72505394728","2020-04-06T00:51:00","FM-15","7",,,,,,,,,,,,,,,,,,,,,,,,,,,,,,,,,,,,,,"30.00","45","51","0.00",,"+0.00","8","80","29.97","FEW:02 90","29.83","9.00","48","050",,"6",,,,,,,,,,,,,,,,,,,,,,,,,,,,,,,,,,,,,"MET11704/06/20 00:51:02 METAR KNYC 060551Z 05005KT 9SM FEW090 11/07 A3000 RMK AO2 SLP150 T01060072 10128 20100 58001 $ (DS)","FM-15","7",,,,,,,,,,,,,,,,,,,,,,,,,,,,
"72505394728","2020-04-06T01:51:00","FM-15","7",,,,,,,,,,,,,,,,,,,,,,,,,,,,,,,,,,,,,,"30.01","46","50","0.02","-RA:02 BR:1 |RA |RA",,,"86","29.98","BKN:07 60 OVC:08 90","29.84","6.00","48","040",,"6",,,,,,,,,,,,,,,,,,,,,,,,,,,,,,,,,,,,,"MET12504/06/20 01:51:02 METAR KNYC 060651Z 04005KT 6SM -RA BR BKN060 OVC090 10/08 A3001 RMK AO2 RAB35 SLP152 P0001 T01000078 $ (DS)","FM-15","7",,,,,,,,,,,,,,,,,,,,,,,,,,,,
"72505394728","2020-04-06T02:51:00","FM-15","7",,,,,,,,,,,,,,,,,,,,,,,,,,,,,,,,,,,,,,"30.00","47","50","0.04","-RA:02 BR:1 |RA |RA",,,"89","29.97","SCT:04 49 OVC:08 65","29.83","5.00","48","040",,"8",,,,,,,,,,,,,,,,,,,,,,,,,,,,,,,,,,,,,"MET11904/06/20 02:51:02 METAR KNYC 060751Z 04007KT 5SM -RA BR SCT049 OVC065 10/08 A3000 RMK AO2 SLP149 P0005 T01000083 $ (DS)","FM-15","7",,,,,,,,,,,,,,,,,,,,,,,,,,,,
"72505394728","2020-04-06T03:51:00","FM-15","7",,,,,,,,,,,,,,,,,,,,,,,,,,,,,,,,,,,,,,"30.01","44","50","0.01",,"-0.01","3","80","29.98","BKN:07 50 BKN:07 100","29.84","10.00","47","020",,"7",,,,,,,,,,,,,,,,,,,,,,,,,,,,,,,,,,,,,"MET13104/06/20 03:51:02 METAR KNYC 060851Z 02006KT 10SM BKN050 BKN100 10/07 A3001 RMK AO2 RAE28 SLP153 P0001 60007 T01000067 53002 $ (DS)","FM-15","7",,,,,,,,,,,,,,,,,,,,,,,,,,,,
"72505394728","2020-04-06T04:51:00","FM-15","7",,,,,,,,,,,,,,,,,,,,,,,,,,,,,,,,,,,,,,"30.03","40","50","0.00",,,,"68","30.00","FEW:02 70 FEW:02 80","29.86","10.00","45",,,,,,,,,,,,,,,,,,,,,,,,,,,,,,,,,,,,,,,,"MET10704/06/20 04:51:02 METAR KNYC 060951Z      KT 10SM FEW070 FEW080 10/04 A3003 RMK AO2 SLP160 T01000044 $ (DS)","FM-15","7",,,,,,,,,,,,,,,,,,,,,,,,,,,,
"72505394728","2020-04-06T05:51:00","FM-15","7",,,,,,,,,,,,,,,,,,,,,,,,,,,,,,,,,,,,,,"30.06","38","49","0.00",,,,"66","30.03","CLR:00","29.89","10.00","44","VRB",,"5",,,,,,,,,,,,,,,,,,,,,,,,,,,,,,,,,,,,,"MET09704/06/20 05:51:02 METAR KNYC 061051Z VRB04KT 10SM CLR 09/03 A3006 RMK AO2 SLP170 T00940033 $ (DS)","FM-15","7",,,,,,,,,,,,,,,,,,,,,,,,,,,,
"72505394728","2020-04-06T06:51:00","FM-15","7",,,,,,,,,,,,,,,,,,,,,,,,,,,,,,,,,,,,,,"30.08","39","50","0.00",,"-0.07","3","66","30.05","SCT:04 37","29.91","10.00","45","VRB",,"5",,,,,,,,,,,,,,,,,,,,,,,,,,,,,,,,,,,,,"MET13404/06/20 06:51:02 METAR KNYC 061151Z VRB04KT 10SM SCT037 10/04 A3008 RMK AO2 SLP177 60007 70007 T01000039 10106 20094 53023 $ RTX (DS)","FM-15","7",,,,,,,,,,,,,,,,,,,,,,,,,,,,
"72505394728","2020-04-06T07:51:00","FM-15","7",,,,,,,,,,,,,,,,,,,,,,,,,,,,,,,,,,,,,,"30.09","37","51","0.00",,,,"59","30.06","CLR:00","29.92","10.00","45","010",,"9",,,,,,,,,,,,,,,,,,,,,,,,,,,,,,,,,,,,,"MET10104/06/20 07:51:02 METAR KNYC 061251Z 01008KT 10SM CLR 11/03 A3009 RMK AO2 SLP181 T01060028 $ RTX (DS)","FM-15","7",,,,,,,,,,,,,,,,,,,,,,,,,,,,
"72505394728","2020-04-06T08:51:00","FM-15","7",,,,,,,,,,,,,,,,,,,,,,,,,,,,,,,,,,,,,,"30.08","34","54","0.00",,,,"47","30.06",,,"10.00",,"VRB",,"9",,,,,,,,,,,,,,,,,,,,,,,,,,,,,,,,,,,,,"MET04804/06/20 08:51:02 METAR KNYC 061351Z 02008KT RMK","FM-15","7",,,,,,,,,,,,,,,,,,,,,,,,,,,,
"72505394728","2020-04-06T09:51:00","FM-15","7",,,,,,,,,,,,,,,,,,,,,,,,,,,,,,,,,,,,,,"30.08","34","56","0.00",,"-0.00","0","44","30.06","CLR:00","29.91","10.00","46","VRB",,"8",,,,,,,,,,,,,,,,,,,,,,,,,,,,,,,,,,,,,"MET09804/06/20 09:51:02 METAR KNYC 061451Z 02007KT 10SM CLR 13/01 A3008 RMK AO2 SLP178 T01330011 50001 $","FM-15","7",,,,,,,,,,,,,,,,,,,,,,,,,,,,
"72505394728","2020-04-06T10:51:00","FM-15","7",,,,,,,,,,,,,,,,,,,,,,,,,,,,,,,,,,,,,,"30.07","33","59","0.00",,,,"38","30.04","CLR:00","29.90","10.00","47","VRB",,"3",,,,,,,,,,,,,,,,,,,,,,,,,,,,,,,,,,,,,"MET09204/06/20 10:51:02 METAR KNYC 061551Z VRB03KT 10SM CLR 15/01 A3007 RMK AO2 SLP172 T01500006 $","FM-15","7",,,,,,,,,,,,,,,,,,,,,,,,,,,,
"72505394728","2020-04-06T11:51:00","FM-15","7",,,,,,,,,,,,,,,,,,,,,,,,,,,,,,,,,,,,,,"30.05","33","61","0.00",,,,"35","30.02","CLR:00","29.88","10.00","48","VRB",,"5",,,,,,,,,,,,,,,,,,,,,,,,,,,,,,,,,,,,,"MET09604/06/20 11:51:02 METAR KNYC 061651Z VRB04KT 10SM CLR 16/01 A3005 RMK AO2 SLP167 T01610006 $ RTX","FM-15","7",,,,,,,,,,,,,,,,,,,,,,,,,,,,
"72505394728","2020-04-06T12:51:00","FM-15","7",,,,,,,,,,,,,,,,,,,,,,,,,,,,,,,,,,,,,,"30.02","33","63","0.00",,"+0.06","8","33","29.99","CLR:00","29.85","10.00","49","000",,"0",,,,,,,,,,,,,,,,,,,,,,,,,,,,,,,,,,,,,"MET11004/06/20 12:51:02 METAR KNYC 061751Z 00000KT 10SM CLR 17/01 A3002 RMK AO2 SLP157 T01720006 10172 20094 58020 $","FM-15","7",,,,,,,,,,,,,,,,,,,,,,,,,,,,
"72505394728","2020-04-06T13:51:00","FM-15","7",,,,,,,,,,,,,,,,,,,,,,,,,,,,,,,,,,,,,,"30.00","30","63","0.00",,,,"29","29.97","CLR:00","29.83","10.00","48","250",,"6",,,,,,,,,,,,,,,,,,,,,,,,,,,,,,,,,,,,,"MET10204/06/20 13:51:02 METAR KNYC 061851Z 25005KT 10SM CLR 17/M01 A3000 RMK AO2 SLP149 T01721011 $ RTX FIBI","FM-15","7",,,,,,,,,,,,,,,,,,,,,,,,,,,,
"72505394728","2020-04-06T14:51:00","FM-15","7",,,,,,,,,,,,,,,,,,,,,,,,,,,,,,,,,,,,,,"29.97","25","64","0.00",,,,"23","29.94","CLR:00","29.80","10.00","47","290",,"8",,,,,,,,,,,,,,,,,,,,,,,,,,,,,,,,,,,,,"MET09704/06/20 14:51:02 METAR KNYC 061951Z 29007KT 10SM CLR 18/M04 A2997 RMK AO2 SLP138 T01781039 $ RTX","FM-15","7",,,,,,,,,,,,,,,,,,,,,,,,,,,,
"72505394728","2020-04-06T15:51:00","FM-15","7",,,,,,,,,,,,,,,,,,,,,,,,,,,,,,,,,,,,,,"29.95","22","66","0.00",,"+0.07","6","19","29.92","CLR:00","29.78","10.00","47","300",,"6",,,,,,,,,,,,,,,,,,,,,,,,,,,,,,,,,,,,,"MET09904/06/20 15:51:02 METAR KNYC 062051Z 30005KT 10SM CLR 19/M06 A2995 RMK AO2 SLP133 T01891056 56023 $","FM-15","7",,,,,,,,,,,,,,,,,,,,,,,,,,,,
"72505394728","2020-04-06T16:51:00","FM-15","7",,,,,,,,,,,,,,,,,,,,,,,,,,,,,,,,,,,,,,"29.95","16","65","0.00",,,,"15","29.92","CLR:00","29.78","10.00","45","VRB",,"10",,,,,,,,,,,,,,,,,,,,,,,,,,,,,,,,,,,,,"MET09304/06/20 16:51:02 METAR KNYC 062151Z 28009KT 10SM CLR 18/M09 A2995 RMK AO2 SLP133 T01831089 $","FM-15","7",,,,,,,,,,,,,,,,,,,,,,,,,,,,
"72505394728","2020-04-06T17:51:00","FM-15","7",,,,,,,,,,,,,,,,,,,,,,,,,,,,,,,,,,,,,,"29.96","18","64","0.00",,,,"17","29.93","CLR:00","29.79","10.00","45","VRB",,"5",,,,,,,,,,,,,,,,,,,,,,,,,,,,,,,,,,,,,"MET09304/06/20 17:51:02 METAR KNYC 062251Z VRB04KT 10SM CLR 18/M08 A2996 RMK AO2 SLP135 T01781078 $","FM-15","7",,,,,,,,,,,,,,,,,,,,,,,,,,,,
"72505394728","2020-04-06T18:51:00","FM-15","6",,,,,,,,,,,,,,,,,,,,,,,,,,,,,,,,,,,,,,"29.96","20","62","0.00",,"-0.01","3","20","29.93","CLR:00","29.79","10.00","45","300",,"8",,,,,,,,,,,,,,,,,,,,,,,,,,,,,,,,,,,,,"MET11104/06/20 18:51:02 METAR KNYC 062351Z 30007KT 10SM CLR 17/M07 A2996 RMK AO2 SLP137 T01671067 10189 20161 53003 $","FM-15","6",,,,,,,,,,,,,,,,,,,,,,,,,,,,
"72505394728","2020-04-06T19:51:00","FM-15","6",,,,,,,,,,,,,,,,,,,,,,,,,,,,,,,,,,,,,,"29.99","19","60","0.00",,,,"20","29.96","CLR:00","29.82","10.00","43","VRB",,"5",,,,,,,,,,,,,,,,,,,,,,,,,,,,,,,,,,,,,"MET09304/06/20 19:51:01 METAR KNYC 070051Z VRB04KT 10SM CLR 16/M07 A2999 RMK AO2 SLP145 T01561072 $","FM-15","6",,,,,,,,,,,,,,,,,,,,,,,,,,,,
"72505394728","2020-04-06T20:51:00","FM-15","7",,,,,,,,,,,,,,,,,,,,,,,,,,,,,,,,,,,,,,"30.00","20","58","0.00",,,,"23","29.97","CLR:00","29.83","10.00","43","VRB",,"6",,,,,,,,,,,,,,,,,,,,,,,,,,,,,,,,,,,,,"MET09304/06/20 20:51:01 METAR KNYC 070151Z VRB05KT 10SM CLR 14/M07 A3000 RMK AO2 SLP148 T01441067 $","FM-15","7",,,,,,,,,,,,,,,,,,,,,,,,,,,,
"72505394728","2020-04-06T21:51:00","FM-15","7",,,,,,,,,,,,,,,,,,,,,,,,,,,,,,,,,,,,,,"29.99","19","58","0.00",,"-0.03","0","22","29.97","CLR:00","29.82","10.00","42","VRB",,"3",,,,,,,,,,,,,,,,,,,,,,,,,,,,,,,,,,,,,"MET09904/06/20 21:51:01 METAR KNYC 070251Z VRB03KT 10SM CLR 14/M07 A2999 RMK AO2 SLP148 T01441072 50010 $","FM-15","7",,,,,,,,,,,,,,,,,,,,,,,,,,,,
"72505394728","2020-04-06T22:51:00","FM-15","7",,,,,,,,,,,,,,,,,,,,,,,,,,,,,,,,,,,,,,"29.99","18","57","0.00",,,,"22","29.96","CLR:00","29.82","10.00","42","020",,"3",,,,,,,,,,,,,,,,,,,,,,,,,,,,,,,,,,,,,"MET09304/06/20 22:51:02 METAR KNYC 070351Z 02003KT 10SM CLR 14/M08 A2999 RMK AO2 SLP145 T01391078 $","FM-15","7",,,,,,,,,,,,,,,,,,,,,,,,,,,,
"72505394728","2020-04-06T23:51:00","FM-15","7",,,,,,,,,,,,,,,,,,,,,,,,,,,,,,,,,,,,,,"30.00","17","56","0.00",,,,"22","29.97","CLR:00","29.83","10.00","41","300",,"5",,,,,,,,,,,,,,,,,,,,,,,,,,,,,,,,,,,,,"MET10304/06/20 23:51:02 METAR KNYC 070451Z 30004KT 10SM CLR 13/M08 A3000 RMK AO2 SLP150 T01331083 401890094 $","FM-15","7",,,,,,,,,,,,,,,,,,,,,,,,,,,,
"72505394728","2020-04-06T23:59:00","SOD  ","6",,,,,,,,,,,,,,,,"58",,,"29.84",,"5.9","0","8.3","7","66","49","320","19","0.07","0","0.0","310","13","RA BR",,,,,,,,,,,,,,,,,,,,,,,,,,,,,,,,,,,,,,,,,,,,,,,,,,,,,,,,"SOD76024 HR PRECIPITATION (IN): 0.07 SNOW DEPTH (IN):0     24 HR SNOWFALL (IN):0.0  WEATHER(CODE):1  24 HR MAX TEMP (F): 6624 HR MIN TEMP (F): 49AVERAGE STATION PRESSURE(D):29.841 MINIMUM SEA LEVEL PRESSURE:29.92 TIME OF OCCURRENCE:1653 PEAK WIND SPEED (MPH): 19 PEAK WIND DIR (DEG):320 PEAK WIND TIME (LST):      FASTEST 2MIN SPEED (MPH): 13FASTEST 2MIN DIR (DEG):310 FASTEST 2MIN TIME (LST):     AVERAGE WIND SPEED (MPH): 5.9 24 HR AVG TEMP (F): 58DEPART FROM NORMAL:  8  HEATING DEGREE DAYS:  7 COOLING DEGREE DAYS:  0 LATEST DAY MAX TEMP (0700-1900 LST): 66 LATEST NIGHT MIN TEMP(1900-0800 LST):49 HOURLY INCREMENTAL PRECIPITATION VALUES (IN):0.00 0.02 0.04 0.01 0.00 0.00 0.00 0.00 0.00 0.00 0.00 0.00 0.00 0.00 0.00 0.00 0.00 0.00 0.00 0.00 0.00 0.00 0.00 0.00","SOD  ","6",,,,,,,,,,,,,,,,,,,,,,,,,"0530","1827",,
"72505394728","2020-04-07T00:51:00","FM-15","7",,,,,,,,,,,,,,,,,,,,,,,,,,,,,,,,,,,,,,"30.00","17","55","0.00",,"-0.01","3","22","29.97","CLR:00","29.83","10.00","40","280",,"3",,,,,,,,,,,,,,,,,,,,,,,,,,,,,,,,,,,,,"MET12004/07/20 00:51:02 METAR KNYC 070551Z 28003KT 10SM CLR 13/M08 A3000 RMK AO2 SLP149 T01281083 10167 20128 53002 $ RTX FIBI","FM-15","7",,,,,,,,,,,,,,,,,,,,,,,,,,,,
"72505394728","2020-04-07T01:51:00","FM-15","7",,,,,,,,,,,,,,,,,,,,,,,,,,,,,,,,,,,,,,"30.00","18","54","0.00",,,,"24","29.97","SCT:04 110","29.83","10.00","40","VRB",,"3",,,,,,,,,,,,,,,,,,,,,,,,,,,,,,,,,,,,,"MET09604/07/20 01:51:02 METAR KNYC 070651Z VRB03KT 10SM SCT110 12/M08 A3000 RMK AO2 SLP150 T01221078 $","FM-15","7",,,,,,,,,,,,,,,,,,,,,,,,,,,,
"72505394728","2020-04-07T02:51:00","FM-15","7",,,,,,,,,,,,,,,,,,,,,,,,,,,,,,,,,,,,,,"29.99","20","53","0.00",,,,"27","29.96","BKN:07 120","29.82","10.00","40","270",,"3",,,,,,,,,,,,,,,,,,,,,,,,,,,,,,,,,,,,,"MET10004/07/20 02:51:02 METAR KNYC 070751Z 27003KT 10SM BKN120 12/M07 A2999 RMK AO2 SLP147 T01171067 $ RTX","FM-15","7",,,,,,,,,,,,,,,,,,,,,,,,,,,,
"72505394728","2020-04-07T03:51:00","FM-15","7",,,,,,,,,,,,,,,,,,,,,,,,,,,,,,,,,,,,,,"29.99","21","54","0.00",,"+0.01","8","28","29.96","OVC:08 110","29.82","10.00","41","VRB",,"5",,,,,,,,,,,,,,,,,,,,,,,,,,,,,,,,,,,,,"MET11104/07/20 03:51:02 METAR KNYC 070851Z VRB04KT 10SM OVC110 12/M06 A2999 RMK AO2 SLP147 T01221061 58002 $ RTX FIBI","FM-15","7",,,,,,,,,,,,,,,,,,,,,,,,,,,,
"72505394728","2020-04-07T04:51:00","FM-15","7",,,,,,,,,,,,,,,,,,,,,,,,,,,,,,,,,,,,,,"29.98","23","53","0.00",,,,"31","29.96","OVC:08 120","29.81","10.00","41","280",,"7",,,,,,,,,,,,,,,,,,,,,,,,,,,,,,,,,,,,,"MET09604/07/20 04:51:02 METAR KNYC 070951Z 28006KT 10SM OVC120 12/M05 A2998 RMK AO2 SLP144 T01171050 $","FM-15","7",,,,,,,,,,,,,,,,,,,,,,,,,,,,
"72505394728","2020-04-07T05:51:00","FM-15","7",,,,,,,,,,,,,,,,,,,,,,,,,,,,,,,,,,,,,,"30.00","26","53","0.00",,,,"35","29.97","CLR:00","29.83","10.00","42","VRB",,"3",,,,,,,,,,,,,,,,,,,,,,,,,,,,,,,,,,,,,"MET09304/07/20 05:51:02 METAR KNYC 071051Z VRB03KT 10SM CLR 12/M03 A3000 RMK AO2 SLP149 T01171033 $","FM-15","7",,,,,,,,,,,,,,,,,,,,,,,,,,,,
"72505394728","2020-04-07T06:51:00","FM-15","7",,,,,,,,,,,,,,,,,,,,,,,,,,,,,,,,,,,,,,"30.01","28","52","0.00",,"-0.01","3","40","29.98","CLR:00","29.84","10.00","42","280",,"6",,,,,,,,,,,,,,,,,,,,,,,,,,,,,,,,,,,,,"MET10904/07/20 06:51:02 METAR KNYC 071151Z 28005KT 10SM CLR 11/M02 A3001 RMK AO2 SLP152 T01111022 10128 20111 53005","FM-15","7",,,,,,,,,,,,,,,,,,,,,,,,,,,,
"72505394728","2020-04-07T07:51:00","FM-15","7",,,,,,,,,,,,,,,,,,,,,,,,,,,,,,,,,,,,,,"30.01","30","54","0.00",,,,"40","29.98","FEW:02 110","29.84","10.00","44","VRB",,"3",,,,,,,,,,,,,,,,,,,,,,,,,,,,,,,,,,,,,"MET09404/07/20 07:51:02 METAR KNYC 071251Z VRB03KT 10SM FEW110 12/M01 A3001 RMK AO2 SLP152 T01221011","FM-15","7",,,,,,,,,,,,,,,,,,,,,,,,,,,,
"72505394728","2020-04-07T08:51:00","FM-15","7",,,,,,,,,,,,,,,,,,,,,,,,,,,,,,,,,,,,,,"30.00","30","56","0.00",,,,"37","29.97","CLR:00","29.83","10.00","45","000",,"0",,,,,,,,,,,,,,,,,,,,,,,,,,,,,,,,,,,,,"MET09504/07/20 08:51:02 METAR KNYC 071351Z 00000KT 10SM CLR 13/M01 A3000 RMK AO2 SLP149 T01331011 RTX","FM-15","7",,,,,,,,,,,,,,,,,,,,,,,,,,,,
"72505394728","2020-04-07T09:51:00","FM-15","7",,,,,,,,,,,,,,,,,,,,,,,,,,,,,,,,,,,,,,"29.99","29","59","0.00",,"+0.02","8","32","29.96","SCT:04 120","29.82","10.00","46","280",,"6",,,,,,,,,,,,,,,,,,,,,,,,,,,,,,,,,,,,,"MET10004/07/20 09:51:02 METAR KNYC 071451Z 28005KT 10SM SCT120 15/M02 A2999 RMK AO2 SLP145 T01501017 58007","FM-15","7",,,,,,,,,,,,,,,,,,,,,,,,,,,,
"72505394728","2020-04-07T10:51:00","FM-15","7",,,,,,,,,,,,,,,,,,,,,,,,,,,,,,,,,,,,,,"29.96","28","60","0.00",,,,"30","29.93","CLR:00","29.79","10.00","46","VRB",,"3",,,,,,,,,,,,,,,,,,,,,,,,,,,,,,,,,,,,,"MET09104/07/20 10:51:02 METAR KNYC 071551Z VRB03KT 10SM CLR 16/M02 A2996 RMK AO2 SLP136 T01561022","FM-15","7",,,,,,,,,,,,,,,,,,,,,,,,,,,,
"72505394728","2020-04-07T11:51:00","FM-15","7",,,,,,,,,,,,,,,,,,,,,,,,,,,,,,,,,,,,,,"29.92","28","63","0.00",,,,"27","29.89","CLR:00","29.75","10.00","47","VRB",,"5",,,,,,,,,,,,,,,,,,,,,,,,,,,,,,,,,,,,,"MET09104/07/20 11:51:02 METAR KNYC 071651Z VRB04KT 10SM CLR 17/M02 A2992 RMK AO2 SLP123 T01721022","FM-15","7",,,,,,,,,,,,,,,,,,,,,,,,,,,,
"72505394728","2020-04-07T12:51:00","FM-15","7",,,,,,,,,,,,,,,,,,,,,,,,,,,,,,,,,,,,,,"29.89","30","67","0.00",,"+0.09","8","25","29.86","CLR:00","29.72","10.00","50","000",,"0",,,,,,,,,,,,,,,,,,,,,,,,,,,,,,,,,,,,,"MET11304/07/20 12:51:02 METAR KNYC 071751Z 00000KT 10SM CLR 19/M01 A2989 RMK AO2 SLP113 T01941011 10194 20111 58032 RTX","FM-15","7",,,,,,,,,,,,,,,,,,,,,,,,,,,,
"72505394728","2020-04-07T13:51:00","FM-15","7",,,,,,,,,,,,,,,,,,,,,,,,,,,,,,,,,,,,,,"29.85","28","65","0.00",,,,"25","29.82","CLR:00","29.68","10.00","48","VRB",,"6",,,,,,,,,,,,,,,,,,,,,,,,,,,,,,,,,,,,,"MET09304/07/20 13:51:02 METAR KNYC 071851Z VRB05KT 10SM CLR 18/M02 A2985 RMK AO2 SLP099 T01831022 $","FM-15","7",,,,,,,,,,,,,,,,,,,,,,,,,,,,
"72505394728","2020-04-07T14:51:00","FM-15","7",,,,,,,,,,,,,,,,,,,,,,,,,,,,,,,,,,,,,,"29.82","29","63","0.00",,,,"28","29.79","CLR:00","29.65","10.00","48","150","21","13",,,,,,,,,,,,,,,,,,,,,,,,,,,,,,,,,,,,,"MET09604/07/20 14:51:02 METAR KNYC 071951Z 15011G18KT 10SM CLR 17/M02 A2982 RMK AO2 SLP089 T01721017 $","FM-15","7",,,,,,,,,,,,,,,,,,,,,,,,,,,,
"72505394728","2020-04-07T15:51:00","FM-15","7",,,,,,,,,,,,,,,,,,,,,,,,,,,,,,,,,,,,,,"29.80","27","61","0.00",,"+0.09","6","27","29.78","CLR:00","29.63","10.00","46","170","16","7",,,,,,,,,,,,,,,,,,,,,,,,,,,,,,,,,,,,,"MET10204/07/20 15:51:02 METAR KNYC 072051Z 17006G14KT 10SM CLR 16/M03 A2980 RMK AO2 SLP083 T01611028 56030 $","FM-15","7",,,,,,,,,,,,,,,,,,,,,,,,,,,,
"72505394728","2020-04-07T16:51:00","FM-15","7",,,,,,,,,,,,,,,,,,,,,,,,,,,,,,,,,,,,,,"29.78","24","60","0.00",,,,"25","29.75","CLR:00","29.61","10.00","45","VRB",,"6",,,,,,,,,,,,,,,,,,,,,,,,,,,,,,,,,,,,,"MET09304/07/20 16:51:02 METAR KNYC 072151Z VRB05KT 10SM CLR 16/M04 A2978 RMK AO2 SLP074 T01561044 $","FM-15","7",,,,,,,,,,,,,,,,,,,,,,,,,,,,
"72505394728","2020-04-07T17:51:00","FM-15","7",,,,,,,,,,,,,,,,,,,,,,,,,,,,,,,,,,,,,,"29.77","30","57","0.00",,,,"36","29.74","CLR:00","29.60","10.00","45","000",,"0",,,,,,,,,,,,,,,,,,,,,,,,,,,,,,,,,,,,,"MET09304/07/20 17:51:02 METAR KNYC 072251Z 00000KT 10SM CLR 14/M01 A2977 RMK AO2 SLP071 T01391011 $","FM-15","7",,,,,,,,,,,,,,,,,,,,,,,,,,,,
"72505394728","2020-04-07T18:51:00","FM-15","7",,,,,,,,,,,,,,,,,,,,,,,,,,,,,,,,,,,,,,"29.76","36","55","0.00",,"+0.04","6","49","29.74","CLR:00","29.59","10.00","46","VRB",,"3",,,,,,,,,,,,,,,,,,,,,,,,,,,,,,,,,,,,,"MET11004/07/20 18:51:02 METAR KNYC 072351Z VRB03KT 10SM CLR 13/02 A2976 RMK AO2 SLP071 T01280022 10200 20128 56013 $","FM-15","7",,,,,,,,,,,,,,,,,,,,,,,,,,,,
"72505394728","2020-04-07T19:51:00","FM-15","7",,,,,,,,,,,,,,,,,,,,,,,,,,,,,,,,,,,,,,"29.75","39","56","0.00",,,,"53","29.72","FEW:02 120","29.58","10.00","48","160",,"3",,,,,,,,,,,,,,,,,,,,,,,,,,,,,,,,,,,,,"MET09504/07/20 19:51:01 METAR KNYC 080051Z 16003KT 10SM FEW120 13/04 A2975 RMK AO2 SLP066 T01330039 $","FM-15","7",,,,,,,,,,,,,,,,,,,,,,,,,,,,
"72505394728","2020-04-07T20:51:00","FM-15","7",,,,,,,,,,,,,,,,,,,,,,,,,,,,,,,,,,,,,,"29.74","40","57","0.00",,,,"53","29.71","OVC:08 100","29.57","10.00","49","VRB",,"3",,,,,,,,,,,,,,,,,,,,,,,,,,,,,,,,,,,,,"MET09504/07/20 20:51:01 METAR KNYC 080151Z VRB03KT 10SM OVC100 14/04 A2974 RMK AO2 SLP060 T01390044 $","FM-15","7",,,,,,,,,,,,,,,,,,,,,,,,,,,,
"72505394728","2020-04-07T21:51:00","FM-15","7",,,,,,,,,,,,,,,,,,,,,,,,,,,,,,,,,,,,,,"29.70","40","58","0.00",,"+0.06","8","51","29.67","BKN:07 80 OVC:08 100","29.53","10.00","49","000",,"0",,,,,,,,,,,,,,,,,,,,,,,,,,,,,,,,,,,,,"MET10804/07/20 21:51:01 METAR KNYC 080251Z 00000KT 10SM BKN080 OVC100 14/04 A2970 RMK AO2 SLP049 T01440044 58020 $","FM-15","7",,,,,,,,,,,,,,,,,,,,,,,,,,,,
"72505394728","2020-04-07T22:51:00","FM-15","7",,,,,,,,,,,,,,,,,,,,,,,,,,,,,,,,,,,,,,"29.67","41","59","0.00",,,,"51","29.64","BKN:07 70 OVC:08 90","29.50","10.00","50","000",,"0",,,,,,,,,,,,,,,,,,,,,,,,,,,,,,,,,,,,,"MET10204/07/20 22:51:02 METAR KNYC 080351Z 00000KT 10SM BKN070 OVC090 15/05 A2967 RMK AO2 SLP038 T01500050 $","FM-15","7",,,,,,,,,,,,,,,,,,,,,,,,,,,,
"72505394728","2020-04-07T23:51:00","FM-15","7",,,,,,,,,,,,,,,,,,,,,,,,,,,,,,,,,,,,,,"29.64","45","59","0.00",,,,"60","29.62","SCT:04 80 OVC:08 110","29.47","10.00","52","240",,"5",,,,,,,,,,,,,,,,,,,,,,,,,,,,,,,,,,,,,"MET11204/07/20 23:51:02 METAR KNYC 080451Z 24004KT 10SM SCT080 OVC110 15/07 A2964 RMK AO2 SLP029 T01500072 402000111 $","FM-15","7",,,,,,,,,,,,,,,,,,,,,,,,,,,,
"72505394728","2020-04-07T23:59:00","SOD  ","6",,,,,,,,,,,,,,,,"60",,,"29.71",,"3.9","0","10.0","5","68","52","160s","20s","0.00","0","0.0","150","15",,,,,,,,,,,,,,,,,,,,,,,,,,,,,,,,,,,,,,,,,,,,,,,,,,,,,,,,,"SOD74324 HR PRECIPITATION (IN): 0.00 SNOW DEPTH (IN):0     24 HR SNOWFALL (IN):0.0  24 HR MAX TEMP (F): 6824 HR MIN TEMP (F): 52AVERAGE STATION PRESSURE(D):29.707 MINIMUM SEA LEVEL PRESSURE:29.60 TIME OF OCCURRENCE:2359 PEAK WIND SPEED (MPH): 20 PEAK WIND DIR (DEG):160 PEAK WIND TIME (LST):      FASTEST 2MIN SPEED (MPH): 15FASTEST 2MIN DIR (DEG):150 FASTEST 2MIN TIME (LST):     AVERAGE WIND SPEED (MPH): 3.9 24 HR AVG TEMP (F): 60DEPART FROM NORMAL: 10  HEATING DEGREE DAYS:  5 COOLING DEGREE DAYS:  0 LATEST DAY MAX TEMP (0700-1900 LST): 68 LATEST NIGHT MIN TEMP(1900-0800 LST):52 HOURLY INCREMENTAL PRECIPITATION VALUES (IN):0.00 0.00 0.00 0.00 0.00 0.00 0.00 0.00 0.00 0.00 0.00 0.00 0.00 0.00 0.00 0.00 0.00 0.00 0.00 0.00 0.00 0.00 0.00 0.00","SOD  ","6",,,,,,,,,,,,,,,,,,,,,,,,,"0529","1828",,
"72505394728","2020-04-08T00:51:00","FM-15","7",,,,,,,,,,,,,,,,,,,,,,,,,,,,,,,,,,,,,,"29.60","47","59","0.00",,"+0.10","8","64","29.57","OVC:08 65","29.43","10.00","53","210",,"5",,,,,,,,,,,,,,,,,,,,,,,,,,,,,,,,,,,,,"MET11304/08/20 00:51:02 METAR KNYC 080551Z 21004KT 10SM OVC065 15/08 A2960 RMK AO2 SLP015 T01500083 10156 20128 58034 $","FM-15","7",,,,,,,,,,,,,,,,,,,,,,,,,,,,
"72505394728","2020-04-08T01:51:00","FM-15","7",,,,,,,,,,,,,,,,,,,,,,,,,,,,,,,,,,,,,,"29.55","47","55","T","-RA:02 |RA |RA",,,"74","29.52","BKN:07 55 OVC:08 100","29.38","10.00","51","070",,"3",,,,,,,,,,,,,,,,,,,,,,,,,,,,,,,,,,,,,"MET12504/08/20 01:51:02 METAR KNYC 080651Z 07003KT 10SM -RA BKN055 OVC100 13/08 A2955 RMK AO2 RAB47 PRESFR SLP997 P0000 T01280083 $","FM-15","7",,,,,,,,,,,,,,,,,,,,,,,,,,,,
"72505394728","2020-04-08T02:51:00","FM-15","7",,,,,,,,,,,,,,,,,,,,,,,,,,,,,,,,,,,,,,"29.56","49","53","0.02","-RA:02 BR:1 |RA |RA",,,"86","29.54","FEW:02 45 SCT:04 50 OVC:08 75","29.39","5.00","51","000",,"0",,,,,,,,,,,,,,,,,,,,,,,,,,,,,,,,,,,,,"MET13004/08/20 02:51:02 METAR KNYC 080751Z 00000KT 5SM -RA BR FEW045 SCT050 OVC075 12/09 A2956 RMK AO2 RAE02B23 SLP002 P0002 T01170094 $","FM-15","7",,,,,,,,,,,,,,,,,,,,,,,,,,,,
"72505394728","2020-04-08T03:14:00","FM-16","7",,,,,,,,,,,,,,,,,,,,,,,,,,,,,,,,,,,,,,"29.56","51","54","0.02","RA:02 BR:1 |RA |RA",,,"90",,"SCT:04 18 BKN:07 24 OVC:08 70","29.39","3.00","52","230",,"3",,,,,,,,,,,,,,,,,,,,,,,,,,,,,,,,,,,,,"MET11304/08/20 03:14:02 SPECI KNYC 080814Z 23003KT 3SM RA BR SCT018 BKN024 OVC070 12/11 A2956 RMK AO2 P0002 T01220106 $","FM-16","7",,,,,,,,,,,,,,,,,,,,,,,,,,,,
"72505394728","2020-04-08T03:22:00","FM-16","7",,,,,,,,,,,,,,,,,,,,,,,,,,,,,,,,,,,,,,"29.55","51","54","0.04","-RA:02 BR:1 |RA |RA",,,"90",,"SCT:04 18 BKN:07 43 OVC:08 75","29.38","4.00","52","230",,"5",,,,,,,,,,,,,,,,,,,,,,,,,,,,,,,,,,,,,"MET11404/08/20 03:22:02 SPECI KNYC 080822Z 23004KT 4SM -RA BR SCT018 BKN043 OVC075 12/11 A2955 RMK AO2 P0004 T01220106 $","FM-16","7",,,,,,,,,,,,,,,,,,,,,,,,,,,,
"72505394728","2020-04-08T03:46:00","FM-16","7",,,,,,,,,,,,,,,,,,,,,,,,,,,,,,,,,,,,,,"29.54","52","54","0.08","RA:02 BR:1 |RA |RA",,,"94",,"OVC:08 70","29.37","2.50","53","VRB",,"7",,,,,,,,,,,,,,,,,,,,,,,,,,,,,,,,,,,,,"MET09304/08/20 03:46:02 SPECI KNYC 080846Z VRB06KT 2 1/2SM RA BR OVC070 12/11 A2954 RMK AO2 P0008 $","FM-16","7",,,,,,,,,,,,,,,,,,,,,,,,,,,,
"72505394728","2020-04-08T03:51:00","FM-15","7",,,,,,,,,,,,,,,,,,,,,,,,,,,,,,,,,,,,,,"29.54","52","54","0.10","RA:02 BR:1 |RA |RA","+0.01","8","93","29.51","OVC:08 70","29.37","2.50","53","240",,"3",,,,,,,,,,,,,,,,,,,,,,,,,,,,,,,,,,,,,"MET12204/08/20 03:51:02 METAR KNYC 080851Z 24003KT 2 1/2SM RA BR OVC070 12/11 A2954 RMK AO2 SLP993 P0009 60011 T01220111 58004 $","FM-15","7",,,,,,,,,,,,,,,,,,,,,,,,,,,,
"72505394728","2020-04-08T03:58:00","FM-16","7",,,,,,,,,,,,,,,,,,,,,,,,,,,,,,,,,,,,,,"29.53","52","54","0.01","RA:02 BR:1 |RA |RA",,,"93",,"OVC:08 70","29.36","3.00","53","000",,"0",,,,,,,,,,,,,,,,,,,,,,,,,,,,,,,,,,,,,"MET09904/08/20 03:58:02 SPECI KNYC 080858Z 00000KT 3SM RA BR OVC070 12/11 A2953 RMK AO2 P0001 T01220111 $","FM-16","7",,,,,,,,,,,,,,,,,,,,,,,,,,,,
"72505394728","2020-04-08T04:05:00","FM-16","7",,,,,,,,,,,,,,,,,,,,,,,,,,,,,,,,,,,,,,"29.52","52","54","0.03","RA:02 BR:1 |RA |RA",,,"93",,"OVC:08 65","29.35","2.00","53","VRB",,"3",,,,,,,,,,,,,,,,,,,,,,,,,,,,,,,,,,,,,"MET09904/08/20 04:05:02 SPECI KNYC 080905Z VRB03KT 2SM RA BR OVC065 12/11 A2952 RMK AO2 P0003 T01220111 $","FM-16","7",,,,,,,,,,,,,,,,,,,,,,,,,,,,
"72505394728","2020-04-08T04:31:00","FM-16","7",,,,,,,,,,,,,,,,,,,,,,,,,,,,,,,,,,,,,,"29.49","52","54","0.09","-RA:02 BR:1 |RA |RA",,,"93",,"SCT:04 65 OVC:08 80","29.32","4.00","53","VRB",,"7",,,,,,,,,,,,,,,,,,,,,,,,,,,,,,,,,,,,,"MET11404/08/20 04:31:02 SPECI KNYC 080931Z VRB06KT 4SM -RA BR SCT065 OVC080 12/11 A2949 RMK AO2 PRESFR P0009 T01220111 $","FM-16","7",,,,,,,,,,,,,,,,,,,,,,,,,,,,
"72505394728","2020-04-08T04:51:00","FM-15","7",,,,,,,,,,,,,,,,,,,,,,,,,,,,,,,,,,,,,,"29.47","53","56","0.08","-RA:02 |RA |RA",,,"90","29.44","OVC:08 85","29.30","10.00","54","000",,"0",,,,,,,,,,,,,,,,,,,,,,,,,,,,,,,,,,,,,"MET11204/08/20 04:51:02 METAR KNYC 080951Z 00000KT 10SM -RA OVC085 13/12 A2947 RMK AO2 PRESFR SLP969 P0009 T01330117 $","FM-15","7",,,,,,,,,,,,,,,,,,,,,,,,,,,,
"72505394728","2020-04-08T05:42:00","FM-16","7",,,,,,,,,,,,,,,,,,,,,,,,,,,,,,,,,,,,,,"29.50","52","54","T","BR:1 ||",,,"93",,"FEW:02 8 BKN:07 12 OVC:08 100","29.33","5.00","53","260",,"3",,,,,,,,,,,,,,,,,,,,,,,,,,,,,,,,,,,,,"MET11804/08/20 05:42:02 SPECI KNYC 081042Z 26003KT 5SM BR FEW008 BKN012 OVC100 12/11 A2950 RMK AO2 RAE0955 P0000 T01220111 $","FM-16","7",,,,,,,,,,,,,,,,,,,,,,,,,,,,
"72505394728","2020-04-08T05:51:00","FM-15","7",,,,,,,,,,,,,,,,,,,,,,,,,,,,,,,,,,,,,,"29.51","53","55","0.00","BR:1 ||",,,"93","29.49","SCT:04 8 OVC:08 12","29.34","5.00","54","000",,"0",,,,,,,,,,,,,,,,,,,,,,,,,,,,,,,,,,,,,"MET11804/08/20 05:51:02 METAR KNYC 081051Z 00000KT 5SM BR SCT008 OVC012 13/12 A2951 RMK AO2 RAE0955 SLP985 P0000 T01280117 $","FM-15","7",,,,,,,,,,,,,,,,,,,,,,,,,,,,
"72505394728","2020-04-08T05:58:00","FM-16","7",,,,,,,,,,,,,,,,,,,,,,,,,,,,,,,,,,,,,,"29.51","53","55",,"BR:1 ||",,,"93",,"BKN:07 8 OVC:08 12","29.34","6.00","54","000",,"0",,,,,,,,,,,,,,,,,,,,,,,,,,,,,,,,,,,,,"MET09704/08/20 05:58:02 SPECI KNYC 081058Z 00000KT 6SM BR BKN008 OVC012 13/12 A2951 RMK AO2 T01280117 $","FM-16","7",,,,,,,,,,,,,,,,,,,,,,,,,,,,
"72505394728","2020-04-08T06:30:00","FM-16","7",,,,,,,,,,,,,,,,,,,,,,,,,,,,,,,,,,,,,,"29.52","52","54",,"BR:1 ||",,,"93",,"OVC:08 7","29.35","2.50","53","040",,"7",,,,,,,,,,,,,,,,,,,,,,,,,,,,,,,,,,,,,"MET10404/08/20 06:30:02 SPECI KNYC 081130Z 04006KT 2 1/2SM BR OVC007 12/11 A2952 RMK AO2 CIG 006V011 T01220111","FM-16","7",,,,,,,,,,,,,,,,,,,,,,,,,,,,
"72505394728","2020-04-08T06:49:00","FM-16","6",,,,,,,,,,,,,,,,,,,,,,,,,,,,,,,,,,,,,,"29.53","50","52",,"BR:1 ||",,,"94",,"OVC:08 6","29.36","3.00","51","040",,"6",,,,,,,,,,,,,,,,,,,,,,,,,,,,,,,,,,,,,"MET08304/08/20 06:49:02 SPECI KNYC 081149Z 04005KT 3SM BR OVC006 11/10 A2953 RMK AO2 FIBI","FM-16","6",,,,,,,,,,,,,,,,,,,,,,,,,,,,
"72505394728","2020-04-08T06:51:00","FM-15","7",,,,,,,,,,,,,,,,,,,,,,,,,,,,,,,,,,,,,,"29.54","50","52","0.00","BR:1 ||","-0.07","1","93","29.51","OVC:08 7","29.37","3.00","51","030",,"5",,,,,,,,,,,,,,,,,,,,,,,,,,,,,,,,,,,,,"MET12504/08/20 06:51:02 METAR KNYC 081151Z 03004KT 3SM BR OVC007 11/10 A2954 RMK AO2 SLP993 60020 70020 T01110100 10156 20111 51024","FM-15","7",,,,,,,,,,,,,,,,,,,,,,,,,,,,
"72505394728","2020-04-08T07:19:00","FM-16","7",,,,,,,,,,,,,,,,,,,,,,,,,,,,,,,,,,,,,,"29.54","49","52",,"BR:1 ||",,,"89",,"OVC:08 6","29.37","2.50","50","VRB",,"5",,,,,,,,,,,,,,,,,,,,,,,,,,,,,,,,,,,,,"MET09204/08/20 07:19:02 SPECI KNYC 081219Z VRB04KT 2 1/2SM BR OVC006 11/09 A2954 RMK AO2 T01110094","FM-16","7",,,,,,,,,,,,,,,,,,,,,,,,,,,,
"72505394728","2020-04-08T07:51:00","FM-15","7",,,,,,,,,,,,,,,,,,,,,,,,,,,,,,,,,,,,,,"29.54","49","52","0.00","BR:1 ||",,,"89","29.52","OVC:08 7","29.37","2.50","50","050",,"6",,,,,,,,,,,,,,,,,,,,,,,,,,,,,,,,,,,,,"MET09904/08/20 07:51:02 METAR KNYC 081251Z 05005KT 2 1/2SM BR OVC007 11/09 A2954 RMK AO2 SLP995 T01110094","FM-15","7",,,,,,,,,,,,,,,,,,,,,,,,,,,,
"72505394728","2020-04-08T08:16:00","FM-16","7",,,,,,,,,,,,,,,,,,,,,,,,,,,,,,,,,,,,,,"29.55","49","52",,"BR:1 ||",,,"89",,"OVC:08 7","29.38","3.00","50","350",,"5",,,,,,,,,,,,,,,,,,,,,,,,,,,,,,,,,,,,,"MET10004/08/20 08:16:02 SPECI KNYC 081316Z 35004KT 3SM BR OVC007 11/09 A2955 RMK AO2 CIG 006V012 T01110094","FM-16","7",,,,,,,,,,,,,,,,,,,,,,,,,,,,
"72505394728","2020-04-08T08:33:00","FM-16","7",,,,,,,,,,,,,,,,,,,,,,,,,,,,,,,,,,,,,,"29.56","48","53",,"HZ:7 |FU |HZ",,,"83",,"BKN:07 10 BKN:07 14 OVC:08 27","29.39","4.00","50","VRB",,"8",,,,,,,,,,,,,,,,,,,,,,,,,,,,,,,,,,,,,"MET11404/08/20 08:33:02 SPECI KNYC 081333Z 04007KT 4SM HZ BKN010 BKN014 OVC027 12/09 A2956 RMK AO2 CIG 007V012 T01170089","FM-16","7",,,,,,,,,,,,,,,,,,,,,,,,,,,,
"72505394728","2020-04-08T08:51:00","FM-15","7",,,,,,,,,,,,,,,,,,,,,,,,,,,,,,,,,,,,,,"29.56","48","52","0.00","BR:1 ||",,,"86","29.54","BKN:07 12 OVC:08 26","29.39","4.00","50","030",,"6",,,,,,,,,,,,,,,,,,,,,,,,,,,,,,,,,,,,,"MET10204/08/20 08:51:02 METAR KNYC 081351Z 03005KT 4SM BR BKN012 OVC026 11/09 A2956 RMK AO2 SLP002 T01110089","FM-15","7",,,,,,,,,,,,,,,,,,,,,,,,,,,,
"72505394728","2020-04-08T09:27:00","FM-16","7",,,,,,,,,,,,,,,,,,,,,,,,,,,,,,,,,,,,,,"29.58","48","54",,,,,"80",,"SCT:04 11 OVC:08 47","29.41","7.00","51","000",,"0",,,,,,,,,,,,,,,,,,,,,,,,,,,,,,,,,,,,,"MET09204/08/20 09:27:02 SPECI KNYC 081427Z 00000KT 7SM SCT011 OVC047 12/09 A2958 RMK AO2 T01220089","FM-16","7",,,,,,,,,,,,,,,,,,,,,,,,,,,,
"72505394728","2020-04-08T09:51:00","FM-15","7",,,,,,,,,,,,,,,,,,,,,,,,,,,,,,,,,,,,,,"29.59","47","55","0.00",,"-0.05","3","74","29.56","FEW:02 12 OVC:08 45","29.42","8.00","51","VRB",,"3",,,,,,,,,,,,,,,,,,,,,,,,,,,,,,,,,,,,,"MET10504/08/20 09:51:02 METAR KNYC 081451Z VRB03KT 8SM FEW012 OVC045 13/08 A2959 RMK AO2 SLP009 T01280083 53017","FM-15","7",,,,,,,,,,,,,,,,,,,,,,,,,,,,
"72505394728","2020-04-08T10:49:00","FM-16","6",,,,,,,,,,,,,,,,,,,,,,,,,,,,,,,,,,,,,,"29.59","46","57",,,,,"67",,"BKN:07 24 BKN:07 45","29.42","10.00","51","320",,"6",,,,,,,,,,,,,,,,,,,,,,,,,,,,,,,,,,,,,"MET08804/08/20 10:49:02 SPECI KNYC 081549Z 32005KT 10SM BKN024 BKN045 14/08 A2959 RMK AO2 FIBI","FM-16","6",,,,,,,,,,,,,,,,,,,,,,,,,,,,
"72505394728","2020-04-08T10:51:00","FM-15","7",,,,,,,,,,,,,,,,,,,,,,,,,,,,,,,,,,,,,,"29.59","47","57","0.00",,,,"69","29.56","BKN:07 24 BKN:07 45","29.42","10.00","52","000",,"0",,,,,,,,,,,,,,,,,,,,,,,,,,,,,,,,,,,,,"MET10004/08/20 10:51:02 METAR KNYC 081551Z 00000KT 10SM BKN024 BKN045 14/08 A2959 RMK AO2 SLP010 T01390083","FM-15","7",,,,,,,,,,,,,,,,,,,,,,,,,,,,
"72505394728","2020-04-08T11:04:00","FM-16","7",,,,,,,,,,,,,,,,,,,,,,,,,,,,,,,,,,,,,,"29.59","48","59",,,,,"67",,"SCT:04 24","29.42","10.00","53","VRB",,"6",,,,,,,,,,,,,,,,,,,,,,,,,,,,,,,,,,,,,"MET08604/08/20 11:04:02 SPECI KNYC 081604Z VRB05KT 10SM SCT024 15/09 A2959 RMK AO2 T01500089","FM-16","7",,,,,,,,,,,,,,,,,,,,,,,,,,,,
"72505394728","2020-04-08T11:51:00","FM-15","7",,,,,,,,,,,,,,,,,,,,,,,,,,,,,,,,,,,,,,"29.59","46","59","0.00",,,,"62","29.56","SCT:04 28 BKN:07 35 OVC:08 45","29.42","10.00","52","VRB",,"6",,,,,,,,,,,,,,,,,,,,,,,,,,,,,,,,,,,,,"MET10704/08/20 11:51:02 METAR KNYC 081651Z VRB05KT 10SM SCT028 BKN035 OVC045 15/08 A2959 RMK AO2 SLP010 T01500078","FM-15","7",,,,,,,,,,,,,,,,,,,,,,,,,,,,
"72505394728","2020-04-08T12:51:00","FM-15","7",,,,,,,,,,,,,,,,,,,,,,,,,,,,,,,,,,,,,,"29.59","46","61","0.00",,"-0.00","0","58","29.56","FEW:02 30 FEW:02 35 OVC:08 47","29.42","10.00","53","VRB",,"8",,,,,,,,,,,,,,,,,,,,,,,,,,,,,,,,,,,,,"MET12504/08/20 12:51:02 METAR KNYC 081751Z 34007KT 10SM FEW030 FEW035 OVC047 16/08 A2959 RMK AO2 SLP010 T01610078 10167 20111 50001","FM-15","7",,,,,,,,,,,,,,,,,,,,,,,,,,,,
"72505394728","2020-04-08T13:51:00","FM-15","7",,,,,,,,,,,,,,,,,,,,,,,,,,,,,,,,,,,,,,"29.59","46","62","0.00",,,,"56","29.57","OVC:08 50","29.42","10.00","54","VRB",,"3",,,,,,,,,,,,,,,,,,,,,,,,,,,,,,,,,,,,,"MET09304/08/20 13:51:02 METAR KNYC 081851Z VRB03KT 10SM OVC050 17/08 A2959 RMK AO2 SLP012 T01670078","FM-15","7",,,,,,,,,,,,,,,,,,,,,,,,,,,,
"72505394728","2020-04-08T14:51:00","FM-15","7",,,,,,,,,,,,,,,,,,,,,,,,,,,,,,,,,,,,,,"29.59","46","62","0.00",,,,"56","29.56","FEW:02 46 BKN:07 60","29.42","10.00","54","VRB",,"6",,,,,,,,,,,,,,,,,,,,,,,,,,,,,,,,,,,,,"MET10004/08/20 14:51:02 METAR KNYC 081951Z VRB05KT 10SM FEW046 BKN060 17/08 A2959 RMK AO2 SLP011 T01670078","FM-15","7",,,,,,,,,,,,,,,,,,,,,,,,,,,,
"72505394728","2020-04-08T15:51:00","FM-15","7",,,,,,,,,,,,,,,,,,,,,,,,,,,,,,,,,,,,,,"29.60","45","63","0.00",,"-0.01","1","52","29.57","BKN:07 44 BKN:07 60","29.43","10.00","54","010",,"6",,,,,,,,,,,,,,,,,,,,,,,,,,,,,,,,,,,,,"MET10604/08/20 15:51:02 METAR KNYC 082051Z 01005KT 10SM BKN044 BKN060 17/07 A2960 RMK AO2 SLP013 T01720072 51003","FM-15","7",,,,,,,,,,,,,,,,,,,,,,,,,,,,
"72505394728","2020-04-08T16:51:00","FM-15","7",,,,,,,,,,,,,,,,,,,,,,,,,,,,,,,,,,,,,,"29.60","42","64","0.00",,,,"45","29.57","CLR:00","29.43","10.00","53","040",,"7",,,,,,,,,,,,,,,,,,,,,,,,,,,,,,,,,,,,,"MET09004/08/20 16:51:02 METAR KNYC 082151Z 04006KT 10SM CLR 18/06 A2960 RMK AO2 SLP013 T01780056","FM-15","7",,,,,,,,,,,,,,,,,,,,,,,,,,,,
"72505394728","2020-04-08T17:51:00","FM-15","7",,,,,,,,,,,,,,,,,,,,,,,,,,,,,,,,,,,,,,"29.62","43","62","0.00",,,,"50","29.59","CLR:00","29.45","10.00","52","050",,"5",,,,,,,,,,,,,,,,,,,,,,,,,,,,,,,,,,,,,"MET09004/08/20 17:51:02 METAR KNYC 082251Z 05004KT 10SM CLR 17/06 A2962 RMK AO2 SLP020 T01670061","FM-15","7",,,,,,,,,,,,,,,,,,,,,,,,,,,,
"72505394728","2020-04-08T18:51:00","FM-15","7",,,,,,,,,,,,,,,,,,,,,,,,,,,,,,,,,,,,,,"29.64","42","59","0.00",,"-0.04","3","54","29.61","CLR:00","29.47","10.00","50","000",,"0",,,,,,,,,,,,,,,,,,,,,,,,,,,,,,,,,,,,,"MET10804/08/20 18:51:02 METAR KNYC 082351Z 00000KT 10SM CLR 15/06 A2964 RMK AO2 SLP027 T01500056 10178 20150 53014","FM-15","7",,,,,,,,,,,,,,,,,,,,,,,,,,,,
"72505394728","2020-04-08T19:51:00","FM-15","7",,,,,,,,,,,,,,,,,,,,,,,,,,,,,,,,,,,,,,"29.68","44","52","0.00",,,,"75","29.66","CLR:00","29.51","10.00","48","000",,"0",,,,,,,,,,,,,,,,,,,,,,,,,,,,,,,,,,,,,"MET09004/08/20 19:51:01 METAR KNYC 090051Z 00000KT 10SM CLR 11/07 A2968 RMK AO2 SLP043 T01110067","FM-15","7",,,,,,,,,,,,,,,,,,,,,,,,,,,,
"72505394728","2020-04-08T20:51:00","FM-15","7",,,,,,,,,,,,,,,,,,,,,,,,,,,,,,,,,,,,,,"29.71","44","51","0.00",,,,"77","29.68","CLR:00","29.54","10.00","48","000",,"0",,,,,,,,,,,,,,,,,,,,,,,,,,,,,,,,,,,,,"MET09004/08/20 20:51:01 METAR KNYC 090151Z 00000KT 10SM CLR 11/07 A2971 RMK AO2 SLP052 T01060067","FM-15","7",,,,,,,,,,,,,,,,,,,,,,,,,,,,
"72505394728","2020-04-08T21:51:00","FM-15","7",,,,,,,,,,,,,,,,,,,,,,,,,,,,,,,,,,,,,,"29.69","44","50","0.00",,"-0.06","0","80","29.67","CLR:00","29.52","10.00","47","VRB",,"5",,,,,,,,,,,,,,,,,,,,,,,,,,,,,,,,,,,,,"MET09604/08/20 21:51:01 METAR KNYC 090251Z VRB04KT 10SM CLR 10/07 A2969 RMK AO2 SLP046 T01000067 50019","FM-15","7",,,,,,,,,,,,,,,,,,,,,,,,,,,,
"72505394728","2020-04-08T22:51:00","FM-15","7",,,,,,,,,,,,,,,,,,,,,,,,,,,,,,,,,,,,,,"29.69","43","50","0.00",,,,"77","29.66","CLR:00","29.52","10.00","47","160",,"7",,,,,,,,,,,,,,,,,,,,,,,,,,,,,,,,,,,,,"MET09004/08/20 22:51:02 METAR KNYC 090351Z 16006KT 10SM CLR 10/06 A2969 RMK AO2 SLP045 T01000061","FM-15","7",,,,,,,,,,,,,,,,,,,,,,,,,,,,
"72505394728","2020-04-08T23:51:00","FM-15","7",,,,,,,,,,,,,,,,,,,,,,,,,,,,,,,,,,,,,,"29.65","43","50","0.00",,,,"77","29.62","CLR:00","29.48","10.00","47","160",,"6",,,,,,,,,,,,,,,,,,,,,,,,,,,,,,,,,,,,,"MET10704/08/20 23:51:02 METAR KNYC 090451Z 16005KT 10SM CLR 10/06 A2965 RMK AO2 PRESFR SLP030 T01000061 401780094","FM-15","7",,,,,,,,,,,,,,,,,,,,,,,,,,,,
"72505394728","2020-04-08T23:59:00","SOD  ","6",,,,,,,,,,,,,,,,"57",,,"29.41",,"3.7","0","6.6","8","64","49","240","16","0.20","0","0.0","350","10","RA BR HZ",,,,,,,,,,,,,,,,,,,,,,,,,,,,,,,,,,,,,,,,,,,,,,,,,,,,,,,,"SOD76124 HR PRECIPITATION (IN): 0.20 SNOW DEPTH (IN):0     24 HR SNOWFALL (IN):0.0  WEATHER(CODE):18  24 HR MAX TEMP (F): 6424 HR MIN TEMP (F): 49AVERAGE STATION PRESSURE(D):29.406 MINIMUM SEA LEVEL PRESSURE:29.42 TIME OF OCCURRENCE:0511 PEAK WIND SPEED (MPH): 16 PEAK WIND DIR (DEG):240 PEAK WIND TIME (LST):      FASTEST 2MIN SPEED (MPH): 10FASTEST 2MIN DIR (DEG):350 FASTEST 2MIN TIME (LST):     AVERAGE WIND SPEED (MPH): 3.7 24 HR AVG TEMP (F): 57DEPART FROM NORMAL:  7  HEATING DEGREE DAYS:  8 COOLING DEGREE DAYS:  0 LATEST DAY MAX TEMP (0700-1900 LST): 64 LATEST NIGHT MIN TEMP(1900-0800 LST):52 HOURLY INCREMENTAL PRECIPITATION VALUES (IN):0.00T     0.02 0.10 0.08 0.00 0.00 0.00 0.00 0.00 0.00 0.00 0.00 0.00 0.00 0.00 0.00 0.00 0.00 0.00 0.00 0.00 0.00 0.00","SOD  ","6",,,,,,,,,,,,,,,,,,,,,,,,,"0527","1829",,
"72505394728","2020-04-09T00:51:00","FM-15","7",,,,,,,,,,,,,,,,,,,,,,,,,,,,,,,,,,,,,,"29.64","43","49","0.00",,"+0.05","6","80","29.62","CLR:00","29.47","10.00","46",,,,,,,,,,,,,,,,,,,,,,,,,,,,,,,,,,,,,,,,"MET11204/09/20 00:51:02 METAR KNYC 090551Z      KT 10SM CLR 09/06 A2964 RMK AO2 SLP029 T00940061 10150 20094 56017 RTX","FM-15","7",,,,,,,,,,,,,,,,,,,,,,,,,,,,
"72505394728","2020-04-09T01:51:00","FM-15","7",,,,,,,,,,,,,,,,,,,,,,,,,,,,,,,,,,,,,,"29.63","43","49","0.00",,,,"80","29.61","CLR:00","29.46","10.00","46","000",,"0",,,,,,,,,,,,,,,,,,,,,,,,,,,,,,,,,,,,,"MET09004/09/20 01:51:02 METAR KNYC 090651Z 00000KT 10SM CLR 09/06 A2963 RMK AO2 SLP026 T00940061","FM-15","7",,,,,,,,,,,,,,,,,,,,,,,,,,,,
"72505394728","2020-04-09T02:51:00","FM-15","7",,,,,,,,,,,,,,,,,,,,,,,,,,,,,,,,,,,,,,"29.60","43","49","0.00",,,,"80","29.57","CLR:00","29.43","10.00","46","VRB",,"5",,,,,,,,,,,,,,,,,,,,,,,,,,,,,,,,,,,,,"MET09004/09/20 02:51:02 METAR KNYC 090751Z VRB04KT 10SM CLR 09/06 A2960 RMK AO2 SLP015 T00940061","FM-15","7",,,,,,,,,,,,,,,,,,,,,,,,,,,,
"72505394728","2020-04-09T03:51:00","FM-15","7",,,,,,,,,,,,,,,,,,,,,,,,,,,,,,,,,,,,,,"29.58","43","50","0.00",,"+0.06","8","77","29.55","FEW:02 30","29.41","10.00","47","000",,"0",,,,,,,,,,,,,,,,,,,,,,,,,,,,,,,,,,,,,"MET09904/09/20 03:51:02 METAR KNYC 090851Z 00000KT 10SM FEW030 10/06 A2958 RMK AO2 SLP008 T01000061 58021","FM-15","7",,,,,,,,,,,,,,,,,,,,,,,,,,,,
"72505394728","2020-04-09T04:51:00","FM-15","7",,,,,,,,,,,,,,,,,,,,,,,,,,,,,,,,,,,,,,"29.55","45","51","0.00",,,,"80","29.52","BKN:07 38 OVC:08 50","29.38","10.00","48","170",,"6",,,,,,,,,,,,,,,,,,,,,,,,,,,,,,,,,,,,,"MET10704/09/20 04:51:02 METAR KNYC 090951Z 17005KT 10SM BKN038 OVC050 11/07 A2955 RMK AO2 PRESFR SLP998 T01060072","FM-15","7",,,,,,,,,,,,,,,,,,,,,,,,,,,,
"72505394728","2020-04-09T05:15:00","FM-16","7",,,,,,,,,,,,,,,,,,,,,,,,,,,,,,,,,,,,,,"29.53","45","51",,,,,"80",,"BKN:07 29 BKN:07 40 OVC:08 50","29.36","10.00","48","VRB","17","6",,,,,,,,,,,,,,,,,,,,,,,,,,,,,,,,,,,,,"MET10304/09/20 05:15:02 SPECI KNYC 091015Z VRB05G15KT 10SM BKN029 BKN040 OVC050 11/07 A2953 RMK AO2 T01060072","FM-16","7",,,,,,,,,,,,,,,,,,,,,,,,,,,,
"72505394728","2020-04-09T05:51:00","FM-15","7",,,,,,,,,,,,,,,,,,,,,,,,,,,,,,,,,,,,,,"29.53","45","51","0.00",,,,"80","29.50","OVC:08 29","29.36","10.00","48","VRB",,"8",,,,,,,,,,,,,,,,,,,,,,,,,,,,,,,,,,,,,"MET09304/09/20 05:51:02 METAR KNYC 091051Z 16007KT 10SM OVC029 11/07 A2953 RMK AO2 SLP989 T01060072","FM-15","7",,,,,,,,,,,,,,,,,,,,,,,,,,,,
"72505394728","2020-04-09T06:51:00","FM-15","7",,,,,,,,,,,,,,,,,,,,,,,,,,,,,,,,,,,,,,"29.49","45","51","0.00",,"+0.09","8","80","29.46","OVC:08 27","29.32","10.00","48","VRB",,"5",,,,,,,,,,,,,,,,,,,,,,,,,,,,,,,,,,,,,"MET11104/09/20 06:51:02 METAR KNYC 091151Z VRB04KT 10SM OVC027 11/07 A2949 RMK AO2 SLP976 T01060072 10111 20094 58031","FM-15","7",,,,,,,,,,,,,,,,,,,,,,,,,,,,
"72505394728","2020-04-09T07:51:00","FM-15","7",,,,,,,,,,,,,,,,,,,,,,,,,,,,,,,,,,,,,,"29.45","46","51","T",,,,"83","29.42","OVC:08 26","29.28","10.00","48","150","17","10",,,,,,,,,,,,,,,,,,,,,,,,,,,,,,,,,,,,,"MET09604/09/20 07:51:02 METAR KNYC 091251Z 15009G15KT 10SM OVC026 11/08 A2945 RMK AO2 SLP964 T01060078","FM-15","7",,,,,,,,,,,,,,,,,,,,,,,,,,,,
"72505394728","2020-04-09T08:51:00","FM-15","7",,,,,,,,,,,,,,,,,,,,,,,,,,,,,,,,,,,,,,"29.37","48","51","0.02",,,,"89","29.35","OVC:08 21","29.20","10.00","49","150","18","9",,,,,,,,,,,,,,,,,,,,,,,,,,,,,,,,,,,,,"MET12004/09/20 08:51:02 METAR KNYC 091351Z 15008G16KT 10SM OVC021 11/09 A2937 RMK AO2 RAB1252E43 PRESFR SLP938 P0002 T01060089","FM-15","7",,,,,,,,,,,,,,,,,,,,,,,,,,,,
"72505394728","2020-04-09T09:51:00","FM-15","7",,,,,,,,,,,,,,,,,,,,,,,,,,,,,,,,,,,,,,"29.32","47","52","T",,"+0.17","8","83","29.29","OVC:08 15","29.15","10.00","49","VRB",,"8",,,,,,,,,,,,,,,,,,,,,,,,,,,,,,,,,,,,,"MET12004/09/20 09:51:02 METAR KNYC 091451Z 17007KT 10SM OVC015 11/08 A2932 RMK AO2 RAB01E11 SLP920 P0000 60002 T01110083 58057","FM-15","7",,,,,,,,,,,,,,,,,,,,,,,,,,,,
"72505394728","2020-04-09T10:04:00","FM-16","7",,,,,,,,,,,,,,,,,,,,,,,,,,,,,,,,,,,,,,"29.30","47","53",,,,,"80",,"OVC:08 13","29.13","10.00","50","VRB",,"6",,,,,,,,,,,,,,,,,,,,,,,,,,,,,,,,,,,,,"MET09304/09/20 10:04:02 SPECI KNYC 091504Z VRB05KT 10SM OVC013 12/08 A2930 RMK AO2 PRESFR T01170083","FM-16","7",,,,,,,,,,,,,,,,,,,,,,,,,,,,
"72505394728","2020-04-09T10:51:00","FM-15","7",,,,,,,,,,,,,,,,,,,,,,,,,,,,,,,,,,,,,,"29.24","50","54","0.00",,,,"87","29.21","OVC:08 10","29.07","10.00","52",,,,,,,,,,,,,,,,,,,,,,,,,,,,,,,,,,,,,,,,"MET10004/09/20 10:51:02 METAR KNYC 091551Z      KT 10SM OVC010 12/10 A2924 RMK AO2 PRESFR SLP892 T01220100","FM-15","7",,,,,,,,,,,,,,,,,,,,,,,,,,,,
"72505394728","2020-04-09T11:27:00","FM-16","7",,,,,,,,,,,,,,,,,,,,,,,,,,,,,,,,,,,,,,"29.20","51","56",,,,,"84",,"BKN:07 16 OVC:08 22","29.03","10.00","53","VRB",,"5",,,,,,,,,,,,,,,,,,,,,,,,,,,,,,,,,,,,,"MET09304/09/20 11:27:02 SPECI KNYC 091627Z VRB04KT 10SM BKN016 OVC022 13/11 A2920 RMK AO2 T01330106","FM-16","7",,,,,,,,,,,,,,,,,,,,,,,,,,,,
"72505394728","2020-04-09T11:49:00","FM-16","6",,,,,,,,,,,,,,,,,,,,,,,,,,,,,,,,,,,,,,"29.19","52","57",,,,,"82",,"OVC:08 14","29.02","10.00","54","000",,"0",,,,,,,,,,,,,,,,,,,,,,,,,,,,,,,,,,,,,"MET08104/09/20 11:49:02 SPECI KNYC 091649Z 00000KT 10SM OVC014 14/11 A2919 RMK AO2 FIBI","FM-16","6",,,,,,,,,,,,,,,,,,,,,,,,,,,,
"72505394728","2020-04-09T11:51:00","FM-15","7",,,,,,,,,,,,,,,,,,,,,,,,,,,,,,,,,,,,,,"29.19","51","57","0.00",,,,"81","29.16","OVC:08 14","29.02","10.00","54","VRB",,"3",,,,,,,,,,,,,,,,,,,,,,,,,,,,,,,,,,,,,"MET09304/09/20 11:51:02 METAR KNYC 091651Z VRB03KT 10SM OVC014 14/11 A2919 RMK AO2 SLP876 T01390106","FM-15","7",,,,,,,,,,,,,,,,,,,,,,,,,,,,
"72505394728","2020-04-09T12:21:00","FM-16","7",,,,,,,,,,,,,,,,,,,,,,,,,,,,,,,,,,,,,,"29.18","52","58","T","-RA:02 |RA |RA",,,"81",,"SCT:04 15 BKN:07 24 OVC:08 32","29.01","10.00","55","000",,"0",,,,,,,,,,,,,,,,,,,,,,,,,,,,,,,,,,,,,"MET11604/09/20 12:21:02 SPECI KNYC 091721Z 00000KT 10SM -RA SCT015 BKN024 OVC032 14/11 A2918 RMK AO2 RAB10 P0000 T01440111","FM-16","7",,,,,,,,,,,,,,,,,,,,,,,,,,,,
"72505394728","2020-04-09T12:32:00","FM-16","7",,,,,,,,,,,,,,,,,,,,,,,,,,,,,,,,,,,,,,"29.17","53","58","T","-RA:02 |RA |RA",,,"84",,"FEW:02 15 BKN:07 39 OVC:08 65","29.00","5.00","55","000",,"0",,,,,,,,,,,,,,,,,,,,,,,,,,,,,,,,,,,,,"MET11504/09/20 12:32:02 SPECI KNYC 091732Z 00000KT 5SM -RA FEW015 BKN039 OVC065 14/12 A2917 RMK AO2 RAB10 P0000 T01440117","FM-16","7",,,,,,,,,,,,,,,,,,,,,,,,,,,,
"72505394728","2020-04-09T12:51:00","FM-15","7",,,,,,,,,,,,,,,,,,,,,,,,,,,,,,,,,,,,,,"29.17","53","58","0.06s","-RA:02 |RA |RA","+0.15","6","84","29.15","FEW:02 31 BKN:07 44 OVC:08 55","29.00","3.00","55","270",,"3",,,,,,,,,,,,,,,,,,,,,,,,,,,,,,,,,,,,,"MET14604/09/20 12:51:02 METAR KNYC 091751Z 27003KT 3SM -RA FEW031 BKN044 OVC055 14/12 A2917 RMK AO2 RAB10 SLP870 P0002 60004 T01440117 10150 20100 56050","FM-15","7",,,,,,,,,,,,,,,,,,,,,,,,,,,,
"72505394728","2020-04-09T12:57:00","FM-16","6",,,,,,,,,,,,,,,,,,,,,,,,,,,,,,,,,,,,,,"29.21","52","55",,"+RA:02 BR:1 |RA |RA",,,"90",,"FEW:02 18 BKN:07 29 OVC:08 60","29.04","1.00","53","VRB","28","14",,,,,,,,,,,,,,,,,,,,,,,,,,,,,,,,,,,,,"MET13104/09/20 12:57:02 SPECI KNYC 091757Z 27012G24KT 1SM +RA BR FEW018 BKN029 OVC060 13/11 A2921 RMK AO2 PRESRR P0000 T01280111 RTX FIBI","FM-16","6",,,,,,,,,,,,,,,,,,,,,,,,,,,,
"72505394728","2020-04-09T12:59:00","FM-16","7",,,,,,,,,,,,,,,,,,,,,,,,,,,,,,,,,,,,,,"29.21","50","54","0.04","+RA:02 BR:1 |RA |RA",,,"87",,"FEW:02 18 BKN:07 39 OVC:08 55","29.04","0.75","52","VRB","30","17",,,,,,,,,,,,,,,,,,,,,,,,,,,,,,,,,,,,,"MET14204/09/20 12:59:02 SPECI KNYC 091759Z 26015G26KT 3/4SM +RA BR FEW018 BKN039 OVC055 12/10 A2921 RMK AO2 PK WND 24026/1758 PRESRR P0004 T01220100","FM-16","7",,,,,,,,,,,,,,,,,,,,,,,,,,,,
"72505394728","2020-04-09T13:08:00","FM-16","7",,,,,,,,,,,,,,,,,,,,,,,,,,,,,,,,,,,,,,"29.19","47","54","0.07","-RA:02 |RA |RA",,,"77",,"FEW:02 17 FEW:02 30 OVC:08 55","29.02","2.50","50","240","34","8",,,,,,,,,,,,,,,,,,,,,,,,,,,,,,,,,,,,,"MET13404/09/20 13:08:02 SPECI KNYC 091808Z 24007G30KT 2 1/2SM -RA FEW017 FEW030 OVC055 12/08 A2919 RMK AO2 PK WND 28030/1800 P0007 T01220083","FM-16","7",,,,,,,,,,,,,,,,,,,,,,,,,,,,
"72505394728","2020-04-09T13:15:00","FM-16","7",,,,,,,,,,,,,,,,,,,,,,,,,,,,,,,,,,,,,,"29.18","47","53","0.08","-RA:02 |RA |RA",,,"80",,"FEW:02 17 FEW:02 30 OVC:08 55","29.01","6.00","50",,,,,,,,,,,,,,,,,,,,,,,,,,,,,,,,,,,,,,,,"MET12704/09/20 13:15:02 SPECI KNYC 091815Z      KT 6SM -RA FEW017 FEW030 OVC055 12/08 A2918 RMK AO2 PK WND 28030/1800 P0008 T01170083","FM-16","7",,,,,,,,,,,,,,,,,,,,,,,,,,,,
"72505394728","2020-04-09T13:51:00","FM-15","7",,,,,,,,,,,,,,,,,,,,,,,,,,,,,,,,,,,,,,"29.22","43","52","0.04","-RA:02 |RA |RA",,,"72","29.20","FEW:02 30 BKN:07 55 OVC:08 90","29.05","8.00","48","280","36","21",,,,,,,,,,,,,,,,,,,,,,,,,,,,,,,,,,,,,"MET13704/09/20 13:51:02 METAR KNYC 091851Z 28018G31KT 8SM -RA FEW030 BKN055 OVC090 11/06 A2922 RMK AO2 PK WND 30034/1840 SLP888 P0008 T01110061","FM-15","7",,,,,,,,,,,,,,,,,,,,,,,,,,,,
"72505394728","2020-04-09T14:51:00","FM-15","7",,,,,,,,,,,,,,,,,,,,,,,,,,,,,,,,,,,,,,"29.26","36","54","T",,,,"51","29.23","SCT:04 100","29.09","10.00","46","VRB","30","14",,,,,,,,,,,,,,,,,,,,,,,,,,,,,,,,,,,,,"MET13404/09/20 14:51:02 METAR KNYC 091951Z 31012G26KT 10SM SCT100 12/02 A2926 RMK AO2 PK WND 30027/1907 RAE1855B18E30 SLP899 P0000 T01220022","FM-15","7",,,,,,,,,,,,,,,,,,,,,,,,,,,,
"72505394728","2020-04-09T15:51:00","FM-15","7",,,,,,,,,,,,,,,,,,,,,,,,,,,,,,,,,,,,,,"29.28","30","55","0.00",,"-0.11","1","38","29.26","SCT:04 55","29.11","10.00","44","280","29","17",,,,,,,,,,,,,,,,,,,,,,,,,,,,,,,,,,,,,"MET12704/09/20 15:51:02 METAR KNYC 092051Z 28015G25KT 10SM SCT055 13/M01 A2928 RMK AO2 PK WND 32030/2002 SLP907 60008 T01281011 51037","FM-15","7",,,,,,,,,,,,,,,,,,,,,,,,,,,,
"72505394728","2020-04-09T16:51:00","FM-15","7",,,,,,,,,,,,,,,,,,,,,,,,,,,,,,,,,,,,,,"29.33","28","51","0.00",,,,"41","29.30","FEW:02 65","29.16","10.00","41","300","38","15",,,,,,,,,,,,,,,,,,,,,,,,,,,,,,,,,,,,,"MET11504/09/20 16:51:02 METAR KNYC 092151Z 30013G33KT 10SM FEW065 11/M02 A2933 RMK AO2 PK WND 31033/2146 SLP923 T01061022","FM-15","7",,,,,,,,,,,,,,,,,,,,,,,,,,,,
"72505394728","2020-04-09T17:51:00","FM-15","7",,,,,,,,,,,,,,,,,,,,,,,,,,,,,,,,,,,,,,"29.35","27","50","0.00",,,,"41","29.32","CLR:00","29.18","10.00","40","290","24","9",,,,,,,,,,,,,,,,,,,,,,,,,,,,,,,,,,,,,"MET11204/09/20 17:51:02 METAR KNYC 092251Z 29008G21KT 10SM CLR 10/M03 A2935 RMK AO2 PK WND 31029/2155 SLP930 T01001028","FM-15","7",,,,,,,,,,,,,,,,,,,,,,,,,,,,
"72505394728","2020-04-09T18:51:00","FM-15","7",,,,,,,,,,,,,,,,,,,,,,,,,,,,,,,,,,,,,,"29.37","25","49","0.00",,"-0.09","1","39","29.34","CLR:00","29.20","10.00","39","VRB",,"10",,,,,,,,,,,,,,,,,,,,,,,,,,,,,,,,,,,,,"MET11504/09/20 18:51:02 METAR KNYC 092351Z 30009KT 10SM CLR 09/M04 A2937 RMK AO2 SLP937 60008 T00941039 10139 20094 51030","FM-15","7",,,,,,,,,,,,,,,,,,,,,,,,,,,,
"72505394728","2020-04-09T19:51:00","FM-15","7",,,,,,,,,,,,,,,,,,,,,,,,,,,,,,,,,,,,,,"29.40","22","49","0.00",,,,"35","29.37","CLR:00","29.23","10.00","38","VRB",,"7",,,,,,,,,,,,,,,,,,,,,,,,,,,,,,,,,,,,,"MET09104/09/20 19:51:01 METAR KNYC 100051Z VRB06KT 10SM CLR 09/M06 A2940 RMK AO2 SLP947 T00941056","FM-15","7",,,,,,,,,,,,,,,,,,,,,,,,,,,,
"72505394728","2020-04-09T20:51:00","FM-15","7",,,,,,,,,,,,,,,,,,,,,,,,,,,,,,,,,,,,,,"29.40","23","48","0.00",,,,"37","29.38","CLR:00","29.23","10.00","38","VRB",,"6",,,,,,,,,,,,,,,,,,,,,,,,,,,,,,,,,,,,,"MET09104/09/20 20:51:01 METAR KNYC 100151Z VRB05KT 10SM CLR 09/M05 A2940 RMK AO2 SLP949 T00891050","FM-15","7",,,,,,,,,,,,,,,,,,,,,,,,,,,,
"72505394728","2020-04-09T21:51:00","FM-15","7",,,,,,,,,,,,,,,,,,,,,,,,,,,,,,,,,,,,,,"29.39","23","47","0.00",,"-0.02","0","39","29.37","CLR:00","29.22","10.00","38","VRB",,"6",,,,,,,,,,,,,,,,,,,,,,,,,,,,,,,,,,,,,"MET09704/09/20 21:51:01 METAR KNYC 100251Z VRB05KT 10SM CLR 08/M05 A2939 RMK AO2 SLP945 T00831050 50008","FM-15","7",,,,,,,,,,,,,,,,,,,,,,,,,,,,
"72505394728","2020-04-09T22:51:00","FM-15","7",,,,,,,,,,,,,,,,,,,,,,,,,,,,,,,,,,,,,,"29.38","26","46","0.00",,,,"46","29.36","OVC:08 110","29.21","10.00","38","VRB",,"7",,,,,,,,,,,,,,,,,,,,,,,,,,,,,,,,,,,,,"MET09404/09/20 22:51:02 METAR KNYC 100351Z VRB06KT 10SM OVC110 08/M03 A2938 RMK AO2 SLP942 T00781033","FM-15","7",,,,,,,,,,,,,,,,,,,,,,,,,,,,
"72505394728","2020-04-09T23:51:00","FM-15","7",,,,,,,,,,,,,,,,,,,,,,,,,,,,,,,,,,,,,,"29.38","31","43","T",,,,"63","29.36","BKN:07 40 OVC:08 60","29.21","10.00","38","VRB","25","5",,,,,,,,,,,,,,,,,,,,,,,,,,,,,,,,,,,,,"MET13204/09/20 23:51:02 METAR KNYC 100451Z VRB04G22KT 10SM BKN040 OVC060 06/M01 A2938 RMK AO2 PK WND 25027/0421 SLP942 T00611006 401500061","FM-15","7",,,,,,,,,,,,,,,,,,,,,,,,,,,,
"72505394728","2020-04-09T23:59:00","SOD  ","6",,,,,,,,,,,,,,,,"51",,,"29.18",,"7.9","0","0.2","14","59","43","300","39","0.12","0","0.0","300","24","RA BR",,,,,,,,,,,,,,,,,,,,,,,,,,,,,,,,,,,,,,,,,,,,,,,,,,,,,,,,"SOD75724 HR PRECIPITATION (IN): 0.12 SNOW DEPTH (IN):0     24 HR SNOWFALL (IN):0.0  WEATHER(CODE):13  24 HR MAX TEMP (F): 5924 HR MIN TEMP (F): 43AVERAGE STATION PRESSURE(D):29.183 MINIMUM SEA LEVEL PRESSURE:29.14 TIME OF OCCURRENCE:1250 PEAK WIND SPEED (MPH): 39 PEAK WIND DIR (DEG):300 PEAK WIND TIME (LST):      FASTEST 2MIN SPEED (MPH): 24FASTEST 2MIN DIR (DEG):300 FASTEST 2MIN TIME (LST):     AVERAGE WIND SPEED (MPH): 7.9 24 HR AVG TEMP (F): 51DEPART FROM NORMAL:  0  HEATING DEGREE DAYS: 14 COOLING DEGREE DAYS:  0 LATEST DAY MAX TEMP (0700-1900 LST): 59 LATEST NIGHT MIN TEMP(1900-0800 LST):49 HOURLY INCREMENTAL PRECIPITATION VALUES (IN):0.00 0.00 0.00 0.00 0.00 0.00 0.00T     0.02T     0.00 0.00 0.06 0.04T     0.00 0.00 0.00 0.00 0.00 0.00 0.00 0.00T","SOD  ","6",,,,,,,,,,,,,,,,,,,,,,,,,"0525","1830",,
"72505394728","2020-04-10T00:51:00","FM-15","7",,,,,,,,,,,,,,,,,,,,,,,,,,,,,,,,,,,,,,"29.36","31","42","T",,"+0.03","8","65","29.34","CLR:00","29.19","10.00","37","VRB","16","7",,,,,,,,,,,,,,,,,,,,,,,,,,,,,,,,,,,,,"MET13504/10/20 00:51:02 METAR KNYC 100551Z VRB06G14KT 10SM CLR 06/M01 A2936 RMK AO2 RAB0455E03 SLP935 P0000 60000 T00561006 10094 20056 58009","FM-15","7",,,,,,,,,,,,,,,,,,,,,,,,,,,,
"72505394728","2020-04-10T01:51:00","FM-15","7",,,,,,,,,,,,,,,,,,,,,,,,,,,,,,,,,,,,,,"29.36","31","42","0.00",,,,"65","29.33","FEW:02 29 SCT:04 43 SCT:04 70","29.19","10.00","37","VRB","17","9",,,,,,,,,,,,,,,,,,,,,,,,,,,,,,,,,,,,,"MET11104/10/20 01:51:02 METAR KNYC 100651Z 26008G15KT 10SM FEW029 SCT043 SCT070 06/M01 A2936 RMK AO2 SLP933 T00561006","FM-15","7",,,,,,,,,,,,,,,,,,,,,,,,,,,,
"72505394728","2020-04-10T02:37:00","FM-16","7",,,,,,,,,,,,,,,,,,,,,,,,,,,,,,,,,,,,,,"29.37","33","40","0.01","-RA:02 |RA |RA",,,"77",,"FEW:02 19 BKN:07 26 OVC:08 33","29.20","10.00","37","280","20","9",,,,,,,,,,,,,,,,,,,,,,,,,,,,,,,,,,,,,"MET11904/10/20 02:37:02 SPECI KNYC 100737Z 28008G17KT 10SM -RA FEW019 BKN026 OVC033 04/01 A2937 RMK AO2 RAB24 P0001 T00440006","FM-16","7",,,,,,,,,,,,,,,,,,,,,,,,,,,,
"72505394728","2020-04-10T02:48:00","FM-16","7",,,,,,,,,,,,,,,,,,,,,,,,,,,,,,,,,,,,,,"29.37","32","41","0.01",,,,"70",,"SCT:04 26 OVC:08 35","29.20","10.00","37","VRB","17","7",,,,,,,,,,,,,,,,,,,,,,,,,,,,,,,,,,,,,"MET10104/10/20 02:48:02 SPECI KNYC 100748Z VRB06G15KT 10SM SCT026 OVC035 05/00 A2937 RMK AO2 RAB24E42 P0001","FM-16","7",,,,,,,,,,,,,,,,,,,,,,,,,,,,
"72505394728","2020-04-10T02:51:00","FM-15","7",,,,,,,,,,,,,,,,,,,,,,,,,,,,,,,,,,,,,,"29.38","31","41","0.01",,,,"67","29.35","FEW:02 18 SCT:04 26 OVC:08 35","29.21","10.00","37","270","24","13",,,,,,,,,,,,,,,,,,,,,,,,,,,,,,,,,,,,,"MET12604/10/20 02:51:02 METAR KNYC 100751Z 27011G21KT 10SM FEW018 SCT026 OVC035 05/M01 A2938 RMK AO2 RAB24E42 SLP940 P0001 T00501006","FM-15","7",,,,,,,,,,,,,,,,,,,,,,,,,,,,
"72505394728","2020-04-10T03:02:00","FM-16","7",,,,,,,,,,,,,,,,,,,,,,,,,,,,,,,,,,,,,,"29.40","32","38","T","-RA:02 |RA |RA",,,"79",,"FEW:02 14 BKN:07 20 OVC:08 35","29.23","6.00","36","270","37","10",,,,,,,,,,,,,,,,,,,,,,,,,,,,,,,,,,,,,"MET14504/10/20 03:02:02 SPECI KNYC 100802Z 27009G32KT 6SM -RA FEW014 BKN020 OVC035 03/00 A2940 RMK AO2 PK WND 25032/0755 RAB0753 PRESRR P0000 T00330000","FM-16","7",,,,,,,,,,,,,,,,,,,,,,,,,,,,
"72505394728","2020-04-10T03:13:00","FM-16","7",,,,,,,,,,,,,,,,,,,,,,,,,,,,,,,,,,,,,,"29.38","32","37","T",,,,"82",,"FEW:02 14 SCT:04 33 OVC:08 46","29.21","10.00","35","VRB","24","10",,,,,,,,,,,,,,,,,,,,,,,,,,,,,,,,,,,,,"MET13804/10/20 03:13:02 SPECI KNYC 100813Z 27009G21KT 10SM FEW014 SCT033 OVC046 03/00 A2938 RMK AO2 PK WND 25032/0755 RAB0753E12 P0000 T00280000","FM-16","7",,,,,,,,,,,,,,,,,,,,,,,,,,,,
"72505394728","2020-04-10T03:51:00","FM-15","7",,,,,,,,,,,,,,,,,,,,,,,,,,,,,,,,,,,,,,"29.40","31","38","T",,"-0.04","3","76","29.38","SCT:04 70 BKN:07 85 BKN:07 110","29.23","10.00","35","VRB","21","10",,,,,,,,,,,,,,,,,,,,,,,,,,,,,,,,,,,,,"MET15804/10/20 03:51:02 METAR KNYC 100851Z 27009G18KT 10SM SCT070 BKN085 BKN110 03/M01 A2940 RMK AO2 PK WND 25032/0755 RAB0753E12 SLP948 P0000 60001 T00331006 53015","FM-15","7",,,,,,,,,,,,,,,,,,,,,,,,,,,,
"72505394728","2020-04-10T04:51:00","FM-15","7",,,,,,,,,,,,,,,,,,,,,,,,,,,,,,,,,,,,,,"29.38","31","38","0.00",,,,"76","29.36","CLR:00","29.21","10.00","35","VRB",,"7",,,,,,,,,,,,,,,,,,,,,,,,,,,,,,,,,,,,,"MET09104/10/20 04:51:02 METAR KNYC 100951Z VRB06KT 10SM CLR 03/M01 A2938 RMK AO2 SLP941 T00331006","FM-15","7",,,,,,,,,,,,,,,,,,,,,,,,,,,,
"72505394728","2020-04-10T05:51:00","FM-15","7",,,,,,,,,,,,,,,,,,,,,,,,,,,,,,,,,,,,,,"29.38","28","39","0.00",,,,"65","29.36","CLR:00","29.21","10.00","35","VRB",,"7",,,,,,,,,,,,,,,,,,,,,,,,,,,,,,,,,,,,,"MET09104/10/20 05:51:02 METAR KNYC 101051Z VRB06KT 10SM CLR 04/M02 A2938 RMK AO2 SLP942 T00391022","FM-15","7",,,,,,,,,,,,,,,,,,,,,,,,,,,,
"72505394728","2020-04-10T06:51:00","FM-15","7",,,,,,,,,,,,,,,,,,,,,,,,,,,,,,,,,,,,,,"29.39","26","40","0.00",,"+0.01","5","58","29.37","CLR:00","29.22","10.00","35","VRB","21","10",,,,,,,,,,,,,,,,,,,,,,,,,,,,,,,,,,,,,"MET12404/10/20 06:51:02 METAR KNYC 101151Z 25009G18KT 10SM CLR 04/M03 A2939 RMK AO2 SLP945 60001 70013 T00441033 10056 20028 55002","FM-15","7",,,,,,,,,,,,,,,,,,,,,,,,,,,,
"72505394728","2020-04-10T07:51:00","FM-15","7",,,,,,,,,,,,,,,,,,,,,,,,,,,,,,,,,,,,,,"29.40","24","43","0.00",,,,"47","29.37","BKN:07 49","29.23","10.00","36","VRB","30","8",,,,,,,,,,,,,,,,,,,,,,,,,,,,,,,,,,,,,"MET11504/10/20 07:51:02 METAR KNYC 101251Z 27007G26KT 10SM BKN049 06/M04 A2940 RMK AO2 PK WND 28026/1245 SLP947 T00611044","FM-15","7",,,,,,,,,,,,,,,,,,,,,,,,,,,,
"72505394728","2020-04-10T08:51:00","FM-15","7",,,,,,,,,,,,,,,,,,,,,,,,,,,,,,,,,,,,,,"29.41","23","42","0.00",,,,"47","29.38","OVC:08 50","29.24","10.00","35","VRB","29","10",,,,,,,,,,,,,,,,,,,,,,,,,,,,,,,,,,,,,"MET11504/10/20 08:51:02 METAR KNYC 101351Z 28009G25KT 10SM OVC050 06/M05 A2941 RMK AO2 PK WND 28027/1336 SLP950 T00561050","FM-15","7",,,,,,,,,,,,,,,,,,,,,,,,,,,,
"72505394728","2020-04-10T09:51:00","FM-15","7",,,,,,,,,,,,,,,,,,,,,,,,,,,,,,,,,,,,,,"29.42","22","43","0.00",,"-0.02","3","43","29.39","OVC:08 60","29.25","10.00","35","270","29","15",,,,,,,,,,,,,,,,,,,,,,,,,,,,,,,,,,,,,"MET12104/10/20 09:51:02 METAR KNYC 101451Z 27013G25KT 10SM OVC060 06/M06 A2942 RMK AO2 PK WND 28032/1430 SLP954 T00611056 53008","FM-15","7",,,,,,,,,,,,,,,,,,,,,,,,,,,,
"72505394728","2020-04-10T10:51:00","FM-15","7",,,,,,,,,,,,,,,,,,,,,,,,,,,,,,,,,,,,,,"29.41","22","45","0.00",,,,"40","29.38","OVC:08 60","29.24","10.00","36","280","28","9",,,,,,,,,,,,,,,,,,,,,,,,,,,,,,,,,,,,,"MET11504/10/20 10:51:02 METAR KNYC 101551Z 28008G24KT 10SM OVC060 07/M06 A2941 RMK AO2 PK WND 28028/1519 SLP950 T00721056","FM-15","7",,,,,,,,,,,,,,,,,,,,,,,,,,,,
"72505394728","2020-04-10T11:51:00","FM-15","7",,,,,,,,,,,,,,,,,,,,,,,,,,,,,,,,,,,,,,"29.41","22","46","0.00",,,,"38","29.39","BKN:07 60 OVC:08 80","29.24","10.00","37","270","24","13",,,,,,,,,,,,,,,,,,,,,,,,,,,,,,,,,,,,,"MET10404/10/20 11:51:02 METAR KNYC 101651Z 27011G21KT 10SM BKN060 OVC080 08/M06 A2941 RMK AO2 SLP952 T00781056","FM-15","7",,,,,,,,,,,,,,,,,,,,,,,,,,,,
"72505394728","2020-04-10T12:51:00","FM-15","7",,,,,,,,,,,,,,,,,,,,,,,,,,,,,,,,,,,,,,"29.42","23","47","0.00",,"+0.00","5","39","29.39","SCT:04 60 OVC:08 75","29.25","10.00","38","VRB","30","9",,,,,,,,,,,,,,,,,,,,,,,,,,,,,,,,,,,,,"MET14004/10/20 12:51:02 METAR KNYC 101751Z 30008G26KT 10SM SCT060 OVC075 08/M05 A2942 RMK AO2 PK WND 28029/1724 SLP954 T00831050 10083 20044 55000","FM-15","7",,,,,,,,,,,,,,,,,,,,,,,,,,,,
"72505394728","2020-04-10T13:51:00","FM-15","7",,,,,,,,,,,,,,,,,,,,,,,,,,,,,,,,,,,,,,"29.44","22","49","T",,,,"35","29.41","SCT:04 70 BKN:07 80 BKN:07 100","29.27","10.00","38","290","32","21",,,,,,,,,,,,,,,,,,,,,,,,,,,,,,,,,,,,,"MET14404/10/20 13:51:02 METAR KNYC 101851Z 29018G28KT 10SM SCT070 BKN080 BKN100 09/M06 A2944 RMK AO2 PK WND 27031/1814 RAB15E26 SLP961 P0000 T00941056","FM-15","7",,,,,,,,,,,,,,,,,,,,,,,,,,,,
"72505394728","2020-04-10T14:51:00","FM-15","7",,,,,,,,,,,,,,,,,,,,,,,,,,,,,,,,,,,,,,"29.47","24","47","T",,,,"41","29.44","FEW:02 39 SCT:04 55 BKN:07 70","29.30","10.00","38",,,,,,,,,,,,,,,,,,,,,,,,,,,,,,,,,,,,,,,,"MET14104/10/20 14:51:02 METAR KNYC 101951Z      KT 10SM FEW039 SCT055 BKN070 08/M04 A2947 RMK AO2 PK WND 29034/1930 RAB08E32 SLP971 P0000 T00831044","FM-15","7",,,,,,,,,,,,,,,,,,,,,,,,,,,,
"72505394728","2020-04-10T15:51:00","FM-15","7",,,,,,,,,,,,,,,,,,,,,,,,,,,,,,,,,,,,,,"29.50","23","46","0.00",,"-0.08","3","40","29.47","BKN:07 55 OVC:08 70","29.33","10.00","37",,,,,,,,,,,,,,,,,,,,,,,,,,,,,,,,,,,,,,,,"MET13104/10/20 15:51:02 METAR KNYC 102051Z      KT 10SM BKN055 OVC070 08/M05 A2950 RMK AO2 PK WND 29030/2014 SLP980 60000 T00781050 53026","FM-15","7",,,,,,,,,,,,,,,,,,,,,,,,,,,,
"72505394728","2020-04-10T16:51:00","FM-15","7",,,,,,,,,,,,,,,,,,,,,,,,,,,,,,,,,,,,,,"29.53","25","47","0.00",,,,"42","29.51","OVC:08 60","29.36","10.00","38","260","21","8",,,,,,,,,,,,,,,,,,,,,,,,,,,,,,,,,,,,,"MET11504/10/20 16:51:02 METAR KNYC 102151Z 26007G18KT 10SM OVC060 08/M04 A2953 RMK AO2 PK WND 30029/2052 SLP993 T00831039","FM-15","7",,,,,,,,,,,,,,,,,,,,,,,,,,,,
"72505394728","2020-04-10T17:51:00","FM-15","7",,,,,,,,,,,,,,,,,,,,,,,,,,,,,,,,,,,,,,"29.60","26","45","0.00",,,,"48","29.57","BKN:07 49 OVC:08 60","29.43","10.00","37","VRB","25","10",,,,,,,,,,,,,,,,,,,,,,,,,,,,,,,,,,,,,"MET13304/10/20 17:51:02 METAR KNYC 102251Z 29009G22KT 10SM BKN049 OVC060 07/M03 A2960 RMK AO2 PK WND 27033/2202 PRESRR SLP015 T00721033 RTX","FM-15","7",,,,,,,,,,,,,,,,,,,,,,,,,,,,
"72505394728","2020-04-10T18:51:00","FM-15","7",,,,,,,,,,,,,,,,,,,,,,,,,,,,,,,,,,,,,,"29.64","26","45","0.00",,"-0.14","3","48","29.62","BKN:07 55 OVC:08 65","29.47","10.00","37","VRB","25","9",,,,,,,,,,,,,,,,,,,,,,,,,,,,,,,,,,,,,"MET12804/10/20 18:51:02 METAR KNYC 102351Z 30008G22KT 10SM BKN055 OVC065 07/M03 A2964 RMK AO2 SLP029 60000 T00721033 10094 20067 53048","FM-15","7",,,,,,,,,,,,,,,,,,,,,,,,,,,,
"72505394728","2020-04-10T19:51:00","FM-15","7",,,,,,,,,,,,,,,,,,,,,,,,,,,,,,,,,,,,,,"29.69","27","44","0.00",,,,"51","29.66","FEW:02 40 OVC:08 70","29.52","10.00","37","290","18","11",,,,,,,,,,,,,,,,,,,,,,,,,,,,,,,,,,,,,"MET10404/10/20 19:51:01 METAR KNYC 110051Z 29010G16KT 10SM FEW040 OVC070 07/M03 A2969 RMK AO2 SLP045 T00671028","FM-15","7",,,,,,,,,,,,,,,,,,,,,,,,,,,,
"72505394728","2020-04-10T20:51:00","FM-15","7",,,,,,,,,,,,,,,,,,,,,,,,,,,,,,,,,,,,,,"29.72","28","43","0.00",,,,"56","29.70","FEW:02 80","29.55","10.00","37","290","23","10",,,,,,,,,,,,,,,,,,,,,,,,,,,,,,,,,,,,,"MET09704/10/20 20:51:01 METAR KNYC 110151Z 29009G20KT 10SM FEW080 06/M02 A2972 RMK AO2 SLP056 T00611022","FM-15","7",,,,,,,,,,,,,,,,,,,,,,,,,,,,
"72505394728","2020-04-10T21:51:00","FM-15","7",,,,,,,,,,,,,,,,,,,,,,,,,,,,,,,,,,,,,,"29.74","26","44","0.00",,"-0.10","1","49","29.72","OVC:08 75","29.57","10.00","37","VRB",,"7",,,,,,,,,,,,,,,,,,,,,,,,,,,,,,,,,,,,,"MET10004/10/20 21:51:01 METAR KNYC 110251Z VRB06KT 10SM OVC075 07/M03 A2974 RMK AO2 SLP063 T00671033 51034","FM-15","7",,,,,,,,,,,,,,,,,,,,,,,,,,,,
"72505394728","2020-04-10T22:51:00","FM-15","7",,,,,,,,,,,,,,,,,,,,,,,,,,,,,,,,,,,,,,"29.76","24","43","0.00",,,,"47","29.74","FEW:02 50","29.59","10.00","36","VRB","20","9",,,,,,,,,,,,,,,,,,,,,,,,,,,,,,,,,,,,,"MET09704/10/20 22:51:02 METAR KNYC 110351Z 28008G17KT 10SM FEW050 06/M04 A2976 RMK AO2 SLP071 T00611044","FM-15","7",,,,,,,,,,,,,,,,,,,,,,,,,,,,
"72505394728","2020-04-10T23:51:00","FM-15","7",,,,,,,,,,,,,,,,,,,,,,,,,,,,,,,,,,,,,,"29.78","23","43","0.00",,,,"45","29.76","FEW:02 50","29.61","10.00","35","290","18","9",,,,,,,,,,,,,,,,,,,,,,,,,,,,,,,,,,,,,"MET10704/10/20 23:51:02 METAR KNYC 110451Z 29008G16KT 10SM FEW050 06/M05 A2978 RMK AO2 SLP077 T00611050 400940028","FM-15","7",,,,,,,,,,,,,,,,,,,,,,,,,,,,
"72505394728","2020-04-10T23:59:00","SOD  ","6",,,,,,,,,,,,,,,,"43",,,"29.28",,"10.1","0","-8.1","22","49","37","290","39","0.01","0","T","280","25","RA",,,,,,,,,,,,,,,,,,,,,,,,,,,,,,,,,,,,,,,,,,,,,,,,,,,,,,,,"SOD73924 HR PRECIPITATION (IN): 0.01 SNOW DEPTH (IN):0     24 HR SNOWFALL (IN):T    24 HR MAX TEMP (F): 4924 HR MIN TEMP (F): 37AVERAGE STATION PRESSURE:29.285 MINIMUM SEA LEVEL PRESSURE:29.33 TIME OF OCCURRENCE:0220 PEAK WIND SPEED (MPH): 39 PEAK WIND DIR (DEG):290 PEAK WIND TIME (LST):      FASTEST 2MIN SPEED (MPH): 25FASTEST 2MIN DIR (DEG):280 FASTEST 2MIN TIME (LST):     AVERAGE WIND SPEED (MPH):10.1 24 HR AVG TEMP (F): 43DEPART FROM NORMAL: -8  HEATING DEGREE DAYS: 22 COOLING DEGREE DAYS:  0 LATEST DAY MAX TEMP (0700-1900 LST):49  LATEST NIGHT MIN TEMP(1900-0800 LST):37 HOURLY INCREMENTAL PRECIPITATION VALUES (IN):    0.00 0.01 T    0.00 0.00 0.00 0.00 0.00 0.00 0.00 0.00 0.00 T    T    0.00 0.00 0.00 0.00 0.00 0.00 0.00 0.00 0.00","SOD  ","6",,,,,,,,,,,,,,,,,,,,,,,,,"0524","1831",,
"72505394728","2020-04-11T00:51:00","FM-15","7",,,,,,,,,,,,,,,,,,,,,,,,,,,,,,,,,,,,,,"29.80","22","42","0.00",,"-0.06","1","45","29.77","CLR:00","29.63","10.00","34","270","22","11",,,,,,,,,,,,,,,,,,,,,,,,,,,,,,,,,,,,,"MET11604/11/20 00:51:02 METAR KNYC 110551Z 27010G19KT 10SM CLR 06/M06 A2980 RMK AO2 SLP082 T00561056 10072 20056 51019 RTX","FM-15","7",,,,,,,,,,,,,,,,,,,,,,,,,,,,
"72505394728","2020-04-11T01:51:00","FM-15","7",,,,,,,,,,,,,,,,,,,,,,,,,,,,,,,,,,,,,,"29.81","21","41","0.00",,,,"45","29.78","CLR:00","29.64","10.00","34","280","25","17",,,,,,,,,,,,,,,,,,,,,,,,,,,,,,,,,,,,,"MET09804/11/20 01:51:02 METAR KNYC 110651Z 28015G22KT 10SM CLR 05/M06 A2981 RMK AO2 SLP085 T00501061 RTX","FM-15","7",,,,,,,,,,,,,,,,,,,,,,,,,,,,
"72505394728","2020-04-11T02:51:00","FM-15","7",,,,,,,,,,,,,,,,,,,,,,,,,,,,,,,,,,,,,,"29.82","19","40","0.00",,,,"43","29.79","CLR:00","29.65","10.00","32","280","23","13",,,,,,,,,,,,,,,,,,,,,,,,,,,,,,,,,,,,,"MET09804/11/20 02:51:02 METAR KNYC 110751Z 28011G20KT 10SM CLR 04/M07 A2982 RMK AO2 SLP089 T00441072 RTX","FM-15","7",,,,,,,,,,,,,,,,,,,,,,,,,,,,
"72505394728","2020-04-11T03:51:00","FM-15","7",,,,,,,,,,,,,,,,,,,,,,,,,,,,,,,,,,,,,,"29.83","19","40","0.00",,"-0.04","3","43","29.81","CLR:00","29.66","10.00","32","280","21","11",,,,,,,,,,,,,,,,,,,,,,,,,,,,,,,,,,,,,"MET10004/11/20 03:51:02 METAR KNYC 110851Z 28010G18KT 10SM CLR 04/M07 A2983 RMK AO2 SLP094 T00441072 53012","FM-15","7",,,,,,,,,,,,,,,,,,,,,,,,,,,,
"72505394728","2020-04-11T04:51:00","FM-15","7",,,,,,,,,,,,,,,,,,,,,,,,,,,,,,,,,,,,,,"29.87","19","39","0.00",,,,"45","29.84",,,"10.00",,"270","17","10",,,,,,,,,,,,,,,,,,,,,,,,,,,,,,,,,,,,,"MET05604/11/20 04:51:02 METAR KNYC 110951Z 27009G15KT 10SM RMK","FM-15","7",,,,,,,,,,,,,,,,,,,,,,,,,,,,
"72505394728","2020-04-11T05:51:00","FM-15","7",,,,,,,,,,,,,,,,,,,,,,,,,,,,,,,,,,,,,,"29.89","18","38","0.00",,,,"44","29.87","CLR:00","29.72","10.00","31","270","20","10",,,,,,,,,,,,,,,,,,,,,,,,,,,,,,,,,,,,,"MET09404/11/20 05:51:02 METAR KNYC 111051Z 27009G17KT 10SM CLR 03/M08 A2989 RMK AO2 SLP114 T00331078","FM-15","7",,,,,,,,,,,,,,,,,,,,,,,,,,,,
"72505394728","2020-04-11T06:51:00","FM-15","7",,,,,,,,,,,,,,,,,,,,,,,,,,,,,,,,,,,,,,"29.92","18","39","0.00",,"-0.09","1","43","29.90","CLR:00","29.75","10.00","32","270","17","9",,,,,,,,,,,,,,,,,,,,,,,,,,,,,,,,,,,,,"MET11204/11/20 06:51:02 METAR KNYC 111151Z 27008G15KT 10SM CLR 04/M08 A2992 RMK AO2 SLP125 T00391078 10056 20033 51030","FM-15","7",,,,,,,,,,,,,,,,,,,,,,,,,,,,
"72505394728","2020-04-11T07:51:00","FM-15","7",,,,,,,,,,,,,,,,,,,,,,,,,,,,,,,,,,,,,,"29.93","18","41","0.00",,,,"39","29.91","CLR:00","29.76","10.00","33","VRB","21","11",,,,,,,,,,,,,,,,,,,,,,,,,,,,,,,,,,,,,"MET09404/11/20 07:51:02 METAR KNYC 111251Z 29010G18KT 10SM CLR 05/M08 A2993 RMK AO2 SLP128 T00501078","FM-15","7",,,,,,,,,,,,,,,,,,,,,,,,,,,,
"72505394728","2020-04-11T08:51:00","FM-15","7",,,,,,,,,,,,,,,,,,,,,,,,,,,,,,,,,,,,,,"29.93","18","44","0.00",,,,"35","29.91","CLR:00","29.76","10.00","35","VRB",,"5",,,,,,,,,,,,,,,,,,,,,,,,,,,,,,,,,,,,,"MET09104/11/20 08:51:02 METAR KNYC 111351Z VRB04KT 10SM CLR 07/M08 A2993 RMK AO2 SLP127 T00671078","FM-15","7",,,,,,,,,,,,,,,,,,,,,,,,,,,,
"72505394728","2020-04-11T09:51:00","FM-15","7",,,,,,,,,,,,,,,,,,,,,,,,,,,,,,,,,,,,,,"29.94","17","46","0.00",,"-0.01","1","31","29.91","CLR:00","29.77","10.00","35","VRB","22","6",,,,,,,,,,,,,,,,,,,,,,,,,,,,,,,,,,,,,"MET10404/11/20 09:51:02 METAR KNYC 111451Z VRB05G19KT 10SM CLR 08/M08 A2994 RMK AO2 SLP130 T00781083 51005 RTX","FM-15","7",,,,,,,,,,,,,,,,,,,,,,,,,,,,
"72505394728","2020-04-11T10:51:00","FM-15","7",,,,,,,,,,,,,,,,,,,,,,,,,,,,,,,,,,,,,,"29.93","15","48","0.00",,,,"27","29.91","FEW:02 70","29.76","10.00","36","260","18","9",,,,,,,,,,,,,,,,,,,,,,,,,,,,,,,,,,,,,"MET09704/11/20 10:51:02 METAR KNYC 111551Z 26008G16KT 10SM FEW070 09/M09 A2993 RMK AO2 SLP127 T00891094","FM-15","7",,,,,,,,,,,,,,,,,,,,,,,,,,,,
"72505394728","2020-04-11T11:51:00","FM-15","7",,,,,,,,,,,,,,,,,,,,,,,,,,,,,,,,,,,,,,"29.91","14","49","0.00",,,,"25","29.89","FEW:02 75","29.74","10.00","36","270","25","17",,,,,,,,,,,,,,,,,,,,,,,,,,,,,,,,,,,,,"MET09704/11/20 11:51:02 METAR KNYC 111651Z 27015G22KT 10SM FEW075 09/M10 A2991 RMK AO2 SLP121 T00941100","FM-15","7",,,,,,,,,,,,,,,,,,,,,,,,,,,,
"72505394728","2020-04-11T12:51:00","FM-15","7",,,,,,,,,,,,,,,,,,,,,,,,,,,,,,,,,,,,,,"29.91","16","51","0.00",,"+0.02","5","25","29.89","FEW:02 75","29.74","10.00","38","260","23","13",,,,,,,,,,,,,,,,,,,,,,,,,,,,,,,,,,,,,"MET11904/11/20 12:51:02 METAR KNYC 111751Z 26011G20KT 10SM FEW075 11/M09 A2991 RMK AO2 SLP122 T01061089 10111 20039 55008 RTX","FM-15","7",,,,,,,,,,,,,,,,,,,,,,,,,,,,
"72505394728","2020-04-11T13:51:00","FM-15","7",,,,,,,,,,,,,,,,,,,,,,,,,,,,,,,,,,,,,,"29.91","17","53","0.00",,,,"24","29.88","CLR:00","29.74","10.00","39","VRB","23","5",,,,,,,,,,,,,,,,,,,,,,,,,,,,,,,,,,,,,"MET09404/11/20 13:51:02 METAR KNYC 111851Z VRB04G20KT 10SM CLR 12/M08 A2991 RMK AO2 SLP119 T01171083","FM-15","7",,,,,,,,,,,,,,,,,,,,,,,,,,,,
"72505394728","2020-04-11T14:51:00","FM-15","7",,,,,,,,,,,,,,,,,,,,,,,,,,,,,,,,,,,,,,"29.90","18","55","0.00",,,,"23","29.88","CLR:00","29.73","10.00","41","VRB","22","9",,,,,,,,,,,,,,,,,,,,,,,,,,,,,,,,,,,,,"MET09404/11/20 14:51:02 METAR KNYC 111951Z 28008G19KT 10SM CLR 13/M08 A2990 RMK AO2 SLP118 T01281078","FM-15","7",,,,,,,,,,,,,,,,,,,,,,,,,,,,
"72505394728","2020-04-11T15:51:00","FM-15","7",,,,,,,,,,,,,,,,,,,,,,,,,,,,,,,,,,,,,,"29.91","19","55","0.00",,"+0.01","5","24","29.88","FEW:02 80","29.74","10.00","41","270","21","11",,,,,,,,,,,,,,,,,,,,,,,,,,,,,,,,,,,,,"MET10304/11/20 15:51:02 METAR KNYC 112051Z 27010G18KT 10SM FEW080 13/M07 A2991 RMK AO2 SLP119 T01281072 55002","FM-15","7",,,,,,,,,,,,,,,,,,,,,,,,,,,,
"72505394728","2020-04-11T16:51:00","FM-15","7",,,,,,,,,,,,,,,,,,,,,,,,,,,,,,,,,,,,,,"29.93","18","54","0.00",,,,"24","29.90","FEW:02 80","29.76","10.00","40","270","21","10",,,,,,,,,,,,,,,,,,,,,,,,,,,,,,,,,,,,,"MET09704/11/20 16:51:02 METAR KNYC 112151Z 27009G18KT 10SM FEW080 12/M08 A2993 RMK AO2 SLP126 T01221078","FM-15","7",,,,,,,,,,,,,,,,,,,,,,,,,,,,
"72505394728","2020-04-11T17:51:00","FM-15","7",,,,,,,,,,,,,,,,,,,,,,,,,,,,,,,,,,,,,,"29.95","19","53","0.00",,,,"26","29.93","CLR:00","29.78","10.00","40","280","23","10",,,,,,,,,,,,,,,,,,,,,,,,,,,,,,,,,,,,,"MET09404/11/20 17:51:02 METAR KNYC 112251Z 28009G20KT 10SM CLR 12/M07 A2995 RMK AO2 SLP134 T01171072","FM-15","7",,,,,,,,,,,,,,,,,,,,,,,,,,,,
"72505394728","2020-04-11T18:51:00","FM-15","7",,,,,,,,,,,,,,,,,,,,,,,,,,,,,,,,,,,,,,"29.98","19","52","0.00",,"-0.07","3","27","29.95","CLR:00","29.81","10.00","39","270","18","8",,,,,,,,,,,,,,,,,,,,,,,,,,,,,,,,,,,,,"MET11204/11/20 18:51:02 METAR KNYC 112351Z 27007G16KT 10SM CLR 11/M07 A2998 RMK AO2 SLP143 T01111072 10133 20106 53023","FM-15","7",,,,,,,,,,,,,,,,,,,,,,,,,,,,
"72505394728","2020-04-11T19:51:00","FM-15","7",,,,,,,,,,,,,,,,,,,,,,,,,,,,,,,,,,,,,,"30.01","19","51","0.00",,,,"28","29.99","CLR:00","29.84","10.00","39","VRB",,"5",,,,,,,,,,,,,,,,,,,,,,,,,,,,,,,,,,,,,"MET09104/11/20 19:51:01 METAR KNYC 120051Z VRB04KT 10SM CLR 11/M07 A3001 RMK AO2 SLP155 T01061072","FM-15","7",,,,,,,,,,,,,,,,,,,,,,,,,,,,
"72505394728","2020-04-11T20:51:00","FM-15","7",,,,,,,,,,,,,,,,,,,,,,,,,,,,,,,,,,,,,,"30.04","20","51","0.00",,,,"29","30.02","CLR:00","29.87","10.00","39","VRB",,"3",,,,,,,,,,,,,,,,,,,,,,,,,,,,,,,,,,,,,"MET09104/11/20 20:51:01 METAR KNYC 120151Z VRB03KT 10SM CLR 11/M07 A3004 RMK AO2 SLP166 T01061067","FM-15","7",,,,,,,,,,,,,,,,,,,,,,,,,,,,
"72505394728","2020-04-11T21:51:00","FM-15","7",,,,,,,,,,,,,,,,,,,,,,,,,,,,,,,,,,,,,,"30.06","20","49","0.00",,"-0.08","1","32","30.03","CLR:00","29.89","10.00","38","VRB",,"3",,,,,,,,,,,,,,,,,,,,,,,,,,,,,,,,,,,,,"MET09704/11/20 21:51:02 METAR KNYC 120251Z VRB03KT 10SM CLR 09/M07 A3006 RMK AO2 SLP170 T00941067 51027","FM-15","7",,,,,,,,,,,,,,,,,,,,,,,,,,,,
"72505394728","2020-04-11T22:51:00","FM-15","7",,,,,,,,,,,,,,,,,,,,,,,,,,,,,,,,,,,,,,"30.08","18","49","0.00",,,,"29","30.05","CLR:00","29.91","10.00","37","280",,"3",,,,,,,,,,,,,,,,,,,,,,,,,,,,,,,,,,,,,"MET09104/11/20 22:51:02 METAR KNYC 120351Z 28003KT 10SM CLR 09/M08 A3008 RMK AO2 SLP176 T00941078","FM-15","7",,,,,,,,,,,,,,,,,,,,,,,,,,,,
"72505394728","2020-04-11T23:51:00","FM-15","7",,,,,,,,,,,,,,,,,,,,,,,,,,,,,,,,,,,,,,"30.11","17","49","0.00",,,,"28","30.08","CLR:00","29.94","10.00","37","280",,"3",,,,,,,,,,,,,,,,,,,,,,,,,,,,,,,,,,,,,"MET10104/11/20 23:51:02 METAR KNYC 120451Z 28003KT 10SM CLR 09/M08 A3011 RMK AO2 SLP187 T00941083 401330033","FM-15","7",,,,,,,,,,,,,,,,,,,,,,,,,,,,
"72505394728","2020-04-11T23:59:00","SOD  ","6",,,,,,,,,,,,,,,,"47",,,"29.76",,"9.0","0","-4.5","18","56","38","300","26","0.00","0","0.0","270","18",,,,,,,,,,,,,,,,,,,,,,,,,,,,,,,,,,,,,,,,,,,,,,,,,,,,,,,,,"SOD74324 HR PRECIPITATION (IN): 0.00 SNOW DEPTH (IN):0     24 HR SNOWFALL (IN):0.0  24 HR MAX TEMP (F): 5624 HR MIN TEMP (F): 38AVERAGE STATION PRESSURE(D):29.765 MINIMUM SEA LEVEL PRESSURE:29.76 TIME OF OCCURRENCE:0008 PEAK WIND SPEED (MPH): 26 PEAK WIND DIR (DEG):300 PEAK WIND TIME (LST):      FASTEST 2MIN SPEED (MPH): 18FASTEST 2MIN DIR (DEG):270 FASTEST 2MIN TIME (LST):     AVERAGE WIND SPEED (MPH): 9.0 24 HR AVG TEMP (F): 47DEPART FROM NORMAL: -5  HEATING DEGREE DAYS: 18 COOLING DEGREE DAYS:  0 LATEST DAY MAX TEMP (0700-1900 LST): 56 LATEST NIGHT MIN TEMP(1900-0800 LST):38 HOURLY INCREMENTAL PRECIPITATION VALUES (IN):0.00 0.00 0.00 0.00 0.00 0.00 0.00 0.00 0.00 0.00 0.00 0.00 0.00 0.00 0.00 0.00 0.00 0.00 0.00 0.00 0.00 0.00 0.00 0.00","SOD  ","6",,,,,,,,,,,,,,,,,,,,,,,,,"0522","1832",,
"72505394728","2020-04-12T00:51:00","FM-15","7",,,,,,,,,,,,,,,,,,,,,,,,,,,,,,,,,,,,,,"30.12","18","48","0.00",,"-0.06","2","30","30.10","CLR:00","29.95","10.00","37","000",,"0",,,,,,,,,,,,,,,,,,,,,,,,,,,,,,,,,,,,,"MET10904/12/20 00:51:02 METAR KNYC 120551Z 00000KT 10SM CLR 09/M08 A3012 RMK AO2 SLP193 T00891078 10111 20089 52022","FM-15","7",,,,,,,,,,,,,,,,,,,,,,,,,,,,
"72505394728","2020-04-12T01:51:00","FM-15","7",,,,,,,,,,,,,,,,,,,,,,,,,,,,,,,,,,,,,,"30.12","18","47","0.00",,,,"31","30.10","CLR:00","29.95","10.00","36","000",,"0",,,,,,,,,,,,,,,,,,,,,,,,,,,,,,,,,,,,,"MET09104/12/20 01:51:02 METAR KNYC 120651Z 00000KT 10SM CLR 08/M08 A3012 RMK AO2 SLP192 T00831078","FM-15","7",,,,,,,,,,,,,,,,,,,,,,,,,,,,
"72505394728","2020-04-12T02:51:00","FM-15","7",,,,,,,,,,,,,,,,,,,,,,,,,,,,,,,,,,,,,,"30.13","21","46","0.00",,,,"37","30.10","CLR:00","29.96","10.00","37","VRB",,"5",,,,,,,,,,,,,,,,,,,,,,,,,,,,,,,,,,,,,"MET09504/12/20 02:51:02 METAR KNYC 120751Z VRB04KT 10SM CLR 08/M06 A3013 RMK AO2 SLP194 T00781061 RTX","FM-15","7",,,,,,,,,,,,,,,,,,,,,,,,,,,,
"72505394728","2020-04-12T03:51:00","FM-15","7",,,,,,,,,,,,,,,,,,,,,,,,,,,,,,,,,,,,,,"30.16","20","45","0.00",,"-0.04","3","37","30.14","CLR:00","29.99","10.00","36","090",,"3",,,,,,,,,,,,,,,,,,,,,,,,,,,,,,,,,,,,,"MET09704/12/20 03:51:02 METAR KNYC 120851Z 09003KT 10SM CLR 07/M07 A3016 RMK AO2 SLP205 T00721067 53012","FM-15","7",,,,,,,,,,,,,,,,,,,,,,,,,,,,
"72505394728","2020-04-12T04:51:00","FM-15","7",,,,,,,,,,,,,,,,,,,,,,,,,,,,,,,,,,,,,,"30.18","20","45","0.00",,,,"37","30.15","CLR:00","30.01","10.00","36","000",,"0",,,,,,,,,,,,,,,,,,,,,,,,,,,,,,,,,,,,,"MET09104/12/20 04:51:02 METAR KNYC 120951Z 00000KT 10SM CLR 07/M07 A3018 RMK AO2 SLP211 T00721067","FM-15","7",,,,,,,,,,,,,,,,,,,,,,,,,,,,
"72505394728","2020-04-12T05:51:00","FM-15","7",,,,,,,,,,,,,,,,,,,,,,,,,,,,,,,,,,,,,,"30.19","20","46","0.00",,,,"35","30.17","CLR:00","30.02","10.00","36","000",,"0",,,,,,,,,,,,,,,,,,,,,,,,,,,,,,,,,,,,,"MET09104/12/20 05:51:02 METAR KNYC 121051Z 00000KT 10SM CLR 08/M07 A3019 RMK AO2 SLP216 T00781067","FM-15","7",,,,,,,,,,,,,,,,,,,,,,,,,,,,
"72505394728","2020-04-12T06:51:00","FM-15","7",,,,,,,,,,,,,,,,,,,,,,,,,,,,,,,,,,,,,,"30.21","27","49","0.00",,"-0.05","2","43","30.19","CLR:00","30.04","10.00","40","140",,"3",,,,,,,,,,,,,,,,,,,,,,,,,,,,,,,,,,,,,"MET11304/12/20 06:51:02 METAR KNYC 121151Z 14003KT 10SM CLR 09/M03 A3021 RMK AO2 SLP222 T00941028 10094 20067 52017 RTX","FM-15","7",,,,,,,,,,,,,,,,,,,,,,,,,,,,
"72505394728","2020-04-12T07:51:00","FM-15","7",,,,,,,,,,,,,,,,,,,,,,,,,,,,,,,,,,,,,,"30.22","24","52","0.00",,,,"34","30.19","SCT:04 95","30.05","10.00","41","150",,"8",,,,,,,,,,,,,,,,,,,,,,,,,,,,,,,,,,,,,"MET09404/12/20 07:51:02 METAR KNYC 121251Z 15007KT 10SM SCT095 11/M04 A3022 RMK AO2 SLP225 T01111044","FM-15","7",,,,,,,,,,,,,,,,,,,,,,,,,,,,
"72505394728","2020-04-12T08:51:00","FM-15","7",,,,,,,,,,,,,,,,,,,,,,,,,,,,,,,,,,,,,,"30.21","25","56","0.00",,,,"30","30.19","BKN:07 95","30.04","10.00","43","VRB",,"8",,,,,,,,,,,,,,,,,,,,,,,,,,,,,,,,,,,,,"MET09804/12/20 08:51:02 METAR KNYC 121351Z 16007KT 10SM BKN095 13/M04 A3021 RMK AO2 SLP223 T01331039 RTX","FM-15","7",,,,,,,,,,,,,,,,,,,,,,,,,,,,
"72505394728","2020-04-12T09:51:00","FM-15","7",,,,,,,,,,,,,,,,,,,,,,,,,,,,,,,,,,,,,,"30.21","25","59","0.00",,"+0.00","8","27","30.18","CLR:00","30.04","10.00","45","VRB",,"5",,,,,,,,,,,,,,,,,,,,,,,,,,,,,,,,,,,,,"MET09704/12/20 09:51:02 METAR KNYC 121451Z VRB04KT 10SM CLR 15/M04 A3021 RMK AO2 SLP221 T01501039 58001","FM-15","7",,,,,,,,,,,,,,,,,,,,,,,,,,,,
"72505394728","2020-04-12T10:51:00","FM-15","7",,,,,,,,,,,,,,,,,,,,,,,,,,,,,,,,,,,,,,"30.21","26","58","0.00",,,,"29","30.19","FEW:02 110","30.04","10.00","44","VRB","18","7",,,,,,,,,,,,,,,,,,,,,,,,,,,,,,,,,,,,,"MET09704/12/20 10:51:02 METAR KNYC 121551Z VRB06G16KT 10SM FEW110 14/M03 A3021 RMK AO2 SLP222 T01441033","FM-15","7",,,,,,,,,,,,,,,,,,,,,,,,,,,,
"72505394728","2020-04-12T11:51:00","FM-15","7",,,,,,,,,,,,,,,,,,,,,,,,,,,,,,,,,,,,,,"30.20","31","56","0.00",,,,"39","30.18","BKN:07 110","30.03","10.00","45","VRB","20","7",,,,,,,,,,,,,,,,,,,,,,,,,,,,,,,,,,,,,"MET10104/12/20 11:51:02 METAR KNYC 121651Z VRB06G17KT 10SM BKN110 13/M01 A3020 RMK AO2 SLP219 T01331006 RTX","FM-15","7",,,,,,,,,,,,,,,,,,,,,,,,,,,,
"72505394728","2020-04-12T12:51:00","FM-15","7",,,,,,,,,,,,,,,,,,,,,,,,,,,,,,,,,,,,,,"30.18","41","54","0.00",,"+0.03","8","62","30.15","OVC:08 100","30.01","10.00","48","160","22","10",,,,,,,,,,,,,,,,,,,,,,,,,,,,,,,,,,,,,"MET11404/12/20 12:51:02 METAR KNYC 121751Z 16009G19KT 10SM OVC100 12/05 A3018 RMK AO2 SLP210 T01220050 10156 20094 58011","FM-15","7",,,,,,,,,,,,,,,,,,,,,,,,,,,,
"72505394728","2020-04-12T13:51:00","FM-15","7",,,,,,,,,,,,,,,,,,,,,,,,,,,,,,,,,,,,,,"30.14","43","57","0.00",,,,"60","30.11","SCT:04 120","29.97","10.00","50","160","20","13",,,,,,,,,,,,,,,,,,,,,,,,,,,,,,,,,,,,,"MET09604/12/20 13:51:02 METAR KNYC 121851Z 16011G17KT 10SM SCT120 14/06 A3014 RMK AO2 SLP197 T01390061","FM-15","7",,,,,,,,,,,,,,,,,,,,,,,,,,,,
"72505394728","2020-04-12T14:51:00","FM-15","7",,,,,,,,,,,,,,,,,,,,,,,,,,,,,,,,,,,,,,"30.13","44","61","0.00",,,,"54","30.11","OVC:08 110","29.96","10.00","52","140",,"6",,,,,,,,,,,,,,,,,,,,,,,,,,,,,,,,,,,,,"MET09304/12/20 14:51:02 METAR KNYC 121951Z 14005KT 10SM OVC110 16/07 A3013 RMK AO2 SLP196 T01610067","FM-15","7",,,,,,,,,,,,,,,,,,,,,,,,,,,,
"72505394728","2020-04-12T15:51:00","FM-15","7",,,,,,,,,,,,,,,,,,,,,,,,,,,,,,,,,,,,,,"30.12","44","60","0.00",,"+0.06","6","56","30.09","CLR:00","29.95","10.00","52","VRB",,"7",,,,,,,,,,,,,,,,,,,,,,,,,,,,,,,,,,,,,"MET09604/12/20 15:51:02 METAR KNYC 122051Z VRB06KT 10SM CLR 16/07 A3012 RMK AO2 SLP191 T01560067 56020","FM-15","7",,,,,,,,,,,,,,,,,,,,,,,,,,,,
"72505394728","2020-04-12T16:51:00","FM-15","7",,,,,,,,,,,,,,,,,,,,,,,,,,,,,,,,,,,,,,"30.11","43","62","0.00",,,,"50","30.09","CLR:00","29.94","10.00","52","VRB",,"6",,,,,,,,,,,,,,,,,,,,,,,,,,,,,,,,,,,,,"MET09004/12/20 16:51:02 METAR KNYC 122151Z VRB05KT 10SM CLR 17/06 A3011 RMK AO2 SLP188 T01670061","FM-15","7",,,,,,,,,,,,,,,,,,,,,,,,,,,,
"72505394728","2020-04-12T17:51:00","FM-15","7",,,,,,,,,,,,,,,,,,,,,,,,,,,,,,,,,,,,,,"30.09","37","62","0.00",,,,"40","30.06","CLR:00","29.92","10.00","50","150",,"8",,,,,,,,,,,,,,,,,,,,,,,,,,,,,,,,,,,,,"MET09004/12/20 17:51:02 METAR KNYC 122251Z 15007KT 10SM CLR 17/03 A3009 RMK AO2 SLP181 T01670028","FM-15","7",,,,,,,,,,,,,,,,,,,,,,,,,,,,
"72505394728","2020-04-12T18:51:00","FM-15","7",,,,,,,,,,,,,,,,,,,,,,,,,,,,,,,,,,,,,,"30.09","41","57","0.00",,"+0.03","5","55","30.07","CLR:00","29.92","10.00","49","160",,"9",,,,,,,,,,,,,,,,,,,,,,,,,,,,,,,,,,,,,"MET10804/12/20 18:51:02 METAR KNYC 122351Z 16008KT 10SM CLR 14/05 A3009 RMK AO2 SLP182 T01390050 10172 20122 55009","FM-15","7",,,,,,,,,,,,,,,,,,,,,,,,,,,,
"72505394728","2020-04-12T19:51:00","FM-15","7",,,,,,,,,,,,,,,,,,,,,,,,,,,,,,,,,,,,,,"30.13","43","58","0.00",,,,"58","30.10","CLR:00","29.96","10.00","50","160",,"7",,,,,,,,,,,,,,,,,,,,,,,,,,,,,,,,,,,,,"MET09004/12/20 19:51:01 METAR KNYC 130051Z 16006KT 10SM CLR 14/06 A3013 RMK AO2 SLP194 T01440061","FM-15","7",,,,,,,,,,,,,,,,,,,,,,,,,,,,
"72505394728","2020-04-12T20:51:00","FM-15","7",,,,,,,,,,,,,,,,,,,,,,,,,,,,,,,,,,,,,,"30.13","45","58","0.00",,,,"62","30.10","CLR:00","29.96","10.00","51","VRB",,"5",,,,,,,,,,,,,,,,,,,,,,,,,,,,,,,,,,,,,"MET09004/12/20 20:51:01 METAR KNYC 130151Z VRB04KT 10SM CLR 14/07 A3013 RMK AO2 SLP194 T01440072","FM-15","7",,,,,,,,,,,,,,,,,,,,,,,,,,,,
"72505394728","2020-04-12T21:51:00","FM-15","7",,,,,,,,,,,,,,,,,,,,,,,,,,,,,,,,,,,,,,"30.11","46","58","0.00",,"-0.02","0","65","30.09","FEW:02 60 SCT:04 120","29.94","10.00","52","150",,"6",,,,,,,,,,,,,,,,,,,,,,,,,,,,,,,,,,,,,"MET10604/12/20 21:51:01 METAR KNYC 130251Z 15005KT 10SM FEW060 SCT120 14/08 A3011 RMK AO2 SLP188 T01440078 50008","FM-15","7",,,,,,,,,,,,,,,,,,,,,,,,,,,,
"72505394728","2020-04-12T22:51:00","FM-15","7",,,,,,,,,,,,,,,,,,,,,,,,,,,,,,,,,,,,,,"30.08","48","57","0.00",,,,"72","30.05","OVC:08 110","29.91","10.00","52","150",,"8",,,,,,,,,,,,,,,,,,,,,,,,,,,,,,,,,,,,,"MET09304/12/20 22:51:02 METAR KNYC 130351Z 15007KT 10SM OVC110 14/09 A3008 RMK AO2 SLP176 T01390089","FM-15","7",,,,,,,,,,,,,,,,,,,,,,,,,,,,
"72505394728","2020-04-12T23:51:00","FM-15","7",,,,,,,,,,,,,,,,,,,,,,,,,,,,,,,,,,,,,,"30.07","49","57","0.00",,,,"74","30.04","OVC:08 110","29.90","10.00","53","150",,"6",,,,,,,,,,,,,,,,,,,,,,,,,,,,,,,,,,,,,"MET10304/12/20 23:51:02 METAR KNYC 130451Z 15005KT 10SM OVC110 14/09 A3007 RMK AO2 SLP173 T01390094 401720067","FM-15","7",,,,,,,,,,,,,,,,,,,,,,,,,,,,
"72505394728","2020-04-12T23:59:00","SOD  ","6",,,,,,,,,,,,,,,,"54",,,"29.98",,"5.7","0","2.1","11","63","44","150","25","0.00","0","0.0","150","16",,,,,,,,,,,,,,,,,,,,,,,,,,,,,,,,,,,,,,,,,,,,,,,,,,,,,,,,,"SOD74324 HR PRECIPITATION (IN): 0.00 SNOW DEPTH (IN):0     24 HR SNOWFALL (IN):0.0  24 HR MAX TEMP (F): 6324 HR MIN TEMP (F): 44AVERAGE STATION PRESSURE(D):29.977 MINIMUM SEA LEVEL PRESSURE:30.04 TIME OF OCCURRENCE:2359 PEAK WIND SPEED (MPH): 25 PEAK WIND DIR (DEG):150 PEAK WIND TIME (LST):      FASTEST 2MIN SPEED (MPH): 16FASTEST 2MIN DIR (DEG):150 FASTEST 2MIN TIME (LST):     AVERAGE WIND SPEED (MPH): 5.7 24 HR AVG TEMP (F): 54DEPART FROM NORMAL:  2  HEATING DEGREE DAYS: 11 COOLING DEGREE DAYS:  0 LATEST DAY MAX TEMP (0700-1900 LST): 63 LATEST NIGHT MIN TEMP(1900-0800 LST):44 HOURLY INCREMENTAL PRECIPITATION VALUES (IN):0.00 0.00 0.00 0.00 0.00 0.00 0.00 0.00 0.00 0.00 0.00 0.00 0.00 0.00 0.00 0.00 0.00 0.00 0.00 0.00 0.00 0.00 0.00 0.00","SOD  ","6",,,,,,,,,,,,,,,,,,,,,,,,,"0521","1833",,
"72505394728","2020-04-13T00:51:00","FM-15","7",,,,,,,,,,,,,,,,,,,,,,,,,,,,,,,,,,,,,,"30.05","53","57","0.05s","-RA:02 BR:1 |RA |RA","+0.06","6","87","30.03","BKN:07 75 OVC:08 90","29.88","4.00","55","VRB",,"7",,,,,,,,,,,,,,,,,,,,,,,,,,,,,,,,,,,,,"MET14604/13/20 00:51:02 METAR KNYC 130551Z VRB06KT 4SM -RA BR BKN075 OVC090 14/12 A3005 RMK AO2 RAB05 SLP168 P0004 60004 T01390117 10144 20133 56020 RTX","FM-15","7",,,,,,,,,,,,,,,,,,,,,,,,,,,,
"72505394728","2020-04-13T01:51:00","FM-15","7",,,,,,,,,,,,,,,,,,,,,,,,,,,,,,,,,,,,,,"30.01","54","57","0.07","-RA:02 BR:1 |RA |RA",,,"90","29.98","SCT:04 14 BKN:07 55 OVC:08 70","29.84","5.00","55","180",,"6",,,,,,,,,,,,,,,,,,,,,,,,,,,,,,,,,,,,,"MET11904/13/20 01:51:02 METAR KNYC 130651Z 18005KT 5SM -RA BR SCT014 BKN055 OVC070 14/12 A3001 RMK AO2 SLP153 P0007 T01390122","FM-15","7",,,,,,,,,,,,,,,,,,,,,,,,,,,,
"72505394728","2020-04-13T02:21:00","FM-16","7",,,,,,,,,,,,,,,,,,,,,,,,,,,,,,,,,,,,,,"30.00","54","57","0.04","-RA:02 BR:1 |RA |RA",,,"90",,"BKN:07 14 BKN:07 39 OVC:08 50","29.83","5.00","55","VRB",,"5",,,,,,,,,,,,,,,,,,,,,,,,,,,,,,,,,,,,,"MET11204/13/20 02:21:02 SPECI KNYC 130721Z VRB04KT 5SM -RA BR BKN014 BKN039 OVC050 14/12 A3000 RMK AO2 P0004 T01390122","FM-16","7",,,,,,,,,,,,,,,,,,,,,,,,,,,,
"72505394728","2020-04-13T02:51:00","FM-15","7",,,,,,,,,,,,,,,,,,,,,,,,,,,,,,,,,,,,,,"29.99","54","56","0.07","-RA:02 BR:1 |RA |RA",,,"93","29.96","OVC:08 13","29.82","5.00","55","VRB",,"5",,,,,,,,,,,,,,,,,,,,,,,,,,,,,,,,,,,,,"MET10504/13/20 02:51:02 METAR KNYC 130751Z VRB04KT 5SM -RA BR OVC013 13/12 A2999 RMK AO2 SLP147 P0007 T01330122","FM-15","7",,,,,,,,,,,,,,,,,,,,,,,,,,,,
"72505394728","2020-04-13T03:34:00","FM-16","7",,,,,,,,,,,,,,,,,,,,,,,,,,,,,,,,,,,,,,"29.97","53","55","0.05","RA:02 BR:1 |RA |RA",,,"93",,"SCT:04 14 BKN:07 22 OVC:08 49","29.80","3.00","54","VRB",,"6",,,,,,,,,,,,,,,,,,,,,,,,,,,,,,,,,,,,,"MET11104/13/20 03:34:01 SPECI KNYC 130834Z VRB05KT 3SM RA BR SCT014 BKN022 OVC049 13/12 A2997 RMK AO2 P0005 T01280117","FM-16","7",,,,,,,,,,,,,,,,,,,,,,,,,,,,
"72505394728","2020-04-13T03:48:00","FM-16","7",,,,,,,,,,,,,,,,,,,,,,,,,,,,,,,,,,,,,,"29.96","54","55","0.08","RA:02 BR:1 |RA |RA",,,"94",,"BKN:07 14 BKN:07 20 OVC:08 39","29.79","3.00","54","VRB",,"5",,,,,,,,,,,,,,,,,,,,,,,,,,,,,,,,,,,,,"MET10104/13/20 03:48:01 SPECI KNYC 130848Z VRB04KT 3SM RA BR BKN014 BKN020 OVC039 13/12 A2996 RMK AO2 P0008","FM-16","7",,,,,,,,,,,,,,,,,,,,,,,,,,,,
"72505394728","2020-04-13T03:51:00","FM-15","6",,,,,,,,,,,,,,,,,,,,,,,,,,,,,,,,,,,,,,"29.96","53","54","0.10","RA:02 BR:1 |RA |RA","+0.05","5","97","29.93","BKN:07 14 BKN:07 20 OVC:08 39","29.79","3.00","53","VRB",,"3",,,,,,,,,,,,,,,,,,,,,,,,,,,,,,,,,,,,,"MET13904/13/20 03:51:02 METAR KNYC 130851Z VRB03KT 3SM RA BR BKN014 BKN020 OVC039 12/12 A2996 RMK AO2 SLP137 P0009 60023 T01220117 55016 RTX FIBI","FM-15","6",,,,,,,,,,,,,,,,,,,,,,,,,,,,
"72505394728","2020-04-13T04:02:00","FM-16","7",,,,,,,,,,,,,,,,,,,,,,,,,,,,,,,,,,,,,,"29.96","52","54","0.03","RA:02 BR:1 |RA |RA",,,"93",,"SCT:04 11 BKN:07 16 OVC:08 28","29.79","2.50","53","VRB",,"5",,,,,,,,,,,,,,,,,,,,,,,,,,,,,,,,,,,,,"MET11504/13/20 04:02:02 SPECI KNYC 130902Z VRB04KT 2 1/2SM RA BR SCT011 BKN016 OVC028 12/11 A2996 RMK AO2 P0003 T01220111","FM-16","7",,,,,,,,,,,,,,,,,,,,,,,,,,,,
"72505394728","2020-04-13T04:11:00","FM-16","7",,,,,,,,,,,,,,,,,,,,,,,,,,,,,,,,,,,,,,"29.97","52","54","0.06","RA:02 BR:1 |RA |RA",,,"93",,"OVC:08 13","29.80","2.00","53","VRB",,"3",,,,,,,,,,,,,,,,,,,,,,,,,,,,,,,,,,,,,"MET09704/13/20 04:11:02 SPECI KNYC 130911Z VRB03KT 2SM RA BR OVC013 12/11 A2997 RMK AO2 P0006 T01220111","FM-16","7",,,,,,,,,,,,,,,,,,,,,,,,,,,,
"72505394728","2020-04-13T04:35:00","FM-16","7",,,,,,,,,,,,,,,,,,,,,,,,,,,,,,,,,,,,,,"29.93","52","53","0.13","-RA:02 BR:1 |RA |RA",,,"96",,"BKN:07 9 OVC:08 39","29.76","2.50","52","VRB",,"5",,,,,,,,,,,,,,,,,,,,,,,,,,,,,,,,,,,,,"MET12504/13/20 04:35:02 SPECI KNYC 130935Z VRB04KT 2 1/2SM -RA BR BKN009 OVC039 12/11 A2993 RMK AO2 PRESFR P0013 T01170111 RTX FIBI","FM-16","7",,,,,,,,,,,,,,,,,,,,,,,,,,,,
"72505394728","2020-04-13T04:38:00","FM-16","7",,,,,,,,,,,,,,,,,,,,,,,,,,,,,,,,,,,,,,"29.93","52","53","0.14","-RA:02 BR:1 |RA |RA",,,"96",,"SCT:04 7 BKN:07 13 OVC:08 42","29.76","3.00","52","VRB",,"6",,,,,,,,,,,,,,,,,,,,,,,,,,,,,,,,,,,,,"MET11904/13/20 04:38:02 SPECI KNYC 130938Z VRB05KT 3SM -RA BR SCT007 BKN013 OVC042 12/11 A2993 RMK AO2 PRESFR P0014 T01170111","FM-16","7",,,,,,,,,,,,,,,,,,,,,,,,,,,,
"72505394728","2020-04-13T04:41:00","FM-16","7",,,,,,,,,,,,,,,,,,,,,,,,,,,,,,,,,,,,,,"29.93","52","53","0.15","RA:02 BR:1 |RA |RA",,,"96",,"BKN:07 7 BKN:07 13 OVC:08 36","29.76","2.50","52","150",,"5",,,,,,,,,,,,,,,,,,,,,,,,,,,,,,,,,,,,,"MET11504/13/20 04:41:02 SPECI KNYC 130941Z 15004KT 2 1/2SM RA BR BKN007 BKN013 OVC036 12/11 A2993 RMK AO2 P0015 T01170111","FM-16","7",,,,,,,,,,,,,,,,,,,,,,,,,,,,
"72505394728","2020-04-13T04:44:00","FM-16","7",,,,,,,,,,,,,,,,,,,,,,,,,,,,,,,,,,,,,,"29.93","52","53","0.16","-RA:02 BR:1 |RA |RA",,,"96",,"SCT:04 7 BKN:07 13 OVC:08 34","29.76","3.00","52","VRB",,"5",,,,,,,,,,,,,,,,,,,,,,,,,,,,,,,,,,,,,"MET11204/13/20 04:44:02 SPECI KNYC 130944Z VRB04KT 3SM -RA BR SCT007 BKN013 OVC034 12/11 A2993 RMK AO2 P0016 T01170111","FM-16","7",,,,,,,,,,,,,,,,,,,,,,,,,,,,
"72505394728","2020-04-13T04:51:00","FM-15","7",,,,,,,,,,,,,,,,,,,,,,,,,,,,,,,,,,,,,,"29.92","52","53","0.14","-RA:02 BR:1 |RA |RA",,,"96","29.90","SCT:04 7 BKN:07 13 OVC:08 36","29.75","6.00","52","150",,"6",,,,,,,,,,,,,,,,,,,,,,,,,,,,,,,,,,,,,"MET11904/13/20 04:51:02 METAR KNYC 130951Z 15005KT 6SM -RA BR SCT007 BKN013 OVC036 12/11 A2992 RMK AO2 SLP124 P0016 T01170111","FM-15","7",,,,,,,,,,,,,,,,,,,,,,,,,,,,
"72505394728","2020-04-13T05:23:00","FM-16","7",,,,,,,,,,,,,,,,,,,,,,,,,,,,,,,,,,,,,,"29.91","52","54","T",,,,"93",,"BKN:07 8 OVC:08 14","29.74","10.00","53","VRB",,"10",,,,,,,,,,,,,,,,,,,,,,,,,,,,,,,,,,,,,"MET12304/13/20 05:23:02 SPECI KNYC 131023Z 17009KT 10SM BKN008 OVC014 12/11 A2991 RMK AO2 RAE0954 CIG 007V012 P0000 T01220111 RTX","FM-16","7",,,,,,,,,,,,,,,,,,,,,,,,,,,,
"72505394728","2020-04-13T05:51:00","FM-15","7",,,,,,,,,,,,,,,,,,,,,,,,,,,,,,,,,,,,,,"29.91","52","53","0.05","-RA:02 BR:1 |RA |RA",,,"96","29.88","BKN:07 8 OVC:08 13","29.74","2.50","52","VRB","25","5",,,,,,,,,,,,,,,,,,,,,,,,,,,,,,,,,,,,,"MET13404/13/20 05:51:02 METAR KNYC 131051Z VRB04G22KT 2 1/2SM -RA BR BKN008 OVC013 12/11 A2991 RMK AO2 RAE0954B26 SLP119 P0003 T01170111 RTX","FM-15","7",,,,,,,,,,,,,,,,,,,,,,,,,,,,
"72505394728","2020-04-13T06:14:00","FM-16","7",,,,,,,,,,,,,,,,,,,,,,,,,,,,,,,,,,,,,,"29.90","53","54","0.09","RA:02 BR:1 |RA |RA",,,"97",,"OVC:08 8","29.73","1.75","53","160",,"10",,,,,,,,,,,,,,,,,,,,,,,,,,,,,,,,,,,,,"MET10104/13/20 06:14:02 SPECI KNYC 131114Z 16009KT 1 3/4SM RA BR OVC008 12/12 A2990 RMK AO2 P0009 T01220117","FM-16","7",,,,,,,,,,,,,,,,,,,,,,,,,,,,
"72505394728","2020-04-13T06:22:00","FM-16","7",,,,,,,,,,,,,,,,,,,,,,,,,,,,,,,,,,,,,,"29.88","53","54","0.12","RA:02 BR:1 |RA |RA",,,"97",,"OVC:08 8","29.71","2.50","53","160","17","10",,,,,,,,,,,,,,,,,,,,,,,,,,,,,,,,,,,,,"MET11104/13/20 06:22:02 SPECI KNYC 131122Z 16009G15KT 2 1/2SM RA BR OVC008 12/12 A2988 RMK AO2 PRESFR P0012 T01220117","FM-16","7",,,,,,,,,,,,,,,,,,,,,,,,,,,,
"72505394728","2020-04-13T06:37:00","FM-16","7",,,,,,,,,,,,,,,,,,,,,,,,,,,,,,,,,,,,,,"29.85","53","54","0.16","RA:02 BR:1 |RA |RA",,,"97",,"OVC:08 7","29.68","3.00","53",,,,,,,,,,,,,,,,,,,,,,,,,,,,,,,,,,,,,,,,"MET10404/13/20 06:37:02 SPECI KNYC 131137Z      KT 3SM RA BR OVC007 12/12 A2985 RMK AO2 PRESFR P0016 T01220117","FM-16","7",,,,,,,,,,,,,,,,,,,,,,,,,,,,
"72505394728","2020-04-13T06:51:00","FM-15","7",,,,,,,,,,,,,,,,,,,,,,,,,,,,,,,,,,,,,,"29.85","53","54","0.21","RA:02 BR:1 |RA |RA","+0.12","8","97","29.82","OVC:08 6","29.68","3.00","53","VRB","23","8",,,,,,,,,,,,,,,,,,,,,,,,,,,,,,,,,,,,,"MET13704/13/20 06:51:02 METAR KNYC 131151Z 15007G20KT 3SM RA BR OVC006 12/12 A2985 RMK AO2 SLP098 P0019 60061 70065 T01220117 10139 20117 58039","FM-15","7",,,,,,,,,,,,,,,,,,,,,,,,,,,,
"72505394728","2020-04-13T06:58:00","FM-16","7",,,,,,,,,,,,,,,,,,,,,,,,,,,,,,,,,,,,,,"29.84","53","54","0.03","RA:02 BR:1 |RA |RA",,,"97",,"OVC:08 6","29.67","2.00","53","VRB","20","11",,,,,,,,,,,,,,,,,,,,,,,,,,,,,,,,,,,,,"MET10004/13/20 06:58:02 SPECI KNYC 131158Z 17010G17KT 2SM RA BR OVC006 12/12 A2984 RMK AO2 P0003 T01220117","FM-16","7",,,,,,,,,,,,,,,,,,,,,,,,,,,,
"72505394728","2020-04-13T07:08:00","FM-16","7",,,,,,,,,,,,,,,,,,,,,,,,,,,,,,,,,,,,,,"29.83","53","54","0.08","RA:02 BR:1 |RA |RA",,,"97",,"OVC:08 6","29.66","1.50V","53","VRB","18","11",,,,,,,,,,,,,,,,,,,,,,,,,,,,,,,,,,,,,"MET11204/13/20 07:08:02 SPECI KNYC 131208Z 16010G16KT 1 1/2SM RA BR OVC006 12/12 A2983 RMK AO2 VIS 1V2 P0008 T01220117","FM-16","7",,,,,,,,,,,,,,,,,,,,,,,,,,,,
"72505394728","2020-04-13T07:51:00","FM-15","7",,,,,,,,,,,,,,,,,,,,,,,,,,,,,,,,,,,,,,"29.80","54","55","0.25","RA:02 BR:1 |RA |RA",,,"96","29.78","OVC:08 7","29.63","1.25","54","VRB","28","16",,,,,,,,,,,,,,,,,,,,,,,,,,,,,,,,,,,,,"MET11104/13/20 07:51:02 METAR KNYC 131251Z 17014G24KT 1 1/4SM RA BR OVC007 13/12 A2980 RMK AO2 SLP084 P0027 T01280122","FM-15","7",,,,,,,,,,,,,,,,,,,,,,,,,,,,
"72505394728","2020-04-13T08:33:00","FM-16","7",,,,,,,,,,,,,,,,,,,,,,,,,,,,,,,,,,,,,,"29.78","55","56","0.18","+RA:02 BR:1 |RA |RA",,,"97",,"OVC:08 7","29.61","0.75","55","VRB","23","7",,,,,,,,,,,,,,,,,,,,,,,,,,,,,,,,,,,,,"MET12104/13/20 08:33:02 SPECI KNYC 131333Z VRB06G20KT 3/4SM +RA BR OVC007 13/13 A2978 RMK AO2 PK WND 16028/1311 P0018 T01330128","FM-16","7",,,,,,,,,,,,,,,,,,,,,,,,,,,,
"72505394728","2020-04-13T08:44:00","FM-16","7",,,,,,,,,,,,,,,,,,,,,,,,,,,,,,,,,,,,,,"29.77","55","56","0.23","-RA:02 BR:1 |RA |RA",,,"97",,"OVC:08 7","29.60","1.50","55",,,,,,,,,,,,,,,,,,,,,,,,,,,,,,,,,,,,,,,,"MET12004/13/20 08:44:02 SPECI KNYC 131344Z      KT 1 1/2SM -RA BR OVC007 13/13 A2977 RMK AO2 PK WND 16028/1311 P0023 T01330128","FM-16","7",,,,,,,,,,,,,,,,,,,,,,,,,,,,
"72505394728","2020-04-13T08:49:00","FM-16","6",,,,,,,,,,,,,,,,,,,,,,,,,,,,,,,,,,,,,,"29.76","55","55",,"RA:02 BR:1 |RA |RA",,,"100",,"OVC:08 7","29.59","2.00","55","VRB","21","6",,,,,,,,,,,,,,,,,,,,,,,,,,,,,,,,,,,,,"MET11304/13/20 08:49:02 SPECI KNYC 131349Z VRB05G18KT 2SM RA BR OVC007 13/13 A2976 RMK AO2 PK WND 16028/1311 P0024 FIBI","FM-16","6",,,,,,,,,,,,,,,,,,,,,,,,,,,,
"72505394728","2020-04-13T08:51:00","FM-15","7",,,,,,,,,,,,,,,,,,,,,,,,,,,,,,,,,,,,,,"29.76","55","57","0.25","RA:02 BR:1 |RA |RA",,,"93","29.73","OVC:08 7","29.59","2.00","56",,,,,,,,,,,,,,,,,,,,,,,,,,,,,,,,,,,,,,,,"MET12204/13/20 08:51:02 METAR KNYC 131351Z      KT 2SM RA BR OVC007 14/13 A2976 RMK AO2 PK WND 16028/1311 SLP067 P0025 T01390128","FM-15","7",,,,,,,,,,,,,,,,,,,,,,,,,,,,
"72505394728","2020-04-13T08:58:00","FM-16","7",,,,,,,,,,,,,,,,,,,,,,,,,,,,,,,,,,,,,,"29.75","56","57","0.02","RA:02 BR:1 |RA |RA",,,"96",,"OVC:08 7","29.58","1.25","56","VRB","32","13",,,,,,,,,,,,,,,,,,,,,,,,,,,,,,,,,,,,,"MET12904/13/20 08:58:02 SPECI KNYC 131358Z 16011G28KT 1 1/4SM RA BR OVC007 14/13 A2975 RMK AO2 PK WND 16028/1354 PRESFR P0002 T01390133","FM-16","7",,,,,,,,,,,,,,,,,,,,,,,,,,,,
"72505394728","2020-04-13T09:48:00","FM-16","7",,,,,,,,,,,,,,,,,,,,,,,,,,,,,,,,,,,,,,"29.70","55","57","0.23","RA:02 BR:1 |RA |RA",,,"94",,"OVC:08 6","29.53","0.75","56","VRB","31","9",,,,,,,,,,,,,,,,,,,,,,,,,,,,,,,,,,,,,"MET11704/13/20 09:48:02 SPECI KNYC 131448Z 17008G27KT 3/4SM RA BR OVC006 14/13 A2970 RMK AO2 PK WND 16030/1430 PRESFR P0023","FM-16","7",,,,,,,,,,,,,,,,,,,,,,,,,,,,
"72505394728","2020-04-13T09:51:00","FM-15","7",,,,,,,,,,,,,,,,,,,,,,,,,,,,,,,,,,,,,,"29.70","56","57","0.26","RA:02 BR:1 |RA |RA","+0.11","6","96","29.67","OVC:08 6","29.53","0.75","56","VRB","31","3",,,,,,,,,,,,,,,,,,,,,,,,,,,,,,,,,,,,,"MET14604/13/20 09:51:02 METAR KNYC 131451Z VRB03G27KT 3/4SM RA BR OVC006 14/13 A2970 RMK AO2 PK WND 16030/1430 PRESFR SLP048 P0024 60076 T01390133 56036","FM-15","7",,,,,,,,,,,,,,,,,,,,,,,,,,,,
"72505394728","2020-04-13T09:58:00","FM-16","7",,,,,,,,,,,,,,,,,,,,,,,,,,,,,,,,,,,,,,"29.69","56","57","0.04","RA:02 BR:1 |RA |RA",,,"96",,"OVC:08 6","29.52","1.00","56","170","38","14",,,,,,,,,,,,,,,,,,,,,,,,,,,,,,,,,,,,,"MET11804/13/20 09:58:02 SPECI KNYC 131458Z 17012G33KT 1SM RA BR OVC006 14/13 A2969 RMK AO2 PK WND 20033/1456 P0004 T01390133","FM-16","7",,,,,,,,,,,,,,,,,,,,,,,,,,,,
"72505394728","2020-04-13T10:13:00","FM-16","7",,,,,,,,,,,,,,,,,,,,,,,,,,,,,,,,,,,,,,"29.69","55","57","0.09","-RA:02 BR:1 |RA |RA",,,"93",,"OVC:08 6","29.52","3.00","56","VRB","28","7",,,,,,,,,,,,,,,,,,,,,,,,,,,,,,,,,,,,,"MET11904/13/20 10:13:02 SPECI KNYC 131513Z VRB06G24KT 3SM -RA BR OVC006 14/13 A2969 RMK AO2 PK WND 20033/1456 P0009 T01390128","FM-16","7",,,,,,,,,,,,,,,,,,,,,,,,,,,,
"72505394728","2020-04-13T10:51:00","FM-15","7",,,,,,,,,,,,,,,,,,,,,,,,,,,,,,,,,,,,,,"29.66","55","56","0.05","BR:1 ||",,,"97","29.63","OVC:08 5","29.49","3.00","55","VRB","23","7",,,,,,,,,,,,,,,,,,,,,,,,,,,,,,,,,,,,,"MET12804/13/20 10:51:02 METAR KNYC 131551Z VRB06G20KT 3SM BR OVC005 13/13 A2966 RMK AO2 PK WND 20033/1456 RAE47 SLP034 P0009 T01330128","FM-15","7",,,,,,,,,,,,,,,,,,,,,,,,,,,,
"72505394728","2020-04-13T11:33:00","FM-16","7",,,,,,,,,,,,,,,,,,,,,,,,,,,,,,,,,,,,,,"29.63","55","56","T","BR:1 ||",,,"97",,"OVC:08 6","29.46","2.50","55","180","21","7",,,,,,,,,,,,,,,,,,,,,,,,,,,,,,,,,,,,,"MET11204/13/20 11:33:02 SPECI KNYC 131633Z 18006G18KT 2 1/2SM BR OVC006 13/13 A2963 RMK AO2 RAB1553E06 P0000 T01330128","FM-16","7",,,,,,,,,,,,,,,,,,,,,,,,,,,,
"72505394728","2020-04-13T11:43:00","FM-16","7",,,,,,,,,,,,,,,,,,,,,,,,,,,,,,,,,,,,,,"29.62","55","56","T","BR:1 ||",,,"97",,"OVC:08 6","29.45","3.00","55","VRB","24","10",,,,,,,,,,,,,,,,,,,,,,,,,,,,,,,,,,,,,"MET11504/13/20 11:43:02 SPECI KNYC 131643Z 17009G21KT 3SM BR OVC006 13/13 A2962 RMK AO2 RAB1553E06 PRESFR P0000 T01330128","FM-16","7",,,,,,,,,,,,,,,,,,,,,,,,,,,,
"72505394728","2020-04-13T11:49:00","FM-16","6",,,,,,,,,,,,,,,,,,,,,,,,,,,,,,,,,,,,,,"29.61","55","57",,"-RA:02 BR:1 |RA |RA",,,"94",,"OVC:08 6","29.44","2.50","56","VRB","22","8",,,,,,,,,,,,,,,,,,,,,,,,,,,,,,,,,,,,,"MET11404/13/20 11:49:02 SPECI KNYC 131649Z 16007G19KT 2 1/2SM -RA BR OVC006 14/13 A2961 RMK AO2 RAB1553E06B44 P0000 FIBI","FM-16","6",,,,,,,,,,,,,,,,,,,,,,,,,,,,
"72505394728","2020-04-13T11:51:00","FM-15","7",,,,,,,,,,,,,,,,,,,,,,,,,,,,,,,,,,,,,,"29.61","55","57","0.01","-RA:02 BR:1 |RA |RA",,,"93","29.58","OVC:08 6","29.44","2.50","56","VRB","18","9",,,,,,,,,,,,,,,,,,,,,,,,,,,,,,,,,,,,,"MET12604/13/20 11:51:02 METAR KNYC 131651Z 15008G16KT 2 1/2SM -RA BR OVC006 14/13 A2961 RMK AO2 RAB1553E06B44 SLP018 P0000 T01390128","FM-15","7",,,,,,,,,,,,,,,,,,,,,,,,,,,,
"72505394728","2020-04-13T12:01:00","FM-16","7",,,,,,,,,,,,,,,,,,,,,,,,,,,,,,,,,,,,,,"29.60","55","56","0.01","-RA:02 BR:1 |RA |RA",,,"97",,"OVC:08 6","29.43","3.00","55","VRB","24","10",,,,,,,,,,,,,,,,,,,,,,,,,,,,,,,,,,,,,"MET10104/13/20 12:01:02 SPECI KNYC 131701Z 17009G21KT 3SM -RA BR OVC006 13/13 A2960 RMK AO2 P0001 T01330128","FM-16","7",,,,,,,,,,,,,,,,,,,,,,,,,,,,
"72505394728","2020-04-13T12:13:00","FM-16","7",,,,,,,,,,,,,,,,,,,,,,,,,,,,,,,,,,,,,,"29.57","56","57","0.02","-RA:02 BR:1 |RA |RA",,,"96",,"OVC:08 7","29.40","2.00V","56","170","22","11",,,,,,,,,,,,,,,,,,,,,,,,,,,,,,,,,,,,,"MET11604/13/20 12:13:02 SPECI KNYC 131713Z 17010G19KT 2SM -RA BR OVC007 14/13 A2957 RMK AO2 VIS 1V3 PRESFR P0002 T01390133","FM-16","7",,,,,,,,,,,,,,,,,,,,,,,,,,,,
"72505394728","2020-04-13T12:36:00","FM-16","7",,,,,,,,,,,,,,,,,,,,,,,,,,,,,,,,,,,,,,"29.55","58","59","0.08","RA:02 BR:1 |RA |RA",,,"96",,"OVC:08 7","29.38","1.00","58","170","26","13",,,,,,,,,,,,,,,,,,,,,,,,,,,,,,,,,,,,,"MET10004/13/20 12:36:02 SPECI KNYC 131736Z 17011G23KT 1SM RA BR OVC007 15/14 A2955 RMK AO2 P0008 T01500144","FM-16","7",,,,,,,,,,,,,,,,,,,,,,,,,,,,
"72505394728","2020-04-13T12:51:00","FM-15","7",,,,,,,,,,,,,,,,,,,,,,,,,,,,,,,,,,,,,,"29.55","57","59","0.09","-RA:02 BR:1 |RA |RA","+0.11","8","93","29.52","OVC:08 8","29.38","2.00","58","VRB","29","13",,,,,,,,,,,,,,,,,,,,,,,,,,,,,,,,,,,,,"MET13204/13/20 12:51:02 METAR KNYC 131751Z 15011G25KT 2SM -RA BR OVC008 15/14 A2955 RMK AO2 SLP998 P0010 60095 T01500139 10150 20122 58036","FM-15","7",,,,,,,,,,,,,,,,,,,,,,,,,,,,
"72505394728","2020-04-13T13:00:00","FM-16","7",,,,,,,,,,,,,,,,,,,,,,,,,,,,,,,,,,,,,,"29.55","57","58","T","-RA:02 BR:1 |RA |RA",,,"97",,"OVC:08 8","29.38","5.00","57","VRB","28","8",,,,,,,,,,,,,,,,,,,,,,,,,,,,,,,,,,,,,"MET10104/13/20 13:00:02 SPECI KNYC 131800Z 21007G24KT 5SM -RA BR OVC008 14/14 A2955 RMK AO2 P0000 T01440139","FM-16","7",,,,,,,,,,,,,,,,,,,,,,,,,,,,
"72505394728","2020-04-13T13:27:00","FM-16","7",,,,,,,,,,,,,,,,,,,,,,,,,,,,,,,,,,,,,,"29.52","57","58","0.01","RA:02 BR:1 |RA |RA",,,"97",,"OVC:08 9","29.35","1.75","57","160","26","10",,,,,,,,,,,,,,,,,,,,,,,,,,,,,,,,,,,,,"MET10404/13/20 13:27:02 SPECI KNYC 131827Z 16009G23KT 1 3/4SM RA BR OVC009 14/14 A2952 RMK AO2 P0001 T01440139","FM-16","7",,,,,,,,,,,,,,,,,,,,,,,,,,,,
"72505394728","2020-04-13T13:48:00","FM-16","7",,,,,,,,,,,,,,,,,,,,,,,,,,,,,,,,,,,,,,"29.50","55","57","0.09","-RA:02 BR:1 |RA |RA",,,"94",,"OVC:08 8","29.33","3.00","56","VRB","31","14",,,,,,,,,,,,,,,,,,,,,,,,,,,,,,,,,,,,,"MET10904/13/20 13:48:02 SPECI KNYC 131848Z 16012G27KT 3SM -RA BR OVC008 14/13 A2950 RMK AO2 PK WND 15027/1843 P0009","FM-16","7",,,,,,,,,,,,,,,,,,,,,,,,,,,,
"72505394728","2020-04-13T13:51:00","FM-15","7",,,,,,,,,,,,,,,,,,,,,,,,,,,,,,,,,,,,,,"29.49","56","57","0.09","-RA:02 BR:1 |RA |RA",,,"96","29.47","OVC:08 8","29.32","4.00","56","VRB","31","15",,,,,,,,,,,,,,,,,,,,,,,,,,,,,,,,,,,,,"MET12604/13/20 13:51:02 METAR KNYC 131851Z 15013G27KT 4SM -RA BR OVC008 14/13 A2949 RMK AO2 PK WND 15027/1843 SLP978 P0009 T01390133","FM-15","7",,,,,,,,,,,,,,,,,,,,,,,,,,,,
"72505394728","2020-04-13T14:05:00","FM-16","7",,,,,,,,,,,,,,,,,,,,,,,,,,,,,,,,,,,,,,"29.48","56","56","0.01","RA:02 BR:1 |RA |RA",,,"100",,"OVC:08 7","29.31","1.75","56","VRB","26","9",,,,,,,,,,,,,,,,,,,,,,,,,,,,,,,,,,,,,"MET11604/13/20 14:05:02 SPECI KNYC 131905Z 17008G23KT 1 3/4SM RA BR OVC007 13/13 A2948 RMK AO2 CIG 006V011 P0001 T01330133","FM-16","7",,,,,,,,,,,,,,,,,,,,,,,,,,,,
"72505394728","2020-04-13T14:20:00","FM-16","7",,,,,,,,,,,,,,,,,,,,,,,,,,,,,,,,,,,,,,"29.49","56","56","0.04","-RA:02 BR:1 |RA |RA",,,"100",,"OVC:08 7","29.32","2.50V","56","VRB","20","9",,,,,,,,,,,,,,,,,,,,,,,,,,,,,,,,,,,,,"MET11704/13/20 14:20:02 SPECI KNYC 131920Z 16008G17KT 2 1/2SM -RA BR OVC007 13/13 A2949 RMK AO2 VIS 1 1/4V4 P0004 T01330133","FM-16","7",,,,,,,,,,,,,,,,,,,,,,,,,,,,
"72505394728","2020-04-13T14:42:00","FM-16","7",,,,,,,,,,,,,,,,,,,,,,,,,,,,,,,,,,,,,,"29.48","56","56","0.08","RA:02 BR:1 |RA |RA",,,"100",,"OVC:08 7","29.31","1.25","56","150",,"7",,,,,,,,,,,,,,,,,,,,,,,,,,,,,,,,,,,,,"MET10104/13/20 14:42:02 SPECI KNYC 131942Z 15006KT 1 1/4SM RA BR OVC007 13/13 A2948 RMK AO2 P0008 T01330133","FM-16","7",,,,,,,,,,,,,,,,,,,,,,,,,,,,
"72505394728","2020-04-13T14:49:00","FM-16","6",,,,,,,,,,,,,,,,,,,,,,,,,,,,,,,,,,,,,,"29.48","55","55",,"+RA:02 BR:1 |RA |RA",,,"100",,"OVC:08 7","29.31","0.75","55","160",,"7",,,,,,,,,,,,,,,,,,,,,,,,,,,,,,,,,,,,,"MET09504/13/20 14:49:02 SPECI KNYC 131949Z 16006KT 3/4SM +RA BR OVC007 13/13 A2948 RMK AO2 P0009 FIBI","FM-16","6",,,,,,,,,,,,,,,,,,,,,,,,,,,,
"72505394728","2020-04-13T14:51:00","FM-15","7",,,,,,,,,,,,,,,,,,,,,,,,,,,,,,,,,,,,,,"29.48","56","56","0.16","+RA:02 BR:1 |RA |RA",,,"100","29.45","OVC:08 7","29.31","0.75","56","150",,"9",,,,,,,,,,,,,,,,,,,,,,,,,,,,,,,,,,,,,"MET10704/13/20 14:51:02 METAR KNYC 131951Z 15008KT 3/4SM +RA BR OVC007 13/13 A2948 RMK AO2 SLP973 P0014 T01330133","FM-15","7",,,,,,,,,,,,,,,,,,,,,,,,,,,,
"72505394728","2020-04-13T14:59:00","FM-16","7",,,,,,,,,,,,,,,,,,,,,,,,,,,,,,,,,,,,,,"29.48","56","57","0.02","-RA:02 BR:1 |RA |RA",,,"96",,"OVC:08 8","29.31","2.50","56","150",,"8",,,,,,,,,,,,,,,,,,,,,,,,,,,,,,,,,,,,,"MET10204/13/20 14:59:02 SPECI KNYC 131959Z 15007KT 2 1/2SM -RA BR OVC008 14/13 A2948 RMK AO2 P0002 T01390133","FM-16","7",,,,,,,,,,,,,,,,,,,,,,,,,,,,
"72505394728","2020-04-13T15:06:00","FM-16","7",,,,,,,,,,,,,,,,,,,,,,,,,,,,,,,,,,,,,,"29.48","57","57","0.02","BR:1 ||",,,"100",,"OVC:08 8","29.31","4.00","57","VRB",,"8",,,,,,,,,,,,,,,,,,,,,,,,,,,,,,,,,,,,,"MET10004/13/20 15:06:02 SPECI KNYC 132006Z 16007KT 4SM BR OVC008 14/14 A2948 RMK AO2 RAE02 P0002 T01390139","FM-16","7",,,,,,,,,,,,,,,,,,,,,,,,,,,,
"72505394728","2020-04-13T15:51:00","FM-15","7",,,,,,,,,,,,,,,,,,,,,,,,,,,,,,,,,,,,,,"29.48","59","59","T","BR:1 ||","+0.07","6","100","29.45","OVC:08 8","29.31","4.00","59","VRB",,"9",,,,,,,,,,,,,,,,,,,,,,,,,,,,,,,,,,,,,"MET13204/13/20 15:51:02 METAR KNYC 132051Z 19008KT 4SM BR OVC008 15/15 A2948 RMK AO2 RAE02B29E47 PRESRR SLP973 P0002 60025 T01500150 56024","FM-15","7",,,,,,,,,,,,,,,,,,,,,,,,,,,,
"72505394728","2020-04-13T16:19:00","FM-16","7",,,,,,,,,,,,,,,,,,,,,,,,,,,,,,,,,,,,,,"29.49","60","61","0.01","-RA:02 BR:1 |RA |RA",,,"97",,"OVC:08 10","29.32","4.00","60","VRB",,"8",,,,,,,,,,,,,,,,,,,,,,,,,,,,,,,,,,,,,"MET10404/13/20 16:19:02 SPECI KNYC 132119Z 20007KT 4SM -RA BR OVC010 16/16 A2949 RMK AO2 RAB12 P0001 T01610156","FM-16","7",,,,,,,,,,,,,,,,,,,,,,,,,,,,
"72505394728","2020-04-13T16:23:00","FM-16","7",,,,,,,,,,,,,,,,,,,,,,,,,,,,,,,,,,,,,,"29.49","60","61","0.01","RA:02 BR:1 |RA |RA",,,"97",,"OVC:08 10","29.32","1.75","60","VRB",,"8",,,,,,,,,,,,,,,,,,,,,,,,,,,,,,,,,,,,,"MET10704/13/20 16:23:02 SPECI KNYC 132123Z 18007KT 1 3/4SM RA BR OVC010 16/16 A2949 RMK AO2 RAB12 P0001 T01610156","FM-16","7",,,,,,,,,,,,,,,,,,,,,,,,,,,,
"72505394728","2020-04-13T16:39:00","FM-16","7",,,,,,,,,,,,,,,,,,,,,,,,,,,,,,,,,,,,,,"29.50","61","61","0.06","-RA:02 BR:1 |RA |RA",,,"100",,"BKN:07 11 BKN:07 27 OVC:08 43","29.33","3.00","61","180",,"7",,,,,,,,,,,,,,,,,,,,,,,,,,,,,,,,,,,,,"MET11804/13/20 16:39:02 SPECI KNYC 132139Z 18006KT 3SM -RA BR BKN011 BKN027 OVC043 16/16 A2950 RMK AO2 RAB12 P0006 T01610161","FM-16","7",,,,,,,,,,,,,,,,,,,,,,,,,,,,
"72505394728","2020-04-13T16:49:00","FM-16","6",,,,,,,,,,,,,,,,,,,,,,,,,,,,,,,,,,,,,,"29.51","61","63",,"-RA:02 BR:1 |RA |RA",,,"94",,"SCT:04 12 BKN:07 36 OVC:08 55","29.34","4.00","62","VRB",,"7",,,,,,,,,,,,,,,,,,,,,,,,,,,,,,,,,,,,,"MET11304/13/20 16:49:02 SPECI KNYC 132149Z VRB06KT 4SM -RA BR SCT012 BKN036 OVC055 17/16 A2951 RMK AO2 RAB12 P0006 FIBI","FM-16","6",,,,,,,,,,,,,,,,,,,,,,,,,,,,
"72505394728","2020-04-13T16:51:00","FM-15","7",,,,,,,,,,,,,,,,,,,,,,,,,,,,,,,,,,,,,,"29.51","61","62","0.06","-RA:02 BR:1 |RA |RA",,,"96","29.49","SCT:04 12 BKN:07 34 OVC:08 49","29.34","4.00","61","210",,"7",,,,,,,,,,,,,,,,,,,,,,,,,,,,,,,,,,,,,"MET12504/13/20 16:51:02 METAR KNYC 132151Z 21006KT 4SM -RA BR SCT012 BKN034 OVC049 17/16 A2951 RMK AO2 RAB12 SLP985 P0006 T01670161","FM-15","7",,,,,,,,,,,,,,,,,,,,,,,,,,,,
"72505394728","2020-04-13T17:51:00","FM-15","7",,,,,,,,,,,,,,,,,,,,,,,,,,,,,,,,,,,,,,"29.59","60","66","0.01",,,,"81","29.56","FEW:02 42 SCT:04 50 BKN:07 60","29.42","10.00","62","VRB",,"9",,,,,,,,,,,,,,,,,,,,,,,,,,,,,,,,,,,,,"MET12604/13/20 17:51:02 METAR KNYC 132251Z 26008KT 10SM FEW042 SCT050 BKN060 19/16 A2959 RMK AO2 RAE01 PRESRR SLP011 P0001 T01890156","FM-15","7",,,,,,,,,,,,,,,,,,,,,,,,,,,,
"72505394728","2020-04-13T18:51:00","FM-15","7",,,,,,,,,,,,,,,,,,,,,,,,,,,,,,,,,,,,,,"29.66","57","65","0.00",,"-0.18","3","76","29.64","FEW:02 75","29.49","10.00","60","VRB",,"7",,,,,,,,,,,,,,,,,,,,,,,,,,,,,,,,,,,,,"MET12404/13/20 18:51:02 METAR KNYC 132351Z VRB06KT 10SM FEW075 18/14 A2966 RMK AO2 PRESRR SLP036 60032 T01830139 10189 20133 53062","FM-15","7",,,,,,,,,,,,,,,,,,,,,,,,,,,,
"72505394728","2020-04-13T19:51:00","FM-15","7",,,,,,,,,,,,,,,,,,,,,,,,,,,,,,,,,,,,,,"29.72","51","65","0.00",,,,"61","29.70","CLR:00","29.55","10.00","57","000",,"0",,,,,,,,,,,,,,,,,,,,,,,,,,,,,,,,,,,,,"MET09004/13/20 19:51:01 METAR KNYC 140051Z 00000KT 10SM CLR 18/11 A2972 RMK AO2 SLP056 T01830106","FM-15","7",,,,,,,,,,,,,,,,,,,,,,,,,,,,
"72505394728","2020-04-13T20:51:00","FM-15","7",,,,,,,,,,,,,,,,,,,,,,,,,,,,,,,,,,,,,,"29.77","50","66","0.00",,,,"56","29.75","CLR:00","29.60","10.00","57","VRB","21","6",,,,,,,,,,,,,,,,,,,,,,,,,,,,,,,,,,,,,"MET09304/13/20 20:51:01 METAR KNYC 140151Z VRB05G18KT 10SM CLR 19/10 A2977 RMK AO2 SLP073 T01890100","FM-15","7",,,,,,,,,,,,,,,,,,,,,,,,,,,,
"72505394728","2020-04-13T21:51:00","FM-15","7",,,,,,,,,,,,,,,,,,,,,,,,,,,,,,,,,,,,,,"29.82","47","64","0.00",,"-0.16","1","54","29.79","CLR:00","29.65","10.00","55","VRB","24","9",,,,,,,,,,,,,,,,,,,,,,,,,,,,,,,,,,,,,"MET09904/13/20 21:51:01 METAR KNYC 140251Z 28008G21KT 10SM CLR 18/08 A2982 RMK AO2 SLP089 T01780083 51053","FM-15","7",,,,,,,,,,,,,,,,,,,,,,,,,,,,
"72505394728","2020-04-13T22:51:00","FM-15","7",,,,,,,,,,,,,,,,,,,,,,,,,,,,,,,,,,,,,,"29.88","40","59","0.00",,,,"49","29.85","CLR:00","29.71","10.00","50","280","24","13",,,,,,,,,,,,,,,,,,,,,,,,,,,,,,,,,,,,,"MET11104/13/20 22:51:01 METAR KNYC 140351Z 28011G21KT 10SM CLR 15/04 A2988 RMK AO2 PK WND 28029/0315 SLP109 T01500044","FM-15","7",,,,,,,,,,,,,,,,,,,,,,,,,,,,
"72505394728","2020-04-13T23:51:00","FM-15","7",,,,,,,,,,,,,,,,,,,,,,,,,,,,,,,,,,,,,,"29.93","39","56","0.00",,,,"53","29.90","CLR:00","29.76","10.00","48","280","20","10",,,,,,,,,,,,,,,,,,,,,,,,,,,,,,,,,,,,,"MET12104/13/20 23:51:01 METAR KNYC 140451Z 28009G17KT 10SM CLR 13/04 A2993 RMK AO2 PK WND 29027/0409 SLP125 T01330039 401940117","FM-15","7",,,,,,,,,,,,,,,,,,,,,,,,,,,,
"72505394728","2020-04-13T23:59:00","SOD  ","6",,,,,,,,,,,,,,,,"60",,,"29.55",,"7.9","0","7.8","5","67","53","200","38","1.92","0","0.0","160","18","RA BR",,,,,,,,,,,,,,,,,,,,,,,,,,,,,,,,,,,,,,,,,,,,,,,,,,,,,,,,"SOD76024 HR PRECIPITATION (IN): 1.92 SNOW DEPTH (IN):0     24 HR SNOWFALL (IN):0.0  WEATHER(CODE):1  24 HR MAX TEMP (F): 6724 HR MIN TEMP (F): 53AVERAGE STATION PRESSURE(D):29.555 MINIMUM SEA LEVEL PRESSURE:29.39 TIME OF OCCURRENCE:1535 PEAK WIND SPEED (MPH): 38 PEAK WIND DIR (DEG):200 PEAK WIND TIME (LST):      FASTEST 2MIN SPEED (MPH): 18FASTEST 2MIN DIR (DEG):160 FASTEST 2MIN TIME (LST):     AVERAGE WIND SPEED (MPH): 7.9 24 HR AVG TEMP (F): 60DEPART FROM NORMAL:  8  HEATING DEGREE DAYS:  5 COOLING DEGREE DAYS:  0 LATEST DAY MAX TEMP (0700-1900 LST): 66 LATEST NIGHT MIN TEMP(1900-0800 LST):53 HOURLY INCREMENTAL PRECIPITATION VALUES (IN):0.05 0.07 0.07 0.10 0.14 0.05 0.21 0.25 0.25 0.26 0.05 0.01 0.09 0.09 0.16T     0.06 0.01 0.00 0.00 0.00 0.00 0.00 0.00","SOD  ","6",,,,,,,,,,,,,,,,,,,,,,,,,"0519","1834",,
"72505394728","2020-04-14T00:51:00","FM-15","7",,,,,,,,,,,,,,,,,,,,,,,,,,,,,,,,,,,,,,"29.96","37","53","0.00",,"-0.14","1","55","29.93","CLR:00","29.79","10.00","46","270",,"7",,,,,,,,,,,,,,,,,,,,,,,,,,,,,,,,,,,,,"MET11204/14/20 00:51:02 METAR KNYC 140551Z 27006KT 10SM CLR 12/03 A2996 RMK AO2 SLP135 T01170028 10194 20117 51046 RTX","FM-15","7",,,,,,,,,,,,,,,,,,,,,,,,,,,,
"72505394728","2020-04-14T01:51:00","FM-15","7",,,,,,,,,,,,,,,,,,,,,,,,,,,,,,,,,,,,,,"29.98","34","51","0.00",,,,"52","29.96","CLR:00","29.81","10.00","43","VRB","24","11",,,,,,,,,,,,,,,,,,,,,,,,,,,,,,,,,,,,,"MET09304/14/20 01:51:02 METAR KNYC 140651Z 30010G21KT 10SM CLR 11/01 A2998 RMK AO2 SLP144 T01060011","FM-15","7",,,,,,,,,,,,,,,,,,,,,,,,,,,,
"72505394728","2020-04-14T02:51:00","FM-15","7",,,,,,,,,,,,,,,,,,,,,,,,,,,,,,,,,,,,,,"30.00","33","49","0.00",,,,"55","29.97","CLR:00","29.83","10.00","42","VRB","18","7",,,,,,,,,,,,,,,,,,,,,,,,,,,,,,,,,,,,,"MET10204/14/20 02:51:02 METAR KNYC 140751Z VRB06G16KT 10SM CLR 09/01 A3000 RMK AO2 SLP150 T00940006 RTX FIBI","FM-15","7",,,,,,,,,,,,,,,,,,,,,,,,,,,,
"72505394728","2020-04-14T03:51:00","FM-15","7",,,,,,,,,,,,,,,,,,,,,,,,,,,,,,,,,,,,,,"30.01","33","48","0.00",,"-0.05","1","56","29.98","CLR:00","29.84","10.00","41","290",,"7",,,,,,,,,,,,,,,,,,,,,,,,,,,,,,,,,,,,,"MET10004/14/20 03:51:02 METAR KNYC 140851Z 29006KT 10SM CLR 09/01 A3001 RMK AO2 SLP154 T00890006 51017 RTX","FM-15","7",,,,,,,,,,,,,,,,,,,,,,,,,,,,
"72505394728","2020-04-14T04:51:00","FM-15","7",,,,,,,,,,,,,,,,,,,,,,,,,,,,,,,,,,,,,,"30.03","31","47","0.00",,,,"54","30.00","CLR:00","29.86","10.00","40","VRB",,"5",,,,,,,,,,,,,,,,,,,,,,,,,,,,,,,,,,,,,"MET09104/14/20 04:51:02 METAR KNYC 140951Z VRB04KT 10SM CLR 08/M01 A3003 RMK AO2 SLP158 T00831006","FM-15","7",,,,,,,,,,,,,,,,,,,,,,,,,,,,
"72505394728","2020-04-14T05:51:00","FM-15","7",,,,,,,,,,,,,,,,,,,,,,,,,,,,,,,,,,,,,,"30.05","29","47","0.00",,,,"50","30.02","CLR:00","29.88","10.00","40","300","22","8",,,,,,,,,,,,,,,,,,,,,,,,,,,,,,,,,,,,,"MET09404/14/20 05:51:02 METAR KNYC 141051Z 30007G19KT 10SM CLR 08/M02 A3005 RMK AO2 SLP165 T00831017","FM-15","7",,,,,,,,,,,,,,,,,,,,,,,,,,,,
"72505394728","2020-04-14T06:51:00","FM-15","7",,,,,,,,,,,,,,,,,,,,,,,,,,,,,,,,,,,,,,"30.09","28","47","0.00",,"-0.08","3","48","30.06","CLR:00","29.92","10.00","39","310","16","9",,,,,,,,,,,,,,,,,,,,,,,,,,,,,,,,,,,,,"MET12204/14/20 06:51:02 METAR KNYC 141151Z 31008G14KT 10SM CLR 08/M02 A3009 RMK AO2 SLP180 70127 T00831022 10117 20083 53027 RTX","FM-15","7",,,,,,,,,,,,,,,,,,,,,,,,,,,,
"72505394728","2020-04-14T07:51:00","FM-15","7",,,,,,,,,,,,,,,,,,,,,,,,,,,,,,,,,,,,,,"30.10","27","48","0.00",,,,"44","30.07","FEW:02 120","29.93","10.00","39","290","17","9",,,,,,,,,,,,,,,,,,,,,,,,,,,,,,,,,,,,,"MET09704/14/20 07:51:02 METAR KNYC 141251Z 29008G15KT 10SM FEW120 09/M03 A3010 RMK AO2 SLP184 T00891028","FM-15","7",,,,,,,,,,,,,,,,,,,,,,,,,,,,
"72505394728","2020-04-14T08:51:00","FM-15","7",,,,,,,,,,,,,,,,,,,,,,,,,,,,,,,,,,,,,,"30.10","28","50","0.00",,,,"43","30.07","FEW:02 120","29.93","10.00","41",,,,,,,,,,,,,,,,,,,,,,,,,,,,,,,,,,,,,,,,"MET09404/14/20 08:51:02 METAR KNYC 141351Z      KT 10SM FEW120 10/M02 A3010 RMK AO2 SLP184 T01001022","FM-15","7",,,,,,,,,,,,,,,,,,,,,,,,,,,,
"72505394728","2020-04-14T09:51:00","FM-15","7",,,,,,,,,,,,,,,,,,,,,,,,,,,,,,,,,,,,,,"30.11","26","50","0.00",,"-0.02","1","39","30.09","CLR:00","29.94","10.00","40","270",,"6",,,,,,,,,,,,,,,,,,,,,,,,,,,,,,,,,,,,,"MET09704/14/20 09:51:02 METAR KNYC 141451Z 27005KT 10SM CLR 10/M03 A3011 RMK AO2 SLP188 T01001033 51007","FM-15","7",,,,,,,,,,,,,,,,,,,,,,,,,,,,
"72505394728","2020-04-14T10:51:00","FM-15","7",,,,,,,,,,,,,,,,,,,,,,,,,,,,,,,,,,,,,,"30.12","25","51","0.00",,,,"36","30.09","SCT:04 120","29.95","10.00","40","290",,"6",,,,,,,,,,,,,,,,,,,,,,,,,,,,,,,,,,,,,"MET09404/14/20 10:51:02 METAR KNYC 141551Z 29005KT 10SM SCT120 11/M04 A3012 RMK AO2 SLP191 T01061039","FM-15","7",,,,,,,,,,,,,,,,,,,,,,,,,,,,
"72505394728","2020-04-14T11:51:00","FM-15","7",,,,,,,,,,,,,,,,,,,,,,,,,,,,,,,,,,,,,,"30.08","24","54","0.00",,,,"31","30.05","CLR:00","29.91","10.00","42","VRB",,"3",,,,,,,,,,,,,,,,,,,,,,,,,,,,,,,,,,,,,"MET09104/14/20 11:51:02 METAR KNYC 141651Z VRB03KT 10SM CLR 12/M04 A3008 RMK AO2 SLP177 T01221044","FM-15","7",,,,,,,,,,,,,,,,,,,,,,,,,,,,
"72505394728","2020-04-14T12:51:00","FM-15","7",,,,,,,,,,,,,,,,,,,,,,,,,,,,,,,,,,,,,,"30.07","24","56","0.00",,"+0.05","8","29","30.04","FEW:02 120","29.90","10.00","43","250",,"7",,,,,,,,,,,,,,,,,,,,,,,,,,,,,,,,,,,,,"MET11204/14/20 12:51:02 METAR KNYC 141751Z 25006KT 10SM FEW120 13/M04 A3007 RMK AO2 SLP172 T01331044 10144 20083 58016","FM-15","7",,,,,,,,,,,,,,,,,,,,,,,,,,,,
"72505394728","2020-04-14T13:51:00","FM-15","7",,,,,,,,,,,,,,,,,,,,,,,,,,,,,,,,,,,,,,"30.03","25","57","0.00",,,,"29","30.01","CLR:00","29.86","10.00","43","000",,"0",,,,,,,,,,,,,,,,,,,,,,,,,,,,,,,,,,,,,"MET09504/14/20 13:51:02 METAR KNYC 141851Z 00000KT 10SM CLR 14/M04 A3003 RMK AO2 SLP162 T01391039 RTX","FM-15","7",,,,,,,,,,,,,,,,,,,,,,,,,,,,
"72505394728","2020-04-14T14:51:00","FM-15","7",,,,,,,,,,,,,,,,,,,,,,,,,,,,,,,,,,,,,,"30.02","26","58","0.00",,,,"29","29.99","CLR:00","29.85","10.00","44","280",,"7",,,,,,,,,,,,,,,,,,,,,,,,,,,,,,,,,,,,,"MET09104/14/20 14:51:02 METAR KNYC 141951Z 28006KT 10SM CLR 14/M03 A3002 RMK AO2 SLP156 T01441033","FM-15","7",,,,,,,,,,,,,,,,,,,,,,,,,,,,
"72505394728","2020-04-14T15:51:00","FM-15","7",,,,,,,,,,,,,,,,,,,,,,,,,,,,,,,,,,,,,,"29.99","26","58","0.00",,"+0.07","6","29","29.97","CLR:00","29.82","10.00","44","000",,"0",,,,,,,,,,,,,,,,,,,,,,,,,,,,,,,,,,,,,"MET10104/14/20 15:51:02 METAR KNYC 142051Z 00000KT 10SM CLR 14/M03 A2999 RMK AO2 SLP148 T01441033 56025 RTX","FM-15","7",,,,,,,,,,,,,,,,,,,,,,,,,,,,
"72505394728","2020-04-14T16:51:00","FM-15","7",,,,,,,,,,,,,,,,,,,,,,,,,,,,,,,,,,,,,,"29.96","27","57","0.00",,,,"32","29.93","FEW:02 120","29.79","10.00","44","260",,"5",,,,,,,,,,,,,,,,,,,,,,,,,,,,,,,,,,,,,"MET11004/14/20 16:51:02 METAR KNYC 142151Z 26004KT 10SM FEW120 14/M03 A2996 RMK AO2 PRESFR SLP137 T01391028 RTX FIBI","FM-15","7",,,,,,,,,,,,,,,,,,,,,,,,,,,,
"72505394728","2020-04-14T17:51:00","FM-15","7",,,,,,,,,,,,,,,,,,,,,,,,,,,,,,,,,,,,,,"30.02","28","55","0.00",,,,"35","29.99","BKN:07 100 OVC:08 110","29.85","10.00","43","VRB",,"9",,,,,,,,,,,,,,,,,,,,,,,,,,,,,,,,,,,,,"MET10804/14/20 17:51:02 METAR KNYC 142251Z 24008KT 10SM BKN100 OVC110 13/M02 A3002 RMK AO2 PRESRR SLP157 T01281022","FM-15","7",,,,,,,,,,,,,,,,,,,,,,,,,,,,
"72505394728","2020-04-14T18:51:00","FM-15","7",,,,,,,,,,,,,,,,,,,,,,,,,,,,,,,,,,,,,,"29.99","30","52","0.00",,"+0.00","5","43","29.97","OVC:08 95","29.82","10.00","42","VRB",,"7",,,,,,,,,,,,,,,,,,,,,,,,,,,,,,,,,,,,,"MET11204/14/20 18:51:02 METAR KNYC 142351Z VRB06KT 10SM OVC095 11/M01 A2999 RMK AO2 SLP148 T01111011 10156 20111 55000","FM-15","7",,,,,,,,,,,,,,,,,,,,,,,,,,,,
"72505394728","2020-04-14T19:51:00","FM-15","7",,,,,,,,,,,,,,,,,,,,,,,,,,,,,,,,,,,,,,"30.01","33","51","0.00",,,,"50","29.99","OVC:08 90","29.84","10.00","43","VRB",,"5",,,,,,,,,,,,,,,,,,,,,,,,,,,,,,,,,,,,,"MET09304/14/20 19:51:01 METAR KNYC 150051Z VRB04KT 10SM OVC090 11/01 A3001 RMK AO2 SLP156 T01060006","FM-15","7",,,,,,,,,,,,,,,,,,,,,,,,,,,,
"72505394728","2020-04-14T20:51:00","FM-15","7",,,,,,,,,,,,,,,,,,,,,,,,,,,,,,,,,,,,,,"30.02","35","51","0.00",,,,"54","29.99","OVC:08 85","29.85","10.00","44","180",,"7",,,,,,,,,,,,,,,,,,,,,,,,,,,,,,,,,,,,,"MET09304/14/20 20:51:01 METAR KNYC 150151Z 18006KT 10SM OVC085 11/02 A3002 RMK AO2 SLP156 T01060017","FM-15","7",,,,,,,,,,,,,,,,,,,,,,,,,,,,
"72505394728","2020-04-14T21:51:00","FM-15","7",,,,,,,,,,,,,,,,,,,,,,,,,,,,,,,,,,,,,,"30.00","37","51","0.00",,"-0.01","0","59","29.98","FEW:02 60 SCT:04 85 SCT:04 110","29.83","10.00","45","VRB",,"5",,,,,,,,,,,,,,,,,,,,,,,,,,,,,,,,,,,,,"MET11304/14/20 21:51:01 METAR KNYC 150251Z VRB04KT 10SM FEW060 SCT085 SCT110 11/03 A3000 RMK AO2 SLP152 T01060028 50004","FM-15","7",,,,,,,,,,,,,,,,,,,,,,,,,,,,
"72505394728","2020-04-14T22:51:00","FM-15","7",,,,,,,,,,,,,,,,,,,,,,,,,,,,,,,,,,,,,,"30.02","31","50","0.00",,,,"48","30.00","BKN:07 65 OVC:08 80","29.85","10.00","42","280",,"6",,,,,,,,,,,,,,,,,,,,,,,,,,,,,,,,,,,,,"MET10104/14/20 22:51:01 METAR KNYC 150351Z 28005KT 10SM BKN065 OVC080 10/M01 A3002 RMK AO2 SLP159 T01001006","FM-15","7",,,,,,,,,,,,,,,,,,,,,,,,,,,,
"72505394728","2020-04-14T23:51:00","FM-15","7",,,,,,,,,,,,,,,,,,,,,,,,,,,,,,,,,,,,,,"30.01","33","48","T","-RA:02 |RA |RA",,,"56","29.99","OVC:08 55","29.84","10.00","41","270",,"9",,,,,,,,,,,,,,,,,,,,,,,,,,,,,,,,,,,,,"MET11904/14/20 23:51:01 METAR KNYC 150451Z 27008KT 10SM -RA OVC055 09/01 A3001 RMK AO2 RAB45 SLP155 P0000 T00890006 401560083","FM-15","7",,,,,,,,,,,,,,,,,,,,,,,,,,,,
"72505394728","2020-04-14T23:59:00","SOD  ","6",,,,,,,,,,,,,,,,"54",,,"29.86",,"6.3","0","1.4","11","60","47","280","24","T","0","0.0","300","15","RA",,,,,,,,,,,,,,,,,,,,,,,,,,,,,,,,,,,,,,,,,,,,,,,,,,,,,,,,"SOD73924 HR PRECIPITATION (IN):    T SNOW DEPTH (IN):0     24 HR SNOWFALL (IN):0.0  24 HR MAX TEMP (F): 6024 HR MIN TEMP (F): 47AVERAGE STATION PRESSURE(D):29.862 MINIMUM SEA LEVEL PRESSURE:29.90 TIME OF OCCURRENCE:0002 PEAK WIND SPEED (MPH): 24 PEAK WIND DIR (DEG):280 PEAK WIND TIME (LST):      FASTEST 2MIN SPEED (MPH): 15FASTEST 2MIN DIR (DEG):300 FASTEST 2MIN TIME (LST):     AVERAGE WIND SPEED (MPH): 6.3 24 HR AVG TEMP (F): 54DEPART FROM NORMAL:  1  HEATING DEGREE DAYS: 11 COOLING DEGREE DAYS:  0 LATEST DAY MAX TEMP (0700-1900 LST): 60 LATEST NIGHT MIN TEMP(1900-0800 LST):47 HOURLY INCREMENTAL PRECIPITATION VALUES (IN):0.00 0.00 0.00 0.00 0.00 0.00 0.00 0.00 0.00 0.00 0.00 0.00 0.00 0.00 0.00 0.00 0.00 0.00 0.00 0.00 0.00 0.00 0.00T","SOD  ","6",,,,,,,,,,,,,,,,,,,,,,,,,"0518","1835",,
"72505394728","2020-04-15T00:51:00","FM-15","7",,,,,,,,,,,,,,,,,,,,,,,,,,,,,,,,,,,,,,"29.99","33","47","T",,"+0.01","8","59","29.97","SCT:04 37 BKN:07 47 OVC:08 55","29.82","10.00","41","270",,"8",,,,,,,,,,,,,,,,,,,,,,,,,,,,,,,,,,,,,"MET14904/15/20 00:51:02 METAR KNYC 150551Z 27007KT 10SM SCT037 BKN047 OVC055 08/01 A2999 RMK AO2 RAE27 SLP148 P0000 60000 T00830006 10111 20083 58005 $ RTX","FM-15","7",,,,,,,,,,,,,,,,,,,,,,,,,,,,
"72505394728","2020-04-15T01:51:00","FM-15","7",,,,,,,,,,,,,,,,,,,,,,,,,,,,,,,,,,,,,,"30.00","32","46","0.00",,,,"58","29.97","BKN:07 55 OVC:08 100","29.83","10.00","40","VRB","17","10",,,,,,,,,,,,,,,,,,,,,,,,,,,,,,,,,,,,,"MET10904/15/20 01:51:02 METAR KNYC 150651Z 31009G15KT 10SM BKN055 OVC100 08/00 A3000 RMK AO2 SLP149 T00780000 $ RTX","FM-15","7",,,,,,,,,,,,,,,,,,,,,,,,,,,,
"72505394728","2020-04-15T02:18:00","FM-16","7",,,,,,,,,,,,,,,,,,,,,,,,,,,,,,,,,,,,,,"30.00","34","44","T","-RA:02 |RA |RA",,,"68",,"SCT:04 22 BKN:07 26 OVC:08 60","29.83","10.00","40","VRB","21","10",,,,,,,,,,,,,,,,,,,,,,,,,,,,,,,,,,,,,"MET12104/15/20 02:18:02 SPECI KNYC 150718Z 30009G18KT 10SM -RA SCT022 BKN026 OVC060 07/01 A3000 RMK AO2 RAB17 P0000 T00670011 $","FM-16","7",,,,,,,,,,,,,,,,,,,,,,,,,,,,
"72505394728","2020-04-15T02:46:00","FM-16","7",,,,,,,,,,,,,,,,,,,,,,,,,,,,,,,,,,,,,,"29.99","32","43","T",,,,"66",,"FEW:02 22 SCT:04 28 OVC:08 55","29.82","10.00","38","VRB",,"7",,,,,,,,,,,,,,,,,,,,,,,,,,,,,,,,,,,,,"MET10704/15/20 02:46:02 SPECI KNYC 150746Z VRB06KT 10SM FEW022 SCT028 OVC055 06/00 A2999 RMK AO2 RAB17E42 P0000 $","FM-16","7",,,,,,,,,,,,,,,,,,,,,,,,,,,,
"72505394728","2020-04-15T02:51:00","FM-15","7",,,,,,,,,,,,,,,,,,,,,,,,,,,,,,,,,,,,,,"29.99","32","43","T",,,,"65","29.97","FEW:02 22 OVC:08 55","29.82","10.00","38","270",,"6",,,,,,,,,,,,,,,,,,,,,,,,,,,,,,,,,,,,,"MET11704/15/20 02:51:02 METAR KNYC 150751Z 27005KT 10SM FEW022 OVC055 06/00 A2999 RMK AO2 RAB17E42 SLP148 P0000 T00610000 $","FM-15","7",,,,,,,,,,,,,,,,,,,,,,,,,,,,
"72505394728","2020-04-15T03:51:00","FM-15","7",,,,,,,,,,,,,,,,,,,,,,,,,,,,,,,,,,,,,,"29.99","31","43","0.00",,"+0.01","7","63","29.96","BKN:07 60 OVC:08 75","29.82","10.00","38","VRB",,"7",,,,,,,,,,,,,,,,,,,,,,,,,,,,,,,,,,,,,"MET11904/15/20 03:51:02 METAR KNYC 150851Z VRB06KT 10SM BKN060 OVC075 06/M01 A2999 RMK AO2 SLP146 60000 T00611006 57003 $ RTX","FM-15","7",,,,,,,,,,,,,,,,,,,,,,,,,,,,
"72505394728","2020-04-15T04:51:00","FM-15","7",,,,,,,,,,,,,,,,,,,,,,,,,,,,,,,,,,,,,,"29.98","32","43","0.00",,,,"65","29.96","FEW:02 33 SCT:04 75 OVC:08 110","29.81","10.00","38","280",,"9",,,,,,,,,,,,,,,,,,,,,,,,,,,,,,,,,,,,,"MET10904/15/20 04:51:02 METAR KNYC 150951Z 28008KT 10SM FEW033 SCT075 OVC110 06/00 A2998 RMK AO2 SLP145 T00610000 $","FM-15","7",,,,,,,,,,,,,,,,,,,,,,,,,,,,
"72505394728","2020-04-15T05:51:00","FM-15","7",,,,,,,,,,,,,,,,,,,,,,,,,,,,,,,,,,,,,,"30.01","23","42","0.00",,,,"47","29.98","SCT:04 60 SCT:04 120","29.84","10.00","35","290",,"8",,,,,,,,,,,,,,,,,,,,,,,,,,,,,,,,,,,,,"MET10304/15/20 05:51:02 METAR KNYC 151051Z 29007KT 10SM SCT060 SCT120 06/M05 A3001 RMK AO2 SLP153 T00561050 $","FM-15","7",,,,,,,,,,,,,,,,,,,,,,,,,,,,
"72505394728","2020-04-15T06:51:00","FM-15","7",,,,,,,,,,,,,,,,,,,,,,,,,,,,,,,,,,,,,,"30.01","24","42","0.00",,"-0.03","3","49","29.99",,,"10.00",,,,,,,,,,,,,,,,,,,,,,,,,,,,,,,,,,,,,,,,,"MET04804/15/20 06:51:02 METAR KNYC 151151Z      KT RMK","FM-15","7",,,,,,,,,,,,,,,,,,,,,,,,,,,,
"72505394728","2020-04-15T07:51:00","FM-15","7",,,,,,,,,,,,,,,,,,,,,,,,,,,,,,,,,,,,,,"30.00","24","42","0.00",,,,"49","29.98","FEW:02 120","29.83","10.00","35","VRB",,"3",,,,,,,,,,,,,,,,,,,,,,,,,,,,,,,,,,,,,"MET09604/15/20 07:51:02 METAR KNYC 151251Z VRB03KT 10SM FEW120 06/M04 A3000 RMK AO2 SLP152 T00561044 $","FM-15","7",,,,,,,,,,,,,,,,,,,,,,,,,,,,
"72505394728","2020-04-15T08:51:00","FM-15","7",,,,,,,,,,,,,,,,,,,,,,,,,,,,,,,,,,,,,,"30.00","22","43","0.00",,,,"43","29.98","CLR:00","29.83","10.00","35","VRB",,"6",,,,,,,,,,,,,,,,,,,,,,,,,,,,,,,,,,,,,"MET09304/15/20 08:51:02 METAR KNYC 151351Z VRB05KT 10SM CLR 06/M06 A3000 RMK AO2 SLP151 T00611056 $","FM-15","7",,,,,,,,,,,,,,,,,,,,,,,,,,,,
"72505394728","2020-04-15T09:51:00","FM-15","7",,,,,,,,,,,,,,,,,,,,,,,,,,,,,,,,,,,,,,"29.99","17","45","0.00",,"+0.02","6","33","29.97","CLR:00","29.82","10.00","35","260",,"5",,,,,,,,,,,,,,,,,,,,,,,,,,,,,,,,,,,,,"MET10304/15/20 09:51:02 METAR KNYC 151451Z 26004KT 10SM CLR 07/M08 A2999 RMK AO2 SLP148 T00721083 56007 $ RTX","FM-15","7",,,,,,,,,,,,,,,,,,,,,,,,,,,,
"72505394728","2020-04-15T10:51:00","FM-15","7",,,,,,,,,,,,,,,,,,,,,,,,,,,,,,,,,,,,,,"29.97","18","49","0.00",,,,"29","29.95","CLR:00","29.80","10.00","37","VRB",,"5",,,,,,,,,,,,,,,,,,,,,,,,,,,,,,,,,,,,,"MET09304/15/20 10:51:02 METAR KNYC 151551Z VRB04KT 10SM CLR 09/M08 A2997 RMK AO2 SLP142 T00941078 $","FM-15","7",,,,,,,,,,,,,,,,,,,,,,,,,,,,
"72505394728","2020-04-15T11:51:00","FM-15","7",,,,,,,,,,,,,,,,,,,,,,,,,,,,,,,,,,,,,,"29.95","16","51","0.00",,,,"25","29.93","FEW:02 75","29.78","10.00","38","VRB",,"3",,,,,,,,,,,,,,,,,,,,,,,,,,,,,,,,,,,,,"MET10004/15/20 11:51:02 METAR KNYC 151651Z VRB03KT 10SM FEW075 11/M09 A2995 RMK AO2 SLP135 T01061089 $ RTX","FM-15","7",,,,,,,,,,,,,,,,,,,,,,,,,,,,
"72505394728","2020-04-15T12:51:00","FM-15","7",,,,,,,,,,,,,,,,,,,,,,,,,,,,,,,,,,,,,,"29.94","13","50","0.00",,"+0.05","6","22","29.92","FEW:02 75","29.77","10.00","37","VRB","17","7",,,,,,,,,,,,,,,,,,,,,,,,,,,,,,,,,,,,,"MET11704/15/20 12:51:02 METAR KNYC 151751Z VRB06G15KT 10SM FEW075 10/M11 A2994 RMK AO2 SLP132 T01001106 10106 20056 56016 $","FM-15","7",,,,,,,,,,,,,,,,,,,,,,,,,,,,
"72505394728","2020-04-15T13:51:00","FM-15","7",,,,,,,,,,,,,,,,,,,,,,,,,,,,,,,,,,,,,,"29.93","15","52","0.00",,,,"23","29.91","FEW:02 80","29.76","10.00","38","VRB","24","10",,,,,,,,,,,,,,,,,,,,,,,,,,,,,,,,,,,,,"MET09904/15/20 13:51:02 METAR KNYC 151851Z 26009G21KT 10SM FEW080 11/M09 A2993 RMK AO2 SLP129 T01111094 $","FM-15","7",,,,,,,,,,,,,,,,,,,,,,,,,,,,
"72505394728","2020-04-15T14:51:00","FM-15","7",,,,,,,,,,,,,,,,,,,,,,,,,,,,,,,,,,,,,,"29.92","15","52","0.00",,,,"23","29.89","SCT:04 80","29.75","10.00","38",,,,,,,,,,,,,,,,,,,,,,,,,,,,,,,,,,,,,,,,"MET09604/15/20 14:51:02 METAR KNYC 151951Z      KT 10SM SCT080 11/M09 A2992 RMK AO2 SLP123 T01111094 $","FM-15","7",,,,,,,,,,,,,,,,,,,,,,,,,,,,
"72505394728","2020-04-15T15:51:00","FM-15","7",,,,,,,,,,,,,,,,,,,,,,,,,,,,,,,,,,,,,,"29.91","12","*","0.00",,"+0.04","6","*","29.88","FEW:02 85",,"10.00","*","VRB",,"9",,,,,,,,,,,,,,,,,,,,,,,,,,,,,,,,,,,,,"MET06304/15/20 15:51:02 METAR KNYC 152051Z 28008KT 10SM FEW085 11/RMK","FM-15","7",,,,,,,,,,,,,,,,,,,,,,,,,,,,
"72505394728","2020-04-15T16:51:00","FM-15","7",,,,,,,,,,,,,,,,,,,,,,,,,,,,,,,,,,,,,,"29.92","12","51","0.00",,,,"21","29.89","CLR:00","29.75","10.00","37","VRB",,"7",,,,,,,,,,,,,,,,,,,,,,,,,,,,,,,,,,,,,"MET09304/15/20 16:51:02 METAR KNYC 152151Z VRB06KT 10SM CLR 11/M11 A2992 RMK AO2 SLP122 T01061111 $","FM-15","7",,,,,,,,,,,,,,,,,,,,,,,,,,,,
"72505394728","2020-04-15T17:51:00","FM-15","7",,,,,,,,,,,,,,,,,,,,,,,,,,,,,,,,,,,,,,"29.92","11","51","0.00",,,,"20","29.90","CLR:00","29.75","10.00","37","VRB",,"6",,,,,,,,,,,,,,,,,,,,,,,,,,,,,,,,,,,,,"MET09304/15/20 17:51:02 METAR KNYC 152251Z VRB05KT 10SM CLR 11/M12 A2992 RMK AO2 SLP124 T01061117 $","FM-15","7",,,,,,,,,,,,,,,,,,,,,,,,,,,,
"72505394728","2020-04-15T18:51:00","FM-15","7",,,,,,,,,,,,,,,,,,,,,,,,,,,,,,,,,,,,,,"29.95","11","49","0.00",,"-0.04","3","21","29.92","CLR:00","29.78","10.00","36","000",,"0",,,,,,,,,,,,,,,,,,,,,,,,,,,,,,,,,,,,,"MET11504/15/20 18:51:02 METAR KNYC 152351Z 00000KT 10SM CLR 09/M12 A2995 RMK AO2 SLP133 T00941117 10122 20094 53013 $ RTX","FM-15","7",,,,,,,,,,,,,,,,,,,,,,,,,,,,
"72505394728","2020-04-15T19:51:00","FM-15","7",,,,,,,,,,,,,,,,,,,,,,,,,,,,,,,,,,,,,,"29.98","16","49","0.00",,,,"27","29.95","BKN:07 95","29.81","10.00","37","VRB",,"5",,,,,,,,,,,,,,,,,,,,,,,,,,,,,,,,,,,,,"MET09604/15/20 19:51:01 METAR KNYC 160051Z VRB04KT 10SM BKN095 09/M09 A2998 RMK AO2 SLP143 T00941089 $","FM-15","7",,,,,,,,,,,,,,,,,,,,,,,,,,,,
"72505394728","2020-04-15T20:51:00","FM-15","7",,,,,,,,,,,,,,,,,,,,,,,,,,,,,,,,,,,,,,"29.99","16","49","0.00",,,,"27","29.97","FEW:02 90","29.82","10.00","37","220",,"7",,,,,,,,,,,,,,,,,,,,,,,,,,,,,,,,,,,,,"MET09604/15/20 20:51:01 METAR KNYC 160151Z 22006KT 10SM FEW090 09/M09 A2999 RMK AO2 SLP148 T00941089 $","FM-15","7",,,,,,,,,,,,,,,,,,,,,,,,,,,,
"72505394728","2020-04-15T21:51:00","FM-15","7",,,,,,,,,,,,,,,,,,,,,,,,,,,,,,,,,,,,,,"29.98","17","48","0.00",,"-0.04","0","29","29.96","CLR:00","29.81","10.00","37","240",,"7",,,,,,,,,,,,,,,,,,,,,,,,,,,,,,,,,,,,,"MET09904/15/20 21:51:01 METAR KNYC 160251Z 24006KT 10SM CLR 09/M08 A2998 RMK AO2 SLP145 T00891083 50013 $","FM-15","7",,,,,,,,,,,,,,,,,,,,,,,,,,,,
"72505394728","2020-04-15T22:51:00","FM-15","7",,,,,,,,,,,,,,,,,,,,,,,,,,,,,,,,,,,,,,"29.99","19","47","0.00",,,,"33","29.97","CLR:00","29.82","10.00","37","VRB",,"5",,,,,,,,,,,,,,,,,,,,,,,,,,,,,,,,,,,,,"MET09304/15/20 22:51:01 METAR KNYC 160351Z VRB04KT 10SM CLR 08/M07 A2999 RMK AO2 SLP149 T00831072 $","FM-15","7",,,,,,,,,,,,,,,,,,,,,,,,,,,,
"72505394728","2020-04-15T23:51:00","FM-15","7",,,,,,,,,,,,,,,,,,,,,,,,,,,,,,,,,,,,,,"29.99","21","46","0.00",,,,"37","29.96","CLR:00","29.82","10.00","37","VRB",,"3",,,,,,,,,,,,,,,,,,,,,,,,,,,,,,,,,,,,,"MET10304/15/20 23:51:01 METAR KNYC 160451Z VRB03KT 10SM CLR 08/M06 A2999 RMK AO2 SLP146 T00781061 401220056 $","FM-15","7",,,,,,,,,,,,,,,,,,,,,,,,,,,,
"72505394728","2020-04-15T23:59:00","SOD  ","6",,,,,,,,,,,,,,,,"48",,,"29.80",,"6.2","0","-4.9","17","54","42","270","25","T","0","0.0","270","14","RA",,,,,,,,,,,,,,,,,,,,,,,,,,,,,,,,,,,,,,,,,,,,,,,,,,,,,,,,"SOD74324 HR PRECIPITATION (IN):    T SNOW DEPTH (IN):0     24 HR SNOWFALL (IN):0.0  24 HR MAX TEMP (F): 5424 HR MIN TEMP (F): 42AVERAGE STATION PRESSURE(D):29.804 MINIMUM SEA LEVEL PRESSURE:29.88 TIME OF OCCURRENCE:1624 PEAK WIND SPEED (MPH): 25 PEAK WIND DIR (DEG):270 PEAK WIND TIME (LST):      FASTEST 2MIN SPEED (MPH): 14FASTEST 2MIN DIR (DEG):270 FASTEST 2MIN TIME (LST):     AVERAGE WIND SPEED (MPH): 6.2 24 HR AVG TEMP (F): 48DEPART FROM NORMAL: -5  HEATING DEGREE DAYS: 17 COOLING DEGREE DAYS:  0 LATEST DAY MAX TEMP (0700-1900 LST): 54 LATEST NIGHT MIN TEMP(1900-0800 LST):42 HOURLY INCREMENTAL PRECIPITATION VALUES (IN):     0.00T     0.00 0.00 0.00 0.00 0.00 0.00 0.00 0.00 0.00 0.00 0.00 0.00 0.00 0.00 0.00 0.00 0.00 0.00 0.00 0.00 0.00","SOD  ","6",,,,,,,,,,,,,,,,,,,,,,,,,"0516","1836",,
"72505394728","2020-04-16T00:51:00","FM-15","7",,,,,,,,,,,,,,,,,,,,,,,,,,,,,,,,,,,,,,"29.99","22","46","0.00",,"-0.00","0","38","29.96","FEW:02 85","29.82","10.00","37","VRB",,"6",,,,,,,,,,,,,,,,,,,,,,,,,,,,,,,,,,,,,"MET11404/16/20 00:51:02 METAR KNYC 160551Z VRB05KT 10SM FEW085 08/M06 A2999 RMK AO2 SLP146 T00781056 10100 20078 50001 $","FM-15","7",,,,,,,,,,,,,,,,,,,,,,,,,,,,
"72505394728","2020-04-16T01:51:00","FM-15","7",,,,,,,,,,,,,,,,,,,,,,,,,,,,,,,,,,,,,,"29.98","22","46","0.00",,,,"38","29.96","OVC:08 85","29.81","10.00","37","VRB","18","8",,,,,,,,,,,,,,,,,,,,,,,,,,,,,,,,,,,,,"MET10304/16/20 01:51:02 METAR KNYC 160651Z 23007G16KT 10SM OVC085 08/M06 A2998 RMK AO2 SLP145 T00781056 $ RTX","FM-15","7",,,,,,,,,,,,,,,,,,,,,,,,,,,,
"72505394728","2020-04-16T02:51:00","FM-15","7",,,,,,,,,,,,,,,,,,,,,,,,,,,,,,,,,,,,,,"29.99","22","45","0.00",,,,"40","29.97","BKN:07 75 OVC:08 90","29.82","10.00","36","VRB","21","5",,,,,,,,,,,,,,,,,,,,,,,,,,,,,,,,,,,,,"MET10604/16/20 02:51:02 METAR KNYC 160751Z VRB04G18KT 10SM BKN075 OVC090 07/M06 A2999 RMK AO2 SLP148 T00721056 $","FM-15","7",,,,,,,,,,,,,,,,,,,,,,,,,,,,
"72505394728","2020-04-16T03:51:00","FM-15","7",,,,,,,,,,,,,,,,,,,,,,,,,,,,,,,,,,,,,,"30.00","24","45","0.00",,"-0.02","3","44","29.98","OVC:08 70","29.83","10.00","37","VRB","16","7",,,,,,,,,,,,,,,,,,,,,,,,,,,,,,,,,,,,,"MET10504/16/20 03:51:02 METAR KNYC 160851Z VRB06G14KT 10SM OVC070 07/M04 A3000 RMK AO2 SLP152 T00721044 53006 $","FM-15","7",,,,,,,,,,,,,,,,,,,,,,,,,,,,
"72505394728","2020-04-16T04:51:00","FM-15","7",,,,,,,,,,,,,,,,,,,,,,,,,,,,,,,,,,,,,,"30.02","27","44","0.00",,,,"51","29.99","BKN:07 75 OVC:08 90","29.85","10.00","37",,,,,,,,,,,,,,,,,,,,,,,,,,,,,,,,,,,,,,,,"MET10304/16/20 04:51:02 METAR KNYC 160951Z      KT 10SM BKN075 OVC090 07/M03 A3002 RMK AO2 SLP156 T00671028 $","FM-15","7",,,,,,,,,,,,,,,,,,,,,,,,,,,,
"72505394728","2020-04-16T05:51:00","FM-15","7",,,,,,,,,,,,,,,,,,,,,,,,,,,,,,,,,,,,,,"30.06","29","41","0.00",,,,"62","30.03","BKN:07 33 BKN:07 44 OVC:08 70","29.89","10.00","36","290","25","9",,,,,,,,,,,,,,,,,,,,,,,,,,,,,,,,,,,,,"MET12004/16/20 05:51:02 METAR KNYC 161051Z 29008G22KT 10SM BKN033 BKN044 OVC070 05/M02 A3006 RMK AO2 PRESRR SLP170 T00501017 $","FM-15","7",,,,,,,,,,,,,,,,,,,,,,,,,,,,
"72505394728","2020-04-16T06:51:00","FM-15","7",,,,,,,,,,,,,,,,,,,,,,,,,,,,,,,,,,,,,,"30.09","26","41","0.00",,"-0.09","3","55","30.07","BKN:07 60 BKN:07 75","29.92","10.00","35",,,,,,,,,,,,,,,,,,,,,,,,,,,,,,,,,,,,,,,,"MET12104/16/20 06:51:02 METAR KNYC 161151Z      KT 10SM BKN060 BKN075 05/M03 A3009 RMK AO2 SLP182 T00501033 10078 20044 53029 $","FM-15","7",,,,,,,,,,,,,,,,,,,,,,,,,,,,
"72505394728","2020-04-16T07:51:00","FM-15","7",,,,,,,,,,,,,,,,,,,,,,,,,,,,,,,,,,,,,,"30.10","24","41","0.00",,,,"51","30.08","BKN:07 70","29.93","10.00","35","290","18","10",,,,,,,,,,,,,,,,,,,,,,,,,,,,,,,,,,,,,"MET09904/16/20 07:51:02 METAR KNYC 161251Z 29009G16KT 10SM BKN070 05/M04 A3010 RMK AO2 SLP186 T00501044 $","FM-15","7",,,,,,,,,,,,,,,,,,,,,,,,,,,,
"72505394728","2020-04-16T08:51:00","FM-15","7",,,,,,,,,,,,,,,,,,,,,,,,,,,,,,,,,,,,,,"30.11","23","43","0.00",,,,"45","30.09","SCT:04 44","29.94","10.00","35","290","16","10",,,,,,,,,,,,,,,,,,,,,,,,,,,,,,,,,,,,,"MET09904/16/20 08:51:02 METAR KNYC 161351Z 29009G14KT 10SM SCT044 06/M05 A3011 RMK AO2 SLP188 T00611050 $","FM-15","7",,,,,,,,,,,,,,,,,,,,,,,,,,,,
"72505394728","2020-04-16T09:51:00","FM-15","7",,,,,,,,,,,,,,,,,,,,,,,,,,,,,,,,,,,,,,"30.11","16","44","0.00",,"-0.02","1","32","30.09","CLR:00","29.94","10.00","34","310","20","13",,,,,,,,,,,,,,,,,,,,,,,,,,,,,,,,,,,,,"MET10604/16/20 09:51:02 METAR KNYC 161451Z 31011G17KT 10SM CLR 07/M09 A3011 RMK AO2 SLP188 T00671089 51006 $ RTX","FM-15","7",,,,,,,,,,,,,,,,,,,,,,,,,,,,
"72505394728","2020-04-16T10:51:00","FM-15","7",,,,,,,,,,,,,,,,,,,,,,,,,,,,,,,,,,,,,,"30.11","16","47","0.00",,,,"29","30.09","SCT:04 70","29.94","10.00","36","VRB","26","10",,,,,,,,,,,,,,,,,,,,,,,,,,,,,,,,,,,,,"MET09904/16/20 10:51:02 METAR KNYC 161551Z 28009G23KT 10SM SCT070 08/M09 A3011 RMK AO2 SLP189 T00831089 $","FM-15","7",,,,,,,,,,,,,,,,,,,,,,,,,,,,
"72505394728","2020-04-16T11:51:00","FM-15","7",,,,,,,,,,,,,,,,,,,,,,,,,,,,,,,,,,,,,,"30.11","12","45","0.00",,,,"26","30.08","BKN:07 75","29.94","10.00","34","300","28","15",,,,,,,,,,,,,,,,,,,,,,,,,,,,,,,,,,,,,"MET10304/16/20 11:51:02 METAR KNYC 161651Z 30013G24KT 10SM BKN075 07/M11 A3011 RMK AO2 SLP187 T00721111 $ RTX","FM-15","7",,,,,,,,,,,,,,,,,,,,,,,,,,,,
"72505394728","2020-04-16T12:51:00","FM-15","7",,,,,,,,,,,,,,,,,,,,,,,,,,,,,,,,,,,,,,"30.11","11","47","0.00",,"-0.00","3","23","30.09","SCT:04 80","29.94","10.00","35","VRB","29","13",,,,,,,,,,,,,,,,,,,,,,,,,,,,,,,,,,,,,"MET11704/16/20 12:51:02 METAR KNYC 161751Z 27011G25KT 10SM SCT080 08/M12 A3011 RMK AO2 SLP189 T00831117 10089 20044 53001 $","FM-15","7",,,,,,,,,,,,,,,,,,,,,,,,,,,,
"72505394728","2020-04-16T13:51:00","FM-15","7",,,,,,,,,,,,,,,,,,,,,,,,,,,,,,,,,,,,,,"30.12","10","46","0.00",,,,"23","30.09","BKN:07 90","29.95","10.00","34","VRB","26","14",,,,,,,,,,,,,,,,,,,,,,,,,,,,,,,,,,,,,"MET11704/16/20 13:51:02 METAR KNYC 161851Z 29012G23KT 10SM BKN090 08/M12 A3012 RMK AO2 PK WND 28026/1831 SLP190 T00781122 $","FM-15","7",,,,,,,,,,,,,,,,,,,,,,,,,,,,
"72505394728","2020-04-16T14:51:00","FM-15","7",,,,,,,,,,,,,,,,,,,,,,,,,,,,,,,,,,,,,,"30.11","9","47","0.00",,,,"21","30.09","OVC:08 90","29.94","10.00","34","VRB","24","10",,,,,,,,,,,,,,,,,,,,,,,,,,,,,,,,,,,,,"MET09904/16/20 14:51:02 METAR KNYC 161951Z 28009G21KT 10SM OVC090 08/M13 A3011 RMK AO2 SLP189 T00831128 $","FM-15","7",,,,,,,,,,,,,,,,,,,,,,,,,,,,
"72505394728","2020-04-16T15:51:00","FM-15","7",,,,,,,,,,,,,,,,,,,,,,,,,,,,,,,,,,,,,,"30.12","9","47","0.00",,"-0.00","3","21","30.09","BKN:07 90","29.95","10.00","34","VRB","17","6",,,,,,,,,,,,,,,,,,,,,,,,,,,,,,,,,,,,,"MET10504/16/20 15:51:02 METAR KNYC 162051Z VRB05G15KT 10SM BKN090 08/M13 A3012 RMK AO2 SLP190 T00831128 53001 $","FM-15","7",,,,,,,,,,,,,,,,,,,,,,,,,,,,
"72505394728","2020-04-16T16:51:00","FM-15","7",,,,,,,,,,,,,,,,,,,,,,,,,,,,,,,,,,,,,,"30.12","11","46","0.00",,,,"24","30.10","SCT:04 90 SCT:04 100","29.95","10.00","34","VRB","16","8",,,,,,,,,,,,,,,,,,,,,,,,,,,,,,,,,,,,,"MET10604/16/20 16:51:02 METAR KNYC 162151Z 34007G14KT 10SM SCT090 SCT100 08/M12 A3012 RMK AO2 SLP192 T00781117 $","FM-15","7",,,,,,,,,,,,,,,,,,,,,,,,,,,,
"72505394728","2020-04-16T17:51:00","FM-15","7",,,,,,,,,,,,,,,,,,,,,,,,,,,,,,,,,,,,,,"30.12","10","46","0.00",,,,"23","30.10","OVC:08 95","29.95","10.00","34","VRB",,"5",,,,,,,,,,,,,,,,,,,,,,,,,,,,,,,,,,,,,"MET09604/16/20 17:51:02 METAR KNYC 162251Z VRB04KT 10SM OVC095 08/M12 A3012 RMK AO2 SLP192 T00781122 $","FM-15","7",,,,,,,,,,,,,,,,,,,,,,,,,,,,
"72505394728","2020-04-16T18:51:00","FM-15","7",,,,,,,,,,,,,,,,,,,,,,,,,,,,,,,,,,,,,,"30.15","19","44","0.00",,"-0.04","3","37","30.13","SCT:04 80 BKN:07 95","29.98","10.00","35","VRB","23","13",,,,,,,,,,,,,,,,,,,,,,,,,,,,,,,,,,,,,"MET12804/16/20 18:51:02 METAR KNYC 162351Z 28011G20KT 10SM SCT080 BKN095 07/M07 A3015 RMK AO2 SLP202 T00671072 10100 20067 53012 $ RTX","FM-15","7",,,,,,,,,,,,,,,,,,,,,,,,,,,,
"72505394728","2020-04-16T19:51:00","FM-15","7",,,,,,,,,,,,,,,,,,,,,,,,,,,,,,,,,,,,,,"30.19","24","42","0.00",,,,"49","30.16","CLR:00","30.02","10.00","35","VRB","23","8",,,,,,,,,,,,,,,,,,,,,,,,,,,,,,,,,,,,,"MET09604/16/20 19:51:01 METAR KNYC 170051Z 28007G20KT 10SM CLR 06/M04 A3019 RMK AO2 SLP214 T00561044 $","FM-15","7",,,,,,,,,,,,,,,,,,,,,,,,,,,,
"72505394728","2020-04-16T20:51:00","FM-15","7",,,,,,,,,,,,,,,,,,,,,,,,,,,,,,,,,,,,,,"30.23","24","40","0.00",,,,"53","30.20","BKN:07 80","30.06","10.00","34","270","23","15",,,,,,,,,,,,,,,,,,,,,,,,,,,,,,,,,,,,,"MET09904/16/20 20:51:01 METAR KNYC 170151Z 27013G20KT 10SM BKN080 04/M04 A3023 RMK AO2 SLP227 T00441044 $","FM-15","7",,,,,,,,,,,,,,,,,,,,,,,,,,,,
"72505394728","2020-04-16T21:51:00","FM-15","7",,,,,,,,,,,,,,,,,,,,,,,,,,,,,,,,,,,,,,"30.25","23","39","0.00",,"-0.09","1","53","30.22","CLR:00","30.08","10.00","33","VRB",,"7",,,,,,,,,,,,,,,,,,,,,,,,,,,,,,,,,,,,,"MET09904/16/20 21:51:01 METAR KNYC 170251Z VRB06KT 10SM CLR 04/M05 A3025 RMK AO2 SLP234 T00391050 51032 $","FM-15","7",,,,,,,,,,,,,,,,,,,,,,,,,,,,
"72505394728","2020-04-16T22:51:00","FM-15","7",,,,,,,,,,,,,,,,,,,,,,,,,,,,,,,,,,,,,,"30.26","23","38","0.00",,,,"55","30.24","CLR:00","30.09","10.00","33","VRB",,"3",,,,,,,,,,,,,,,,,,,,,,,,,,,,,,,,,,,,,"MET09304/16/20 22:51:01 METAR KNYC 170351Z VRB03KT 10SM CLR 03/M05 A3026 RMK AO2 SLP240 T00331050 $","FM-15","7",,,,,,,,,,,,,,,,,,,,,,,,,,,,
"72505394728","2020-04-16T23:51:00","FM-15","7",,,,,,,,,,,,,,,,,,,,,,,,,,,,,,,,,,,,,,"30.27","22","38","0.00",,,,"52","30.24","CLR:00","30.10","10.00","32","VRB",,"7",,,,,,,,,,,,,,,,,,,,,,,,,,,,,,,,,,,,,"MET10304/16/20 23:51:02 METAR KNYC 170451Z VRB06KT 10SM CLR 03/M06 A3027 RMK AO2 SLP241 T00331056 401000033 $","FM-15","7",,,,,,,,,,,,,,,,,,,,,,,,,,,,
"72505394728","2020-04-16T23:59:00","SOD  ","6",,,,,,,,,,,,,,,,"44",,,"29.94",,"9.1","0","-9.3","21","50","38","280","30","0.00","0","0.0","270","17",,,,,,,,,,,,,,,,,,,,,,,,,,,,,,,,,,,,,,,,,,,,,,,,,,,,,,,,,"SOD74324 HR PRECIPITATION (IN): 0.00 SNOW DEPTH (IN):0     24 HR SNOWFALL (IN):0.0  24 HR MAX TEMP (F): 5024 HR MIN TEMP (F): 38AVERAGE STATION PRESSURE(D):29.943 MINIMUM SEA LEVEL PRESSURE:29.95 TIME OF OCCURRENCE:0144 PEAK WIND SPEED (MPH): 30 PEAK WIND DIR (DEG):280 PEAK WIND TIME (LST):      FASTEST 2MIN SPEED (MPH): 17FASTEST 2MIN DIR (DEG):270 FASTEST 2MIN TIME (LST):     AVERAGE WIND SPEED (MPH): 9.1 24 HR AVG TEMP (F): 44DEPART FROM NORMAL: -9  HEATING DEGREE DAYS: 21 COOLING DEGREE DAYS:  0 LATEST DAY MAX TEMP (0700-1900 LST): 50 LATEST NIGHT MIN TEMP(1900-0800 LST):40 HOURLY INCREMENTAL PRECIPITATION VALUES (IN):0.00 0.00 0.00 0.00 0.00 0.00 0.00 0.00 0.00 0.00 0.00 0.00 0.00 0.00 0.00 0.00 0.00 0.00 0.00 0.00 0.00 0.00 0.00 0.00","SOD  ","6",,,,,,,,,,,,,,,,,,,,,,,,,"0514","1837",,
"72505394728","2020-04-17T00:51:00","FM-15","7",,,,,,,,,,,,,,,,,,,,,,,,,,,,,,,,,,,,,,"30.27","20","38","0.00",,"-0.02","0","48","30.24","CLR:00","30.10","10.00","32","280",,"7",,,,,,,,,,,,,,,,,,,,,,,,,,,,,,,,,,,,,"MET11104/17/20 00:51:02 METAR KNYC 170551Z 28006KT 10SM CLR 03/M07 A3027 RMK AO2 SLP241 T00331067 10067 20028 50006 $","FM-15","7",,,,,,,,,,,,,,,,,,,,,,,,,,,,
"72505394728","2020-04-17T01:51:00","FM-15","7",,,,,,,,,,,,,,,,,,,,,,,,,,,,,,,,,,,,,,"30.27","20","37","0.00",,,,"50","30.24","CLR:00","30.10","10.00","31","280",,"5",,,,,,,,,,,,,,,,,,,,,,,,,,,,,,,,,,,,,"MET09304/17/20 01:51:02 METAR KNYC 170651Z 28004KT 10SM CLR 03/M07 A3027 RMK AO2 SLP242 T00281067 $","FM-15","7",,,,,,,,,,,,,,,,,,,,,,,,,,,,
"72505394728","2020-04-17T02:51:00","FM-15","7",,,,,,,,,,,,,,,,,,,,,,,,,,,,,,,,,,,,,,"30.28","19","38","0.00",,,,"46","30.26","CLR:00","30.11","10.00","31","VRB",,"5",,,,,,,,,,,,,,,,,,,,,,,,,,,,,,,,,,,,,"MET09304/17/20 02:51:02 METAR KNYC 170751Z VRB04KT 10SM CLR 03/M07 A3028 RMK AO2 SLP246 T00331072 $","FM-15","7",,,,,,,,,,,,,,,,,,,,,,,,,,,,
"72505394728","2020-04-17T03:51:00","FM-15","7",,,,,,,,,,,,,,,,,,,,,,,,,,,,,,,,,,,,,,"30.28","20","37","0.00",,"-0.01","0","50","30.25","CLR:00","30.11","10.00","31","VRB",,"6",,,,,,,,,,,,,,,,,,,,,,,,,,,,,,,,,,,,,"MET09904/17/20 03:51:02 METAR KNYC 170851Z VRB05KT 10SM CLR 03/M07 A3028 RMK AO2 SLP244 T00281067 50004 $","FM-15","7",,,,,,,,,,,,,,,,,,,,,,,,,,,,
"72505394728","2020-04-17T04:51:00","FM-15","7",,,,,,,,,,,,,,,,,,,,,,,,,,,,,,,,,,,,,,"30.29","19","37","0.00",,,,"48","30.26","CLR:00","30.12","10.00","31","280",,"8",,,,,,,,,,,,,,,,,,,,,,,,,,,,,,,,,,,,,"MET09304/17/20 04:51:02 METAR KNYC 170951Z 28007KT 10SM CLR 03/M07 A3029 RMK AO2 SLP248 T00281072 $","FM-15","7",,,,,,,,,,,,,,,,,,,,,,,,,,,,
"72505394728","2020-04-17T05:51:00","FM-15","7",,,,,,,,,,,,,,,,,,,,,,,,,,,,,,,,,,,,,,"30.32","19","37","0.00",,,,"48","30.30","CLR:00","30.15","10.00","31","270",,"8",,,,,,,,,,,,,,,,,,,,,,,,,,,,,,,,,,,,,"MET09304/17/20 05:51:02 METAR KNYC 171051Z 27007KT 10SM CLR 03/M07 A3032 RMK AO2 SLP260 T00281072 $","FM-15","7",,,,,,,,,,,,,,,,,,,,,,,,,,,,
"72505394728","2020-04-17T06:51:00","FM-15","7",,,,,,,,,,,,,,,,,,,,,,,,,,,,,,,,,,,,,,"30.34","19","38","0.00",,"-0.06","3","46","30.31","CLR:00","30.17","10.00","31","VRB",,"6",,,,,,,,,,,,,,,,,,,,,,,,,,,,,,,,,,,,,"MET11104/17/20 06:51:02 METAR KNYC 171151Z VRB05KT 10SM CLR 03/M07 A3034 RMK AO2 SLP265 T00331072 10033 20022 53021 $","FM-15","7",,,,,,,,,,,,,,,,,,,,,,,,,,,,
"72505394728","2020-04-17T07:51:00","FM-15","7",,,,,,,,,,,,,,,,,,,,,,,,,,,,,,,,,,,,,,"30.33","17","40","0.00",,,,"40","30.30","CLR:00","30.16","10.00","32","000",,"0",,,,,,,,,,,,,,,,,,,,,,,,,,,,,,,,,,,,,"MET09304/17/20 07:51:02 METAR KNYC 171251Z 00000KT 10SM CLR 04/M08 A3033 RMK AO2 SLP262 T00441083 $","FM-15","7",,,,,,,,,,,,,,,,,,,,,,,,,,,,
"72505394728","2020-04-17T08:51:00","FM-15","7",,,,,,,,,,,,,,,,,,,,,,,,,,,,,,,,,,,,,,"30.31","17","43","0.00",,,,"35","30.29","CLR:00","30.14","10.00","34","VRB",,"3",,,,,,,,,,,,,,,,,,,,,,,,,,,,,,,,,,,,,"MET09304/17/20 08:51:02 METAR KNYC 171351Z VRB03KT 10SM CLR 06/M08 A3031 RMK AO2 SLP256 T00611083 $","FM-15","7",,,,,,,,,,,,,,,,,,,,,,,,,,,,
"72505394728","2020-04-17T09:51:00","FM-15","7",,,,,,,,,,,,,,,,,,,,,,,,,,,,,,,,,,,,,,"30.30","18","47","0.00",,"+0.04","8","31","30.28","CLR:00","30.13","10.00","36","VRB",,"5",,,,,,,,,,,,,,,,,,,,,,,,,,,,,,,,,,,,,"MET09904/17/20 09:51:02 METAR KNYC 171451Z VRB04KT 10SM CLR 08/M08 A3030 RMK AO2 SLP253 T00831078 58013 $","FM-15","7",,,,,,,,,,,,,,,,,,,,,,,,,,,,
"72505394728","2020-04-17T10:51:00","FM-15","7",,,,,,,,,,,,,,,,,,,,,,,,,,,,,,,,,,,,,,"30.27","18","47","0.00",,,,"31","30.25","FEW:02 60","30.10","10.00","36","VRB",,"7",,,,,,,,,,,,,,,,,,,,,,,,,,,,,,,,,,,,,"MET10004/17/20 10:51:02 METAR KNYC 171551Z VRB06KT 10SM FEW060 08/M08 A3027 RMK AO2 SLP243 T00831078 $ RTX","FM-15","7",,,,,,,,,,,,,,,,,,,,,,,,,,,,
"72505394728","2020-04-17T11:51:00","FM-15","7",,,,,,,,,,,,,,,,,,,,,,,,,,,,,,,,,,,,,,"30.23","17","49","0.00",,,,"28","30.21","CLR:00","30.06","10.00","37","VRB","18","9",,,,,,,,,,,,,,,,,,,,,,,,,,,,,,,,,,,,,"MET10004/17/20 11:51:02 METAR KNYC 171651Z 25008G16KT 10SM CLR 09/M08 A3023 RMK AO2 SLP229 T00941083 $ RTX","FM-15","7",,,,,,,,,,,,,,,,,,,,,,,,,,,,
"72505394728","2020-04-17T12:51:00","FM-15","7",,,,,,,,,,,,,,,,,,,,,,,,,,,,,,,,,,,,,,"30.19","16","50","0.00",,"+0.11","8","26","30.17","FEW:02 90","30.02","10.00","37","VRB","16","9",,,,,,,,,,,,,,,,,,,,,,,,,,,,,,,,,,,,,"MET11704/17/20 12:51:02 METAR KNYC 171751Z 24008G14KT 10SM FEW090 10/M09 A3019 RMK AO2 SLP216 T01001089 10106 20033 58036 $","FM-15","7",,,,,,,,,,,,,,,,,,,,,,,,,,,,
"72505394728","2020-04-17T13:51:00","FM-15","7",,,,,,,,,,,,,,,,,,,,,,,,,,,,,,,,,,,,,,"30.19","17","50","0.00",,,,"27","30.16","BKN:07 90","30.02","10.00","38","VRB",,"9",,,,,,,,,,,,,,,,,,,,,,,,,,,,,,,,,,,,,"MET09604/17/20 13:51:02 METAR KNYC 171851Z 24008KT 10SM BKN090 10/M08 A3019 RMK AO2 SLP214 T01001083 $","FM-15","7",,,,,,,,,,,,,,,,,,,,,,,,,,,,
"72505394728","2020-04-17T14:51:00","FM-15","7",,,,,,,,,,,,,,,,,,,,,,,,,,,,,,,,,,,,,,"30.15","18","49","0.00",,,,"29","30.13","FEW:02 60 OVC:08 80","29.98","10.00","37","VRB",,"10",,,,,,,,,,,,,,,,,,,,,,,,,,,,,,,,,,,,,"MET10704/17/20 14:51:02 METAR KNYC 171951Z 23009KT 10SM FEW060 OVC080 09/M08 A3015 RMK AO2 SLP202 T00941078 $ RTX","FM-15","7",,,,,,,,,,,,,,,,,,,,,,,,,,,,
"72505394728","2020-04-17T15:51:00","FM-15","7",,,,,,,,,,,,,,,,,,,,,,,,,,,,,,,,,,,,,,"30.14","26","46","0.00",,"+0.05","6","46","30.12","BKN:07 48 OVC:08 60","29.97","10.00","38","VRB","20","6",,,,,,,,,,,,,,,,,,,,,,,,,,,,,,,,,,,,,"MET11204/17/20 15:51:02 METAR KNYC 172051Z VRB05G17KT 10SM BKN048 OVC060 08/M03 A3014 RMK AO2 SLP200 T00781033 56017 $","FM-15","7",,,,,,,,,,,,,,,,,,,,,,,,,,,,
"72505394728","2020-04-17T16:51:00","FM-15","7",,,,,,,,,,,,,,,,,,,,,,,,,,,,,,,,,,,,,,"30.14","29","44","T","-RA:02 |RA |RA",,,"55","30.11","BKN:07 43 OVC:08 50","29.97","10.00","38","000",,"0",,,,,,,,,,,,,,,,,,,,,,,,,,,,,,,,,,,,,"MET11904/17/20 16:51:02 METAR KNYC 172151Z 00000KT 10SM -RA BKN043 OVC050 07/M02 A3014 RMK AO2 RAB43 SLP197 P0000 T00671017 $","FM-15","7",,,,,,,,,,,,,,,,,,,,,,,,,,,,
"72505394728","2020-04-17T17:51:00","FM-15","7",,,,,,,,,,,,,,,,,,,,,,,,,,,,,,,,,,,,,,"30.10","31","45","T",,,,"58","30.07","BKN:07 39 OVC:08 47","29.93","10.00","39","VRB",,"6",,,,,,,,,,,,,,,,,,,,,,,,,,,,,,,,,,,,,"MET12104/17/20 17:51:02 METAR KNYC 172251Z VRB05KT 10SM BKN039 OVC047 07/M01 A3010 RMK AO2 RAE11B31E38 SLP184 P0000 T00721006 $","FM-15","7",,,,,,,,,,,,,,,,,,,,,,,,,,,,
"72505394728","2020-04-17T18:33:00","FM-16","7",,,,,,,,,,,,,,,,,,,,,,,,,,,,,,,,,,,,,,"30.08","34","43","T",,,,"71",,"BKN:07 26 OVC:08 41","29.91","10.00","39","VRB",,"5",,,,,,,,,,,,,,,,,,,,,,,,,,,,,,,,,,,,,"MET11204/17/20 18:33:02 SPECI KNYC 172333Z VRB04KT 10SM BKN026 OVC041 06/01 A3008 RMK AO2 RAB2254E13 P0000 T00610011 $","FM-16","7",,,,,,,,,,,,,,,,,,,,,,,,,,,,
"72505394728","2020-04-17T18:51:00","FM-15","7",,,,,,,,,,,,,,,,,,,,,,,,,,,,,,,,,,,,,,"30.08","35","44","T","-RA:02 |RA |RA","+0.07","8","71","30.05","OVC:08 25","29.91","9.00","40","VRB",,"5",,,,,,,,,,,,,,,,,,,,,,,,,,,,,,,,,,,,,"MET14204/17/20 18:51:02 METAR KNYC 172351Z VRB04KT 9SM -RA OVC025 07/02 A3008 RMK AO2 RAB2254E13B43 SLP177 P0000 60000 T00670017 10106 20061 58023 $","FM-15","7",,,,,,,,,,,,,,,,,,,,,,,,,,,,
"72505394728","2020-04-17T19:28:00","FM-16","7",,,,,,,,,,,,,,,,,,,,,,,,,,,,,,,,,,,,,,"30.06","36","43","T","-RA:02 |RA |RA",,,"76",,"SCT:04 26 BKN:07 32 OVC:08 41","29.89","10.00","40","VRB",,"3",,,,,,,,,,,,,,,,,,,,,,,,,,,,,,,,,,,,,"MET11204/17/20 19:28:01 SPECI KNYC 180028Z VRB03KT 10SM -RA SCT026 BKN032 OVC041 06/02 A3006 RMK AO2 P0000 T00610022 $","FM-16","7",,,,,,,,,,,,,,,,,,,,,,,,,,,,
"72505394728","2020-04-17T19:51:00","FM-15","7",,,,,,,,,,,,,,,,,,,,,,,,,,,,,,,,,,,,,,"30.06","36","43","T","-RA:02 |RA |RA",,,"76","30.03","SCT:04 28 BKN:07 32 OVC:08 39","29.89","9.00","40","130",,"6",,,,,,,,,,,,,,,,,,,,,,,,,,,,,,,,,,,,,"MET11804/17/20 19:51:01 METAR KNYC 180051Z 13005KT 9SM -RA SCT028 BKN032 OVC039 06/02 A3006 RMK AO2 SLP169 P0000 T00610022 $","FM-15","7",,,,,,,,,,,,,,,,,,,,,,,,,,,,
"72505394728","2020-04-17T20:07:00","FM-16","7",,,,,,,,,,,,,,,,,,,,,,,,,,,,,,,,,,,,,,"30.06","36","44","T",,,,"73",,"BKN:07 29 BKN:07 36 OVC:08 70","29.89","10.00","40","140",,"5",,,,,,,,,,,,,,,,,,,,,,,,,,,,,,,,,,,,,"MET11604/17/20 20:07:01 SPECI KNYC 180107Z 14004KT 10SM BKN029 BKN036 OVC070 07/02 A3006 RMK AO2 RAE0055 P0000 T00670022 $","FM-16","7",,,,,,,,,,,,,,,,,,,,,,,,,,,,
"72505394728","2020-04-17T20:18:00","FM-16","7",,,,,,,,,,,,,,,,,,,,,,,,,,,,,,,,,,,,,,"30.04","36","44","T",,,,"73",,"SCT:04 30 OVC:08 70","29.87","10.00","40","000",,"0",,,,,,,,,,,,,,,,,,,,,,,,,,,,,,,,,,,,,"MET10904/17/20 20:18:01 SPECI KNYC 180118Z 00000KT 10SM SCT030 OVC070 07/02 A3004 RMK AO2 RAE0055 P0000 T00670022 $","FM-16","7",,,,,,,,,,,,,,,,,,,,,,,,,,,,
"72505394728","2020-04-17T20:51:00","FM-15","7",,,,,,,,,,,,,,,,,,,,,,,,,,,,,,,,,,,,,,"30.03","37","44","T","-RA:02 |RA |RA",,,"76","30.01","BKN:07 60 OVC:08 70","29.86","10.00","41","000",,"0",,,,,,,,,,,,,,,,,,,,,,,,,,,,,,,,,,,,,"MET12304/17/20 20:51:01 METAR KNYC 180151Z 00000KT 10SM -RA BKN060 OVC070 07/03 A3003 RMK AO2 RAE0055B28 SLP162 P0000 T00670028 $","FM-15","7",,,,,,,,,,,,,,,,,,,,,,,,,,,,
"72505394728","2020-04-17T21:51:00","FM-15","7",,,,,,,,,,,,,,,,,,,,,,,,,,,,,,,,,,,,,,"29.98","39","44","0.02s","-RA:02 |RA |RA","+0.10","8","83","29.96","OVC:08 47","29.81","8.00","42","000",,"0",,,,,,,,,,,,,,,,,,,,,,,,,,,,,,,,,,,,,"MET12304/17/20 21:51:01 METAR KNYC 180251Z 00000KT 8SM -RA OVC047 07/04 A2998 RMK AO2 PRESFR SLP144 P0001 60001 T00670039 58033 $","FM-15","7",,,,,,,,,,,,,,,,,,,,,,,,,,,,
"72505394728","2020-04-17T22:51:00","FM-15","7",,,,,,,,,,,,,,,,,,,,,,,,,,,,,,,,,,,,,,"29.94","40","43","0.01","-RA:02 BR:1 |RA |RA",,,"89","29.91","OVC:08 55","29.77","6.00","42","050",,"5",,,,,,,,,,,,,,,,,,,,,,,,,,,,,,,,,,,,,"MET10704/17/20 22:51:02 METAR KNYC 180351Z 05004KT 6SM -RA BR OVC055 06/04 A2994 RMK AO2 SLP130 P0002 T00610044 $","FM-15","7",,,,,,,,,,,,,,,,,,,,,,,,,,,,
"72505394728","2020-04-17T23:51:00","FM-15","7",,,,,,,,,,,,,,,,,,,,,,,,,,,,,,,,,,,,,,"29.92","40","43","0.04","-RA:02 BR:1 |RA |RA",,,"89","29.89","SCT:04 10 BKN:07 37 OVC:08 44","29.75","3.00","42","060",,"7",,,,,,,,,,,,,,,,,,,,,,,,,,,,,,,,,,,,,"MET13104/17/20 23:51:02 METAR KNYC 180451Z 06006KT 3SM -RA BR SCT010 BKN037 OVC044 06/04 A2992 RMK AO2 SLP122 P0003 T00610044 401060022 $","FM-15","7",,,,,,,,,,,,,,,,,,,,,,,,,,,,
"72505394728","2020-04-17T23:58:00","FM-16","7",,,,,,,,,,,,,,,,,,,,,,,,,,,,,,,,,,,,,,"29.91","40","43","0.01","RA:02 BR:1 |RA |RA",,,"89",,"BKN:07 9 OVC:08 39","29.74","3.00","42","060",,"8",,,,,,,,,,,,,,,,,,,,,,,,,,,,,,,,,,,,,"MET10604/17/20 23:58:02 SPECI KNYC 180458Z 06007KT 3SM RA BR BKN009 OVC039 06/04 A2991 RMK AO2 P0001 T00610044 $","FM-16","7",,,,,,,,,,,,,,,,,,,,,,,,,,,,
"72505394728","2020-04-17T23:59:00","SOD  ","6",,,,,,,,,,,,,,,,"44",,,"29.98",,"5.4","0","-9.6","21","51","36","220","22","0.07","0","0.0","220","14","RA BR",,,,,,,,,,,,,,,,,,,,,,,,,,,,,,,,,,,,,,,,,,,,,,,,,,,,,,,,"SOD76024 HR PRECIPITATION (IN): 0.07 SNOW DEPTH (IN):0     24 HR SNOWFALL (IN):0.0  WEATHER(CODE):1  24 HR MAX TEMP (F): 5124 HR MIN TEMP (F): 36AVERAGE STATION PRESSURE(D):29.987 MINIMUM SEA LEVEL PRESSURE:29.88 TIME OF OCCURRENCE:2359 PEAK WIND SPEED (MPH): 22 PEAK WIND DIR (DEG):220 PEAK WIND TIME (LST):      FASTEST 2MIN SPEED (MPH): 14FASTEST 2MIN DIR (DEG):220 FASTEST 2MIN TIME (LST):     AVERAGE WIND SPEED (MPH): 5.4 24 HR AVG TEMP (F): 44DEPART FROM NORMAL:-10  HEATING DEGREE DAYS: 21 COOLING DEGREE DAYS:  0 LATEST DAY MAX TEMP (0700-1900 LST): 51 LATEST NIGHT MIN TEMP(1900-0800 LST):36 HOURLY INCREMENTAL PRECIPITATION VALUES (IN):0.00 0.00 0.00 0.00 0.00 0.00 0.00 0.00 0.00 0.00 0.00 0.00 0.00 0.00 0.00 0.00T    T    T    T    T     0.02 0.01 0.04","SOD  ","6",,,,,,,,,,,,,,,,,,,,,,,,,"0513","1838",,
"72505394728","2020-04-18T00:51:00","FM-15","7",,,,,,,,,,,,,,,,,,,,,,,,,,,,,,,,,,,,,,"29.88","40","43","0.05","-RA:02 BR:1 |RA |RA","+0.06","8","89","29.85","BKN:07 8 OVC:08 32","29.71","3.00","42","060",,"8",,,,,,,,,,,,,,,,,,,,,,,,,,,,,,,,,,,,,"MET14704/18/20 00:51:02 METAR KNYC 180551Z 06007KT 3SM -RA BR BKN008 OVC032 06/04 A2988 RMK AO2 SLP109 P0006 60012 T00610044 10072 20061 58021 $ RTX FIBI","FM-15","7",,,,,,,,,,,,,,,,,,,,,,,,,,,,
"72505394728","2020-04-18T01:51:00","FM-15","7",,,,,,,,,,,,,,,,,,,,,,,,,,,,,,,,,,,,,,"29.83","41","43","0.03","-RA:02 BR:1 |RA |RA",,,"93","29.80","BKN:07 7 OVC:08 55","29.66","5.00","42","VRB",,"7",,,,,,,,,,,,,,,,,,,,,,,,,,,,,,,,,,,,,"MET11404/18/20 01:51:02 METAR KNYC 180651Z VRB06KT 5SM -RA BR BKN007 OVC055 06/05 A2983 RMK AO2 SLP093 P0003 T00610050 $","FM-15","7",,,,,,,,,,,,,,,,,,,,,,,,,,,,
"72505394728","2020-04-18T02:51:00","FM-15","7",,,,,,,,,,,,,,,,,,,,,,,,,,,,,,,,,,,,,,"29.81","40","43","T","-RA:02 BR:1 |RA |RA",,,"89","29.78","BKN:07 7 BKN:07 42 OVC:08 55","29.64","5.00","42","000",,"0",,,,,,,,,,,,,,,,,,,,,,,,,,,,,,,,,,,,,"MET12104/18/20 02:51:02 METAR KNYC 180751Z 00000KT 5SM -RA BR BKN007 BKN042 OVC055 06/04 A2981 RMK AO2 SLP085 P0000 T00610044 $","FM-15","7",,,,,,,,,,,,,,,,,,,,,,,,,,,,
"72505394728","2020-04-18T03:51:00","FM-15","7",,,,,,,,,,,,,,,,,,,,,,,,,,,,,,,,,,,,,,"29.79","41","43","0.01","-RA:02 BR:1 |RA |RA","+0.08","6","93","29.77","OVC:08 8","29.62","3.00","42","050",,"5",,,,,,,,,,,,,,,,,,,,,,,,,,,,,,,,,,,,,"MET12304/18/20 03:51:02 METAR KNYC 180851Z 05004KT 3SM -RA BR OVC008 06/05 A2979 RMK AO2 SLP081 P0001 60004 T00610050 56028 $ RTX","FM-15","7",,,,,,,,,,,,,,,,,,,,,,,,,,,,
"72505394728","2020-04-18T04:51:00","FM-15","7",,,,,,,,,,,,,,,,,,,,,,,,,,,,,,,,,,,,,,"29.76","41","43","0.02","-RA:02 BR:1 |RA |RA",,,"93","29.73","OVC:08 8","29.59","6.00","42","060",,"6",,,,,,,,,,,,,,,,,,,,,,,,,,,,,,,,,,,,,"MET10704/18/20 04:51:02 METAR KNYC 180951Z 06005KT 6SM -RA BR OVC008 06/05 A2976 RMK AO2 SLP069 P0002 T00610050 $","FM-15","7",,,,,,,,,,,,,,,,,,,,,,,,,,,,
"72505394728","2020-04-18T05:51:00","FM-15","7",,,,,,,,,,,,,,,,,,,,,,,,,,,,,,,,,,,,,,"29.76","42","44","0.01",,,,"93","29.73",,,"8.00",,"080",,"7",,,,,,,,,,,,,,,,,,,,,,,,,,,,,,,,,,,,,"MET05204/18/20 05:51:02 METAR KNYC 181051Z 08006KT 8SM RMK","FM-15","7",,,,,,,,,,,,,,,,,,,,,,,,,,,,
"72505394728","2020-04-18T06:51:00","FM-15","7",,,,,,,,,,,,,,,,,,,,,,,,,,,,,,,,,,,,,,"29.76","43","45","0.01","-RA:02 BR:1 |RA |RA","+0.03","5","93","29.74","OVC:08 9","29.59","3.00","44","000",,"0",,,,,,,,,,,,,,,,,,,,,,,,,,,,,,,,,,,,,"MET14304/18/20 06:51:02 METAR KNYC 181151Z 00000KT 3SM -RA BR OVC009 07/06 A2976 RMK AO2 RAB05 SLP071 P0000 60007 70019 T00720061 10072 20056 55010 $","FM-15","7",,,,,,,,,,,,,,,,,,,,,,,,,,,,
"72505394728","2020-04-18T06:58:00","FM-16","7",,,,,,,,,,,,,,,,,,,,,,,,,,,,,,,,,,,,,,"29.77","43","45","0.01","-RA:02 BR:1 |RA |RA",,,"93",,"BKN:07 8 OVC:08 13","29.60","2.00","44","070",,"5",,,,,,,,,,,,,,,,,,,,,,,,,,,,,,,,,,,,,"MET11104/18/20 06:58:02 SPECI KNYC 181158Z 07004KT 2SM -RA BR BKN008 OVC013 07/06 A2977 RMK AO2 P0001 T00720061 $ RTX","FM-16","7",,,,,,,,,,,,,,,,,,,,,,,,,,,,
"72505394728","2020-04-18T07:09:00","FM-16","7",,,,,,,,,,,,,,,,,,,,,,,,,,,,,,,,,,,,,,"29.76","43","45","0.01","-RA:02 BR:1 |RA |RA",,,"93",,"BKN:07 8 OVC:08 13","29.59","5.00","44","060",,"5",,,,,,,,,,,,,,,,,,,,,,,,,,,,,,,,,,,,,"MET10704/18/20 07:09:02 SPECI KNYC 181209Z 06004KT 5SM -RA BR BKN008 OVC013 07/06 A2976 RMK AO2 P0001 T00720061 $","FM-16","7",,,,,,,,,,,,,,,,,,,,,,,,,,,,
"72505394728","2020-04-18T07:16:00","FM-16","7",,,,,,,,,,,,,,,,,,,,,,,,,,,,,,,,,,,,,,"29.76","43","45","0.01","-RA:02 BR:1 |RA |RA",,,"93",,"SCT:04 8 OVC:08 15","29.59","5.00","44","050",,"5",,,,,,,,,,,,,,,,,,,,,,,,,,,,,,,,,,,,,"MET10704/18/20 07:16:02 SPECI KNYC 181216Z 05004KT 5SM -RA BR SCT008 OVC015 07/06 A2976 RMK AO2 P0001 T00720061 $","FM-16","7",,,,,,,,,,,,,,,,,,,,,,,,,,,,
"72505394728","2020-04-18T07:34:00","FM-16","7",,,,,,,,,,,,,,,,,,,,,,,,,,,,,,,,,,,,,,"29.78","43","45","0.01","RA:02 BR:1 |RA |RA",,,"93",,"BKN:07 8 OVC:08 15","29.61","2.50","44","010",,"5",,,,,,,,,,,,,,,,,,,,,,,,,,,,,,,,,,,,,"MET11004/18/20 07:34:02 SPECI KNYC 181234Z 01004KT 2 1/2SM RA BR BKN008 OVC015 07/06 A2978 RMK AO2 P0001 T00720061 $","FM-16","7",,,,,,,,,,,,,,,,,,,,,,,,,,,,
"72505394728","2020-04-18T07:49:00","FM-16","6",,,,,,,,,,,,,,,,,,,,,,,,,,,,,,,,,,,,,,"29.76","43","45",,"-RA:02 BR:1 |RA |RA",,,"93",,"OVC:08 9","29.59","3.00","44","VRB",,"5",,,,,,,,,,,,,,,,,,,,,,,,,,,,,,,,,,,,,"MET09504/18/20 07:49:02 SPECI KNYC 181249Z VRB04KT 3SM -RA BR OVC009 07/06 A2976 RMK AO2 P0003 $ FIBI","FM-16","6",,,,,,,,,,,,,,,,,,,,,,,,,,,,
"72505394728","2020-04-18T07:51:00","FM-15","7",,,,,,,,,,,,,,,,,,,,,,,,,,,,,,,,,,,,,,"29.76","43","45","0.02","-RA:02 BR:1 |RA |RA",,,"93","29.73","OVC:08 9","29.59","4.00","44","040",,"6",,,,,,,,,,,,,,,,,,,,,,,,,,,,,,,,,,,,,"MET10704/18/20 07:51:02 METAR KNYC 181251Z 04005KT 4SM -RA BR OVC009 07/06 A2976 RMK AO2 SLP069 P0003 T00720061 $","FM-15","7",,,,,,,,,,,,,,,,,,,,,,,,,,,,
"72505394728","2020-04-18T08:51:00","FM-15","7",,,,,,,,,,,,,,,,,,,,,,,,,,,,,,,,,,,,,,"29.76","42","44","0.05","RA:02 BR:1 |RA |RA",,,"93","29.73","OVC:08 9","29.59","3.00","43","VRB",,"5",,,,,,,,,,,,,,,,,,,,,,,,,,,,,,,,,,,,,"MET11804/18/20 08:51:02 METAR KNYC 181351Z VRB04KT 3SM RA BR OVC009 07/06 A2976 RMK AO2 CIG 004V011 SLP068 P0004 T00670056 $","FM-15","7",,,,,,,,,,,,,,,,,,,,,,,,,,,,
"72505394728","2020-04-18T08:58:00","FM-16","7",,,,,,,,,,,,,,,,,,,,,,,,,,,,,,,,,,,,,,"29.75","41","43","0.01","-RA:02 BR:1 |RA |RA",,,"93",,"BKN:07 6 OVC:08 11","29.58","2.50","42","340",,"8",,,,,,,,,,,,,,,,,,,,,,,,,,,,,,,,,,,,,"MET12304/18/20 08:58:02 SPECI KNYC 181358Z 34007KT 2 1/2SM -RA BR BKN006 OVC011 06/05 A2975 RMK AO2 CIG 004V008 P0001 T00610050 $","FM-16","7",,,,,,,,,,,,,,,,,,,,,,,,,,,,
"72505394728","2020-04-18T09:07:00","FM-16","7",,,,,,,,,,,,,,,,,,,,,,,,,,,,,,,,,,,,,,"29.75","41","43","0.01","-RA:02 BR:1 |RA |RA",,,"93",,"OVC:08 6","29.58","4.00","42","000",,"0",,,,,,,,,,,,,,,,,,,,,,,,,,,,,,,,,,,,,"MET11204/18/20 09:07:02 SPECI KNYC 181407Z 00000KT 4SM -RA BR OVC006 06/05 A2975 RMK AO2 CIG 004V010 P0001 T00610050 $","FM-16","7",,,,,,,,,,,,,,,,,,,,,,,,,,,,
"72505394728","2020-04-18T09:51:00","FM-15","7",,,,,,,,,,,,,,,,,,,,,,,,,,,,,,,,,,,,,,"29.77","39","41","0.01","-RA:02 |RA |RA","-0.01","3","93","29.75","OVC:08 8","29.60","9.00","40","VRB",,"7",,,,,,,,,,,,,,,,,,,,,,,,,,,,,,,,,,,,,"MET13704/18/20 09:51:02 METAR KNYC 181451Z VRB06KT 9SM -RA OVC008 05/04 A2977 RMK AO2 RAE27B45 CIG 006V011 SLP074 P0001 60008 T00500039 53004 $","FM-15","7",,,,,,,,,,,,,,,,,,,,,,,,,,,,
"72505394728","2020-04-18T10:31:00","FM-16","7",,,,,,,,,,,,,,,,,,,,,,,,,,,,,,,,,,,,,,"29.78","38","41","0.02",,,,"89",,"OVC:08 12","29.61","10.00","40","VRB",,"7",,,,,,,,,,,,,,,,,,,,,,,,,,,,,,,,,,,,,"MET10004/18/20 10:31:02 SPECI KNYC 181531Z VRB06KT 10SM OVC012 05/03 A2978 RMK AO2 RAE31 P0002 T00500033 $","FM-16","7",,,,,,,,,,,,,,,,,,,,,,,,,,,,
"72505394728","2020-04-18T10:51:00","FM-15","7",,,,,,,,,,,,,,,,,,,,,,,,,,,,,,,,,,,,,,"29.78","39","41","0.01",,,,"93","29.76","OVC:08 12","29.61","10.00","40","VRB",,"7",,,,,,,,,,,,,,,,,,,,,,,,,,,,,,,,,,,,,"MET10704/18/20 10:51:02 METAR KNYC 181551Z VRB06KT 10SM OVC012 05/04 A2978 RMK AO2 RAE31 SLP077 P0002 T00500039 $","FM-15","7",,,,,,,,,,,,,,,,,,,,,,,,,,,,
"72505394728","2020-04-18T11:44:00","FM-16","7",,,,,,,,,,,,,,,,,,,,,,,,,,,,,,,,,,,,,,"29.78","37","42","T",,,,"82",,"OVC:08 15","29.61","10.00","40","VRB",,"9",,,,,,,,,,,,,,,,,,,,,,,,,,,,,,,,,,,,,"MET10904/18/20 11:44:02 SPECI KNYC 181644Z 02008KT 10SM OVC015 06/03 A2978 RMK AO2 RAB1554E04 P0000 T00560028 $ RTX","FM-16","7",,,,,,,,,,,,,,,,,,,,,,,,,,,,
"72505394728","2020-04-18T11:51:00","FM-15","7",,,,,,,,,,,,,,,,,,,,,,,,,,,,,,,,,,,,,,"29.78","37","42","T",,,,"82","29.75","OVC:08 15","29.61","10.00","40","VRB",,"8",,,,,,,,,,,,,,,,,,,,,,,,,,,,,,,,,,,,,"MET11204/18/20 11:51:02 METAR KNYC 181651Z 35007KT 10SM OVC015 06/03 A2978 RMK AO2 RAB1554E04 SLP075 P0000 T00560028 $","FM-15","7",,,,,,,,,,,,,,,,,,,,,,,,,,,,
"72505394728","2020-04-18T12:51:00","FM-15","7",,,,,,,,,,,,,,,,,,,,,,,,,,,,,,,,,,,,,,"29.78","37","43","0.00",,"-0.00","1","80","29.75","BKN:07 15 BKN:07 22 OVC:08 29","29.61","10.00","40","030",,"8",,,,,,,,,,,,,,,,,,,,,,,,,,,,,,,,,,,,,"MET13304/18/20 12:51:02 METAR KNYC 181751Z 03007KT 10SM BKN015 BKN022 OVC029 06/03 A2978 RMK AO2 SLP075 60010 T00610028 10072 20050 51001 $","FM-15","7",,,,,,,,,,,,,,,,,,,,,,,,,,,,
"72505394728","2020-04-18T13:51:00","FM-15","7",,,,,,,,,,,,,,,,,,,,,,,,,,,,,,,,,,,,,,"29.79","36","46","0.00",,,,"68","29.77","SCT:04 24 BKN:07 28 OVC:08 45","29.62","10.00","42","VRB",,"8",,,,,,,,,,,,,,,,,,,,,,,,,,,,,,,,,,,,,"MET10904/18/20 13:51:02 METAR KNYC 181851Z 36007KT 10SM SCT024 BKN028 OVC045 08/02 A2979 RMK AO2 SLP080 T00780022 $","FM-15","7",,,,,,,,,,,,,,,,,,,,,,,,,,,,
"72505394728","2020-04-18T14:23:00","FM-16","7",,,,,,,,,,,,,,,,,,,,,,,,,,,,,,,,,,,,,,"29.80","34","46",,,,,"63",,"SCT:04 26 BKN:07 36 OVC:08 47","29.63","10.00","41","VRB",,"6",,,,,,,,,,,,,,,,,,,,,,,,,,,,,,,,,,,,,"MET10204/18/20 14:23:02 SPECI KNYC 181923Z VRB05KT 10SM SCT026 BKN036 OVC047 08/01 A2980 RMK AO2 T00780011 $","FM-16","7",,,,,,,,,,,,,,,,,,,,,,,,,,,,
"72505394728","2020-04-18T14:51:00","FM-15","7",,,,,,,,,,,,,,,,,,,,,,,,,,,,,,,,,,,,,,"29.81","34","45","0.00",,,,"66","29.78","BKN:07 33 OVC:08 41","29.64","10.00","40","VRB","18","5",,,,,,,,,,,,,,,,,,,,,,,,,,,,,,,,,,,,,"MET10504/18/20 14:51:02 METAR KNYC 181951Z VRB04G16KT 10SM BKN033 OVC041 07/01 A2981 RMK AO2 SLP086 T00720011 $","FM-15","7",,,,,,,,,,,,,,,,,,,,,,,,,,,,
"72505394728","2020-04-18T15:51:00","FM-15","7",,,,,,,,,,,,,,,,,,,,,,,,,,,,,,,,,,,,,,"29.83","32","46","0.00",,"-0.05","3","58","29.80","OVC:08 36","29.66","10.00","40",,,,,,,,,,,,,,,,,,,,,,,,,,,,,,,,,,,,,,,,"MET10104/18/20 15:51:02 METAR KNYC 182051Z      KT 10SM OVC036 08/00 A2983 RMK AO2 SLP093 T00780000 53018 $","FM-15","7",,,,,,,,,,,,,,,,,,,,,,,,,,,,
"72505394728","2020-04-18T16:51:00","FM-15","7",,,,,,,,,,,,,,,,,,,,,,,,,,,,,,,,,,,,,,"29.86","34","44","T","-RA:02 |RA |RA",,,"68","29.83","FEW:02 28 BKN:07 50 OVC:08 60","29.69","7.00","40","VRB",,"5",,,,,,,,,,,,,,,,,,,,,,,,,,,,,,,,,,,,,"MET13304/18/20 16:51:02 METAR KNYC 182151Z VRB04KT 7SM -RA FEW028 BKN050 OVC060 07/01 A2986 RMK AO2 RAB46 SLP103 P0000 T00670011 $ RTX FIBI","FM-15","7",,,,,,,,,,,,,,,,,,,,,,,,,,,,
"72505394728","2020-04-18T17:51:00","FM-15","7",,,,,,,,,,,,,,,,,,,,,,,,,,,,,,,,,,,,,,"29.88","35","44","0.00",,,,"71","29.86","SCT:04 43 OVC:08 60","29.71","10.00","40","VRB",,"5",,,,,,,,,,,,,,,,,,,,,,,,,,,,,,,,,,,,,"MET11604/18/20 17:51:02 METAR KNYC 182251Z VRB04KT 10SM SCT043 OVC060 07/02 A2988 RMK AO2 RAE2159 SLP111 P0000 T00670017 $","FM-15","7",,,,,,,,,,,,,,,,,,,,,,,,,,,,
"72505394728","2020-04-18T18:51:00","FM-15","7",,,,,,,,,,,,,,,,,,,,,,,,,,,,,,,,,,,,,,"29.91","28","44","0.00",,"-0.08","1","53","29.88","BKN:07 48 BKN:07 60","29.74","10.00","38","290","20","9",,,,,,,,,,,,,,,,,,,,,,,,,,,,,,,,,,,,,"MET13004/18/20 18:51:02 METAR KNYC 182351Z 29008G17KT 10SM BKN048 BKN060 07/M02 A2991 RMK AO2 SLP119 60000 T00671022 10078 20061 51026 $","FM-15","7",,,,,,,,,,,,,,,,,,,,,,,,,,,,
"72505394728","2020-04-18T19:51:00","FM-15","7",,,,,,,,,,,,,,,,,,,,,,,,,,,,,,,,,,,,,,"29.93","27","44","0.00",,,,"51","29.90","CLR:00","29.76","10.00","37","310",,"8",,,,,,,,,,,,,,,,,,,,,,,,,,,,,,,,,,,,,"MET09304/18/20 19:51:01 METAR KNYC 190051Z 31007KT 10SM CLR 07/M03 A2993 RMK AO2 SLP126 T00671028 $","FM-15","7",,,,,,,,,,,,,,,,,,,,,,,,,,,,
"72505394728","2020-04-18T20:51:00","FM-15","7",,,,,,,,,,,,,,,,,,,,,,,,,,,,,,,,,,,,,,"29.94","27","43","0.00",,,,"53","29.91","CLR:00","29.77","10.00","37","290",,"7",,,,,,,,,,,,,,,,,,,,,,,,,,,,,,,,,,,,,"MET09304/18/20 20:51:01 METAR KNYC 190151Z 29006KT 10SM CLR 06/M03 A2994 RMK AO2 SLP130 T00611028 $","FM-15","7",,,,,,,,,,,,,,,,,,,,,,,,,,,,
"72505394728","2020-04-18T21:51:00","FM-15","7",,,,,,,,,,,,,,,,,,,,,,,,,,,,,,,,,,,,,,"29.94","26","43","0.00",,"-0.04","1","51","29.92","CLR:00","29.77","10.00","36","280",,"3",,,,,,,,,,,,,,,,,,,,,,,,,,,,,,,,,,,,,"MET09904/18/20 21:51:01 METAR KNYC 190251Z 28003KT 10SM CLR 06/M03 A2994 RMK AO2 SLP132 T00611033 51013 $","FM-15","7",,,,,,,,,,,,,,,,,,,,,,,,,,,,
"72505394728","2020-04-18T22:51:00","FM-15","7",,,,,,,,,,,,,,,,,,,,,,,,,,,,,,,,,,,,,,"29.95","26","43","0.00",,,,"51","29.93","CLR:00","29.78","10.00","36","280",,"6",,,,,,,,,,,,,,,,,,,,,,,,,,,,,,,,,,,,,"MET09304/18/20 22:51:02 METAR KNYC 190351Z 28005KT 10SM CLR 06/M03 A2995 RMK AO2 SLP134 T00611033 $","FM-15","7",,,,,,,,,,,,,,,,,,,,,,,,,,,,
"72505394728","2020-04-18T23:51:00","FM-15","7",,,,,,,,,,,,,,,,,,,,,,,,,,,,,,,,,,,,,,"29.96","26","42","0.00",,,,"53","29.94","CLR:00","29.79","10.00","36","VRB",,"3",,,,,,,,,,,,,,,,,,,,,,,,,,,,,,,,,,,,,"MET10304/18/20 23:51:02 METAR KNYC 190451Z VRB03KT 10SM CLR 06/M03 A2996 RMK AO2 SLP138 T00561033 400780050 $","FM-15","7",,,,,,,,,,,,,,,,,,,,,,,,,,,,
"72505394728","2020-04-18T23:59:00","SOD  ","6",,,,,,,,,,,,,,,,"44",,,"29.65",,"5.7","0","-10.0","21","46","41","010","20","0.22","0","0.0","360","14","RA BR",,,,,,,,,,,,,,,,,,,,,,,,,,,,,,,,,,,,,,,,,,,,,,,,,,,,,,,,"SOD76024 HR PRECIPITATION (IN): 0.22 SNOW DEPTH (IN):0     24 HR SNOWFALL (IN):0.0  WEATHER(CODE):1  24 HR MAX TEMP (F): 4624 HR MIN TEMP (F): 41AVERAGE STATION PRESSURE(D):29.648 MINIMUM SEA LEVEL PRESSURE:29.72 TIME OF OCCURRENCE:0906 PEAK WIND SPEED (MPH): 20 PEAK WIND DIR (DEG): 10 PEAK WIND TIME (LST):      FASTEST 2MIN SPEED (MPH): 14FASTEST 2MIN DIR (DEG):360 FASTEST 2MIN TIME (LST):     AVERAGE WIND SPEED (MPH): 5.7 24 HR AVG TEMP (F): 44DEPART FROM NORMAL:-10  HEATING DEGREE DAYS: 21 COOLING DEGREE DAYS:  0 LATEST DAY MAX TEMP (0700-1900 LST): 46 LATEST NIGHT MIN TEMP(1900-0800 LST):42 HOURLY INCREMENTAL PRECIPITATION VALUES (IN):0.05 0.03T     0.01 0.02 0.01 0.01 0.02 0.05 0.01 0.01T     0.00 0.00 0.00 0.00T     0.00 0.00 0.00 0.00 0.00 0.00 0.00","SOD  ","6",,,,,,,,,,,,,,,,,,,,,,,,,"0511","1839",,
"72505394728","2020-04-19T00:51:00","FM-15","7",,,,,,,,,,,,,,,,,,,,,,,,,,,,,,,,,,,,,,"29.96","25","42","0.00",,"-0.02","1","51","29.94","CLR:00","29.79","10.00","35","280",,"5",,,,,,,,,,,,,,,,,,,,,,,,,,,,,,,,,,,,,"MET11104/19/20 00:51:02 METAR KNYC 190551Z 28004KT 10SM CLR 06/M04 A2996 RMK AO2 SLP138 T00561039 10072 20050 51006 $","FM-15","7",,,,,,,,,,,,,,,,,,,,,,,,,,,,
"72505394728","2020-04-19T01:51:00","FM-15","7",,,,,,,,,,,,,,,,,,,,,,,,,,,,,,,,,,,,,,"29.96","25","42","0.00",,,,"51","29.94","CLR:00","29.79","10.00","35","260",,"5",,,,,,,,,,,,,,,,,,,,,,,,,,,,,,,,,,,,,"MET09704/19/20 01:51:02 METAR KNYC 190651Z 26004KT 10SM CLR 06/M04 A2996 RMK AO2 SLP139 T00561039 $ RTX","FM-15","7",,,,,,,,,,,,,,,,,,,,,,,,,,,,
"72505394728","2020-04-19T02:51:00","FM-15","7",,,,,,,,,,,,,,,,,,,,,,,,,,,,,,,,,,,,,,"29.96","25","40","0.00",,,,"55","29.94","CLR:00","29.79","10.00","34","VRB",,"3",,,,,,,,,,,,,,,,,,,,,,,,,,,,,,,,,,,,,"MET09304/19/20 02:51:02 METAR KNYC 190751Z VRB03KT 10SM CLR 04/M04 A2996 RMK AO2 SLP138 T00441039 $","FM-15","7",,,,,,,,,,,,,,,,,,,,,,,,,,,,
"72505394728","2020-04-19T03:51:00","FM-15","7",,,,,,,,,,,,,,,,,,,,,,,,,,,,,,,,,,,,,,"29.96","25","40","0.00",,"+0.01","8","55","29.93","CLR:00","29.79","10.00","34","240",,"7",,,,,,,,,,,,,,,,,,,,,,,,,,,,,,,,,,,,,"MET09904/19/20 03:51:02 METAR KNYC 190851Z 24006KT 10SM CLR 04/M04 A2996 RMK AO2 SLP136 T00441039 58002 $","FM-15","7",,,,,,,,,,,,,,,,,,,,,,,,,,,,
"72505394728","2020-04-19T04:51:00","FM-15","7",,,,,,,,,,,,,,,,,,,,,,,,,,,,,,,,,,,,,,"29.95","25","41","0.00",,,,"53","29.93","CLR:00","29.78","10.00","35","VRB","23","9",,,,,,,,,,,,,,,,,,,,,,,,,,,,,,,,,,,,,"MET09604/19/20 04:51:02 METAR KNYC 190951Z 24008G20KT 10SM CLR 05/M04 A2995 RMK AO2 SLP135 T00501039 $","FM-15","7",,,,,,,,,,,,,,,,,,,,,,,,,,,,
"72505394728","2020-04-19T05:51:00","FM-15","7",,,,,,,,,,,,,,,,,,,,,,,,,,,,,,,,,,,,,,"29.95","25","42","0.00",,,,"51","29.93","CLR:00","29.78","10.00","35","VRB","20","8",,,,,,,,,,,,,,,,,,,,,,,,,,,,,,,,,,,,,"MET09604/19/20 05:51:02 METAR KNYC 191051Z 23007G17KT 10SM CLR 06/M04 A2995 RMK AO2 SLP135 T00561039 $","FM-15","7",,,,,,,,,,,,,,,,,,,,,,,,,,,,
"72505394728","2020-04-19T06:51:00","FM-15","7",,,,,,,,,,,,,,,,,,,,,,,,,,,,,,,,,,,,,,"29.96","26","43","0.00",,"-0.01","3","51","29.94","CLR:00","29.79","10.00","36","230","18","10",,,,,,,,,,,,,,,,,,,,,,,,,,,,,,,,,,,,,"MET12004/19/20 06:51:02 METAR KNYC 191151Z 23009G16KT 10SM CLR 06/M03 A2996 RMK AO2 SLP139 70010 T00611033 10061 20044 53002 $","FM-15","7",,,,,,,,,,,,,,,,,,,,,,,,,,,,
"72505394728","2020-04-19T07:51:00","FM-15","7",,,,,,,,,,,,,,,,,,,,,,,,,,,,,,,,,,,,,,"29.97","28","46","0.00",,,,"50","29.95","CLR:00","29.80","10.00","39","VRB",,"3",,,,,,,,,,,,,,,,,,,,,,,,,,,,,,,,,,,,,"MET09304/19/20 07:51:02 METAR KNYC 191251Z VRB03KT 10SM CLR 08/M02 A2997 RMK AO2 SLP141 T00781022 $","FM-15","7",,,,,,,,,,,,,,,,,,,,,,,,,,,,
"72505394728","2020-04-19T08:51:00","FM-15","7",,,,,,,,,,,,,,,,,,,,,,,,,,,,,,,,,,,,,,"29.94","28","49","0.00",,,,"44","29.92","CLR:00","29.77","10.00","40","VRB",,"10",,,,,,,,,,,,,,,,,,,,,,,,,,,,,,,,,,,,,"MET09304/19/20 08:51:02 METAR KNYC 191351Z 25009KT 10SM CLR 09/M02 A2994 RMK AO2 SLP132 T00941022 $","FM-15","7",,,,,,,,,,,,,,,,,,,,,,,,,,,,
"72505394728","2020-04-19T09:51:00","FM-15","7",,,,,,,,,,,,,,,,,,,,,,,,,,,,,,,,,,,,,,"29.92","28","53","0.00",,"+0.04","8","38","29.90","CLR:00","29.75","10.00","42","VRB","21","10",,,,,,,,,,,,,,,,,,,,,,,,,,,,,,,,,,,,,"MET10204/19/20 09:51:02 METAR KNYC 191451Z 25009G18KT 10SM CLR 12/M02 A2992 RMK AO2 SLP124 T01171022 58015 $","FM-15","7",,,,,,,,,,,,,,,,,,,,,,,,,,,,
"72505394728","2020-04-19T10:51:00","FM-15","7",,,,,,,,,,,,,,,,,,,,,,,,,,,,,,,,,,,,,,"29.91","30","57","0.00",,,,"36","29.89","CLR:00","29.74","10.00","45","VRB","18","5",,,,,,,,,,,,,,,,,,,,,,,,,,,,,,,,,,,,,"MET09604/19/20 10:51:02 METAR KNYC 191551Z VRB04G16KT 10SM CLR 14/M01 A2991 RMK AO2 SLP121 T01391011 $","FM-15","7",,,,,,,,,,,,,,,,,,,,,,,,,,,,
"72505394728","2020-04-19T11:51:00","FM-15","7",,,,,,,,,,,,,,,,,,,,,,,,,,,,,,,,,,,,,,"29.87","30","58","0.00",,,,"35","29.85","CLR:00","29.70","10.00","45","230","20","9",,,,,,,,,,,,,,,,,,,,,,,,,,,,,,,,,,,,,"MET09604/19/20 11:51:02 METAR KNYC 191651Z 23008G17KT 10SM CLR 14/M01 A2987 RMK AO2 SLP107 T01441011 $","FM-15","7",,,,,,,,,,,,,,,,,,,,,,,,,,,,
"72505394728","2020-04-19T12:51:00","FM-15","7",,,,,,,,,,,,,,,,,,,,,,,,,,,,,,,,,,,,,,"29.83","31","62","0.00",,"+0.09","8","31","29.81","CLR:00","29.66","10.00","48","000",,"0",,,,,,,,,,,,,,,,,,,,,,,,,,,,,,,,,,,,,"MET11104/19/20 12:51:02 METAR KNYC 191751Z 00000KT 10SM CLR 17/M01 A2983 RMK AO2 SLP095 T01671006 10167 20061 58029 $","FM-15","7",,,,,,,,,,,,,,,,,,,,,,,,,,,,
"72505394728","2020-04-19T13:51:00","FM-15","7",,,,,,,,,,,,,,,,,,,,,,,,,,,,,,,,,,,,,,"29.80","29","61","0.00",,,,"30","29.78","CLR:00","29.63","10.00","47","VRB","18","10",,,,,,,,,,,,,,,,,,,,,,,,,,,,,,,,,,,,,"MET09604/19/20 13:51:02 METAR KNYC 191851Z 23009G16KT 10SM CLR 16/M02 A2980 RMK AO2 SLP084 T01611017 $","FM-15","7",,,,,,,,,,,,,,,,,,,,,,,,,,,,
"72505394728","2020-04-19T14:51:00","FM-15","7",,,,,,,,,,,,,,,,,,,,,,,,,,,,,,,,,,,,,,"29.77","31","60","0.00",,,,"33","29.75","CLR:00","29.60","10.00","47","VRB","25","11",,,,,,,,,,,,,,,,,,,,,,,,,,,,,,,,,,,,,"MET09604/19/20 14:51:02 METAR KNYC 191951Z 23010G22KT 10SM CLR 16/M01 A2977 RMK AO2 SLP073 T01561006 $","FM-15","7",,,,,,,,,,,,,,,,,,,,,,,,,,,,
"72505394728","2020-04-19T15:51:00","FM-15","7",,,,,,,,,,,,,,,,,,,,,,,,,,,,,,,,,,,,,,"29.77","32","61","0.00",,"+0.06","5","34","29.75","CLR:00","29.60","10.00","48","VRB","18","8",,,,,,,,,,,,,,,,,,,,,,,,,,,,,,,,,,,,,"MET10104/19/20 15:51:02 METAR KNYC 192051Z 23007G16KT 10SM CLR 16/00 A2977 RMK AO2 SLP073 T01610000 55021 $","FM-15","7",,,,,,,,,,,,,,,,,,,,,,,,,,,,
"72505394728","2020-04-19T16:51:00","FM-15","7",,,,,,,,,,,,,,,,,,,,,,,,,,,,,,,,,,,,,,"29.76","31","59","0.00",,,,"35","29.73","FEW:02 120","29.59","10.00","46",,,,,,,,,,,,,,,,,,,,,,,,,,,,,,,,,,,,,,,,"MET09604/19/20 16:51:02 METAR KNYC 192151Z      KT 10SM FEW120 15/M01 A2976 RMK AO2 SLP068 T01501006 $","FM-15","7",,,,,,,,,,,,,,,,,,,,,,,,,,,,
"72505394728","2020-04-19T17:51:00","FM-15","7",,,,,,,,,,,,,,,,,,,,,,,,,,,,,,,,,,,,,,"29.74","29","58","0.00",,,,"33","29.72","OVC:08 110","29.57","10.00","45","VRB","17","7",,,,,,,,,,,,,,,,,,,,,,,,,,,,,,,,,,,,,"MET09904/19/20 17:51:02 METAR KNYC 192251Z VRB06G15KT 10SM OVC110 14/M02 A2974 RMK AO2 SLP063 T01441017 $","FM-15","7",,,,,,,,,,,,,,,,,,,,,,,,,,,,
"72505394728","2020-04-19T18:51:00","FM-15","7",,,,,,,,,,,,,,,,,,,,,,,,,,,,,,,,,,,,,,"29.75","30","58","0.00",,"+0.02","5","35","29.72","OVC:08 100","29.58","10.00","45","VRB","17","9",,,,,,,,,,,,,,,,,,,,,,,,,,,,,,,,,,,,,"MET11704/19/20 18:51:02 METAR KNYC 192351Z 23008G15KT 10SM OVC100 14/M01 A2975 RMK AO2 SLP065 T01441011 10172 20144 55008 $","FM-15","7",,,,,,,,,,,,,,,,,,,,,,,,,,,,
"72505394728","2020-04-19T19:51:00","FM-15","7",,,,,,,,,,,,,,,,,,,,,,,,,,,,,,,,,,,,,,"29.76","31","57","0.00",,,,"37","29.73","OVC:08 100","29.59","10.00","45","VRB",,"6",,,,,,,,,,,,,,,,,,,,,,,,,,,,,,,,,,,,,"MET09604/19/20 19:51:01 METAR KNYC 200051Z VRB05KT 10SM OVC100 14/M01 A2976 RMK AO2 SLP069 T01391006 $","FM-15","7",,,,,,,,,,,,,,,,,,,,,,,,,,,,
"72505394728","2020-04-19T20:51:00","FM-15","7",,,,,,,,,,,,,,,,,,,,,,,,,,,,,,,,,,,,,,"29.76","31","57","0.00",,,,"37","29.73","FEW:02 120","29.59","10.00","45","250","17","9",,,,,,,,,,,,,,,,,,,,,,,,,,,,,,,,,,,,,"MET09904/19/20 20:51:01 METAR KNYC 200151Z 25008G15KT 10SM FEW120 14/M01 A2976 RMK AO2 SLP069 T01391006 $","FM-15","7",,,,,,,,,,,,,,,,,,,,,,,,,,,,
"72505394728","2020-04-19T21:51:00","FM-15","7",,,,,,,,,,,,,,,,,,,,,,,,,,,,,,,,,,,,,,"29.75","32","56","0.00",,"+0.00","8","40","29.72","SCT:04 120","29.58","10.00","45","230","18","10",,,,,,,,,,,,,,,,,,,,,,,,,,,,,,,,,,,,,"MET10404/19/20 21:51:01 METAR KNYC 200251Z 23009G16KT 10SM SCT120 13/00 A2975 RMK AO2 SLP064 T01330000 58000 $","FM-15","7",,,,,,,,,,,,,,,,,,,,,,,,,,,,
"72505394728","2020-04-19T22:51:00","FM-15","7",,,,,,,,,,,,,,,,,,,,,,,,,,,,,,,,,,,,,,"29.74","32","56","0.00",,,,"40","29.71","BKN:07 110","29.57","10.00","45","VRB",,"5",,,,,,,,,,,,,,,,,,,,,,,,,,,,,,,,,,,,,"MET09504/19/20 22:51:02 METAR KNYC 200351Z VRB04KT 10SM BKN110 13/00 A2974 RMK AO2 SLP060 T01330000 $","FM-15","7",,,,,,,,,,,,,,,,,,,,,,,,,,,,
"72505394728","2020-04-19T23:51:00","FM-15","7",,,,,,,,,,,,,,,,,,,,,,,,,,,,,,,,,,,,,,"29.73","33","56","0.00",,,,"42","29.70","SCT:04 120","29.56","10.00","46",,,,,,,,,,,,,,,,,,,,,,,,,,,,,,,,,,,,,,,,"MET10504/19/20 23:51:02 METAR KNYC 200451Z      KT 10SM SCT120 13/01 A2973 RMK AO2 SLP057 T01330006 401720044 $","FM-15","7",,,,,,,,,,,,,,,,,,,,,,,,,,,,
"72505394728","2020-04-19T23:59:00","SOD  ","6",,,,,,,,,,,,,,,,"52",,,"29.68",,"7.3","0","-2.3","13","63","40","200","26","0.00","0","0.0","230","15",,,,,,,,,,,,,,,,,,,,,,,,,,,,,,,,,,,,,,,,,,,,,,,,,,,,,,,,,"SOD74324 HR PRECIPITATION (IN): 0.00 SNOW DEPTH (IN):0     24 HR SNOWFALL (IN):0.0  24 HR MAX TEMP (F): 6324 HR MIN TEMP (F): 40AVERAGE STATION PRESSURE(D):29.684 MINIMUM SEA LEVEL PRESSURE:29.70 TIME OF OCCURRENCE:2359 PEAK WIND SPEED (MPH): 26 PEAK WIND DIR (DEG):200 PEAK WIND TIME (LST):      FASTEST 2MIN SPEED (MPH): 15FASTEST 2MIN DIR (DEG):230 FASTEST 2MIN TIME (LST):     AVERAGE WIND SPEED (MPH): 7.3 24 HR AVG TEMP (F): 52DEPART FROM NORMAL: -2  HEATING DEGREE DAYS: 13 COOLING DEGREE DAYS:  0 LATEST DAY MAX TEMP (0700-1900 LST): 63 LATEST NIGHT MIN TEMP(1900-0800 LST):40 HOURLY INCREMENTAL PRECIPITATION VALUES (IN):0.00 0.00 0.00 0.00 0.00 0.00 0.00 0.00 0.00 0.00 0.00 0.00 0.00 0.00 0.00 0.00 0.00 0.00 0.00 0.00 0.00 0.00 0.00 0.00","SOD  ","6",,,,,,,,,,,,,,,,,,,,,,,,,"0510","1840",,
"72505394728","2020-04-20T00:51:00","FM-15","7",,,,,,,,,,,,,,,,,,,,,,,,,,,,,,,,,,,,,,"29.73","34","54","0.00",,"+0.02","6","47","29.70","SCT:04 90 BKN:07 120","29.56","10.00","45","VRB",,"5",,,,,,,,,,,,,,,,,,,,,,,,,,,,,,,,,,,,,"MET12904/20/20 00:51:02 METAR KNYC 200551Z VRB04KT 10SM SCT090 BKN120 12/01 A2973 RMK AO2 SLP057 T01220011 10144 20122 56007 $ RTX FIBI","FM-15","7",,,,,,,,,,,,,,,,,,,,,,,,,,,,
"72505394728","2020-04-20T01:51:00","FM-15","7",,,,,,,,,,,,,,,,,,,,,,,,,,,,,,,,,,,,,,"29.70","34","55","0.00",,,,"45","29.67","CLR:00","29.53","10.00","45","VRB",,"5",,,,,,,,,,,,,,,,,,,,,,,,,,,,,,,,,,,,,"MET09204/20/20 01:51:02 METAR KNYC 200651Z VRB04KT 10SM CLR 13/01 A2970 RMK AO2 SLP049 T01280011 $","FM-15","7",,,,,,,,,,,,,,,,,,,,,,,,,,,,
"72505394728","2020-04-20T02:51:00","FM-15","7",,,,,,,,,,,,,,,,,,,,,,,,,,,,,,,,,,,,,,"29.70","34","54","0.00",,,,"47","29.67","FEW:02 120","29.53","10.00","45","VRB",,"3",,,,,,,,,,,,,,,,,,,,,,,,,,,,,,,,,,,,,"MET09504/20/20 02:51:02 METAR KNYC 200751Z VRB03KT 10SM FEW120 12/01 A2970 RMK AO2 SLP048 T01220011 $","FM-15","7",,,,,,,,,,,,,,,,,,,,,,,,,,,,
"72505394728","2020-04-20T03:51:00","FM-15","7",,,,,,,,,,,,,,,,,,,,,,,,,,,,,,,,,,,,,,"29.69","35","53","0.00",,"+0.03","6","51","29.67","CLR:00","29.52","10.00","45","VRB",,"3",,,,,,,,,,,,,,,,,,,,,,,,,,,,,,,,,,,,,"MET09804/20/20 03:51:02 METAR KNYC 200851Z VRB03KT 10SM CLR 12/02 A2969 RMK AO2 SLP046 T01170017 56010 $","FM-15","7",,,,,,,,,,,,,,,,,,,,,,,,,,,,
"72505394728","2020-04-20T04:51:00","FM-15","7",,,,,,,,,,,,,,,,,,,,,,,,,,,,,,,,,,,,,,"29.70","36","52","0.00",,,,"55","29.67","OVC:08 110","29.53","10.00","45","000",,"0",,,,,,,,,,,,,,,,,,,,,,,,,,,,,,,,,,,,,"MET09504/20/20 04:51:02 METAR KNYC 200951Z 00000KT 10SM OVC110 11/02 A2970 RMK AO2 SLP047 T01110022 $","FM-15","7",,,,,,,,,,,,,,,,,,,,,,,,,,,,
"72505394728","2020-04-20T05:51:00","FM-15","7",,,,,,,,,,,,,,,,,,,,,,,,,,,,,,,,,,,,,,"29.70","37","52","0.00",,,,"57","29.67","FEW:02 120","29.53","10.00","45","VRB",,"3",,,,,,,,,,,,,,,,,,,,,,,,,,,,,,,,,,,,,"MET10404/20/20 05:51:02 METAR KNYC 201051Z VRB03KT 10SM FEW120 11/03 A2970 RMK AO2 SLP048 T01110028 $ RTX FIBI","FM-15","7",,,,,,,,,,,,,,,,,,,,,,,,,,,,
"72505394728","2020-04-20T06:51:00","FM-15","7",,,,,,,,,,,,,,,,,,,,,,,,,,,,,,,,,,,,,,"29.71","37","51","0.00",,"-0.02","3","59","29.68","FEW:02 110","29.54","10.00","45","040",,"7",,,,,,,,,,,,,,,,,,,,,,,,,,,,,,,,,,,,,"MET11304/20/20 06:51:02 METAR KNYC 201151Z 04006KT 10SM FEW110 11/03 A2971 RMK AO2 SLP052 T01060028 10128 20106 53006 $","FM-15","7",,,,,,,,,,,,,,,,,,,,,,,,,,,,
"72505394728","2020-04-20T07:51:00","FM-15","7",,,,,,,,,,,,,,,,,,,,,,,,,,,,,,,,,,,,,,"29.71","33","50","0.00",,,,"52","29.68","FEW:02 100","29.54","10.00","42","020",,"8",,,,,,,,,,,,,,,,,,,,,,,,,,,,,,,,,,,,,"MET09504/20/20 07:51:02 METAR KNYC 201251Z 02007KT 10SM FEW100 10/01 A2971 RMK AO2 SLP051 T01000006 $","FM-15","7",,,,,,,,,,,,,,,,,,,,,,,,,,,,
"72505394728","2020-04-20T08:51:00","FM-15","7",,,,,,,,,,,,,,,,,,,,,,,,,,,,,,,,,,,,,,"29.70","33","50","0.00",,,,"52","29.67","FEW:02 95","29.53","10.00","42","VRB",,"8",,,,,,,,,,,,,,,,,,,,,,,,,,,,,,,,,,,,,"MET09904/20/20 08:51:02 METAR KNYC 201351Z 02007KT 10SM FEW095 10/01 A2970 RMK AO2 SLP048 T01000006 $ RTX","FM-15","7",,,,,,,,,,,,,,,,,,,,,,,,,,,,
"72505394728","2020-04-20T09:51:00","FM-15","6",,,,,,,,,,,,,,,,,,,,,,,,,,,,,,,,,,,,,,"29.70","32","50","0.00",,"+0.01","6","50","29.67","CLR:00","29.53","10.00","42","VRB",,"7",,,,,,,,,,,,,,,,,,,,,,,,,,,,,,,,,,,,,"MET10704/20/20 09:51:02 METAR KNYC 201451Z VRB06KT 10SM CLR 10/00 A2970 RMK AO2 SLP048 T01000000 56005 $ RTX FIBI","FM-15","6",,,,,,,,,,,,,,,,,,,,,,,,,,,,
"72505394728","2020-04-20T10:51:00","FM-15","7",,,,,,,,,,,,,,,,,,,,,,,,,,,,,,,,,,,,,,"29.69","30","49","0.00",,,,"48","29.66","CLR:00","29.52","10.00","41","VRB",,"3",,,,,,,,,,,,,,,,,,,,,,,,,,,,,,,,,,,,,"MET10204/20/20 10:51:02 METAR KNYC 201551Z VRB03KT 10SM CLR 09/M01 A2969 RMK AO2 SLP045 T00941011 $ RTX FIBI","FM-15","7",,,,,,,,,,,,,,,,,,,,,,,,,,,,
"72505394728","2020-04-20T11:51:00","FM-15","7",,,,,,,,,,,,,,,,,,,,,,,,,,,,,,,,,,,,,,"29.67","27","50","0.00",,,,"41","29.65","CLR:00","29.50","10.00","40","040",,"8",,,,,,,,,,,,,,,,,,,,,,,,,,,,,,,,,,,,,"MET10204/20/20 11:51:02 METAR KNYC 201651Z 04007KT 10SM CLR 10/M03 A2967 RMK AO2 SLP039 T01001028 $ RTX FIBI","FM-15","7",,,,,,,,,,,,,,,,,,,,,,,,,,,,
"72505394728","2020-04-20T12:51:00","FM-15","7",,,,,,,,,,,,,,,,,,,,,,,,,,,,,,,,,,,,,,"29.65","26","53","0.00",,"+0.05","8","35","29.62","CLR:00","29.48","10.00","42","VRB",,"7",,,,,,,,,,,,,,,,,,,,,,,,,,,,,,,,,,,,,"MET11804/20/20 12:51:02 METAR KNYC 201751Z VRB06KT 10SM CLR 12/M03 A2965 RMK AO2 SLP032 T01171033 10117 20094 58016 RTX FIBI","FM-15","7",,,,,,,,,,,,,,,,,,,,,,,,,,,,
"72505394728","2020-04-20T13:51:00","FM-15","7",,,,,,,,,,,,,,,,,,,,,,,,,,,,,,,,,,,,,,"29.64","24","55","0.00",,,,"30","29.61","CLR:00","29.47","10.00","42","360",,"9",,,,,,,,,,,,,,,,,,,,,,,,,,,,,,,,,,,,,"MET10004/20/20 13:51:02 METAR KNYC 201851Z 36008KT 10SM CLR 13/M04 A2964 RMK AO2 SLP028 T01281044 RTX FIBI","FM-15","7",,,,,,,,,,,,,,,,,,,,,,,,,,,,
"72505394728","2020-04-20T14:51:00","FM-15","7",,,,,,,,,,,,,,,,,,,,,,,,,,,,,,,,,,,,,,"29.63","25","56","0.00",,,,"30","29.60","CLR:00","29.46","10.00","43","VRB",,"6",,,,,,,,,,,,,,,,,,,,,,,,,,,,,,,,,,,,,"MET09504/20/20 14:51:02 METAR KNYC 201951Z VRB05KT 10SM CLR 13/M04 A2963 RMK AO2 SLP025 T01331039 RTX","FM-15","7",,,,,,,,,,,,,,,,,,,,,,,,,,,,
"72505394728","2020-04-20T15:51:00","FM-15","7",,,,,,,,,,,,,,,,,,,,,,,,,,,,,,,,,,,,,,"29.64","24","54","0.00",,"+0.01","5","31","29.61","CLR:00","29.47","10.00","42","VRB",,"3",,,,,,,,,,,,,,,,,,,,,,,,,,,,,,,,,,,,,"MET10104/20/20 15:51:02 METAR KNYC 202051Z VRB03KT 10SM CLR 12/M04 A2964 RMK AO2 SLP027 T01221044 55005 RTX","FM-15","7",,,,,,,,,,,,,,,,,,,,,,,,,,,,
"72505394728","2020-04-20T16:51:00","FM-15","7",,,,,,,,,,,,,,,,,,,,,,,,,,,,,,,,,,,,,,"29.64","23","54","0.00",,,,"30","29.62","CLR:00","29.47","10.00","41","060",,"5",,,,,,,,,,,,,,,,,,,,,,,,,,,,,,,,,,,,,"MET09504/20/20 16:51:02 METAR KNYC 202151Z 06004KT 10SM CLR 12/M05 A2964 RMK AO2 SLP029 T01221050 RTX","FM-15","7",,,,,,,,,,,,,,,,,,,,,,,,,,,,
"72505394728","2020-04-20T17:51:00","FM-15","7",,,,,,,,,,,,,,,,,,,,,,,,,,,,,,,,,,,,,,"29.64","24","53","0.00",,,,"32","29.62","CLR:00","29.47","10.00","41","060",,"3",,,,,,,,,,,,,,,,,,,,,,,,,,,,,,,,,,,,,"MET09504/20/20 17:51:02 METAR KNYC 202251Z 06003KT 10SM CLR 12/M04 A2964 RMK AO2 SLP029 T01171044 RTX","FM-15","7",,,,,,,,,,,,,,,,,,,,,,,,,,,,
"72505394728","2020-04-20T18:51:00","FM-15","7",,,,,,,,,,,,,,,,,,,,,,,,,,,,,,,,,,,,,,"29.65","24","51","0.00",,"-0.01","3","35","29.62","CLR:00","29.48","10.00","40","000",,"0",,,,,,,,,,,,,,,,,,,,,,,,,,,,,,,,,,,,,"MET11304/20/20 18:51:02 METAR KNYC 202351Z 00000KT 10SM CLR 11/M04 A2965 RMK AO2 SLP032 T01061044 10139 20106 53005 RTX","FM-15","7",,,,,,,,,,,,,,,,,,,,,,,,,,,,
"72505394728","2020-04-20T19:51:00","FM-15","7",,,,,,,,,,,,,,,,,,,,,,,,,,,,,,,,,,,,,,"29.67","22","52","0.00",,,,"31","29.65","CLR:00","29.50","10.00","40","000",,"0",,,,,,,,,,,,,,,,,,,,,,,,,,,,,,,,,,,,,"MET09104/20/20 19:51:01 METAR KNYC 210051Z 00000KT 10SM CLR 11/M06 A2967 RMK AO2 SLP040 T01111056","FM-15","7",,,,,,,,,,,,,,,,,,,,,,,,,,,,
"72505394728","2020-04-20T20:51:00","FM-15","7",,,,,,,,,,,,,,,,,,,,,,,,,,,,,,,,,,,,,,"29.69","24","51","0.00",,,,"35","29.67","CLR:00","29.52","10.00","40","000",,"0",,,,,,,,,,,,,,,,,,,,,,,,,,,,,,,,,,,,,"MET09104/20/20 20:51:01 METAR KNYC 210151Z 00000KT 10SM CLR 11/M04 A2969 RMK AO2 SLP047 T01061044","FM-15","7",,,,,,,,,,,,,,,,,,,,,,,,,,,,
"72505394728","2020-04-20T21:51:00","FM-15","7",,,,,,,,,,,,,,,,,,,,,,,,,,,,,,,,,,,,,,"29.70","25","50","0.00",,"-0.05","1","38","29.67","CLR:00","29.53","10.00","40",,,,,,,,,,,,,,,,,,,,,,,,,,,,,,,,,,,,,,,,"MET09704/20/20 21:51:01 METAR KNYC 210251Z      KT 10SM CLR 10/M04 A2970 RMK AO2 SLP049 T01001039 51017","FM-15","7",,,,,,,,,,,,,,,,,,,,,,,,,,,,
"72505394728","2020-04-20T22:51:00","FM-15","7",,,,,,,,,,,,,,,,,,,,,,,,,,,,,,,,,,,,,,"29.71","27","50","0.00",,,,"41","29.68","CLR:00","29.54","10.00","40","VRB",,"5",,,,,,,,,,,,,,,,,,,,,,,,,,,,,,,,,,,,,"MET09104/20/20 22:51:02 METAR KNYC 210351Z VRB04KT 10SM CLR 10/M03 A2971 RMK AO2 SLP052 T01001028","FM-15","7",,,,,,,,,,,,,,,,,,,,,,,,,,,,
"72505394728","2020-04-20T23:51:00","FM-15","7",,,,,,,,,,,,,,,,,,,,,,,,,,,,,,,,,,,,,,"29.72","30","49","0.00",,,,"48","29.70","CLR:00","29.55","10.00","41","VRB",,"6",,,,,,,,,,,,,,,,,,,,,,,,,,,,,,,,,,,,,"MET10104/20/20 23:51:02 METAR KNYC 210451Z VRB05KT 10SM CLR 09/M01 A2972 RMK AO2 SLP056 T00941011 401390089","FM-15","7",,,,,,,,,,,,,,,,,,,,,,,,,,,,
"72505394728","2020-04-20T23:59:00","SOD  ","6",,,,,,,,,,,,,,,,"53",,,"29.51",,"4.6","0","-1.7","12","57","48","050","21","0.00","0","0.0","040","13",,,,,,,,,,,,,,,,,,,,,,,,,,,,,,,,,,,,,,,,,,,,,,,,,,,,,,,,,"SOD74324 HR PRECIPITATION (IN): 0.00 SNOW DEPTH (IN):0     24 HR SNOWFALL (IN):0.0  24 HR MAX TEMP (F): 5724 HR MIN TEMP (F): 48AVERAGE STATION PRESSURE(D):29.514 MINIMUM SEA LEVEL PRESSURE:29.60 TIME OF OCCURRENCE:1505 PEAK WIND SPEED (MPH): 21 PEAK WIND DIR (DEG): 50 PEAK WIND TIME (LST):      FASTEST 2MIN SPEED (MPH): 13FASTEST 2MIN DIR (DEG): 40 FASTEST 2MIN TIME (LST):     AVERAGE WIND SPEED (MPH): 4.6 24 HR AVG TEMP (F): 53DEPART FROM NORMAL: -2  HEATING DEGREE DAYS: 12 COOLING DEGREE DAYS:  0 LATEST DAY MAX TEMP (0700-1900 LST): 57 LATEST NIGHT MIN TEMP(1900-0800 LST):50 HOURLY INCREMENTAL PRECIPITATION VALUES (IN):0.00 0.00 0.00 0.00 0.00 0.00 0.00 0.00 0.00 0.00 0.00 0.00 0.00 0.00 0.00 0.00 0.00 0.00 0.00 0.00 0.00 0.00 0.00 0.00","SOD  ","6",,,,,,,,,,,,,,,,,,,,,,,,,"0508","1841",,
"72505394728","2020-04-21T00:51:00","FM-15","7",,,,,,,,,,,,,,,,,,,,,,,,,,,,,,,,,,,,,,"29.72","32","48","0.00",,"-0.02","1","54","29.70","CLR:00","29.55","10.00","41","VRB",,"5",,,,,,,,,,,,,,,,,,,,,,,,,,,,,,,,,,,,,"MET11704/21/20 00:51:02 METAR KNYC 210551Z VRB04KT 10SM CLR 09/00 A2972 RMK AO2 SLP056 T00890000 10117 20083 51007 RTX FIBI","FM-15","7",,,,,,,,,,,,,,,,,,,,,,,,,,,,
"72505394728","2020-04-21T01:51:00","FM-15","7",,,,,,,,,,,,,,,,,,,,,,,,,,,,,,,,,,,,,,"29.70","34","47","0.00",,,,"61","29.67","CLR:00","29.53","10.00","41","VRB",,"6",,,,,,,,,,,,,,,,,,,,,,,,,,,,,,,,,,,,,"MET09904/21/20 01:51:02 METAR KNYC 210651Z VRB05KT 10SM CLR 08/01 A2970 RMK AO2 SLP048 T00830011 RTX FIBI","FM-15","7",,,,,,,,,,,,,,,,,,,,,,,,,,,,
"72505394728","2020-04-21T02:51:00","FM-15","7",,,,,,,,,,,,,,,,,,,,,,,,,,,,,,,,,,,,,,"29.69","34","47","0.00",,,,"61","29.66","CLR:00","29.52","10.00","41","220",,"8",,,,,,,,,,,,,,,,,,,,,,,,,,,,,,,,,,,,,"MET09404/21/20 02:51:02 METAR KNYC 210751Z 22007KT 10SM CLR 08/01 A2969 RMK AO2 SLP045 T00830011 RTX","FM-15","7",,,,,,,,,,,,,,,,,,,,,,,,,,,,
"72505394728","2020-04-21T03:51:00","FM-15","7",,,,,,,,,,,,,,,,,,,,,,,,,,,,,,,,,,,,,,"29.67","36","47","0.00",,"+0.06","6","66","29.64","CLR:00","29.50","10.00","42",,,,,,,,,,,,,,,,,,,,,,,,,,,,,,,,,,,,,,,,"MET10004/21/20 03:51:02 METAR KNYC 210851Z      KT 10SM CLR 08/02 A2967 RMK AO2 SLP038 T00830022 56019 RTX","FM-15","7",,,,,,,,,,,,,,,,,,,,,,,,,,,,
"72505394728","2020-04-21T04:51:00","FM-15","7",,,,,,,,,,,,,,,,,,,,,,,,,,,,,,,,,,,,,,"29.66","38","46","0.00",,,,"73","29.63","CLR:00","29.49","10.00","42","VRB",,"3",,,,,,,,,,,,,,,,,,,,,,,,,,,,,,,,,,,,,"MET09404/21/20 04:51:02 METAR KNYC 210951Z VRB03KT 10SM CLR 08/03 A2966 RMK AO2 SLP035 T00780033 RTX","FM-15","7",,,,,,,,,,,,,,,,,,,,,,,,,,,,
"72505394728","2020-04-21T05:51:00","FM-15","7",,,,,,,,,,,,,,,,,,,,,,,,,,,,,,,,,,,,,,"29.65","40","47","0.00",,,,"77","29.62","FEW:02 42","29.48","10.00","44","VRB",,"3",,,,,,,,,,,,,,,,,,,,,,,,,,,,,,,,,,,,,"MET09704/21/20 05:51:02 METAR KNYC 211051Z VRB03KT 10SM FEW042 08/04 A2965 RMK AO2 SLP032 T00830044 RTX","FM-15","7",,,,,,,,,,,,,,,,,,,,,,,,,,,,
"72505394728","2020-04-21T06:51:00","FM-15","7",,,,,,,,,,,,,,,,,,,,,,,,,,,,,,,,,,,,,,"29.63","42","49","0.00",,"+0.03","8","77","29.61","FEW:02 16","29.46","10.00","46","VRB",,"6",,,,,,,,,,,,,,,,,,,,,,,,,,,,,,,,,,,,,"MET11504/21/20 06:51:02 METAR KNYC 211151Z VRB05KT 10SM FEW016 09/06 A2963 RMK AO2 SLP026 T00940056 10094 20078 58011 RTX","FM-15","7",,,,,,,,,,,,,,,,,,,,,,,,,,,,
"72505394728","2020-04-21T07:51:00","FM-15","7",,,,,,,,,,,,,,,,,,,,,,,,,,,,,,,,,,,,,,"29.61","44","53","0.00",,,,"72","29.59","SCT:04 16 BKN:07 100","29.44","10.00","49","210",,"6",,,,,,,,,,,,,,,,,,,,,,,,,,,,,,,,,,,,,"MET10904/21/20 07:51:02 METAR KNYC 211251Z 21005KT 10SM SCT016 BKN100 12/07 A2961 RMK AO2 SLP020 T01170067 RTX FIBI","FM-15","7",,,,,,,,,,,,,,,,,,,,,,,,,,,,
"72505394728","2020-04-21T08:51:00","FM-15","7",,,,,,,,,,,,,,,,,,,,,,,,,,,,,,,,,,,,,,"29.58","45","57","0.00",,,,"64","29.55","FEW:02 21 SCT:04 95","29.41","10.00","51","VRB",,"3",,,,,,,,,,,,,,,,,,,,,,,,,,,,,,,,,,,,,"MET10404/21/20 08:51:02 METAR KNYC 211351Z VRB03KT 10SM FEW021 SCT095 14/07 A2958 RMK AO2 SLP007 T01390072 RTX","FM-15","7",,,,,,,,,,,,,,,,,,,,,,,,,,,,
"72505394728","2020-04-21T09:51:00","FM-15","7",,,,,,,,,,,,,,,,,,,,,,,,,,,,,,,,,,,,,,"29.53","46","59","0.00",,"+0.10","8","62","29.51","CLR:00","29.36","10.00","52","140",,"8",,,,,,,,,,,,,,,,,,,,,,,,,,,,,,,,,,,,,"MET10004/21/20 09:51:02 METAR KNYC 211451Z 14007KT 10SM CLR 15/08 A2953 RMK AO2 SLP992 T01500078 58034 RTX","FM-15","7",,,,,,,,,,,,,,,,,,,,,,,,,,,,
"72505394728","2020-04-21T10:51:00","FM-15","7",,,,,,,,,,,,,,,,,,,,,,,,,,,,,,,,,,,,,,"29.52","47","56","T","-RA:02 |RA |RA",,,"72","29.49","FEW:02 55 BKN:07 70 BKN:07 80","29.35","9.00","51","170","17","9",,,,,,,,,,,,,,,,,,,,,,,,,,,,,,,,,,,,,"MET12904/21/20 10:51:02 METAR KNYC 211551Z 17008G15KT 9SM -RA FEW055 BKN070 BKN080 13/08 A2952 RMK AO2 RAB47 SLP987 P0000 T01330083 RTX","FM-15","7",,,,,,,,,,,,,,,,,,,,,,,,,,,,
"72505394728","2020-04-21T11:51:00","FM-15","7",,,,,,,,,,,,,,,,,,,,,,,,,,,,,,,,,,,,,,"29.52","47","53","0.06","-RA:02 |RA |RA",,,"80","29.49","FEW:02 36 BKN:07 48 OVC:08 55","29.35","3.00","50","VRB","29","5",,,,,,,,,,,,,,,,,,,,,,,,,,,,,,,,,,,,,"MET12304/21/20 11:51:02 METAR KNYC 211651Z VRB04G25KT 3SM -RA FEW036 BKN048 OVC055 12/08 A2952 RMK AO2 SLP987 P0004 T01170083 RTX","FM-15","7",,,,,,,,,,,,,,,,,,,,,,,,,,,,
"72505394728","2020-04-21T12:51:00","FM-15","7",,,,,,,,,,,,,,,,,,,,,,,,,,,,,,,,,,,,,,"29.43","49","59","0.01",,"+0.10","8","69","29.41","CLR:00","29.26","10.00","54","VRB",,"3",,,,,,,,,,,,,,,,,,,,,,,,,,,,,,,,,,,,,"MET13004/21/20 12:51:02 METAR KNYC 211751Z VRB03KT 10SM CLR 15/09 A2943 RMK AO2 RAE25 SLP959 P0003 60007 T01500094 10150 20094 58034 RTX","FM-15","7",,,,,,,,,,,,,,,,,,,,,,,,,,,,
"72505394728","2020-04-21T13:38:00","FM-16","7",,,,,,,,,,,,,,,,,,,,,,,,,,,,,,,,,,,,,,"29.47","42","49","T","+RA:02 |RA |RA",,,"77",,"FEW:02 20 BKN:07 34 OVC:08 85","29.30","1.75","46","VRB","36","7",,,,,,,,,,,,,,,,,,,,,,,,,,,,,,,,,,,,,"MET14904/21/20 13:38:02 SPECI KNYC 211838Z VRB06G31KT 1 3/4SM +RA FEW020 BKN034 OVC085 09/06 A2947 RMK AO2 PK WND 28031/1831 RAB27 P0000 T00940056 RTX FIBI","FM-16","7",,,,,,,,,,,,,,,,,,,,,,,,,,,,
"72505394728","2020-04-21T13:48:00","FM-16","6",,,,,,,,,,,,,,,,,,,,,,,,,,,,,,,,,,,,,,"29.47","45","46",,"RA:02 BR:1 |RA |RA",,,"93",,"FEW:02 18 BKN:07 31 OVC:08 55","29.30","0.75","46","VRB","18","8",,,,,,,,,,,,,,,,,,,,,,,,,,,,,,,,,,,,,"MET13904/21/20 13:48:02 SPECI KNYC 211848Z 28007G16KT 3/4SM RA BR FEW018 BKN031 OVC055 08/07 A2947 RMK AO2 PK WND 28031/1831 RAB27 P0006 RTX FIBI","FM-16","6",,,,,,,,,,,,,,,,,,,,,,,,,,,,
"72505394728","2020-04-21T13:49:00","FM-16","6",,,,,,,,,,,,,,,,,,,,,,,,,,,,,,,,,,,,,,"29.47","45","48",,"+RA:02 BR:1 |RA |RA",,,"87",,"FEW:02 18 BKN:07 34 OVC:08 55","29.30","1.00","47","VRB","18","9",,,,,,,,,,,,,,,,,,,,,,,,,,,,,,,,,,,,,"MET13404/21/20 13:49:02 SPECI KNYC 211849Z 28008G16KT 1SM +RA BR FEW018 BKN034 OVC055 09/07 A2947 RMK AO2 PK WND 28031/1831 RAB27 P0006 FIBI","FM-16","6",,,,,,,,,,,,,,,,,,,,,,,,,,,,
"72505394728","2020-04-21T13:51:00","FM-15","7",,,,,,,,,,,,,,,,,,,,,,,,,,,,,,,,,,,,,,"29.47","44","47","0.09","RA:02 BR:1 |RA |RA",,,"90","29.44","FEW:02 18 BKN:07 34 OVC:08 60","29.30","1.25","46","280","21","11",,,,,,,,,,,,,,,,,,,,,,,,,,,,,,,,,,,,,"MET15304/21/20 13:51:02 METAR KNYC 211851Z 28010G18KT 1 1/4SM RA BR FEW018 BKN034 OVC060 08/07 A2947 RMK AO2 PK WND 28031/1831 RAB27 SLP970 P0007 T00830067 RTX","FM-15","7",,,,,,,,,,,,,,,,,,,,,,,,,,,,
"72505394728","2020-04-21T14:05:00","FM-16","7",,,,,,,,,,,,,,,,,,,,,,,,,,,,,,,,,,,,,,"29.45","44","47","0.03","-RA:02 BR:1 |RA |RA",,,"90",,"FEW:02 16 BKN:07 38 OVC:08 47","29.28","2.50","46",,,,,,,,,,,,,,,,,,,,,,,,,,,,,,,,,,,,,,,,"MET12004/21/20 14:05:02 SPECI KNYC 211905Z      KT 2 1/2SM -RA BR FEW016 BKN038 OVC047 08/07 A2945 RMK AO2 P0003 T00830067 RTX","FM-16","7",,,,,,,,,,,,,,,,,,,,,,,,,,,,
"72505394728","2020-04-21T14:12:00","FM-16","7",,,,,,,,,,,,,,,,,,,,,,,,,,,,,,,,,,,,,,"29.46","44","48","0.03","-RA:02 BR:1 |RA |RA",,,"86",,"OVC:08 44","29.29","3.00","46","VRB",,"5",,,,,,,,,,,,,,,,,,,,,,,,,,,,,,,,,,,,,"MET10204/21/20 14:12:02 SPECI KNYC 211912Z VRB04KT 3SM -RA BR OVC044 09/07 A2946 RMK AO2 P0003 T00890067 RTX","FM-16","7",,,,,,,,,,,,,,,,,,,,,,,,,,,,
"72505394728","2020-04-21T14:51:00","FM-15","7",,,,,,,,,,,,,,,,,,,,,,,,,,,,,,,,,,,,,,"29.44","47","51","0.02",,,,"86","29.42","FEW:02 55 SCT:04 70 BKN:07 110","29.27","10.00","49","280",,"7",,,,,,,,,,,,,,,,,,,,,,,,,,,,,,,,,,,,,"MET12304/21/20 14:51:02 METAR KNYC 211951Z 28006KT 10SM FEW055 SCT070 BKN110 11/08 A2944 RMK AO2 RAE45 SLP962 P0004 T01060083 RTX","FM-15","7",,,,,,,,,,,,,,,,,,,,,,,,,,,,
"72505394728","2020-04-21T15:51:00","FM-15","7",,,,,,,,,,,,,,,,,,,,,,,,,,,,,,,,,,,,,,"29.47","40","54","0.00",,"-0.00","3","59","29.45","FEW:02 30 BKN:07 70 BKN:07 85","29.30","10.00","47","VRB",,"8",,,,,,,,,,,,,,,,,,,,,,,,,,,,,,,,,,,,,"MET12304/21/20 15:51:02 METAR KNYC 212051Z 29007KT 10SM FEW030 BKN070 BKN085 12/04 A2947 RMK AO2 SLP972 60011 T01220044 53001 RTX","FM-15","7",,,,,,,,,,,,,,,,,,,,,,,,,,,,
"72505394728","2020-04-21T16:51:00","FM-15","7",,,,,,,,,,,,,,,,,,,,,,,,,,,,,,,,,,,,,,"29.50","32","55","0.00",,,,"42","29.48","BKN:07 90 BKN:07 100","29.33","10.00","45","VRB","29","8",,,,,,,,,,,,,,,,,,,,,,,,,,,,,,,,,,,,,"MET12504/21/20 16:51:02 METAR KNYC 212151Z 29007G25KT 10SM BKN090 BKN100 13/00 A2950 RMK AO2 PK WND 27026/2135 SLP982 T01280000 RTX","FM-15","7",,,,,,,,,,,,,,,,,,,,,,,,,,,,
"72505394728","2020-04-21T17:51:00","FM-15","7",,,,,,,,,,,,,,,,,,,,,,,,,,,,,,,,,,,,,,"29.55","33","52","0.00",,,,"49","29.53","SCT:04 90","29.38","10.00","43","300","17","10",,,,,,,,,,,,,,,,,,,,,,,,,,,,,,,,,,,,,"MET11804/21/20 17:51:02 METAR KNYC 212251Z 30009G15KT 10SM SCT090 11/01 A2955 RMK AO2 PK WND 27026/2153 SLP000 T01110006 RTX","FM-15","7",,,,,,,,,,,,,,,,,,,,,,,,,,,,
"72505394728","2020-04-21T18:51:00","FM-15","7",,,,,,,,,,,,,,,,,,,,,,,,,,,,,,,,,,,,,,"29.63","28","48","0.00",,"-0.15","3","46","29.60","CLR:00","29.46","10.00","40","300","24","13",,,,,,,,,,,,,,,,,,,,,,,,,,,,,,,,,,,,,"MET14004/21/20 18:51:02 METAR KNYC 212351Z 30011G21KT 10SM CLR 09/M02 A2963 RMK AO2 PK WND 31029/2309 SLP025 60011 T00891022 10161 20083 53052 RTX","FM-15","7",,,,,,,,,,,,,,,,,,,,,,,,,,,,
"72505394728","2020-04-21T19:51:00","FM-15","7",,,,,,,,,,,,,,,,,,,,,,,,,,,,,,,,,,,,,,"29.68","27","44","0.00",,,,"51","29.66","CLR:00","29.51","10.00","37","280","22","13",,,,,,,,,,,,,,,,,,,,,,,,,,,,,,,,,,,,,"MET11204/21/20 19:51:01 METAR KNYC 220051Z 28011G19KT 10SM CLR 07/M03 A2968 RMK AO2 PK WND 30028/2356 SLP043 T00671028","FM-15","7",,,,,,,,,,,,,,,,,,,,,,,,,,,,
"72505394728","2020-04-21T20:51:00","FM-15","7",,,,,,,,,,,,,,,,,,,,,,,,,,,,,,,,,,,,,,"29.73","29","42","0.00",,,,"60","29.70","FEW:02 42","29.56","10.00","37","300",,"8",,,,,,,,,,,,,,,,,,,,,,,,,,,,,,,,,,,,,"MET09404/21/20 20:51:01 METAR KNYC 220151Z 30007KT 10SM FEW042 06/M02 A2973 RMK AO2 SLP058 T00561017","FM-15","7",,,,,,,,,,,,,,,,,,,,,,,,,,,,
"72505394728","2020-04-21T21:51:00","FM-15","7",,,,,,,,,,,,,,,,,,,,,,,,,,,,,,,,,,,,,,"29.73","29","41","0.00",,"-0.11","1","62","29.71","CLR:00","29.56","10.00","36","VRB",,"3",,,,,,,,,,,,,,,,,,,,,,,,,,,,,,,,,,,,,"MET09704/21/20 21:51:01 METAR KNYC 220251Z VRB03KT 10SM CLR 05/M02 A2973 RMK AO2 SLP061 T00501017 51036","FM-15","7",,,,,,,,,,,,,,,,,,,,,,,,,,,,
"72505394728","2020-04-21T22:51:00","FM-15","7",,,,,,,,,,,,,,,,,,,,,,,,,,,,,,,,,,,,,,"29.75","26","40","0.00",,,,"58","29.72","CLR:00","29.58","10.00","35","300","17","11",,,,,,,,,,,,,,,,,,,,,,,,,,,,,,,,,,,,,"MET09404/21/20 22:51:02 METAR KNYC 220351Z 30010G15KT 10SM CLR 04/M03 A2975 RMK AO2 SLP066 T00441033","FM-15","7",,,,,,,,,,,,,,,,,,,,,,,,,,,,
"72505394728","2020-04-21T23:51:00","FM-15","7",,,,,,,,,,,,,,,,,,,,,,,,,,,,,,,,,,,,,,"29.76","22","39","0.00",,,,"50","29.74","CLR:00","29.59","10.00","33","VRB",,"7",,,,,,,,,,,,,,,,,,,,,,,,,,,,,,,,,,,,,"MET10104/21/20 23:51:02 METAR KNYC 220451Z VRB06KT 10SM CLR 04/M06 A2976 RMK AO2 SLP070 T00391056 401610039","FM-15","7",,,,,,,,,,,,,,,,,,,,,,,,,,,,
"72505394728","2020-04-21T23:59:00","SOD  ","6",,,,,,,,,,,,,,,,"50",,,"29.44",,"7.2","0","-5.0","15","61","39","280","36","0.18","0","0.0","280","23","RA BR",,,,,,,,,,,,,,,,,,,,,,,,,,,,,,,,,,,,,,,,,,,,,,,,,,,,,,,,"SOD75724 HR PRECIPITATION (IN): 0.18 SNOW DEPTH (IN):0     24 HR SNOWFALL (IN):0.0  WEATHER(CODE):13  24 HR MAX TEMP (F): 6124 HR MIN TEMP (F): 39AVERAGE STATION PRESSURE:29.435 MINIMUM SEA LEVEL PRESSURE:29.39 TIME OF OCCURRENCE:1321 PEAK WIND SPEED (MPH): 36 PEAK WIND DIR (DEG):280 PEAK WIND TIME (LST):      FASTEST 2MIN SPEED (MPH): 23FASTEST 2MIN DIR (DEG):280 FASTEST 2MIN TIME (LST):     AVERAGE WIND SPEED (MPH): 7.2 24 HR AVG TEMP (F): 50DEPART FROM NORMAL: -5  HEATING DEGREE DAYS: 15 COOLING DEGREE DAYS:  0 LATEST DAY MAX TEMP (0700-1900 LST):61  LATEST NIGHT MIN TEMP(1900-0800 LST):46 HOURLY INCREMENTAL PRECIPITATION VALUES (IN):.00 0.00 0.00 0.00 0.00 0.00 0.00 0.00 0.00 0.00 T    0.06 0.01 0.09 0.02 0.00 0.00 0.00 0.00 0.00 0.00 0.00 0.00 0.00","SOD  ","6",,,,,,,,,,,,,,,,,,,,,,,,,"0507","1842",,
"72505394728","2020-04-22T00:51:00","FM-15","7",,,,,,,,,,,,,,,,,,,,,,,,,,,,,,,,,,,,,,"29.77","15","39","0.00",,"-0.04","1","38","29.75","CLR:00","29.60","10.00","31","280","29","10",,,,,,,,,,,,,,,,,,,,,,,,,,,,,,,,,,,,,"MET11604/22/20 00:51:02 METAR KNYC 220551Z 28009G25KT 10SM CLR 04/M09 A2977 RMK AO2 SLP073 T00391094 10083 20039 51012 RTX","FM-15","7",,,,,,,,,,,,,,,,,,,,,,,,,,,,
"72505394728","2020-04-22T01:51:00","FM-15","6",,,,,,,,,,,,,,,,,,,,,,,,,,,,,,,,,,,,,,"29.78","16","38","0.00",,,,"41","29.75","CLR:00","29.61","10.00","31","290","23","8",,,,,,,,,,,,,,,,,,,,,,,,,,,,,,,,,,,,,"MET10304/22/20 01:51:02 METAR KNYC 220651Z 29007G20KT 10SM CLR 03/M09 A2978 RMK AO2 SLP076 T00331089 RTX FIBI","FM-15","6",,,,,,,,,,,,,,,,,,,,,,,,,,,,
"72505394728","2020-04-22T02:51:00","FM-15","7",,,,,,,,,,,,,,,,,,,,,,,,,,,,,,,,,,,,,,"29.79","16","37","0.00",,,,"42","29.76","FEW:02 60","29.62","10.00","30",,,,,,,,,,,,,,,,,,,,,,,,,,,,,,,,,,,,,,,,"MET10304/22/20 02:51:02 METAR KNYC 220751Z      KT 10SM FEW060 03/M09 A2979 RMK AO2 SLP078 T00281089 RTX FIBI","FM-15","7",,,,,,,,,,,,,,,,,,,,,,,,,,,,
"72505394728","2020-04-22T03:51:00","FM-15","7",,,,,,,,,,,,,,,,,,,,,,,,,,,,,,,,,,,,,,"29.80","16","37","0.00",,"-0.04","3","42","29.78","SCT:04 55","29.63","10.00","30","VRB","18","7",,,,,,,,,,,,,,,,,,,,,,,,,,,,,,,,,,,,,"MET11204/22/20 03:51:02 METAR KNYC 220851Z VRB06G16KT 10SM SCT055 03/M09 A2980 RMK AO2 SLP084 T00281089 53012 RTX FIBI","FM-15","7",,,,,,,,,,,,,,,,,,,,,,,,,,,,
"72505394728","2020-04-22T04:51:00","FM-15","7",,,,,,,,,,,,,,,,,,,,,,,,,,,,,,,,,,,,,,"29.83","16","36","0.00",,,,"44","29.80","FEW:02 55","29.66","10.00","29","VRB","18","7",,,,,,,,,,,,,,,,,,,,,,,,,,,,,,,,,,,,,"MET10104/22/20 04:51:02 METAR KNYC 220951Z VRB06G16KT 10SM FEW055 02/M09 A2983 RMK AO2 SLP093 T00221089 RTX","FM-15","7",,,,,,,,,,,,,,,,,,,,,,,,,,,,
"72505394728","2020-04-22T05:51:00","FM-15","7",,,,,,,,,,,,,,,,,,,,,,,,,,,,,,,,,,,,,,"29.85","16","36","0.00",,,,"44","29.83","CLR:00","29.68","10.00","29","280",,"7",,,,,,,,,,,,,,,,,,,,,,,,,,,,,,,,,,,,,"MET09504/22/20 05:51:02 METAR KNYC 221051Z 28006KT 10SM CLR 02/M09 A2985 RMK AO2 SLP101 T00221089 RTX","FM-15","7",,,,,,,,,,,,,,,,,,,,,,,,,,,,
"72505394728","2020-04-22T06:51:00","FM-15","7",,,,,,,,,,,,,,,,,,,,,,,,,,,,,,,,,,,,,,"29.87","16","38","0.00",,"-0.07","1","41","29.85","BKN:07 55","29.70","10.00","31","VRB","20","7",,,,,,,,,,,,,,,,,,,,,,,,,,,,,,,,,,,,,"MET13004/22/20 06:51:02 METAR KNYC 221151Z VRB06G17KT 10SM BKN055 03/M09 A2987 RMK AO2 SLP107 70018 T00331089 10039 20022 51023 RTX FIBI","FM-15","7",,,,,,,,,,,,,,,,,,,,,,,,,,,,
"72505394728","2020-04-22T07:51:00","FM-15","7",,,,,,,,,,,,,,,,,,,,,,,,,,,,,,,,,,,,,,"29.88","15","40","0.00",,,,"36","29.85","SCT:04 60","29.71","10.00","31","280","23","10",,,,,,,,,,,,,,,,,,,,,,,,,,,,,,,,,,,,,"MET10104/22/20 07:51:02 METAR KNYC 221251Z 28009G20KT 10SM SCT060 04/M09 A2988 RMK AO2 SLP109 T00441094 RTX","FM-15","7",,,,,,,,,,,,,,,,,,,,,,,,,,,,
"72505394728","2020-04-22T08:51:00","FM-15","7",,,,,,,,,,,,,,,,,,,,,,,,,,,,,,,,,,,,,,"29.89","13","40","0.00",,,,"33","29.86","BKN:07 65 OVC:08 80","29.72","10.00","31","VRB","22","10",,,,,,,,,,,,,,,,,,,,,,,,,,,,,,,,,,,,,"MET10804/22/20 08:51:02 METAR KNYC 221351Z 27009G19KT 10SM BKN065 OVC080 04/M11 A2989 RMK AO2 SLP113 T00441106 RTX","FM-15","7",,,,,,,,,,,,,,,,,,,,,,,,,,,,
"72505394728","2020-04-22T09:51:00","FM-15","7",,,,,,,,,,,,,,,,,,,,,,,,,,,,,,,,,,,,,,"29.89","14","43","0.00",,"-0.02","1","31","29.87","SCT:04 65","29.72","10.00","33","VRB","24","9",,,,,,,,,,,,,,,,,,,,,,,,,,,,,,,,,,,,,"MET10704/22/20 09:51:02 METAR KNYC 221451Z 29008G21KT 10SM SCT065 06/M10 A2989 RMK AO2 SLP114 T00611100 51006 RTX","FM-15","7",,,,,,,,,,,,,,,,,,,,,,,,,,,,
"72505394728","2020-04-22T10:51:00","FM-15","7",,,,,,,,,,,,,,,,,,,,,,,,,,,,,,,,,,,,,,"29.89","13","44","0.00",,,,"28","29.87","CLR:00","29.72","10.00","33","280","24","10",,,,,,,,,,,,,,,,,,,,,,,,,,,,,,,,,,,,,"MET09804/22/20 10:51:02 METAR KNYC 221551Z 28009G21KT 10SM CLR 07/M11 A2989 RMK AO2 SLP114 T00671106 RTX","FM-15","7",,,,,,,,,,,,,,,,,,,,,,,,,,,,
"72505394728","2020-04-22T11:51:00","FM-15","7",,,,,,,,,,,,,,,,,,,,,,,,,,,,,,,,,,,,,,"29.88","12","45","0.00",,,,"26","29.86","SCT:04 75","29.71","10.00","34","280","29","15",,,,,,,,,,,,,,,,,,,,,,,,,,,,,,,,,,,,,"MET10104/22/20 11:51:02 METAR KNYC 221651Z 28013G25KT 10SM SCT075 07/M11 A2988 RMK AO2 SLP111 T00721111 RTX","FM-15","7",,,,,,,,,,,,,,,,,,,,,,,,,,,,
"72505394728","2020-04-22T12:51:00","FM-15","7",,,,,,,,,,,,,,,,,,,,,,,,,,,,,,,,,,,,,,"29.88","11","48","0.00",,"+0.01","8","22","29.85","FEW:02 80","29.71","10.00","35","VRB","29","16",,,,,,,,,,,,,,,,,,,,,,,,,,,,,,,,,,,,,"MET13704/22/20 12:51:02 METAR KNYC 221751Z 29014G25KT 10SM FEW080 09/M12 A2988 RMK AO2 PK WND 26027/1714 SLP110 T00891117 10094 20028 58004 RTX","FM-15","7",,,,,,,,,,,,,,,,,,,,,,,,,,,,
"72505394728","2020-04-22T13:51:00","FM-15","7",,,,,,,,,,,,,,,,,,,,,,,,,,,,,,,,,,,,,,"29.87","11","49","0.00",,,,"21","29.85","FEW:02 85","29.70","10.00","36","VRB","25","14",,,,,,,,,,,,,,,,,,,,,,,,,,,,,,,,,,,,,"MET10104/22/20 13:51:02 METAR KNYC 221851Z 30012G22KT 10SM FEW085 09/M12 A2987 RMK AO2 SLP107 T00941117 RTX","FM-15","7",,,,,,,,,,,,,,,,,,,,,,,,,,,,
"72505394728","2020-04-22T14:51:00","FM-15","7",,,,,,,,,,,,,,,,,,,,,,,,,,,,,,,,,,,,,,"29.87","10","50","0.00",,,,"20","29.84","FEW:02 85","29.70","10.00","36","290","23","9",,,,,,,,,,,,,,,,,,,,,,,,,,,,,,,,,,,,,"MET09704/22/20 14:51:02 METAR KNYC 221951Z 29008G20KT 10SM FEW085 10/M12 A2987 RMK AO2 SLP105 T01001122","FM-15","7",,,,,,,,,,,,,,,,,,,,,,,,,,,,
"72505394728","2020-04-22T15:51:00","FM-15","7",,,,,,,,,,,,,,,,,,,,,,,,,,,,,,,,,,,,,,"29.88","9","50","0.00",,"+0.00","5","19","29.85","CLR:00","29.71","10.00","36","270","30","10",,,,,,,,,,,,,,,,,,,,,,,,,,,,,,,,,,,,,"MET12204/22/20 15:51:02 METAR KNYC 222051Z 27009G26KT 10SM CLR 10/M13 A2988 RMK AO2 PK WND 25026/2042 SLP109 T01001128 55001 RTX","FM-15","7",,,,,,,,,,,,,,,,,,,,,,,,,,,,
"72505394728","2020-04-22T16:51:00","FM-15","7",,,,,,,,,,,,,,,,,,,,,,,,,,,,,,,,,,,,,,"29.89","11","51","0.00",,,,"20","29.87","CLR:00","29.72","10.00","37",,,,,,,,,,,,,,,,,,,,,,,,,,,,,,,,,,,,,,,,"MET09104/22/20 16:51:02 METAR KNYC 222151Z      KT 10SM CLR 11/M12 A2989 RMK AO2 SLP114 T01061117","FM-15","7",,,,,,,,,,,,,,,,,,,,,,,,,,,,
"72505394728","2020-04-22T17:51:00","FM-15","7",,,,,,,,,,,,,,,,,,,,,,,,,,,,,,,,,,,,,,"29.91","11","50","0.00",,,,"21","29.88","CLR:00","29.74","10.00","36","300","20","10",,,,,,,,,,,,,,,,,,,,,,,,,,,,,,,,,,,,,"MET09804/22/20 17:51:02 METAR KNYC 222251Z 30009G17KT 10SM CLR 10/M12 A2991 RMK AO2 SLP120 T01001117 RTX","FM-15","7",,,,,,,,,,,,,,,,,,,,,,,,,,,,
"72505394728","2020-04-22T18:51:00","FM-15","7",,,,,,,,,,,,,,,,,,,,,,,,,,,,,,,,,,,,,,"29.94","12","48","0.00",,"-0.06","3","23","29.91","CLR:00","29.77","10.00","35","300","18","8",,,,,,,,,,,,,,,,,,,,,,,,,,,,,,,,,,,,,"MET11604/22/20 18:51:02 METAR KNYC 222351Z 30007G16KT 10SM CLR 09/M11 A2994 RMK AO2 SLP130 T00891111 10106 20083 53021 RTX","FM-15","7",,,,,,,,,,,,,,,,,,,,,,,,,,,,
"72505394728","2020-04-22T19:51:00","FM-15","7",,,,,,,,,,,,,,,,,,,,,,,,,,,,,,,,,,,,,,"29.98","13","47","0.00",,,,"25","29.95","CLR:00","29.81","10.00","35","280",,"5",,,,,,,,,,,,,,,,,,,,,,,,,,,,,,,,,,,,,"MET09104/22/20 19:51:01 METAR KNYC 230051Z 28004KT 10SM CLR 08/M11 A2998 RMK AO2 SLP143 T00831106","FM-15","7",,,,,,,,,,,,,,,,,,,,,,,,,,,,
"72505394728","2020-04-22T20:51:00","FM-15","7",,,,,,,,,,,,,,,,,,,,,,,,,,,,,,,,,,,,,,"30.00","13","45","0.00",,,,"27","29.98","CLR:00","29.83","10.00","34","000",,"0",,,,,,,,,,,,,,,,,,,,,,,,,,,,,,,,,,,,,"MET09104/22/20 20:51:01 METAR KNYC 230151Z 00000KT 10SM CLR 07/M11 A3000 RMK AO2 SLP151 T00721106","FM-15","7",,,,,,,,,,,,,,,,,,,,,,,,,,,,
"72505394728","2020-04-22T21:51:00","FM-15","7",,,,,,,,,,,,,,,,,,,,,,,,,,,,,,,,,,,,,,"30.02","14","45","0.00",,"-0.08","1","29","30.00","CLR:00","29.85","10.00","34","000",,"0",,,,,,,,,,,,,,,,,,,,,,,,,,,,,,,,,,,,,"MET09704/22/20 21:51:01 METAR KNYC 230251Z 00000KT 10SM CLR 07/M10 A3002 RMK AO2 SLP158 T00721100 51028","FM-15","7",,,,,,,,,,,,,,,,,,,,,,,,,,,,
"72505394728","2020-04-22T22:51:00","FM-15","7",,,,,,,,,,,,,,,,,,,,,,,,,,,,,,,,,,,,,,"30.04","13","43","0.00",,,,"29","30.02","CLR:00","29.87","10.00","33","VRB",,"5",,,,,,,,,,,,,,,,,,,,,,,,,,,,,,,,,,,,,"MET09104/22/20 22:51:02 METAR KNYC 230351Z VRB04KT 10SM CLR 06/M11 A3004 RMK AO2 SLP165 T00611106","FM-15","7",,,,,,,,,,,,,,,,,,,,,,,,,,,,
"72505394728","2020-04-22T23:51:00","FM-15","7",,,,,,,,,,,,,,,,,,,,,,,,,,,,,,,,,,,,,,"30.05","15","42","0.00",,,,"33","30.03","CLR:00","29.88","10.00","33","000",,"0",,,,,,,,,,,,,,,,,,,,,,,,,,,,,,,,,,,,,"MET10104/22/20 23:51:02 METAR KNYC 230451Z 00000KT 10SM CLR 06/M09 A3005 RMK AO2 SLP169 T00561094 401060022","FM-15","7",,,,,,,,,,,,,,,,,,,,,,,,,,,,
"72505394728","2020-04-22T23:59:00","SOD  ","6",,,,,,,,,,,,,,,,"44",,,"29.72",,"8.1","0","-11.3","21","51","36","260","31","0.00","0","0.0","280","20",,,,,,,,,,,,,,,,,,,,,,,,,,,,,,,,,,,,,,,,,,,,,,,,,,,,,,,,,"SOD74324 HR PRECIPITATION (IN): 0.00 SNOW DEPTH (IN):0     24 HR SNOWFALL (IN):0.0  24 HR MAX TEMP (F): 5124 HR MIN TEMP (F): 36AVERAGE STATION PRESSURE(D):29.724 MINIMUM SEA LEVEL PRESSURE:29.74 TIME OF OCCURRENCE:0051 PEAK WIND SPEED (MPH): 31 PEAK WIND DIR (DEG):260 PEAK WIND TIME (LST):      FASTEST 2MIN SPEED (MPH): 20FASTEST 2MIN DIR (DEG):280 FASTEST 2MIN TIME (LST):     AVERAGE WIND SPEED (MPH): 8.1 24 HR AVG TEMP (F): 44DEPART FROM NORMAL:-11  HEATING DEGREE DAYS: 21 COOLING DEGREE DAYS:  0 LATEST DAY MAX TEMP (0700-1900 LST): 51 LATEST NIGHT MIN TEMP(1900-0800 LST):36 HOURLY INCREMENTAL PRECIPITATION VALUES (IN):0.00 0.00 0.00 0.00 0.00 0.00 0.00 0.00 0.00 0.00 0.00 0.00 0.00 0.00 0.00 0.00 0.00 0.00 0.00 0.00 0.00 0.00 0.00 0.00","SOD  ","6",,,,,,,,,,,,,,,,,,,,,,,,,"0506","1844",,
"72505394728","2020-04-23T00:51:00","FM-15","7",,,,,,,,,,,,,,,,,,,,,,,,,,,,,,,,,,,,,,"30.08","15","41","0.00",,"-0.05","1","35","30.05","CLR:00","29.91","10.00","32","VRB",,"6",,,,,,,,,,,,,,,,,,,,,,,,,,,,,,,,,,,,,"MET11304/23/20 00:51:02 METAR KNYC 230551Z VRB05KT 10SM CLR 05/M09 A3008 RMK AO2 SLP176 T00501094 10089 20050 51018 RTX","FM-15","7",,,,,,,,,,,,,,,,,,,,,,,,,,,,
"72505394728","2020-04-23T01:51:00","FM-15","7",,,,,,,,,,,,,,,,,,,,,,,,,,,,,,,,,,,,,,"30.08","16","41","0.00",,,,"36","30.05","CLR:00","29.91","10.00","32","VRB",,"7",,,,,,,,,,,,,,,,,,,,,,,,,,,,,,,,,,,,,"MET09504/23/20 01:51:02 METAR KNYC 230651Z VRB06KT 10SM CLR 05/M09 A3008 RMK AO2 SLP177 T00501089 RTX","FM-15","7",,,,,,,,,,,,,,,,,,,,,,,,,,,,
"72505394728","2020-04-23T02:51:00","FM-15","7",,,,,,,,,,,,,,,,,,,,,,,,,,,,,,,,,,,,,,"30.05","16","40","0.00",,,,"38","30.02","FEW:02 120","29.88","10.00","32","300",,"7",,,,,,,,,,,,,,,,,,,,,,,,,,,,,,,,,,,,,"MET10304/23/20 02:51:02 METAR KNYC 230751Z 30006KT 10SM FEW120 04/M09 A3005 RMK AO2 SLP166 T00441089 RTX FIBI","FM-15","7",,,,,,,,,,,,,,,,,,,,,,,,,,,,
"72505394728","2020-04-23T03:51:00","FM-15","7",,,,,,,,,,,,,,,,,,,,,,,,,,,,,,,,,,,,,,"30.06","17","40","0.00",,"+0.01","5","40","30.03","FEW:02 110","29.89","10.00","32","000",,"0",,,,,,,,,,,,,,,,,,,,,,,,,,,,,,,,,,,,,"MET10404/23/20 03:51:02 METAR KNYC 230851Z 00000KT 10SM FEW110 04/M08 A3006 RMK AO2 SLP171 T00441083 55005 RTX","FM-15","7",,,,,,,,,,,,,,,,,,,,,,,,,,,,
"72505394728","2020-04-23T04:51:00","FM-15","7",,,,,,,,,,,,,,,,,,,,,,,,,,,,,,,,,,,,,,"30.05","17","40","0.00",,,,"40","30.02","BKN:07 85","29.88","10.00","32","310",,"3",,,,,,,,,,,,,,,,,,,,,,,,,,,,,,,,,,,,,"MET09804/23/20 04:51:02 METAR KNYC 230951Z 31003KT 10SM BKN085 04/M08 A3005 RMK AO2 SLP167 T00441083 RTX","FM-15","7",,,,,,,,,,,,,,,,,,,,,,,,,,,,
"72505394728","2020-04-23T05:51:00","FM-15","7",,,,,,,,,,,,,,,,,,,,,,,,,,,,,,,,,,,,,,"30.08","17","41","0.00",,,,"38","30.06","OVC:08 70","29.91","10.00","33","310",,"6",,,,,,,,,,,,,,,,,,,,,,,,,,,,,,,,,,,,,"MET09804/23/20 05:51:02 METAR KNYC 231051Z 31005KT 10SM OVC070 05/M08 A3008 RMK AO2 SLP179 T00501083 RTX","FM-15","7",,,,,,,,,,,,,,,,,,,,,,,,,,,,
"72505394728","2020-04-23T06:51:00","FM-15","7",,,,,,,,,,,,,,,,,,,,,,,,,,,,,,,,,,,,,,"30.10","17","41","0.00",,"-0.04","3","38","30.08","BKN:07 60 OVC:08 80","29.93","10.00","33","000",,"0",,,,,,,,,,,,,,,,,,,,,,,,,,,,,,,,,,,,,"MET12304/23/20 06:51:02 METAR KNYC 231151Z 00000KT 10SM BKN060 OVC080 05/M08 A3010 RMK AO2 SLP186 T00501083 10050 20044 53015 RTX","FM-15","7",,,,,,,,,,,,,,,,,,,,,,,,,,,,
"72505394728","2020-04-23T07:51:00","FM-15","7",,,,,,,,,,,,,,,,,,,,,,,,,,,,,,,,,,,,,,"30.13","19","41","T","-RA:02 |RA |RA",,,"41","30.10","OVC:08 48","29.96","10.00","33","290",,"6",,,,,,,,,,,,,,,,,,,,,,,,,,,,,,,,,,,,,"MET11404/23/20 07:51:02 METAR KNYC 231251Z 29005KT 10SM -RA OVC048 05/M07 A3013 RMK AO2 RAB43 SLP194 P0000 T00501072 RTX","FM-15","7",,,,,,,,,,,,,,,,,,,,,,,,,,,,
"72505394728","2020-04-23T08:51:00","FM-15","7",,,,,,,,,,,,,,,,,,,,,,,,,,,,,,,,,,,,,,"30.12","22","42","T","-RA:02 |RA |RA",,,"45","30.09","FEW:02 60 OVC:08 80","29.95","10.00","35","000",,"0",,,,,,,,,,,,,,,,,,,,,,,,,,,,,,,,,,,,,"MET11504/23/20 08:51:02 METAR KNYC 231351Z 00000KT 10SM -RA FEW060 OVC080 06/M06 A3012 RMK AO2 SLP190 P0000 T00561056 RTX","FM-15","7",,,,,,,,,,,,,,,,,,,,,,,,,,,,
"72505394728","2020-04-23T09:51:00","FM-15","7",,,,,,,,,,,,,,,,,,,,,,,,,,,,,,,,,,,,,,"30.11","21","43","T",,"-0.01","0","42","30.09","SCT:04 70 BKN:07 100","29.94","10.00","35","000",,"0",,,,,,,,,,,,,,,,,,,,,,,,,,,,,,,,,,,,,"MET12904/23/20 09:51:02 METAR KNYC 231451Z 00000KT 10SM SCT070 BKN100 06/M06 A3011 RMK AO2 RAE06 SLP188 P0000 60000 T00611061 50003 RTX","FM-15","7",,,,,,,,,,,,,,,,,,,,,,,,,,,,
"72505394728","2020-04-23T10:51:00","FM-15","7",,,,,,,,,,,,,,,,,,,,,,,,,,,,,,,,,,,,,,"30.12","22","45","0.00",,,,"40","30.09","BKN:07 70 OVC:08 95","29.95","10.00","36","VRB",,"3",,,,,,,,,,,,,,,,,,,,,,,,,,,,,,,,,,,,,"MET10504/23/20 10:51:02 METAR KNYC 231551Z VRB03KT 10SM BKN070 OVC095 07/M06 A3012 RMK AO2 SLP191 T00721056 RTX","FM-15","7",,,,,,,,,,,,,,,,,,,,,,,,,,,,
"72505394728","2020-04-23T11:51:00","FM-15","7",,,,,,,,,,,,,,,,,,,,,,,,,,,,,,,,,,,,,,"30.08","19","47","0.00",,,,"33","30.06","FEW:02 75 FEW:02 90","29.91","10.00","37","250",,"6",,,,,,,,,,,,,,,,,,,,,,,,,,,,,,,,,,,,,"MET10504/23/20 11:51:02 METAR KNYC 231651Z 25005KT 10SM FEW075 FEW090 08/M07 A3008 RMK AO2 SLP178 T00831072 RTX","FM-15","7",,,,,,,,,,,,,,,,,,,,,,,,,,,,
"72505394728","2020-04-23T12:51:00","FM-15","7",,,,,,,,,,,,,,,,,,,,,,,,,,,,,,,,,,,,,,"30.06","20","48","0.00",,"+0.05","8","33","30.04","SCT:04 110","29.89","10.00","37","VRB",,"3",,,,,,,,,,,,,,,,,,,,,,,,,,,,,,,,,,,,,"MET12204/23/20 12:51:02 METAR KNYC 231751Z VRB03KT 10SM SCT110 09/M07 A3006 RMK AO2 SLP172 60000 T00891067 10089 20044 58016 RTX","FM-15","7",,,,,,,,,,,,,,,,,,,,,,,,,,,,
"72505394728","2020-04-23T13:51:00","FM-15","7",,,,,,,,,,,,,,,,,,,,,,,,,,,,,,,,,,,,,,"30.06","21","49","0.00",,,,"33","30.03","FEW:02 120","29.89","10.00","38","000",,"0",,,,,,,,,,,,,,,,,,,,,,,,,,,,,,,,,,,,,"MET09804/23/20 13:51:02 METAR KNYC 231851Z 00000KT 10SM FEW120 09/M06 A3006 RMK AO2 SLP170 T00941061 RTX","FM-15","7",,,,,,,,,,,,,,,,,,,,,,,,,,,,
"72505394728","2020-04-23T14:51:00","FM-15","7",,,,,,,,,,,,,,,,,,,,,,,,,,,,,,,,,,,,,,"30.04","22","51","0.00",,,,"32","30.01","CLR:00","29.87","10.00","40","030",,"5",,,,,,,,,,,,,,,,,,,,,,,,,,,,,,,,,,,,,"MET09504/23/20 14:51:02 METAR KNYC 231951Z 03004KT 10SM CLR 11/M06 A3004 RMK AO2 SLP164 T01061056 RTX","FM-15","7",,,,,,,,,,,,,,,,,,,,,,,,,,,,
"72505394728","2020-04-23T15:51:00","FM-15","7",,,,,,,,,,,,,,,,,,,,,,,,,,,,,,,,,,,,,,"30.03","23","51","0.00",,"+0.04","8","33","30.00","FEW:02 100","29.86","10.00","40","VRB",,"3",,,,,,,,,,,,,,,,,,,,,,,,,,,,,,,,,,,,,"MET10404/23/20 15:51:02 METAR KNYC 232051Z VRB03KT 10SM FEW100 11/M05 A3003 RMK AO2 SLP160 T01061050 58013 RTX","FM-15","7",,,,,,,,,,,,,,,,,,,,,,,,,,,,
"72505394728","2020-04-23T16:51:00","FM-15","7",,,,,,,,,,,,,,,,,,,,,,,,,,,,,,,,,,,,,,"30.03","26","49","0.00",,,,"41","30.00","BKN:07 110","29.86","10.00","40","160",,"6",,,,,,,,,,,,,,,,,,,,,,,,,,,,,,,,,,,,,"MET09804/23/20 16:51:02 METAR KNYC 232151Z 16005KT 10SM BKN110 09/M03 A3003 RMK AO2 SLP160 T00941033 RTX","FM-15","7",,,,,,,,,,,,,,,,,,,,,,,,,,,,
"72505394728","2020-04-23T17:51:00","FM-15","7",,,,,,,,,,,,,,,,,,,,,,,,,,,,,,,,,,,,,,"30.01","25","49","0.00",,,,"39","29.99","BKN:07 100","29.84","10.00","39","160",,"5",,,,,,,,,,,,,,,,,,,,,,,,,,,,,,,,,,,,,"MET09804/23/20 17:51:02 METAR KNYC 232251Z 16004KT 10SM BKN100 09/M04 A3001 RMK AO2 SLP155 T00941039 RTX","FM-15","7",,,,,,,,,,,,,,,,,,,,,,,,,,,,
"72505394728","2020-04-23T18:51:00","FM-15","7",,,,,,,,,,,,,,,,,,,,,,,,,,,,,,,,,,,,,,"30.00","25","47","0.00",,"+0.03","8","42","29.97","CLR:00","29.83","10.00","38","VRB",,"6",,,,,,,,,,,,,,,,,,,,,,,,,,,,,,,,,,,,,"MET11304/23/20 18:51:02 METAR KNYC 232351Z VRB05KT 10SM CLR 08/M04 A3000 RMK AO2 SLP150 T00831039 10111 20083 58009 RTX","FM-15","7",,,,,,,,,,,,,,,,,,,,,,,,,,,,
"72505394728","2020-04-23T19:51:00","FM-15","7",,,,,,,,,,,,,,,,,,,,,,,,,,,,,,,,,,,,,,"29.99","24","47","0.00",,,,"41","29.96","BKN:07 110","29.82","10.00","38","VRB",,"5",,,,,,,,,,,,,,,,,,,,,,,,,,,,,,,,,,,,,"MET09404/23/20 19:51:01 METAR KNYC 240051Z VRB04KT 10SM BKN110 08/M04 A2999 RMK AO2 SLP146 T00831044","FM-15","7",,,,,,,,,,,,,,,,,,,,,,,,,,,,
"72505394728","2020-04-23T20:51:00","FM-15","7",,,,,,,,,,,,,,,,,,,,,,,,,,,,,,,,,,,,,,"29.99","30","45","0.01","-RA:02 |RA |RA",,,"56","29.96","FEW:02 65 OVC:08 80","29.82","10.00","39","000",,"0",,,,,,,,,,,,,,,,,,,,,,,,,,,,,,,,,,,,,"MET11704/23/20 20:51:01 METAR KNYC 240151Z 00000KT 10SM -RA FEW065 OVC080 07/M01 A2999 RMK AO2 RAB20 SLP147 P0000 T00721011","FM-15","7",,,,,,,,,,,,,,,,,,,,,,,,,,,,
"72505394728","2020-04-23T21:51:00","FM-15","7",,,,,,,,,,,,,,,,,,,,,,,,,,,,,,,,,,,,,,"29.97","37","43","0.01","-RA:02 |RA |RA","+0.03","8","80","29.94","FEW:02 48 OVC:08 80","29.80","7.00","40","VRB",,"3",,,,,,,,,,,,,,,,,,,,,,,,,,,,,,,,,,,,,"MET12104/23/20 21:51:01 METAR KNYC 240251Z VRB03KT 7SM -RA FEW048 OVC080 06/03 A2997 RMK AO2 SLP140 P0002 60002 T00610028 58010","FM-15","7",,,,,,,,,,,,,,,,,,,,,,,,,,,,
"72505394728","2020-04-23T22:51:00","FM-15","7",,,,,,,,,,,,,,,,,,,,,,,,,,,,,,,,,,,,,,"29.97","37","43","0.04","-RA:02 |RA |RA",,,"80","29.94","BKN:07 32 OVC:08 60","29.80","6.00","40","130",,"7",,,,,,,,,,,,,,,,,,,,,,,,,,,,,,,,,,,,,"MET10904/23/20 22:51:02 METAR KNYC 240351Z 13006KT 6SM -RA BKN032 OVC060 06/03 A2997 RMK AO2 SLP140 P0003 T00610028","FM-15","7",,,,,,,,,,,,,,,,,,,,,,,,,,,,
"72505394728","2020-04-23T23:25:00","FM-16","7",,,,,,,,,,,,,,,,,,,,,,,,,,,,,,,,,,,,,,"29.95","38","42","0.04","-RA:02 BR:1 |RA |RA",,,"85",,"OVC:08 28","29.78","5.00","40","VRB",,"5",,,,,,,,,,,,,,,,,,,,,,,,,,,,,,,,,,,,,"MET09804/23/20 23:25:02 SPECI KNYC 240425Z VRB04KT 5SM -RA BR OVC028 06/03 A2995 RMK AO2 P0004 T00560033","FM-16","7",,,,,,,,,,,,,,,,,,,,,,,,,,,,
"72505394728","2020-04-23T23:49:00","FM-16","6",,,,,,,,,,,,,,,,,,,,,,,,,,,,,,,,,,,,,,"29.93","39","43",,"-RA:02 BR:1 |RA |RA",,,"87",,"SCT:04 26 BKN:07 55 OVC:08 70","29.76","4.00","41","070",,"8",,,,,,,,,,,,,,,,,,,,,,,,,,,,,,,,,,,,,"MET10704/23/20 23:49:03 SPECI KNYC 240449Z 07007KT 4SM -RA BR SCT026 BKN055 OVC070 06/04 A2993 RMK AO2 P0007 FIBI","FM-16","6",,,,,,,,,,,,,,,,,,,,,,,,,,,,
"72505394728","2020-04-23T23:51:00","FM-15","4",,,,,,,,,,,,,,,,,,,,,,,,,,,,,,,,,,,,,,"29.93","40","42","0.07","|RA |",,,"92","29.90",,,"4.00",,"VRB",,"6",,,,,,,,,,,,,,,,,,,,,,,,,,,,,,,,,,,,,"MET117METAR KNYC 240451Z AUTO VRB05KT 4SM -RA BR SCT026 BKN060 OVC075 06/04 A2993 RMK AO2 SLP126 P0007 T00560044 401110044=","FM-15","4",,,,,,,,,,,,,,,,,,,,,,,,,,,,
"72505394728","2020-04-23T23:52:00","FM-15","7",,,,,,,,,,,,,,,,,,,,,,,,,,,,,,,,,,,,,,"29.93","40","42","0.07","-RA:02 BR:1 |RA |RA",,,"92","29.90","SCT:04 26 BKN:07 60 OVC:08 75","29.76","4.00","41","VRB",,"6",,,,,,,,,,,,,,,,,,,,,,,,,,,,,,,,,,,,,"MET12904/23/20 23:52:02 METAR KNYC 240452Z VRB05KT 4SM -RA BR SCT026 BKN060 OVC075 06/04 A2993 RMK AO2 SLP126 P0007 T00560044 401110044","FM-15","7",,,,,,,,,,,,,,,,,,,,,,,,,,,,
"72505394728","2020-04-23T23:59:00","SOD  ","6",,,,,,,,,,,,,,,,"46",,,"29.87",,"3.8","0","-9.6","19","52","40","110","15","0.13","0","0.0","050","9","RA BR",,,,,,,,,,,,,,,,,,,,,,,,,,,,,,,,,,,,,,,,,,,,,,,,,,,,,,,,"SOD76024 HR PRECIPITATION (IN): 0.13 SNOW DEPTH (IN):0     24 HR SNOWFALL (IN):0.0  WEATHER(CODE):1  24 HR MAX TEMP (F): 5224 HR MIN TEMP (F): 40AVERAGE STATION PRESSURE(D):29.869 MINIMUM SEA LEVEL PRESSURE:29.90 TIME OF OCCURRENCE:2359 PEAK WIND SPEED (MPH): 15 PEAK WIND DIR (DEG):110 PEAK WIND TIME (LST):      FASTEST 2MIN SPEED (MPH):  9FASTEST 2MIN DIR (DEG): 50 FASTEST 2MIN TIME (LST):     AVERAGE WIND SPEED (MPH): 3.8 24 HR AVG TEMP (F): 46DEPART FROM NORMAL:-10  HEATING DEGREE DAYS: 19 COOLING DEGREE DAYS:  0 LATEST DAY MAX TEMP (0700-1900 LST): 52 LATEST NIGHT MIN TEMP(1900-0800 LST):40 HOURLY INCREMENTAL PRECIPITATION VALUES (IN):0.00 0.00 0.00 0.00 0.00 0.00 0.00T    T    T     0.00 0.00 0.00 0.00 0.00 0.00 0.00 0.00 0.00 0.00 0.01 0.01 0.04 0.07","SOD  ","6",,,,,,,,,,,,,,,,,,,,,,,,,"0504","1845",,
"72505394728","2020-04-24T00:16:00","FM-16","7",,,,,,,,,,,,,,,,,,,,,,,,,,,,,,,,,,,,,,"29.92","40","43","0.03","-RA:02 BR:1 |RA |RA",,,"89",,"SCT:04 10 BKN:07 21 OVC:08 55","29.75","5.00","42","VRB",,"5",,,,,,,,,,,,,,,,,,,,,,,,,,,,,,,,,,,,,"MET11604/24/20 00:16:02 SPECI KNYC 240516Z VRB04KT 5SM -RA BR SCT010 BKN021 OVC055 06/04 A2992 RMK AO2 P0003 T00610044 RTX","FM-16","7",,,,,,,,,,,,,,,,,,,,,,,,,,,,
"72505394728","2020-04-24T00:27:00","FM-16","7",,,,,,,,,,,,,,,,,,,,,,,,,,,,,,,,,,,,,,"29.90","40","43","0.05","RA:02 BR:1 |RA |RA",,,"89",,"BKN:07 10 BKN:07 21 OVC:08 29","29.73","4.00","42","060",,"7",,,,,,,,,,,,,,,,,,,,,,,,,,,,,,,,,,,,,"MET12204/24/20 00:27:02 SPECI KNYC 240527Z 06006KT 4SM RA BR BKN010 BKN021 OVC029 06/04 A2990 RMK AO2 PRESFR P0005 T00610044 RTX","FM-16","7",,,,,,,,,,,,,,,,,,,,,,,,,,,,
"72505394728","2020-04-24T00:48:00","FM-16","6",,,,,,,,,,,,,,,,,,,,,,,,,,,,,,,,,,,,,,"29.88","39","43",,"RA:02 BR:1 |RA |RA",,,"87",,"BKN:07 9 OVC:08 16","29.71","3.00","41","050",,"10",,,,,,,,,,,,,,,,,,,,,,,,,,,,,,,,,,,,,"MET10304/24/20 00:48:02 SPECI KNYC 240548Z 05009KT 3SM RA BR BKN009 OVC016 06/04 A2988 RMK AO2 P0007 RTX FIBI","FM-16","6",,,,,,,,,,,,,,,,,,,,,,,,,,,,
"72505394728","2020-04-24T00:51:00","FM-15","7",,,,,,,,,,,,,,,,,,,,,,,,,,,,,,,,,,,,,,"29.87","40","42","0.07","RA:02 BR:1 |RA |RA","+0.10","6","92","29.84","BKN:07 9 OVC:08 14","29.70","3.00","41","060",,"10",,,,,,,,,,,,,,,,,,,,,,,,,,,,,,,,,,,,,"MET14204/24/20 00:51:02 METAR KNYC 240551Z 06009KT 3SM RA BR BKN009 OVC014 06/04 A2987 RMK AO2 PRESFR SLP106 P0008 60020 T00560044 10089 20056 56035","FM-15","7",,,,,,,,,,,,,,,,,,,,,,,,,,,,
"72505394728","2020-04-24T01:51:00","FM-15","7",,,,,,,,,,,,,,,,,,,,,,,,,,,,,,,,,,,,,,"29.84","41","43","0.07","RA:02 BR:1 |RA |RA",,,"93","29.82","OVC:08 6","29.67","3.00","42","060",,"9",,,,,,,,,,,,,,,,,,,,,,,,,,,,,,,,,,,,,"MET11004/24/20 01:51:02 METAR KNYC 240651Z 06008KT 3SM RA BR OVC006 06/05 A2984 RMK AO2 SLP097 P0006 T00610050 $ RTX","FM-15","7",,,,,,,,,,,,,,,,,,,,,,,,,,,,
"72505394728","2020-04-24T02:51:00","FM-15","7",,,,,,,,,,,,,,,,,,,,,,,,,,,,,,,,,,,,,,"29.81","41","43","0.04","-RA:02 BR:1 |RA |RA",,,"93","29.78","OVC:08 5","29.64","4.00","42","050",,"9",,,,,,,,,,,,,,,,,,,,,,,,,,,,,,,,,,,,,"MET11104/24/20 02:51:02 METAR KNYC 240751Z 05008KT 4SM -RA BR OVC005 06/05 A2981 RMK AO2 SLP086 P0005 T00610050 $ RTX","FM-15","7",,,,,,,,,,,,,,,,,,,,,,,,,,,,
"72505394728","2020-04-24T03:18:00","FM-16","7",,,,,,,,,,,,,,,,,,,,,,,,,,,,,,,,,,,,,,"29.81","41","42","0.01","-RA:02 BR:1 |RA |RA",,,"96",,"OVC:08 5","29.64","2.50","42","070",,"9",,,,,,,,,,,,,,,,,,,,,,,,,,,,,,,,,,,,,"MET10804/24/20 03:18:02 SPECI KNYC 240818Z 07008KT 2 1/2SM -RA BR OVC005 06/05 A2981 RMK AO2 P0001 T00560050 $ RTX","FM-16","7",,,,,,,,,,,,,,,,,,,,,,,,,,,,
"72505394728","2020-04-24T03:49:00","FM-16","6",,,,,,,,,,,,,,,,,,,,,,,,,,,,,,,,,,,,,,"29.80","41","43",,"-RA:02 BR:1 |RA |RA",,,"93",,"OVC:08 5","29.63","3.00","42","050","16","9",,,,,,,,,,,,,,,,,,,,,,,,,,,,,,,,,,,,,"MET09804/24/20 03:49:02 SPECI KNYC 240849Z 05008G14KT 3SM -RA BR OVC005 06/05 A2980 RMK AO2 P0005 $ FIBI","FM-16","6",,,,,,,,,,,,,,,,,,,,,,,,,,,,
"72505394728","2020-04-24T03:51:00","FM-15","7",,,,,,,,,,,,,,,,,,,,,,,,,,,,,,,,,,,,,,"29.80","41","43","0.05","-RA:02 BR:1 |RA |RA","+0.07","6","93","29.77","OVC:08 5","29.63","3.00","42","060",,"10",,,,,,,,,,,,,,,,,,,,,,,,,,,,,,,,,,,,,"MET11904/24/20 03:51:02 METAR KNYC 240851Z 06009KT 3SM -RA BR OVC005 06/05 A2980 RMK AO2 SLP082 P0005 60016 T00610050 56023 $","FM-15","7",,,,,,,,,,,,,,,,,,,,,,,,,,,,
"72505394728","2020-04-24T04:51:00","FM-15","7",,,,,,,,,,,,,,,,,,,,,,,,,,,,,,,,,,,,,,"29.76","41","43","0.02","BR:1 ||",,,"93","29.73","OVC:08 6","29.59","6.00","42","060",,"10",,,,,,,,,,,,,,,,,,,,,,,,,,,,,,,,,,,,,"MET11304/24/20 04:51:02 METAR KNYC 240951Z 06009KT 6SM BR OVC006 06/05 A2976 RMK AO2 RAE44 SLP069 P0002 T00610050 $ RTX","FM-15","7",,,,,,,,,,,,,,,,,,,,,,,,,,,,
"72505394728","2020-04-24T05:51:00","FM-15","7",,,,,,,,,,,,,,,,,,,,,,,,,,,,,,,,,,,,,,"29.75","41","43","0.00",,,,"93","29.73","OVC:08 6","29.58","8.00","42","VRB","18","9",,,,,,,,,,,,,,,,,,,,,,,,,,,,,,,,,,,,,"MET10104/24/20 05:51:02 METAR KNYC 241051Z 05008G16KT 8SM OVC006 06/05 A2975 RMK AO2 SLP067 T00610050 $ RTX","FM-15","7",,,,,,,,,,,,,,,,,,,,,,,,,,,,
"72505394728","2020-04-24T06:41:00","FM-16","7",,,,,,,,,,,,,,,,,,,,,,,,,,,,,,,,,,,,,,"29.73","43","44","0.01","-RA:02 BR:1 |RA |RA",,,"96",,"OVC:08 6","29.56","1.75","44","050",,"10",,,,,,,,,,,,,,,,,,,,,,,,,,,,,,,,,,,,,"MET11404/24/20 06:41:02 SPECI KNYC 241141Z 05009KT 1 3/4SM -RA BR OVC006 07/06 A2973 RMK AO2 RAB20 P0001 T00670061 $ RTX","FM-16","7",,,,,,,,,,,,,,,,,,,,,,,,,,,,
"72505394728","2020-04-24T06:51:00","FM-15","7",,,,,,,,,,,,,,,,,,,,,,,,,,,,,,,,,,,,,,"29.73","43","44","0.01","-RA:02 BR:1 |RA |RA","+0.06","6","96","29.71","OVC:08 6","29.56","2.00","44","050","18","7",,,,,,,,,,,,,,,,,,,,,,,,,,,,,,,,,,,,,"MET15004/24/20 06:51:02 METAR KNYC 241151Z 05006G16KT 2SM -RA BR OVC006 07/06 A2973 RMK AO2 RAB20 SLP060 P0001 60019 70039 T00670061 10067 20056 56022 $ RTX","FM-15","7",,,,,,,,,,,,,,,,,,,,,,,,,,,,
"72505394728","2020-04-24T07:42:00","FM-16","7",,,,,,,,,,,,,,,,,,,,,,,,,,,,,,,,,,,,,,"29.73","43","45","0.01","BR:1 ||",,,"93",,"OVC:08 6","29.56","3.00","44","050","21","15",,,,,,,,,,,,,,,,,,,,,,,,,,,,,,,,,,,,,"MET10904/24/20 07:42:02 SPECI KNYC 241242Z 05013G18KT 3SM BR OVC006 07/06 A2973 RMK AO2 RAE42 P0001 T00720061 $ RTX","FM-16","7",,,,,,,,,,,,,,,,,,,,,,,,,,,,
"72505394728","2020-04-24T07:51:00","FM-15","7",,,,,,,,,,,,,,,,,,,,,,,,,,,,,,,,,,,,,,"29.73","44","45","0.02","-RA:02 BR:1 |RA |RA",,,"97","29.70","OVC:08 6","29.56","3.00","45","040",,"11",,,,,,,,,,,,,,,,,,,,,,,,,,,,,,,,,,,,,"MET13204/24/20 07:51:02 METAR KNYC 241251Z 04010KT 3SM -RA BR OVC006 07/07 A2973 RMK AO2 RAE42B44 CIG 005V010 SLP059 P0001 T00720067 $ RTX","FM-15","7",,,,,,,,,,,,,,,,,,,,,,,,,,,,
"72505394728","2020-04-24T07:58:00","FM-16","7",,,,,,,,,,,,,,,,,,,,,,,,,,,,,,,,,,,,,,"29.74","44","45","0.01","-RA:02 BR:1 |RA |RA",,,"97",,"OVC:08 6","29.57","2.00","45","040",,"10",,,,,,,,,,,,,,,,,,,,,,,,,,,,,,,,,,,,,"MET11604/24/20 07:58:02 SPECI KNYC 241258Z 04009KT 2SM -RA BR OVC006 07/07 A2974 RMK AO2 CIG 005V010 P0001 T00720067 $ RTX","FM-16","7",,,,,,,,,,,,,,,,,,,,,,,,,,,,
"72505394728","2020-04-24T08:09:00","FM-16","7",,,,,,,,,,,,,,,,,,,,,,,,,,,,,,,,,,,,,,"29.73","44","45","0.01","RA:02 BR:1 |RA |RA",,,"97",,"OVC:08 7","29.56","1.25","45","040","16","9",,,,,,,,,,,,,,,,,,,,,,,,,,,,,,,,,,,,,"MET11004/24/20 08:09:02 SPECI KNYC 241309Z 04008G14KT 1 1/4SM RA BR OVC007 07/07 A2973 RMK AO2 P0001 T00720067 $ RTX","FM-16","7",,,,,,,,,,,,,,,,,,,,,,,,,,,,
"72505394728","2020-04-24T08:49:00","FM-16","6",,,,,,,,,,,,,,,,,,,,,,,,,,,,,,,,,,,,,,"29.72","45","46",,"RA:02 BR:1 |RA |RA",,,"93",,"OVC:08 6","29.55","2.00","46","VRB","21","13",,,,,,,,,,,,,,,,,,,,,,,,,,,,,,,,,,,,,"MET09704/24/20 08:49:02 SPECI KNYC 241349Z 06011G18KT 2SM RA BR OVC006 08/07 A2972 RMK AO2 P0011 $ FIBI","FM-16","6",,,,,,,,,,,,,,,,,,,,,,,,,,,,
"72505394728","2020-04-24T08:51:00","FM-15","6",,,,,,,,,,,,,,,,,,,,,,,,,,,,,,,,,,,,,,"29.72","44","46","0.11","RA:02 BR:1 |RA |RA",,,"93","29.70","OVC:08 6","29.55","2.00","45","VRB","23","15",,,,,,,,,,,,,,,,,,,,,,,,,,,,,,,,,,,,,"MET10904/24/20 08:51:02 METAR KNYC 241351Z 07013G20KT 2SM RA BR OVC006 08/07 A2972 RMK AO2 SLP056 P0011 T00780067 $","FM-15","6",,,,,,,,,,,,,,,,,,,,,,,,,,,,
"72505394728","2020-04-24T09:05:00","FM-16","6",,,,,,,,,,,,,,,,,,,,,,,,,,,,,,,,,,,,,,"29.72","44","46",,"-RA:02 BR:1 |RA |RA",,,"93",,"OVC:08 7","29.55","4.00","45","060","17","13",,,,,,,,,,,,,,,,,,,,,,,,,,,,,,,,,,,,,"MET11204/24/20 09:05:02 SPECI KNYC 241405Z 06011G15KT 4SM -RA BR OVC007 08/07 A2972 RMK AO2 P0002 T00780067 $ RTX FIBI","FM-16","6",,,,,,,,,,,,,,,,,,,,,,,,,,,,
"72505394728","2020-04-24T09:40:00","FM-16","6",,,,,,,,,,,,,,,,,,,,,,,,,,,,,,,,,,,,,,"29.70","44","46",,"-RA:02 BR:1 |RA |RA",,,"93",,"OVC:08 8","29.53","2.50","45","VRB","20","11",,,,,,,,,,,,,,,,,,,,,,,,,,,,,,,,,,,,,"MET11804/24/20 09:40:02 SPECI KNYC 241440Z 06010G17KT 2 1/2SM -RA BR OVC008 08/07 A2970 RMK AO2 PRESFR P0005 T00780067 $ RTX","FM-16","6",,,,,,,,,,,,,,,,,,,,,,,,,,,,
"72505394728","2020-04-24T09:48:00","FM-16","6",,,,,,,,,,,,,,,,,,,,,,,,,,,,,,,,,,,,,,"29.69","45","46",,"-RA:02 BR:1 |RA |RA",,,"93",,"OVC:08 8","29.52","4.00","46","060","28","10",,,,,,,,,,,,,,,,,,,,,,,,,,,,,,,,,,,,,"MET10204/24/20 09:48:02 SPECI KNYC 241448Z 06009G24KT 4SM -RA BR OVC008 08/07 A2969 RMK AO2 P0006 $ RTX FIBI","FM-16","6",,,,,,,,,,,,,,,,,,,,,,,,,,,,
"72505394728","2020-04-24T09:51:00","FM-15","6",,,,,,,,,,,,,,,,,,,,,,,,,,,,,,,,,,,,,,"29.70","45","46","0.05","-RA:02 BR:1 |RA |RA","+0.03","5","96","29.67","OVC:08 8","29.53","5.00","46","VRB","28","6",,,,,,,,,,,,,,,,,,,,,,,,,,,,,,,,,,,,,"MET12204/24/20 09:51:02 METAR KNYC 241451Z VRB05G24KT 5SM -RA BR OVC008 08/07 A2970 RMK AO2 SLP048 P0006 60018 T00780072 55011 $","FM-15","6",,,,,,,,,,,,,,,,,,,,,,,,,,,,
"72505394728","2020-04-24T10:51:00","FM-15","7",,,,,,,,,,,,,,,,,,,,,,,,,,,,,,,,,,,,,,"29.71","44","47","0.01","-RA:02 |RA |RA",,,"90","29.68","OVC:08 9","29.54","9.00","46","070","25","16",,,,,,,,,,,,,,,,,,,,,,,,,,,,,,,,,,,,,"MET12304/24/20 10:51:02 METAR KNYC 241551Z 07014G22KT 9SM -RA OVC009 08/07 A2971 RMK AO2 CIG 008V012 SLP051 P0001 T00830067 $ RTX","FM-15","7",,,,,,,,,,,,,,,,,,,,,,,,,,,,
"72505394728","2020-04-24T11:26:00","FM-16","7",,,,,,,,,,,,,,,,,,,,,,,,,,,,,,,,,,,,,,"29.71","45","47","T",,,,"93",,"OVC:08 10","29.54","9.00","46","040","18","11",,,,,,,,,,,,,,,,,,,,,,,,,,,,,,,,,,,,,"MET10604/24/20 11:26:02 SPECI KNYC 241626Z 04010G16KT 9SM OVC010 08/07 A2971 RMK AO2 RAE18 P0000 T00830072 $ RTX","FM-16","7",,,,,,,,,,,,,,,,,,,,,,,,,,,,
"72505394728","2020-04-24T11:51:00","FM-15","7",,,,,,,,,,,,,,,,,,,,,,,,,,,,,,,,,,,,,,"29.71","45","47","T",,,,"93","29.69","OVC:08 10","29.54","9.00","46","VRB","23","9",,,,,,,,,,,,,,,,,,,,,,,,,,,,,,,,,,,,,"MET11304/24/20 11:51:02 METAR KNYC 241651Z 05008G20KT 9SM OVC010 08/07 A2971 RMK AO2 RAE18 SLP053 P0000 T00830072 $ RTX","FM-15","7",,,,,,,,,,,,,,,,,,,,,,,,,,,,
"72505394728","2020-04-24T12:51:00","FM-15","7",,,,,,,,,,,,,,,,,,,,,,,,,,,,,,,,,,,,,,"29.71","44","47","0.02",,"-0.01","1","90","29.69","OVC:08 10","29.54","7.00","46","VRB","16","7",,,,,,,,,,,,,,,,,,,,,,,,,,,,,,,,,,,,,"MET15404/24/20 12:51:02 METAR KNYC 241751Z VRB06G14KT 7SM OVC010 08/07 A2971 RMK AO2 RAB1653E51 CIG 007V012 SLP053 P0002 60021 T00830067 10089 20067 51005 $ RTX","FM-15","7",,,,,,,,,,,,,,,,,,,,,,,,,,,,
"72505394728","2020-04-24T13:51:00","FM-15","7",,,,,,,,,,,,,,,,,,,,,,,,,,,,,,,,,,,,,,"29.73","44","48","T",,,,"86","29.71","OVC:08 12","29.56","10.00","46","020","16","10",,,,,,,,,,,,,,,,,,,,,,,,,,,,,,,,,,,,,"MET11504/24/20 13:51:02 METAR KNYC 241851Z 02009G14KT 10SM OVC012 09/07 A2973 RMK AO2 RAB1754E16 SLP060 P0000 T00890067 $","FM-15","7",,,,,,,,,,,,,,,,,,,,,,,,,,,,
"72505394728","2020-04-24T14:51:00","FM-15","7",,,,,,,,,,,,,,,,,,,,,,,,,,,,,,,,,,,,,,"29.75","45","48","0.00","BR:1 ||",,,"89","29.72","OVC:08 10","29.58","6.00","47","010",,"8",,,,,,,,,,,,,,,,,,,,,,,,,,,,,,,,,,,,,"MET11304/24/20 14:51:02 METAR KNYC 241951Z 01007KT 6SM BR OVC010 09/07 A2975 RMK AO2 CIG 009V013 SLP065 T00890072 $ RTX","FM-15","7",,,,,,,,,,,,,,,,,,,,,,,,,,,,
"72505394728","2020-04-24T15:45:00","FM-16","7",,,,,,,,,,,,,,,,,,,,,,,,,,,,,,,,,,,,,,"29.76","46","48","T","-RA:02 BR:1 |RA |RA",,,"94",,"BKN:07 8 OVC:08 15","29.59","2.50","47","040",,"5",,,,,,,,,,,,,,,,,,,,,,,,,,,,,,,,,,,,,"MET12304/24/20 15:45:02 SPECI KNYC 242045Z 04004KT 2 1/2SM -RA BR BKN008 OVC015 09/08 A2976 RMK AO2 RAB07 CIG 006V012 P0000 $ RTX","FM-16","7",,,,,,,,,,,,,,,,,,,,,,,,,,,,
"72505394728","2020-04-24T15:51:00","FM-15","7",,,,,,,,,,,,,,,,,,,,,,,,,,,,,,,,,,,,,,"29.76","47","48","0.01","-RA:02 BR:1 |RA |RA","-0.05","1","96","29.74","BKN:07 8 OVC:08 13","29.59","2.50","48","VRB",,"6",,,,,,,,,,,,,,,,,,,,,,,,,,,,,,,,,,,,,"MET15204/24/20 15:51:02 METAR KNYC 242051Z VRB05KT 2 1/2SM -RA BR BKN008 OVC013 09/08 A2976 RMK AO2 RAB07 CIG 005V012 SLP070 P0001 60001 T00890083 51017 $ RTX","FM-15","7",,,,,,,,,,,,,,,,,,,,,,,,,,,,
"72505394728","2020-04-24T16:03:00","FM-16","7",,,,,,,,,,,,,,,,,,,,,,,,,,,,,,,,,,,,,,"29.76","46","48","T","-RA:02 BR:1 |RA |RA",,,"93",,"BKN:07 8 OVC:08 14","29.59","3.00","47","VRB",,"8",,,,,,,,,,,,,,,,,,,,,,,,,,,,,,,,,,,,,"MET12304/24/20 16:03:02 SPECI KNYC 242103Z 36007KT 3SM -RA BR BKN008 OVC014 09/08 A2976 RMK AO2 CIG 005V011 P0000 T00890078 $ RTX","FM-16","7",,,,,,,,,,,,,,,,,,,,,,,,,,,,
"72505394728","2020-04-24T16:51:00","FM-15","7",,,,,,,,,,,,,,,,,,,,,,,,,,,,,,,,,,,,,,"29.78","46","48","T",,,,"93","29.76","BKN:07 9 OVC:08 15","29.61","10.00","47","VRB",,"8",,,,,,,,,,,,,,,,,,,,,,,,,,,,,,,,,,,,,"MET12604/24/20 16:51:02 METAR KNYC 242151Z 36007KT 10SM BKN009 OVC015 09/08 A2978 RMK AO2 RAE06 CIG 008V012 SLP077 P0000 T00890078 $","FM-15","7",,,,,,,,,,,,,,,,,,,,,,,,,,,,
"72505394728","2020-04-24T16:59:00","FM-16","7",,,,,,,,,,,,,,,,,,,,,,,,,,,,,,,,,,,,,,"29.78","46","48",,,,,"93",,"OVC:08 11","29.61","10.00","47",,,,,,,,,,,,,,,,,,,,,,,,,,,,,,,,,,,,,,,,"MET09204/24/20 16:59:02 SPECI KNYC 242159Z      KT 10SM OVC011 09/08 A2978 RMK AO2 T00890078 $ RTX","FM-16","7",,,,,,,,,,,,,,,,,,,,,,,,,,,,
"72505394728","2020-04-24T17:51:00","FM-15","7",,,,,,,,,,,,,,,,,,,,,,,,,,,,,,,,,,,,,,"29.80","45","48","0.00",,,,"89","29.78",,,"10.00",,"020",,"8",,,,,,,,,,,,,,,,,,,,,,,,,,,,,,,,,,,,,"MET05304/24/20 17:51:02 METAR KNYC 242251Z 02007KT 10SM RMK","FM-15","7",,,,,,,,,,,,,,,,,,,,,,,,,,,,
"72505394728","2020-04-24T18:16:00","FM-16","7",,,,,,,,,,,,,,,,,,,,,,,,,,,,,,,,,,,,,,"29.81","44","48",,,,,"86",,"BKN:07 15 BKN:07 28 OVC:08 33","29.64","10.00","46","VRB",,"7",,,,,,,,,,,,,,,,,,,,,,,,,,,,,,,,,,,,,"MET10604/24/20 18:16:02 SPECI KNYC 242316Z VRB06KT 10SM BKN015 BKN028 OVC033 09/07 A2981 RMK AO2 T00890067 $ RTX","FM-16","7",,,,,,,,,,,,,,,,,,,,,,,,,,,,
"72505394728","2020-04-24T18:51:00","FM-15","7",,,,,,,,,,,,,,,,,,,,,,,,,,,,,,,,,,,,,,"29.84","45","49","0.00",,"-0.07","3","86","29.81","BKN:07 19 OVC:08 36","29.67","10.00","47","030",,"5",,,,,,,,,,,,,,,,,,,,,,,,,,,,,,,,,,,,,"MET13004/24/20 18:51:02 METAR KNYC 242351Z 03004KT 10SM BKN019 OVC036 09/07 A2984 RMK AO2 SLP095 60001 T00940072 10094 20083 53024 $ RTX","FM-15","7",,,,,,,,,,,,,,,,,,,,,,,,,,,,
"72505394728","2020-04-24T19:20:00","FM-16","7",,,,,,,,,,,,,,,,,,,,,,,,,,,,,,,,,,,,,,"29.84","44","49",,,,,"83",,"SCT:04 20 OVC:08 37","29.67","10.00","47","000",,"0",,,,,,,,,,,,,,,,,,,,,,,,,,,,,,,,,,,,,"MET09504/24/20 19:20:01 SPECI KNYC 250020Z 00000KT 10SM SCT020 OVC037 09/07 A2984 RMK AO2 T00940067 $","FM-16","7",,,,,,,,,,,,,,,,,,,,,,,,,,,,
"72505394728","2020-04-24T19:51:00","FM-15","7",,,,,,,,,,,,,,,,,,,,,,,,,,,,,,,,,,,,,,"29.86","44","48","0.00",,,,"86","29.83","BKN:07 14 BKN:07 39 OVC:08 85","29.69","10.00","46","VRB",,"5",,,,,,,,,,,,,,,,,,,,,,,,,,,,,,,,,,,,,"MET10904/24/20 19:51:01 METAR KNYC 250051Z VRB04KT 10SM BKN014 BKN039 OVC085 09/07 A2986 RMK AO2 SLP102 T00890067 $","FM-15","7",,,,,,,,,,,,,,,,,,,,,,,,,,,,
"72505394728","2020-04-24T20:42:00","FM-16","6",,,,,,,,,,,,,,,,,,,,,,,,,,,,,,,,,,,,,,"29.89","43","47",,,,,"86",,"SCT:04 13","29.72","10.00","45","VRB",,"3",,,,,,,,,,,,,,,,,,,,,,,,,,,,,,,,,,,,,"MET09704/24/20 20:42:03 SPECI KNYC 250142Z VRB03KT 10SM SCT013 08/06 A2989 RMK AO2 T00830061 $ RTX FIBI","FM-16","6",,,,,,,,,,,,,,,,,,,,,,,,,,,,
"72505394728","2020-04-24T20:51:00","FM-15","7",,,,,,,,,,,,,,,,,,,,,,,,,,,,,,,,,,,,,,"29.89","43","47","0.00",,,,"86","29.87","CLR:00","29.72","10.00","45","000",,"0",,,,,,,,,,,,,,,,,,,,,,,,,,,,,,,,,,,,,"MET09204/24/20 20:51:01 METAR KNYC 250151Z 00000KT 10SM CLR 08/06 A2989 RMK AO2 SLP115 T00830061 $","FM-15","7",,,,,,,,,,,,,,,,,,,,,,,,,,,,
"72505394728","2020-04-24T21:51:00","FM-15","7",,,,,,,,,,,,,,,,,,,,,,,,,,,,,,,,,,,,,,"29.90","43","47","0.00",,"-0.07","1","86","29.88","CLR:00","29.73","10.00","45","000",,"0",,,,,,,,,,,,,,,,,,,,,,,,,,,,,,,,,,,,,"MET09804/24/20 21:51:02 METAR KNYC 250251Z 00000KT 10SM CLR 08/06 A2990 RMK AO2 SLP118 T00830061 51023 $","FM-15","7",,,,,,,,,,,,,,,,,,,,,,,,,,,,
"72505394728","2020-04-24T22:51:00","FM-15","7",,,,,,,,,,,,,,,,,,,,,,,,,,,,,,,,,,,,,,"29.92","43","47","0.00",,,,"86","29.89","CLR:00","29.75","10.00","45","000",,"0",,,,,,,,,,,,,,,,,,,,,,,,,,,,,,,,,,,,,"MET09204/24/20 22:51:02 METAR KNYC 250351Z 00000KT 10SM CLR 08/06 A2992 RMK AO2 SLP123 T00830061 $","FM-15","7",,,,,,,,,,,,,,,,,,,,,,,,,,,,
"72505394728","2020-04-24T23:51:00","FM-15","6",,,,,,,,,,,,,,,,,,,,,,,,,,,,,,,,,,,,,,"29.94","42","46","0.00",,,,"86","29.91","CLR:00","29.77","10.00","44","000",,"0",,,,,,,,,,,,,,,,,,,,,,,,,,,,,,,,,,,,,"MET11104/24/20 23:51:03 METAR KNYC 250451Z 00000KT 10SM CLR 08/06 A2994 RMK AO2 SLP129 T00780056 400940056 $ RTX FIBI","FM-15","6",,,,,,,,,,,,,,,,,,,,,,,,,,,,
"72505394728","2020-04-24T23:59:00","SOD  ","6",,,,,,,,,,,,,,,,"46",,,"29.62",,"7.2","0","-10.0","19","49","42","060s","27s","0.48","0","0.0","050","17","RA BR",,,,,,,,,,,,,,,,,,,,,,,,,,,,,,,,,,,,,,,,,,,,,,,,,,,,,,,,"SOD76024 HR PRECIPITATION (IN): 0.48 SNOW DEPTH (IN):0     24 HR SNOWFALL (IN):0.0  WEATHER(CODE):1  24 HR MAX TEMP (F): 4924 HR MIN TEMP (F): 42AVERAGE STATION PRESSURE(D):29.618 MINIMUM SEA LEVEL PRESSURE:29.66 TIME OF OCCURRENCE:0946 PEAK WIND SPEED (MPH): 27 PEAK WIND DIR (DEG): 60 PEAK WIND TIME (LST):      FASTEST 2MIN SPEED (MPH): 17FASTEST 2MIN DIR (DEG): 50 FASTEST 2MIN TIME (LST):     AVERAGE WIND SPEED (MPH): 7.2 24 HR AVG TEMP (F): 46DEPART FROM NORMAL:-10  HEATING DEGREE DAYS: 19 COOLING DEGREE DAYS:  0 LATEST DAY MAX TEMP (0700-1900 LST): 49 LATEST NIGHT MIN TEMP(1900-0800 LST):42 HOURLY INCREMENTAL PRECIPITATION VALUES (IN):0.07 0.07 0.04 0.05 0.02 0.00 0.01 0.02 0.11 0.05 0.01T     0.02T     0.00 0.01T     0.00 0.00 0.00 0.00 0.00 0.00 0.00","SOD  ","6",,,,,,,,,,,,,,,,,,,,,,,,,"0503","1846",,
"72505394728","2020-04-25T00:51:00","FM-15","7",,,,,,,,,,,,,,,,,,,,,,,,,,,,,,,,,,,,,,"29.94","41","45","0.00",,"-0.04","1","86","29.92","CLR:00","29.77","10.00","43","000",,"0",,,,,,,,,,,,,,,,,,,,,,,,,,,,,,,,,,,,,"MET11404/25/20 00:51:02 METAR KNYC 250551Z 00000KT 10SM CLR 07/05 A2994 RMK AO2 SLP132 T00720050 10094 20072 51013 $ RTX","FM-15","7",,,,,,,,,,,,,,,,,,,,,,,,,,,,
"72505394728","2020-04-25T01:51:00","FM-15","7",,,,,,,,,,,,,,,,,,,,,,,,,,,,,,,,,,,,,,"29.95","41","45","0.00",,,,"86","29.92","CLR:00","29.78","10.00","43","000",,"0",,,,,,,,,,,,,,,,,,,,,,,,,,,,,,,,,,,,,"MET09604/25/20 01:51:02 METAR KNYC 250651Z 00000KT 10SM CLR 07/05 A2995 RMK AO2 SLP132 T00720050 $ RTX","FM-15","7",,,,,,,,,,,,,,,,,,,,,,,,,,,,
"72505394728","2020-04-25T02:51:00","FM-15","7",,,,,,,,,,,,,,,,,,,,,,,,,,,,,,,,,,,,,,"29.96","41","45","0.00",,,,"86","29.94","CLR:00","29.79","10.00","43","000",,"0",,,,,,,,,,,,,,,,,,,,,,,,,,,,,,,,,,,,,"MET09604/25/20 02:51:02 METAR KNYC 250751Z 00000KT 10SM CLR 07/05 A2996 RMK AO2 SLP138 T00720050 $ RTX","FM-15","7",,,,,,,,,,,,,,,,,,,,,,,,,,,,
"72505394728","2020-04-25T03:51:00","FM-15","7",,,,,,,,,,,,,,,,,,,,,,,,,,,,,,,,,,,,,,"29.99","41","45","0.00",,"-0.04","3","86","29.96","CLR:00","29.82","10.00","43","000",,"0",,,,,,,,,,,,,,,,,,,,,,,,,,,,,,,,,,,,,"MET10204/25/20 03:51:02 METAR KNYC 250851Z 00000KT 10SM CLR 07/05 A2999 RMK AO2 SLP146 T00720050 53015 $ RTX","FM-15","7",,,,,,,,,,,,,,,,,,,,,,,,,,,,
"72505394728","2020-04-25T04:51:00","FM-15","7",,,,,,,,,,,,,,,,,,,,,,,,,,,,,,,,,,,,,,"30.01","40","44","0.00",,,,"85","29.98","CLR:00","29.84","10.00","42","000",,"0",,,,,,,,,,,,,,,,,,,,,,,,,,,,,,,,,,,,,"MET09204/25/20 04:51:02 METAR KNYC 250951Z 00000KT 10SM CLR 07/04 A3001 RMK AO2 SLP153 T00670044 $","FM-15","7",,,,,,,,,,,,,,,,,,,,,,,,,,,,
"72505394728","2020-04-25T05:51:00","FM-15","7",,,,,,,,,,,,,,,,,,,,,,,,,,,,,,,,,,,,,,"30.03","41","45","0.00",,,,"86","30.01","FEW:02 24","29.86","10.00","43","000",,"0",,,,,,,,,,,,,,,,,,,,,,,,,,,,,,,,,,,,,"MET09504/25/20 05:51:02 METAR KNYC 251051Z 00000KT 10SM FEW024 07/05 A3003 RMK AO2 SLP161 T00720050 $","FM-15","7",,,,,,,,,,,,,,,,,,,,,,,,,,,,
"72505394728","2020-04-25T06:51:00","FM-15","7",,,,,,,,,,,,,,,,,,,,,,,,,,,,,,,,,,,,,,"30.06","42","48","0.00",,"-0.07","3","80","30.03","CLR:00","29.89","10.00","45","000",,"0",,,,,,,,,,,,,,,,,,,,,,,,,,,,,,,,,,,,,"MET12004/25/20 06:51:02 METAR KNYC 251151Z 00000KT 10SM CLR 09/06 A3006 RMK AO2 SLP170 70022 T00890056 10089 20067 53023 $ RTX","FM-15","7",,,,,,,,,,,,,,,,,,,,,,,,,,,,
"72505394728","2020-04-25T07:20:00","FM-16","7",,,,,,,,,,,,,,,,,,,,,,,,,,,,,,,,,,,,,,"30.06","41","50",,,,,"71",,"BKN:07 20","29.89","10.00","46","000",,"0",,,,,,,,,,,,,,,,,,,,,,,,,,,,,,,,,,,,,"MET09204/25/20 07:20:02 SPECI KNYC 251220Z 00000KT 10SM BKN020 10/05 A3006 RMK AO2 T01000050 $ RTX","FM-16","7",,,,,,,,,,,,,,,,,,,,,,,,,,,,
"72505394728","2020-04-25T07:37:00","FM-16","6",,,,,,,,,,,,,,,,,,,,,,,,,,,,,,,,,,,,,,"30.07","42","50",,,,,"74",,"SCT:04 20","29.90","10.00","46","300",,"3",,,,,,,,,,,,,,,,,,,,,,,,,,,,,,,,,,,,,"MET09704/25/20 07:37:02 SPECI KNYC 251237Z 30003KT 10SM SCT020 10/06 A3007 RMK AO2 T01000056 $ RTX FIBI","FM-16","6",,,,,,,,,,,,,,,,,,,,,,,,,,,,
"72505394728","2020-04-25T07:51:00","FM-15","7",,,,,,,,,,,,,,,,,,,,,,,,,,,,,,,,,,,,,,"30.07","41","50","0.00",,,,"71","30.05","FEW:02 22","29.90","10.00","46","000",,"0",,,,,,,,,,,,,,,,,,,,,,,,,,,,,,,,,,,,,"MET09504/25/20 07:51:02 METAR KNYC 251251Z 00000KT 10SM FEW022 10/05 A3007 RMK AO2 SLP175 T01000050 $","FM-15","7",,,,,,,,,,,,,,,,,,,,,,,,,,,,
"72505394728","2020-04-25T08:05:00","FM-16","7",,,,,,,,,,,,,,,,,,,,,,,,,,,,,,,,,,,,,,"30.08","42","52",,,,,"69",,"BKN:07 24","29.91","10.00","47","000",,"0",,,,,,,,,,,,,,,,,,,,,,,,,,,,,,,,,,,,,"MET09204/25/20 08:05:02 SPECI KNYC 251305Z 00000KT 10SM BKN024 11/06 A3008 RMK AO2 T01110056 $ RTX","FM-16","7",,,,,,,,,,,,,,,,,,,,,,,,,,,,
"72505394728","2020-04-25T08:51:00","FM-15","7",,,,,,,,,,,,,,,,,,,,,,,,,,,,,,,,,,,,,,"30.07","38","54","0.00",,,,"55","30.05","BKN:07 24","29.90","10.00","46","000",,"0",,,,,,,,,,,,,,,,,,,,,,,,,,,,,,,,,,,,,"MET09904/25/20 08:51:02 METAR KNYC 251351Z 00000KT 10SM BKN024 12/03 A3007 RMK AO2 SLP176 T01220033 $ RTX","FM-15","7",,,,,,,,,,,,,,,,,,,,,,,,,,,,
"72505394728","2020-04-25T08:58:00","FM-16","7",,,,,,,,,,,,,,,,,,,,,,,,,,,,,,,,,,,,,,"30.07","39","55",,,,,"55",,"FEW:02 26","29.90","10.00","47","VRB",,"3",,,,,,,,,,,,,,,,,,,,,,,,,,,,,,,,,,,,,"MET09204/25/20 08:58:02 SPECI KNYC 251358Z VRB03KT 10SM FEW026 13/04 A3007 RMK AO2 T01280039 $ RTX","FM-16","7",,,,,,,,,,,,,,,,,,,,,,,,,,,,
"72505394728","2020-04-25T09:51:00","FM-15","7",,,,,,,,,,,,,,,,,,,,,,,,,,,,,,,,,,,,,,"30.09","44","58","0.00",,"-0.03","1","60","30.06","CLR:00","29.92","10.00","51","310",,"3",,,,,,,,,,,,,,,,,,,,,,,,,,,,,,,,,,,,,"MET10204/25/20 09:51:02 METAR KNYC 251451Z 31003KT 10SM CLR 14/07 A3009 RMK AO2 SLP180 T01440067 51010 $ RTX","FM-15","7",,,,,,,,,,,,,,,,,,,,,,,,,,,,
"72505394728","2020-04-25T10:51:00","FM-15","7",,,,,,,,,,,,,,,,,,,,,,,,,,,,,,,,,,,,,,"30.08","44","62","0.00",,,,"52","30.05","CLR:00","29.91","10.00","53","010",,"5",,,,,,,,,,,,,,,,,,,,,,,,,,,,,,,,,,,,,"MET09204/25/20 10:51:02 METAR KNYC 251551Z 01004KT 10SM CLR 17/07 A3008 RMK AO2 SLP176 T01670067 $","FM-15","7",,,,,,,,,,,,,,,,,,,,,,,,,,,,
"72505394728","2020-04-25T11:51:00","FM-15","7",,,,,,,,,,,,,,,,,,,,,,,,,,,,,,,,,,,,,,"30.09","43","64","0.00",,,,"46","30.06","SCT:04 39","29.92","10.00","53","VRB",,"3",,,,,,,,,,,,,,,,,,,,,,,,,,,,,,,,,,,,,"MET09904/25/20 11:51:02 METAR KNYC 251651Z VRB03KT 10SM SCT039 18/06 A3009 RMK AO2 SLP180 T01780061 $ RTX","FM-15","7",,,,,,,,,,,,,,,,,,,,,,,,,,,,
"72505394728","2020-04-25T12:51:00","FM-15","7",,,,,,,,,,,,,,,,,,,,,,,,,,,,,,,,,,,,,,"30.09","43","62","0.00",,"-0.00","3","50","30.06","OVC:08 43","29.92","10.00","52","VRB",,"6",,,,,,,,,,,,,,,,,,,,,,,,,,,,,,,,,,,,,"MET11304/25/20 12:51:02 METAR KNYC 251751Z VRB05KT 10SM OVC043 17/06 A3009 RMK AO2 SLP181 T01670061 10183 20089 53001 $","FM-15","7",,,,,,,,,,,,,,,,,,,,,,,,,,,,
"72505394728","2020-04-25T13:51:00","FM-15","7",,,,,,,,,,,,,,,,,,,,,,,,,,,,,,,,,,,,,,"30.08","41","62","0.00",,,,"46","30.06","OVC:08 60","29.91","10.00","51","150",,"6",,,,,,,,,,,,,,,,,,,,,,,,,,,,,,,,,,,,,"MET09904/25/20 13:51:02 METAR KNYC 251851Z 15005KT 10SM OVC060 17/05 A3008 RMK AO2 SLP179 T01670050 $ RTX","FM-15","7",,,,,,,,,,,,,,,,,,,,,,,,,,,,
"72505394728","2020-04-25T14:51:00","FM-15","7",,,,,,,,,,,,,,,,,,,,,,,,,,,,,,,,,,,,,,"30.06","35","62","0.00",,,,"37","30.04","CLR:00","29.89","10.00","49","140",,"8",,,,,,,,,,,,,,,,,,,,,,,,,,,,,,,,,,,,,"MET09604/25/20 14:51:02 METAR KNYC 251951Z 14007KT 10SM CLR 17/02 A3006 RMK AO2 SLP173 T01670017 $ RTX","FM-15","7",,,,,,,,,,,,,,,,,,,,,,,,,,,,
"72505394728","2020-04-25T15:51:00","FM-15","7",,,,,,,,,,,,,,,,,,,,,,,,,,,,,,,,,,,,,,"30.06","33","61","0.00",,"+0.03","8","35","30.03","CLR:00","29.89","10.00","48","VRB",,"6",,,,,,,,,,,,,,,,,,,,,,,,,,,,,,,,,,,,,"MET10204/25/20 15:51:02 METAR KNYC 252051Z VRB05KT 10SM CLR 16/01 A3006 RMK AO2 SLP170 T01610006 58011 $ RTX","FM-15","7",,,,,,,,,,,,,,,,,,,,,,,,,,,,
"72505394728","2020-04-25T16:51:00","FM-15","7",,,,,,,,,,,,,,,,,,,,,,,,,,,,,,,,,,,,,,"30.07","26","59","0.00",,,,"28","30.05","CLR:00","29.90","10.00","45","140","20","11",,,,,,,,,,,,,,,,,,,,,,,,,,,,,,,,,,,,,"MET10504/25/20 16:51:02 METAR KNYC 252151Z 14010G17KT 10SM CLR 15/M03 A3007 RMK AO2 SLP176 T01501033 $ RTX FIBI","FM-15","7",,,,,,,,,,,,,,,,,,,,,,,,,,,,
"72505394728","2020-04-25T17:51:00","FM-15","7",,,,,,,,,,,,,,,,,,,,,,,,,,,,,,,,,,,,,,"30.08","24","55","0.00",,,,"30","30.06","CLR:00","29.91","10.00","42",,,,,,,,,,,,,,,,,,,,,,,,,,,,,,,,,,,,,,,,"MET09704/25/20 17:51:02 METAR KNYC 252251Z      KT 10SM CLR 13/M04 A3008 RMK AO2 SLP178 T01281044 $ RTX","FM-15","7",,,,,,,,,,,,,,,,,,,,,,,,,,,,
"72505394728","2020-04-25T18:51:00","FM-15","7",,,,,,,,,,,,,,,,,,,,,,,,,,,,,,,,,,,,,,"30.09","22","53","0.00",,"-0.03","1","30","30.06","CLR:00","29.92","10.00","41","VRB","16","3",,,,,,,,,,,,,,,,,,,,,,,,,,,,,,,,,,,,,"MET11804/25/20 18:51:02 METAR KNYC 252351Z VRB03G14KT 10SM CLR 12/M06 A3009 RMK AO2 SLP181 T01171056 10183 20117 51011 $ RTX","FM-15","7",,,,,,,,,,,,,,,,,,,,,,,,,,,,
"72505394728","2020-04-25T19:51:00","FM-15","7",,,,,,,,,,,,,,,,,,,,,,,,,,,,,,,,,,,,,,"30.11","23","52","0.00",,,,"32","30.08","CLR:00","29.94","10.00","40","160","18","9",,,,,,,,,,,,,,,,,,,,,,,,,,,,,,,,,,,,,"MET09604/25/20 19:51:01 METAR KNYC 260051Z 16008G16KT 10SM CLR 11/M05 A3011 RMK AO2 SLP187 T01111050 $","FM-15","7",,,,,,,,,,,,,,,,,,,,,,,,,,,,
"72505394728","2020-04-25T20:51:00","FM-15","7",,,,,,,,,,,,,,,,,,,,,,,,,,,,,,,,,,,,,,"30.12","30","51","0.00",,,,"44","30.09","CLR:00","29.95","10.00","42","VRB",,"5",,,,,,,,,,,,,,,,,,,,,,,,,,,,,,,,,,,,,"MET09304/25/20 20:51:01 METAR KNYC 260151Z VRB04KT 10SM CLR 11/M01 A3012 RMK AO2 SLP190 T01061011 $","FM-15","7",,,,,,,,,,,,,,,,,,,,,,,,,,,,
"72505394728","2020-04-25T21:51:00","FM-15","7",,,,,,,,,,,,,,,,,,,,,,,,,,,,,,,,,,,,,,"30.10","36","50","0.00",,"-0.01","0","59","30.08","CLR:00","29.93","10.00","44","150",,"10",,,,,,,,,,,,,,,,,,,,,,,,,,,,,,,,,,,,,"MET09804/25/20 21:51:01 METAR KNYC 260251Z 15009KT 10SM CLR 10/02 A3010 RMK AO2 SLP186 T01000022 50005 $","FM-15","7",,,,,,,,,,,,,,,,,,,,,,,,,,,,
"72505394728","2020-04-25T22:51:00","FM-15","7",,,,,,,,,,,,,,,,,,,,,,,,,,,,,,,,,,,,,,"30.11","39","50","0.00",,,,"66","30.08","CLR:00","29.94","10.00","45","000",,"0",,,,,,,,,,,,,,,,,,,,,,,,,,,,,,,,,,,,,"MET09204/25/20 22:51:02 METAR KNYC 260351Z 00000KT 10SM CLR 10/04 A3011 RMK AO2 SLP186 T01000039 $","FM-15","7",,,,,,,,,,,,,,,,,,,,,,,,,,,,
"72505394728","2020-04-25T23:51:00","FM-15","7",,,,,,,,,,,,,,,,,,,,,,,,,,,,,,,,,,,,,,"30.10","39","50","0.00",,,,"66","30.07","CLR:00","29.93","10.00","45","000",,"0",,,,,,,,,,,,,,,,,,,,,,,,,,,,,,,,,,,,,"MET10204/25/20 23:51:02 METAR KNYC 260451Z 00000KT 10SM CLR 10/04 A3010 RMK AO2 SLP184 T01000039 401830067 $","FM-15","7",,,,,,,,,,,,,,,,,,,,,,,,,,,,
"72505394728","2020-04-25T23:59:00","SOD  ","6",,,,,,,,,,,,,,,,"55",,,"29.87",,"3.3","0","-1.3","10","65","44","160","20","0.00","0","0.0","140","14",,,,,,,,,,,,,,,,,,,,,,,,,,,,,,,,,,,,,,,,,,,,,,,,,,,,,,,,,"SOD73924 HR PRECIPITATION (IN): 0.00 SNOW DEPTH (IN):0     24 HR SNOWFALL (IN):0.0  24 HR MAX TEMP (F): 6524 HR MIN TEMP (F): 44AVERAGE STATION PRESSURE:29.870 MINIMUM SEA LEVEL PRESSURE:29.91 TIME OF OCCURRENCE:0117 PEAK WIND SPEED (MPH): 20 PEAK WIND DIR (DEG):160 PEAK WIND TIME (LST):      FASTEST 2MIN SPEED (MPH): 14FASTEST 2MIN DIR (DEG):140 FASTEST 2MIN TIME (LST):     AVERAGE WIND SPEED (MPH): 3.3 24 HR AVG TEMP (F): 55DEPART FROM NORMAL: -1  HEATING DEGREE DAYS: 10 COOLING DEGREE DAYS:  0 LATEST DAY MAX TEMP (0700-1900 LST):65  LATEST NIGHT MIN TEMP(1900-0800 LST):44 HOURLY INCREMENTAL PRECIPITATION VALUES (IN):.00 0.00 0.00 0.00 0.00 0.00 0.00 0.00 0.00 0.00 0.00 0.00 0.00 0.00 0.00 0.00 0.00 0.00 0.00 0.00 0.00 0.00 0.00 0.00","SOD  ","6",,,,,,,,,,,,,,,,,,,,,,,,,"0501","1847",,
"72505394728","2020-04-26T00:51:00","FM-15","7",,,,,,,,,,,,,,,,,,,,,,,,,,,,,,,,,,,,,,"30.09","39","51","0.00",,"+0.01","8","64","30.06","BKN:07 100 OVC:08 120","29.92","10.00","45","120",,"6",,,,,,,,,,,,,,,,,,,,,,,,,,,,,,,,,,,,,"MET12004/26/20 00:51:02 METAR KNYC 260551Z 12005KT 10SM BKN100 OVC120 11/04 A3009 RMK AO2 SLP181 T01060039 10117 20100 58004 $","FM-15","7",,,,,,,,,,,,,,,,,,,,,,,,,,,,
"72505394728","2020-04-26T01:51:00","FM-15","7",,,,,,,,,,,,,,,,,,,,,,,,,,,,,,,,,,,,,,"30.06","41","49","T","-RA:02 |RA |RA",,,"74","30.03","OVC:08 85","29.89","10.00","45","050",,"7",,,,,,,,,,,,,,,,,,,,,,,,,,,,,,,,,,,,,"MET11504/26/20 01:51:02 METAR KNYC 260651Z 05006KT 10SM -RA OVC085 09/05 A3006 RMK AO2 RAB04 SLP171 P0000 T00940050 $ RTX","FM-15","7",,,,,,,,,,,,,,,,,,,,,,,,,,,,
"72505394728","2020-04-26T02:51:00","FM-15","7",,,,,,,,,,,,,,,,,,,,,,,,,,,,,,,,,,,,,,"30.04","41","49","0.00",,,,"74","30.01","SCT:04 75 OVC:08 95","29.87","10.00","45","000",,"0",,,,,,,,,,,,,,,,,,,,,,,,,,,,,,,,,,,,,"MET12004/26/20 02:51:02 METAR KNYC 260751Z 00000KT 10SM SCT075 OVC095 09/05 A3004 RMK AO2 RAE0659 SLP162 P0000 T00940050 $ RTX","FM-15","7",,,,,,,,,,,,,,,,,,,,,,,,,,,,
"72505394728","2020-04-26T03:51:00","FM-15","7",,,,,,,,,,,,,,,,,,,,,,,,,,,,,,,,,,,,,,"30.03","40","49","0.00",,"+0.06","6","71","30.01","OVC:08 80","29.86","10.00","45","100",,"9",,,,,,,,,,,,,,,,,,,,,,,,,,,,,,,,,,,,,"MET11104/26/20 03:51:02 METAR KNYC 260851Z 10008KT 10SM OVC080 09/04 A3003 RMK AO2 SLP162 60000 T00940044 56019 $ RTX","FM-15","7",,,,,,,,,,,,,,,,,,,,,,,,,,,,
"72505394728","2020-04-26T04:51:00","FM-15","7",,,,,,,,,,,,,,,,,,,,,,,,,,,,,,,,,,,,,,"30.02","40","48","T","-RA:02 |RA |RA",,,"74","30.00","OVC:08 70","29.85","10.00","44","VRB",,"8",,,,,,,,,,,,,,,,,,,,,,,,,,,,,,,,,,,,,"MET11104/26/20 04:51:02 METAR KNYC 260951Z 07007KT 10SM -RA OVC070 09/04 A3002 RMK AO2 RAB24 SLP159 P0000 T00890044 $","FM-15","7",,,,,,,,,,,,,,,,,,,,,,,,,,,,
"72505394728","2020-04-26T05:51:00","FM-15","7",,,,,,,,,,,,,,,,,,,,,,,,,,,,,,,,,,,,,,"30.00","38","49","0.00",,,,"66","29.98","OVC:08 60","29.83","10.00","44","060",,"8",,,,,,,,,,,,,,,,,,,,,,,,,,,,,,,,,,,,,"MET10904/26/20 05:51:02 METAR KNYC 261051Z 06007KT 10SM OVC060 09/03 A3000 RMK AO2 RAE0956 SLP152 P0000 T00940033 $","FM-15","7",,,,,,,,,,,,,,,,,,,,,,,,,,,,
"72505394728","2020-04-26T06:51:00","FM-15","7",,,,,,,,,,,,,,,,,,,,,,,,,,,,,,,,,,,,,,"30.00","37","49","0.00",,"+0.03","6","64","29.98","OVC:08 55","29.83","10.00","44","110",,"7",,,,,,,,,,,,,,,,,,,,,,,,,,,,,,,,,,,,,"MET12304/26/20 06:51:02 METAR KNYC 261151Z 11006KT 10SM OVC055 09/03 A3000 RMK AO2 SLP152 60000 T00940028 10106 20089 56010 $ RTX","FM-15","7",,,,,,,,,,,,,,,,,,,,,,,,,,,,
"72505394728","2020-04-26T07:51:00","FM-15","7",,,,,,,,,,,,,,,,,,,,,,,,,,,,,,,,,,,,,,"29.98","38","47","0.01","-RA:02 |RA |RA",,,"71","29.95","OVC:08 65","29.81","10.00","43","VRB",,"6",,,,,,,,,,,,,,,,,,,,,,,,,,,,,,,,,,,,,"MET11104/26/20 07:51:02 METAR KNYC 261251Z VRB05KT 10SM -RA OVC065 08/03 A2998 RMK AO2 RAB09 SLP143 P0001 T00830033 $","FM-15","7",,,,,,,,,,,,,,,,,,,,,,,,,,,,
"72505394728","2020-04-26T08:51:00","FM-15","7",,,,,,,,,,,,,,,,,,,,,,,,,,,,,,,,,,,,,,"29.94","39","49","0.00",,,,"69","29.92","OVC:08 43","29.77","10.00","44","050","18","11",,,,,,,,,,,,,,,,,,,,,,,,,,,,,,,,,,,,,"MET11604/26/20 08:51:02 METAR KNYC 261351Z 05010G16KT 10SM OVC043 09/04 A2994 RMK AO2 RAE1254 SLP131 P0000 T00940039 $ RTX","FM-15","7",,,,,,,,,,,,,,,,,,,,,,,,,,,,
"72505394728","2020-04-26T09:51:00","FM-15","7",,,,,,,,,,,,,,,,,,,,,,,,,,,,,,,,,,,,,,"29.92","39","49","T","-RA:02 |RA |RA","+0.08","6","69","29.90","OVC:08 39","29.75","10.00","44","060","29","15",,,,,,,,,,,,,,,,,,,,,,,,,,,,,,,,,,,,,"MET13504/26/20 09:51:02 METAR KNYC 261451Z 06013G25KT 10SM -RA OVC039 09/04 A2992 RMK AO2 RAB51 SLP124 P0000 60001 T00940039 56028 $ RTX FIBI","FM-15","7",,,,,,,,,,,,,,,,,,,,,,,,,,,,
"72505394728","2020-04-26T10:28:00","FM-16","6",,,,,,,,,,,,,,,,,,,,,,,,,,,,,,,,,,,,,,"29.91","41","47",,"-RA:02 |RA |RA",,,"80",,"OVC:08 28","29.74","5.00","44","060","23","14",,,,,,,,,,,,,,,,,,,,,,,,,,,,,,,,,,,,,"MET10904/26/20 10:28:02 SPECI KNYC 261528Z 06012G20KT 5SM -RA OVC028 08/05 A2991 RMK AO2 P0000 T00830050 $ RTX FIBI","FM-16","6",,,,,,,,,,,,,,,,,,,,,,,,,,,,
"72505394728","2020-04-26T10:51:00","FM-15","7",,,,,,,,,,,,,,,,,,,,,,,,,,,,,,,,,,,,,,"29.90","42","47","T","-RA:02 |RA |RA",,,"83","29.88","OVC:08 27","29.73","7.00","45","VRB","23","10",,,,,,,,,,,,,,,,,,,,,,,,,,,,,,,,,,,,,"MET11104/26/20 10:51:02 METAR KNYC 261551Z 06009G20KT 7SM -RA OVC027 08/06 A2990 RMK AO2 SLP118 P0000 T00830056 $ RTX","FM-15","7",,,,,,,,,,,,,,,,,,,,,,,,,,,,
"72505394728","2020-04-26T11:51:00","FM-15","7",,,,,,,,,,,,,,,,,,,,,,,,,,,,,,,,,,,,,,"29.87","44","48","0.01","-RA:02 BR:1 |RA |RA",,,"86","29.85","FEW:02 11 OVC:08 28","29.70","4.00","46","050","24","18",,,,,,,,,,,,,,,,,,,,,,,,,,,,,,,,,,,,,"MET13004/26/20 11:51:02 METAR KNYC 261651Z 05016G21KT 4SM -RA BR FEW011 OVC028 09/07 A2987 RMK AO2 RAE00B24 SLP108 P0001 T00890067 $ RTX","FM-15","7",,,,,,,,,,,,,,,,,,,,,,,,,,,,
"72505394728","2020-04-26T12:17:00","FM-16","7",,,,,,,,,,,,,,,,,,,,,,,,,,,,,,,,,,,,,,"29.85","44","48","T","-RA:02 BR:1 |RA |RA",,,"86",,"BKN:07 9 BKN:07 15 OVC:08 26","29.68","3.00","46","060","26","10",,,,,,,,,,,,,,,,,,,,,,,,,,,,,,,,,,,,,"MET12104/26/20 12:17:02 SPECI KNYC 261717Z 06009G23KT 3SM -RA BR BKN009 BKN015 OVC026 09/07 A2985 RMK AO2 P0000 T00890067 $ RTX","FM-16","7",,,,,,,,,,,,,,,,,,,,,,,,,,,,
"72505394728","2020-04-26T12:46:00","FM-16","7",,,,,,,,,,,,,,,,,,,,,,,,,,,,,,,,,,,,,,"29.83","45","46","0.01","-RA:02 BR:1 |RA |RA",,,"93",,"OVC:08 7","29.66","2.00","46","VRB","29","10",,,,,,,,,,,,,,,,,,,,,,,,,,,,,,,,,,,,,"MET11504/26/20 12:46:02 SPECI KNYC 261746Z 08009G25KT 2SM -RA BR OVC007 08/07 A2983 RMK AO2 PK WND 05026/1736 P0001 $ RTX","FM-16","7",,,,,,,,,,,,,,,,,,,,,,,,,,,,
"72505394728","2020-04-26T12:51:00","FM-15","7",,,,,,,,,,,,,,,,,,,,,,,,,,,,,,,,,,,,,,"29.83","44","47","0.01","-RA:02 BR:1 |RA |RA","+0.07","6","90","29.80","OVC:08 7","29.66","2.50","46","060","32","21",,,,,,,,,,,,,,,,,,,,,,,,,,,,,,,,,,,,,"MET17204/26/20 12:51:02 METAR KNYC 261751Z 06018G28KT 2 1/2SM -RA BR OVC007 08/07 A2983 RMK AO2 PK WND 05028/1751 CIG 006V011 SLP093 P0001 60003 T00830067 10100 20083 56025 $ RTX","FM-15","7",,,,,,,,,,,,,,,,,,,,,,,,,,,,
"72505394728","2020-04-26T12:59:00","FM-16","7",,,,,,,,,,,,,,,,,,,,,,,,,,,,,,,,,,,,,,"29.83","44","47","T","-RA:02 BR:1 |RA |RA",,,"90",,"OVC:08 7","29.66","4.00","46","060","32","16",,,,,,,,,,,,,,,,,,,,,,,,,,,,,,,,,,,,,"MET11204/26/20 12:59:02 SPECI KNYC 261759Z 06014G28KT 4SM -RA BR OVC007 08/07 A2983 RMK AO2 P0000 T00830067 $ RTX FIBI","FM-16","7",,,,,,,,,,,,,,,,,,,,,,,,,,,,
"72505394728","2020-04-26T13:51:00","FM-15","7",,,,,,,,,,,,,,,,,,,,,,,,,,,,,,,,,,,,,,"29.80","44","46","0.01","-RA:02 BR:1 |RA |RA",,,"93","29.78","OVC:08 7","29.63","5.00","45","060","38","24",,,,,,,,,,,,,,,,,,,,,,,,,,,,,,,,,,,,,"MET13704/26/20 13:51:02 METAR KNYC 261851Z 06021G33KT 5SM -RA BR OVC007 08/07 A2980 RMK AO2 PK WND 05033/1851 SLP083 P0001 T00780067 $ RTX FIBI","FM-15","7",,,,,,,,,,,,,,,,,,,,,,,,,,,,
"72505394728","2020-04-26T14:35:00","FM-16","7",,,,,,,,,,,,,,,,,,,,,,,,,,,,,,,,,,,,,,"29.79","43","46","0.01","-RA:02 BR:1 |RA |RA",,,"89",,"OVC:08 7","29.62","2.50","45","VRB","37","14",,,,,,,,,,,,,,,,,,,,,,,,,,,,,,,,,,,,,"MET12904/26/20 14:35:02 SPECI KNYC 261935Z 06012G32KT 2 1/2SM -RA BR OVC007 08/06 A2979 RMK AO2 PK WND 05032/1857 P0001 T00780061 $ RTX","FM-16","7",,,,,,,,,,,,,,,,,,,,,,,,,,,,
"72505394728","2020-04-26T14:44:00","FM-16","7",,,,,,,,,,,,,,,,,,,,,,,,,,,,,,,,,,,,,,"29.78","44","46","0.02","-RA:02 BR:1 |RA |RA",,,"93",,"OVC:08 7","29.61","3.00","45","VRB","37","18",,,,,,,,,,,,,,,,,,,,,,,,,,,,,,,,,,,,,"MET13004/26/20 14:44:02 SPECI KNYC 261944Z 05016G32KT 3SM -RA BR OVC007 08/07 A2978 RMK AO2 PK WND 07032/1940 P0002 T00780067 $ RTX FIBI","FM-16","7",,,,,,,,,,,,,,,,,,,,,,,,,,,,
"72505394728","2020-04-26T14:51:00","FM-15","7",,,,,,,,,,,,,,,,,,,,,,,,,,,,,,,,,,,,,,"29.78","44","46","0.02","-RA:02 BR:1 |RA |RA",,,"93","29.76","OVC:08 7","29.61","4.00","45","060","40","21",,,,,,,,,,,,,,,,,,,,,,,,,,,,,,,,,,,,,"MET13204/26/20 14:51:02 METAR KNYC 261951Z 06018G35KT 4SM -RA BR OVC007 08/07 A2978 RMK AO2 PK WND 05035/1948 SLP077 P0002 T00780067 $ RTX","FM-15","7",,,,,,,,,,,,,,,,,,,,,,,,,,,,
"72505394728","2020-04-26T15:10:00","FM-16","7",,,,,,,,,,,,,,,,,,,,,,,,,,,,,,,,,,,,,,"29.78","44","46","0.01","-RA:02 BR:1 |RA |RA",,,"93",,"OVC:08 7","29.61","2.50","45","VRB","28","14",,,,,,,,,,,,,,,,,,,,,,,,,,,,,,,,,,,,,"MET12904/26/20 15:10:02 SPECI KNYC 262010Z 06012G24KT 2 1/2SM -RA BR OVC007 08/07 A2978 RMK AO2 PK WND 10027/1952 P0001 T00780067 $ RTX","FM-16","7",,,,,,,,,,,,,,,,,,,,,,,,,,,,
"72505394728","2020-04-26T15:18:00","FM-16","7",,,,,,,,,,,,,,,,,,,,,,,,,,,,,,,,,,,,,,"29.77","44","46","0.01","-RA:02 BR:1 |RA |RA",,,"93",,"OVC:08 7","29.60","3.00","45","050","32","13",,,,,,,,,,,,,,,,,,,,,,,,,,,,,,,,,,,,,"MET12504/26/20 15:18:02 SPECI KNYC 262018Z 05011G28KT 3SM -RA BR OVC007 08/07 A2977 RMK AO2 PK WND 05028/2013 P0001 T00780067 $ RTX","FM-16","7",,,,,,,,,,,,,,,,,,,,,,,,,,,,
"72505394728","2020-04-26T15:51:00","FM-15","7",,,,,,,,,,,,,,,,,,,,,,,,,,,,,,,,,,,,,,"29.76","44","46","0.02","-RA:02 BR:1 |RA |RA","+0.07","6","93","29.74","OVC:08 9","29.59","3.00","45","040","25","9",,,,,,,,,,,,,,,,,,,,,,,,,,,,,,,,,,,,,"MET15204/26/20 15:51:02 METAR KNYC 262051Z 04008G22KT 3SM -RA BR OVC009 08/07 A2976 RMK AO2 PK WND 05028/2013 CIG 006V012 SLP070 P0002 60005 T00780067 56023 $","FM-15","7",,,,,,,,,,,,,,,,,,,,,,,,,,,,
"72505394728","2020-04-26T16:02:00","FM-16","7",,,,,,,,,,,,,,,,,,,,,,,,,,,,,,,,,,,,,,"29.76","44","46","T","-RA:02 BR:1 |RA |RA",,,"93",,"OVC:08 8","29.59","2.50","45","040","18","8",,,,,,,,,,,,,,,,,,,,,,,,,,,,,,,,,,,,,"MET12304/26/20 16:02:02 SPECI KNYC 262102Z 04007G16KT 2 1/2SM -RA BR OVC008 08/07 A2976 RMK AO2 CIG 007V012 P0000 T00780067 $ RTX","FM-16","7",,,,,,,,,,,,,,,,,,,,,,,,,,,,
"72505394728","2020-04-26T16:10:00","FM-16","7",,,,,,,,,,,,,,,,,,,,,,,,,,,,,,,,,,,,,,"29.75","44","46","0.01","-RA:02 BR:1 |RA |RA",,,"93",,"OVC:08 8","29.58","3.00","45","050","23","14",,,,,,,,,,,,,,,,,,,,,,,,,,,,,,,,,,,,,"MET12404/26/20 16:10:02 SPECI KNYC 262110Z 05012G20KT 3SM -RA BR OVC008 08/07 A2975 RMK AO2 CIG 007V011 P0001 T00780067 $ RTX FIBI","FM-16","7",,,,,,,,,,,,,,,,,,,,,,,,,,,,
"72505394728","2020-04-26T16:21:00","FM-16","7",,,,,,,,,,,,,,,,,,,,,,,,,,,,,,,,,,,,,,"29.75","44","46","0.01","RA:02 BR:1 |RA |RA",,,"93",,"OVC:08 8","29.58","1.75","45","050","18","8",,,,,,,,,,,,,,,,,,,,,,,,,,,,,,,,,,,,,"MET11504/26/20 16:21:02 SPECI KNYC 262121Z 05007G16KT 1 3/4SM RA BR OVC008 08/07 A2975 RMK AO2 P0001 T00780067 $ RTX FIBI","FM-16","7",,,,,,,,,,,,,,,,,,,,,,,,,,,,
"72505394728","2020-04-26T16:43:00","FM-16","7",,,,,,,,,,,,,,,,,,,,,,,,,,,,,,,,,,,,,,"29.74","44","46","0.11","-RA:02 BR:1 |RA |RA",,,"93",,"OVC:08 8","29.57","3.00","45","VRB","23","11",,,,,,,,,,,,,,,,,,,,,,,,,,,,,,,,,,,,,"MET10704/26/20 16:43:02 SPECI KNYC 262143Z 05010G20KT 3SM -RA BR OVC008 08/07 A2974 RMK AO2 P0011 T00780067 $ RTX","FM-16","7",,,,,,,,,,,,,,,,,,,,,,,,,,,,
"72505394728","2020-04-26T16:51:00","FM-15","7",,,,,,,,,,,,,,,,,,,,,,,,,,,,,,,,,,,,,,"29.74","45","47","0.11","-RA:02 BR:1 |RA |RA",,,"93","29.71","OVC:08 8","29.57","6.00","46","VRB","21","11",,,,,,,,,,,,,,,,,,,,,,,,,,,,,,,,,,,,,"MET11404/26/20 16:51:02 METAR KNYC 262151Z 05010G18KT 6SM -RA BR OVC008 08/07 A2974 RMK AO2 SLP062 P0011 T00830072 $ RTX","FM-15","7",,,,,,,,,,,,,,,,,,,,,,,,,,,,
"72505394728","2020-04-26T17:49:00","FM-16","6",,,,,,,,,,,,,,,,,,,,,,,,,,,,,,,,,,,,,,"29.76","45","46",,"-RA:02 BR:1 |RA |RA",,,"93",,"OVC:08 10","29.59","4.00","46","VRB","16","7",,,,,,,,,,,,,,,,,,,,,,,,,,,,,,,,,,,,,"MET12104/26/20 17:49:02 SPECI KNYC 262249Z VRB06G14KT 4SM -RA BR OVC010 08/07 A2976 RMK AO2 RAE2156B48 CIG 007V014 P0000 $ FIBI","FM-16","6",,,,,,,,,,,,,,,,,,,,,,,,,,,,
"72505394728","2020-04-26T17:51:00","FM-15","7",,,,,,,,,,,,,,,,,,,,,,,,,,,,,,,,,,,,,,"29.76","44","47","0.01","-RA:02 BR:1 |RA |RA",,,"90","29.73","OVC:08 10","29.59","3.00","46","VRB","20","11",,,,,,,,,,,,,,,,,,,,,,,,,,,,,,,,,,,,,"MET13704/26/20 17:51:02 METAR KNYC 262251Z 03010G17KT 3SM -RA BR OVC010 08/07 A2976 RMK AO2 RAE2156B48 CIG 007V014 SLP068 P0000 T00830067 $ RTX","FM-15","7",,,,,,,,,,,,,,,,,,,,,,,,,,,,
"72505394728","2020-04-26T18:30:00","FM-16","7",,,,,,,,,,,,,,,,,,,,,,,,,,,,,,,,,,,,,,"29.76","44","46","0.01","-RA:02 BR:1 |RA |RA",,,"93",,"BKN:07 9 OVC:08 14","29.59","4.00","45","020","20","5",,,,,,,,,,,,,,,,,,,,,,,,,,,,,,,,,,,,,"MET12604/26/20 18:30:02 SPECI KNYC 262330Z 02004G17KT 4SM -RA BR BKN009 OVC014 08/07 A2976 RMK AO2 CIG 006V011 P0001 T00780067 $ RTX","FM-16","7",,,,,,,,,,,,,,,,,,,,,,,,,,,,
"72505394728","2020-04-26T18:51:00","FM-15","7",,,,,,,,,,,,,,,,,,,,,,,,,,,,,,,,,,,,,,"29.76","44","46","0.01","-RA:02 BR:1 |RA |RA","-0.00","3","93","29.74","BKN:07 8 OVC:08 12","29.59","4.00","45","020",,"7",,,,,,,,,,,,,,,,,,,,,,,,,,,,,,,,,,,,,"MET15904/26/20 18:51:02 METAR KNYC 262351Z 02006KT 4SM -RA BR BKN008 OVC012 08/07 A2976 RMK AO2 CIG 005V009 SLP070 P0002 60018 T00780067 10083 20078 53000 $ RTX FIBI","FM-15","7",,,,,,,,,,,,,,,,,,,,,,,,,,,,
"72505394728","2020-04-26T19:16:00","FM-16","7",,,,,,,,,,,,,,,,,,,,,,,,,,,,,,,,,,,,,,"29.77","43","45","0.01","BR:1 ||",,,"93",,"OVC:08 10","29.60","5.00","44","030","17","10",,,,,,,,,,,,,,,,,,,,,,,,,,,,,,,,,,,,,"MET11704/26/20 19:16:01 SPECI KNYC 270016Z 03009G15KT 5SM BR OVC010 07/06 A2977 RMK AO2 RAE10 CIG 007V014 P0001 T00720061 $","FM-16","7",,,,,,,,,,,,,,,,,,,,,,,,,,,,
"72505394728","2020-04-26T19:51:00","FM-15","7",,,,,,,,,,,,,,,,,,,,,,,,,,,,,,,,,,,,,,"29.76","42","44","0.01",,,,"93","29.73","BKN:07 12 OVC:08 18","29.59","9.00","43","VRB","23","10",,,,,,,,,,,,,,,,,,,,,,,,,,,,,,,,,,,,,"MET11604/26/20 19:51:01 METAR KNYC 270051Z 04009G20KT 9SM BKN012 OVC018 07/06 A2976 RMK AO2 RAE10 SLP069 P0001 T00670056 $","FM-15","7",,,,,,,,,,,,,,,,,,,,,,,,,,,,
"72505394728","2020-04-26T20:51:00","FM-15","7",,,,,,,,,,,,,,,,,,,,,,,,,,,,,,,,,,,,,,"29.79","40","44","0.00",,,,"85","29.77","OVC:08 13","29.62","10.00","42","VRB","20","9",,,,,,,,,,,,,,,,,,,,,,,,,,,,,,,,,,,,,"MET09604/26/20 20:51:01 METAR KNYC 270151Z 01008G17KT 10SM OVC013 07/04 A2979 RMK AO2 SLP080 T00670044","FM-15","7",,,,,,,,,,,,,,,,,,,,,,,,,,,,
"72505394728","2020-04-26T21:51:00","FM-15","7",,,,,,,,,,,,,,,,,,,,,,,,,,,,,,,,,,,,,,"29.80","40","43","0.00",,"-0.04","3","89","29.77","OVC:08 13","29.63","9.00","42","020","17","8",,,,,,,,,,,,,,,,,,,,,,,,,,,,,,,,,,,,,"MET10904/26/20 21:51:01 METAR KNYC 270251Z 02007G15KT 9SM OVC013 06/04 A2980 RMK AO2 SLP082 60001 T00610044 53012 $","FM-15","7",,,,,,,,,,,,,,,,,,,,,,,,,,,,
"72505394728","2020-04-26T22:51:00","FM-15","6",,,,,,,,,,,,,,,,,,,,,,,,,,,,,,,,,,,,,,"29.81","40","43","0.00","BR:1 ||",,,"89","29.78","OVC:08 10","29.64","4.00","42","VRB",,"6",,,,,,,,,,,,,,,,,,,,,,,,,,,,,,,,,,,,,"MET10604/26/20 22:51:03 METAR KNYC 270351Z VRB05KT 4SM BR OVC010 06/04 A2981 RMK AO2 SLP086 T00610044 $ RTX FIBI","FM-15","6",,,,,,,,,,,,,,,,,,,,,,,,,,,,
"72505394728","2020-04-26T23:49:00","FM-16","6",,,,,,,,,,,,,,,,,,,,,,,,,,,,,,,,,,,,,,"29.82","39","43",,,,,"87",,"SCT:04 12 OVC:08 20","29.65","10.00","41","VRB","17","8",,,,,,,,,,,,,,,,,,,,,,,,,,,,,,,,,,,,,"MET09304/26/20 23:49:03 SPECI KNYC 270449Z 03007G15KT 10SM SCT012 OVC020 06/04 A2982 RMK AO2 $ FIBI","FM-16","6",,,,,,,,,,,,,,,,,,,,,,,,,,,,
"72505394728","2020-04-26T23:51:00","FM-15","7",,,,,,,,,,,,,,,,,,,,,,,,,,,,,,,,,,,,,,"29.82","39","42","0.00",,,,"89","29.79","BKN:07 12 OVC:08 20","29.65","10.00","41","VRB","17","9",,,,,,,,,,,,,,,,,,,,,,,,,,,,,,,,,,,,,"MET11504/26/20 23:51:02 METAR KNYC 270451Z 04008G15KT 10SM BKN012 OVC020 06/04 A2982 RMK AO2 SLP089 T00560039 401060056 $","FM-15","7",,,,,,,,,,,,,,,,,,,,,,,,,,,,
"72505394728","2020-04-26T23:59:00","SOD  ","6",,,,,,,,,,,,,,,,"47",,,"29.68",,"10.5","0","-9.6","18","51","42","050","40","0.22","0","0.0","050","26","RA BR",,,,,,,,,,,,,,,,,,,,,,,,,,,,,,,,,,,,,,,,,,,,,,,,,,,,,,,,"SOD78724 HR PRECIPITATION (IN): 0.22 SNOW DEPTH (IN):0     24 HR SNOWFALL (IN):0.0  WEATHER(CODE):1  24 HR MAX TEMP (F): 5124 HR MIN TEMP (F): 42AVERAGE STATION PRESSURE(D):29.679 MINIMUM SEA LEVEL PRESSURE:29.71 TIME OF OCCURRENCE:1700 PEAK WIND SPEED (MPH): 40 PEAK WIND DIR (DEG): 50 PEAK WIND TIME (LST):      FASTEST 2MIN SPEED (MPH): 26FASTEST 2MIN DIR (DEG): 50 FASTEST 2MIN TIME (LST):     AVERAGE WIND SPEED (MPH):10.5 24 HR AVG TEMP (F): 47DEPART FROM NORMAL:-10  SKY COVER SR-SS (TENTHS): 1HEATING DEGREE DAYS: 18 COOLING DEGREE DAYS:  0 LATEST DAY MAX TEMP (0700-1900 LST): 50 LATEST NIGHT MIN TEMP(1900-0800 LST):47 HOURLY INCREMENTAL PRECIPITATION VALUES (IN):0.00T     0.00 0.00T     0.00 0.00 0.01 0.00T    T     0.01 0.01 0.01 0.02 0.02 0.11 0.01 0.01 0.01 0.00 0.00 0.00 0.00","SOD  ","6",,,,,,,,,,,,,,,,,,,,,,,,,"0500","1848",,
"72505394728","2020-04-27T00:51:00","FM-15","7",,,,,,,,,,,,,,,,,,,,,,,,,,,,,,,,,,,,,,"29.82","39","41","0.00",,"-0.02","1","93","29.80","BKN:07 8 OVC:08 13","29.65","8.00","40","VRB",,"6",,,,,,,,,,,,,,,,,,,,,,,,,,,,,,,,,,,,,"MET12904/27/20 00:51:02 METAR KNYC 270551Z VRB05KT 8SM BKN008 OVC013 05/04 A2982 RMK AO2 SLP091 60001 T00500039 10078 20050 51008 $ RTX","FM-15","7",,,,,,,,,,,,,,,,,,,,,,,,,,,,
"72505394728","2020-04-27T01:00:00","FM-16","6",,,,,,,,,,,,,,,,,,,,,,,,,,,,,,,,,,,,,,"29.82","39","41",,,,,"93",,"OVC:08 10","29.65","8.00","40","340",,"7",,,,,,,,,,,,,,,,,,,,,,,,,,,,,,,,,,,,,"MET08704/27/20 01:00:02 SPECI KNYC 270600Z 34006KT 8SM OVC010 05/04 A2982 RMK AO2 T00500039 $","FM-16","6",,,,,,,,,,,,,,,,,,,,,,,,,,,,
"72505394728","2020-04-27T01:51:00","FM-15","7",,,,,,,,,,,,,,,,,,,,,,,,,,,,,,,,,,,,,,"29.83","37","40","0.00",,,,"89","29.80","OVC:08 11","29.66","10.00","39","VRB",,"3",,,,,,,,,,,,,,,,,,,,,,,,,,,,,,,,,,,,,"MET09904/27/20 01:51:02 METAR KNYC 270651Z VRB03KT 10SM OVC011 04/03 A2983 RMK AO2 SLP093 T00440028 $ RTX","FM-15","7",,,,,,,,,,,,,,,,,,,,,,,,,,,,
"72505394728","2020-04-27T02:51:00","FM-15","7",,,,,,,,,,,,,,,,,,,,,,,,,,,,,,,,,,,,,,"29.83","36","40","0.00",,,,"86","29.80","OVC:08 14","29.66","10.00","38","VRB",,"8",,,,,,,,,,,,,,,,,,,,,,,,,,,,,,,,,,,,,"MET09504/27/20 02:51:02 METAR KNYC 270751Z 05007KT 10SM OVC014 04/02 A2983 RMK AO2 SLP093 T00440022 $","FM-15","7",,,,,,,,,,,,,,,,,,,,,,,,,,,,
"72505394728","2020-04-27T03:22:00","FM-16","7",,,,,,,,,,,,,,,,,,,,,,,,,,,,,,,,,,,,,,"29.83","35","39",,,,,"86",,"OVC:08 15","29.66","10.00","37","360","18","11",,,,,,,,,,,,,,,,,,,,,,,,,,,,,,,,,,,,,"MET09504/27/20 03:22:02 SPECI KNYC 270822Z 36010G16KT 10SM OVC015 04/02 A2983 RMK AO2 T00390017 $ RTX","FM-16","7",,,,,,,,,,,,,,,,,,,,,,,,,,,,
"72505394728","2020-04-27T03:36:00","FM-16","7",,,,,,,,,,,,,,,,,,,,,,,,,,,,,,,,,,,,,,"29.83","35","40",,,,,"83",,"OVC:08 14","29.66","10.00","38","VRB","16","7",,,,,,,,,,,,,,,,,,,,,,,,,,,,,,,,,,,,,"MET10004/27/20 03:36:02 SPECI KNYC 270836Z VRB06G14KT 10SM OVC014 04/02 A2983 RMK AO2 T00440017 $ RTX FIBI","FM-16","7",,,,,,,,,,,,,,,,,,,,,,,,,,,,
"72505394728","2020-04-27T03:51:00","FM-15","7",,,,,,,,,,,,,,,,,,,,,,,,,,,,,,,,,,,,,,"29.83","35","39","0.00",,"-0.01","2","86","29.81","OVC:08 14","29.66","10.00","37","010","21","11",,,,,,,,,,,,,,,,,,,,,,,,,,,,,,,,,,,,,"MET10804/27/20 03:51:02 METAR KNYC 270851Z 01010G18KT 10SM OVC014 04/02 A2983 RMK AO2 SLP095 T00390017 52004 $ RTX","FM-15","7",,,,,,,,,,,,,,,,,,,,,,,,,,,,
"72505394728","2020-04-27T04:51:00","FM-15","7",,,,,,,,,,,,,,,,,,,,,,,,,,,,,,,,,,,,,,"29.84","36","39","0.00",,,,"89","29.81","OVC:08 12","29.67","10.00","38","340",,"9",,,,,,,,,,,,,,,,,,,,,,,,,,,,,,,,,,,,,"MET09904/27/20 04:51:02 METAR KNYC 270951Z 34008KT 10SM OVC012 04/02 A2984 RMK AO2 SLP096 T00390022 $ RTX","FM-15","7",,,,,,,,,,,,,,,,,,,,,,,,,,,,
"72505394728","2020-04-27T05:40:00","FM-16","7",,,,,,,,,,,,,,,,,,,,,,,,,,,,,,,,,,,,,,"29.86","35","40",,,,,"83",,"OVC:08 16","29.69","10.00","38","VRB",,"5",,,,,,,,,,,,,,,,,,,,,,,,,,,,,,,,,,,,,"MET09204/27/20 05:40:02 SPECI KNYC 271040Z VRB04KT 10SM OVC016 04/02 A2986 RMK AO2 T00440017 $ RTX","FM-16","7",,,,,,,,,,,,,,,,,,,,,,,,,,,,
"72505394728","2020-04-27T05:51:00","FM-15","7",,,,,,,,,,,,,,,,,,,,,,,,,,,,,,,,,,,,,,"29.86","35","40","0.00",,,,"83","29.84","BKN:07 16 OVC:08 22","29.69","10.00","38","VRB",,"6",,,,,,,,,,,,,,,,,,,,,,,,,,,,,,,,,,,,,"MET10604/27/20 05:51:02 METAR KNYC 271051Z VRB05KT 10SM BKN016 OVC022 04/02 A2986 RMK AO2 SLP105 T00440017 $ RTX","FM-15","7",,,,,,,,,,,,,,,,,,,,,,,,,,,,
"72505394728","2020-04-27T06:05:00","FM-16","7",,,,,,,,,,,,,,,,,,,,,,,,,,,,,,,,,,,,,,"29.87","36","40",,,,,"86",,"BKN:07 14 OVC:08 20","29.70","9.00","38","000",,"0",,,,,,,,,,,,,,,,,,,,,,,,,,,,,,,,,,,,,"MET09404/27/20 06:05:02 SPECI KNYC 271105Z 00000KT 9SM BKN014 OVC020 04/02 A2987 RMK AO2 T00440022 $","FM-16","7",,,,,,,,,,,,,,,,,,,,,,,,,,,,
"72505394728","2020-04-27T06:51:00","FM-15","7",,,,,,,,,,,,,,,,,,,,,,,,,,,,,,,,,,,,,,"29.88","36","41","0.00",,"-0.05","3","82","29.86","BKN:07 15 OVC:08 21","29.71","10.00","39","VRB",,"5",,,,,,,,,,,,,,,,,,,,,,,,,,,,,,,,,,,,,"MET13004/27/20 06:51:02 METAR KNYC 271151Z VRB04KT 10SM BKN015 OVC021 05/02 A2988 RMK AO2 SLP111 70022 T00500022 10050 20039 53017 $ RTX","FM-15","7",,,,,,,,,,,,,,,,,,,,,,,,,,,,
"72505394728","2020-04-27T07:51:00","FM-15","7",,,,,,,,,,,,,,,,,,,,,,,,,,,,,,,,,,,,,,"29.90","35","41","T",,,,"79","29.88","BKN:07 17 BKN:07 24 OVC:08 29","29.73","10.00","38","VRB","17","9",,,,,,,,,,,,,,,,,,,,,,,,,,,,,,,,,,,,,"MET12104/27/20 07:51:02 METAR KNYC 271251Z 36008G15KT 10SM BKN017 BKN024 OVC029 05/02 A2990 RMK AO2 SLP117 T00500017 $ RTX FIBI","FM-15","7",,,,,,,,,,,,,,,,,,,,,,,,,,,,
"72505394728","2020-04-27T08:51:00","FM-15","7",,,,,,,,,,,,,,,,,,,,,,,,,,,,,,,,,,,,,,"29.90","37","44","T",,,,"76","29.88","SCT:04 17 BKN:07 21 OVC:08 32","29.73","10.00","41","360",,"9",,,,,,,,,,,,,,,,,,,,,,,,,,,,,,,,,,,,,"MET13504/27/20 08:51:02 METAR KNYC 271351Z 36008KT 10SM SCT017 BKN021 OVC032 07/03 A2990 RMK AO2 RAB1252E03 SLP118 P0000 T00670028 $ RTX FIBI","FM-15","7",,,,,,,,,,,,,,,,,,,,,,,,,,,,
"72505394728","2020-04-27T09:51:00","FM-15","7",,,,,,,,,,,,,,,,,,,,,,,,,,,,,,,,,,,,,,"29.91","36","45","0.00",,"-0.03","1","71","29.89","BKN:07 23 OVC:08 31","29.74","10.00","41","VRB",,"7",,,,,,,,,,,,,,,,,,,,,,,,,,,,,,,,,,,,,"MET11804/27/20 09:51:02 METAR KNYC 271451Z VRB06KT 10SM BKN023 OVC031 07/02 A2991 RMK AO2 SLP121 60000 T00720022 51009 $ RTX","FM-15","7",,,,,,,,,,,,,,,,,,,,,,,,,,,,
"72505394728","2020-04-27T10:51:00","FM-15","7",,,,,,,,,,,,,,,,,,,,,,,,,,,,,,,,,,,,,,"29.92","36","46","0.00",,,,"68","29.90","SCT:04 25 OVC:08 32","29.75","10.00","42","VRB","18","7",,,,,,,,,,,,,,,,,,,,,,,,,,,,,,,,,,,,,"MET10904/27/20 10:51:02 METAR KNYC 271551Z VRB06G16KT 10SM SCT025 OVC032 08/02 A2992 RMK AO2 SLP124 T00780022 $ RTX","FM-15","7",,,,,,,,,,,,,,,,,,,,,,,,,,,,
"72505394728","2020-04-27T11:51:00","FM-15","7",,,,,,,,,,,,,,,,,,,,,,,,,,,,,,,,,,,,,,"29.92","36","47","0.00",,,,"66","29.90","BKN:07 27 OVC:08 33","29.75","10.00","42","VRB",,"7",,,,,,,,,,,,,,,,,,,,,,,,,,,,,,,,,,,,,"MET10604/27/20 11:51:02 METAR KNYC 271651Z VRB06KT 10SM BKN027 OVC033 08/02 A2992 RMK AO2 SLP125 T00830022 $ RTX","FM-15","7",,,,,,,,,,,,,,,,,,,,,,,,,,,,
"72505394728","2020-04-27T12:11:00","FM-16","7",,,,,,,,,,,,,,,,,,,,,,,,,,,,,,,,,,,,,,"29.92","36","47",,,,,"66",,"SCT:04 27 OVC:08 36","29.75","10.00","42","VRB",,"5",,,,,,,,,,,,,,,,,,,,,,,,,,,,,,,,,,,,,"MET09904/27/20 12:11:02 SPECI KNYC 271711Z VRB04KT 10SM SCT027 OVC036 08/02 A2992 RMK AO2 T00830022 $ RTX","FM-16","7",,,,,,,,,,,,,,,,,,,,,,,,,,,,
"72505394728","2020-04-27T12:51:00","FM-15","7",,,,,,,,,,,,,,,,,,,,,,,,,,,,,,,,,,,,,,"29.93","36","48","T",,"-0.02","1","63","29.91","FEW:02 27 BKN:07 36 OVC:08 47","29.76","10.00","43","VRB","17","7",,,,,,,,,,,,,,,,,,,,,,,,,,,,,,,,,,,,,"MET15504/27/20 12:51:02 METAR KNYC 271751Z VRB06G15KT 10SM FEW027 BKN036 OVC047 09/02 A2993 RMK AO2 RAB17E28 SLP127 P0000 60000 T00890022 10089 20044 51006 $ RTX","FM-15","7",,,,,,,,,,,,,,,,,,,,,,,,,,,,
"72505394728","2020-04-27T13:51:00","FM-15","7",,,,,,,,,,,,,,,,,,,,,,,,,,,,,,,,,,,,,,"29.94","35","49","0.00",,,,"59","29.92","BKN:07 33 OVC:08 47","29.77","10.00","43",,,,,,,,,,,,,,,,,,,,,,,,,,,,,,,,,,,,,,,,"MET10604/27/20 13:51:02 METAR KNYC 271851Z      KT 10SM BKN033 OVC047 09/02 A2994 RMK AO2 SLP132 T00940017 $ RTX","FM-15","7",,,,,,,,,,,,,,,,,,,,,,,,,,,,
"72505394728","2020-04-27T14:51:00","FM-15","7",,,,,,,,,,,,,,,,,,,,,,,,,,,,,,,,,,,,,,"29.95","35","49","0.00",,,,"59","29.93","BKN:07 35 OVC:08 55","29.78","10.00","43","VRB","20","9",,,,,,,,,,,,,,,,,,,,,,,,,,,,,,,,,,,,,"MET10904/27/20 14:51:02 METAR KNYC 271951Z 05008G17KT 10SM BKN035 OVC055 09/02 A2995 RMK AO2 SLP135 T00940017 $ RTX","FM-15","7",,,,,,,,,,,,,,,,,,,,,,,,,,,,
"72505394728","2020-04-27T15:51:00","FM-15","7",,,,,,,,,,,,,,,,,,,,,,,,,,,,,,,,,,,,,,"29.97","36","48","T",,"-0.04","3","63","29.95","SCT:04 33 BKN:07 47 OVC:08 60","29.80","10.00","43","VRB",,"8",,,,,,,,,,,,,,,,,,,,,,,,,,,,,,,,,,,,,"MET14004/27/20 15:51:02 METAR KNYC 272051Z 34007KT 10SM SCT033 BKN047 OVC060 09/02 A2997 RMK AO2 RAB35E46 SLP142 P0000 60000 T00890022 53015 $ RTX","FM-15","7",,,,,,,,,,,,,,,,,,,,,,,,,,,,
"72505394728","2020-04-27T16:51:00","FM-15","7",,,,,,,,,,,,,,,,,,,,,,,,,,,,,,,,,,,,,,"30.01","35","48","T","-RA:02 |RA |RA",,,"61","29.98","SCT:04 36 BKN:07 45 OVC:08 65","29.84","10.00","42","350","21","11",,,,,,,,,,,,,,,,,,,,,,,,,,,,,,,,,,,,,"MET12804/27/20 16:51:02 METAR KNYC 272151Z 35010G18KT 10SM -RA SCT036 BKN045 OVC065 09/02 A3001 RMK AO2 RAB50 SLP153 P0000 T00890017 $","FM-15","7",,,,,,,,,,,,,,,,,,,,,,,,,,,,
"72505394728","2020-04-27T17:51:00","FM-15","7",,,,,,,,,,,,,,,,,,,,,,,,,,,,,,,,,,,,,,"30.03","35","47","0.00",,,,"63","30.00","FEW:02 32 SCT:04 65 OVC:08 100","29.86","10.00","42","VRB","22","7",,,,,,,,,,,,,,,,,,,,,,,,,,,,,,,,,,,,,"MET13004/27/20 17:51:02 METAR KNYC 272251Z VRB06G19KT 10SM FEW032 SCT065 OVC100 08/02 A3003 RMK AO2 RAE2159 SLP160 P0000 T00830017 $ RTX","FM-15","7",,,,,,,,,,,,,,,,,,,,,,,,,,,,
"72505394728","2020-04-27T18:44:00","FM-16","7",,,,,,,,,,,,,,,,,,,,,,,,,,,,,,,,,,,,,,"30.04","35","46",,,,,"66",,"BKN:07 28 BKN:07 75 OVC:08 110","29.87","10.00","41","VRB","18","10",,,,,,,,,,,,,,,,,,,,,,,,,,,,,,,,,,,,,"MET10904/27/20 18:44:02 SPECI KNYC 272344Z 01009G16KT 10SM BKN028 BKN075 OVC110 08/02 A3004 RMK AO2 T00780017 $ RTX","FM-16","7",,,,,,,,,,,,,,,,,,,,,,,,,,,,
"72505394728","2020-04-27T18:49:00","FM-16","6",,,,,,,,,,,,,,,,,,,,,,,,,,,,,,,,,,,,,,"30.04","36","46",,,,,"66",,"SCT:04 28 BKN:07 75 OVC:08 110","29.87","10.00","42","VRB","18","10",,,,,,,,,,,,,,,,,,,,,,,,,,,,,,,,,,,,,"MET10004/27/20 18:49:02 SPECI KNYC 272349Z 35009G16KT 10SM SCT028 BKN075 OVC110 08/02 A3004 RMK AO2 $ FIBI","FM-16","6",,,,,,,,,,,,,,,,,,,,,,,,,,,,
"72505394728","2020-04-27T18:51:00","FM-15","7",,,,,,,,,,,,,,,,,,,,,,,,,,,,,,,,,,,,,,"30.05","35","46","0.00",,"-0.07","1","66","30.02","SCT:04 28 BKN:07 75 OVC:08 110","29.88","10.00","41","350","17","10",,,,,,,,,,,,,,,,,,,,,,,,,,,,,,,,,,,,,"MET14004/27/20 18:51:02 METAR KNYC 272351Z 35009G15KT 10SM SCT028 BKN075 OVC110 08/02 A3005 RMK AO2 SLP166 60000 T00780017 10100 20078 51024 $ RTX","FM-15","7",,,,,,,,,,,,,,,,,,,,,,,,,,,,
"72505394728","2020-04-27T19:12:00","FM-16","7",,,,,,,,,,,,,,,,,,,,,,,,,,,,,,,,,,,,,,"30.05","36","46",,,,,"68",,"BKN:07 28 BKN:07 38 OVC:08 120","29.88","10.00","42","VRB","17","8",,,,,,,,,,,,,,,,,,,,,,,,,,,,,,,,,,,,,"MET10504/27/20 19:12:01 SPECI KNYC 280012Z 01007G15KT 10SM BKN028 BKN038 OVC120 08/02 A3005 RMK AO2 T00780022 $","FM-16","7",,,,,,,,,,,,,,,,,,,,,,,,,,,,
"72505394728","2020-04-27T19:20:00","FM-16","7",,,,,,,,,,,,,,,,,,,,,,,,,,,,,,,,,,,,,,"30.06","35","45",,,,,"68",,"SCT:04 28 SCT:04 36 BKN:07 100","29.89","10.00","41","360",,"10",,,,,,,,,,,,,,,,,,,,,,,,,,,,,,,,,,,,,"MET10204/27/20 19:20:01 SPECI KNYC 280020Z 36009KT 10SM SCT028 SCT036 BKN100 07/02 A3006 RMK AO2 T00720017 $","FM-16","7",,,,,,,,,,,,,,,,,,,,,,,,,,,,
"72505394728","2020-04-27T19:51:00","FM-15","7",,,,,,,,,,,,,,,,,,,,,,,,,,,,,,,,,,,,,,"30.07","35","45","0.00",,,,"68","30.05","SCT:04 25","29.90","10.00","41","VRB",,"6",,,,,,,,,,,,,,,,,,,,,,,,,,,,,,,,,,,,,"MET09504/27/20 19:51:01 METAR KNYC 280051Z VRB05KT 10SM SCT025 07/02 A3007 RMK AO2 SLP175 T00720017 $","FM-15","7",,,,,,,,,,,,,,,,,,,,,,,,,,,,
"72505394728","2020-04-27T20:51:00","FM-15","7",,,,,,,,,,,,,,,,,,,,,,,,,,,,,,,,,,,,,,"30.08","35","45","0.00",,,,"68","30.06","SCT:04 60","29.91","10.00","41","VRB",,"6",,,,,,,,,,,,,,,,,,,,,,,,,,,,,,,,,,,,,"MET09504/27/20 20:51:01 METAR KNYC 280151Z VRB05KT 10SM SCT060 07/02 A3008 RMK AO2 SLP179 T00720017 $","FM-15","7",,,,,,,,,,,,,,,,,,,,,,,,,,,,
"72505394728","2020-04-27T21:51:00","FM-15","7",,,,,,,,,,,,,,,,,,,,,,,,,,,,,,,,,,,,,,"30.09","36","45","0.00",,"-0.05","1","71","30.07","BKN:07 55","29.92","10.00","41","VRB",,"6",,,,,,,,,,,,,,,,,,,,,,,,,,,,,,,,,,,,,"MET10104/27/20 21:51:01 METAR KNYC 280251Z VRB05KT 10SM BKN055 07/02 A3009 RMK AO2 SLP182 T00720022 51016 $","FM-15","7",,,,,,,,,,,,,,,,,,,,,,,,,,,,
"72505394728","2020-04-27T22:51:00","FM-15","7",,,,,,,,,,,,,,,,,,,,,,,,,,,,,,,,,,,,,,"30.10","35","44","0.00",,,,"71","30.07","SCT:04 26 BKN:07 46 BKN:07 55","29.93","10.00","40","VRB",,"6",,,,,,,,,,,,,,,,,,,,,,,,,,,,,,,,,,,,,"MET10904/27/20 22:51:02 METAR KNYC 280351Z VRB05KT 10SM SCT026 BKN046 BKN055 07/02 A3010 RMK AO2 SLP184 T00670017 $","FM-15","7",,,,,,,,,,,,,,,,,,,,,,,,,,,,
"72505394728","2020-04-27T23:00:00","FM-16","6",,,,,,,,,,,,,,,,,,,,,,,,,,,,,,,,,,,,,,"30.10","35","44",,,,,"71",,"BKN:07 26 BKN:07 55","29.93","10.00","40","VRB",,"5",,,,,,,,,,,,,,,,,,,,,,,,,,,,,,,,,,,,,"MET09504/27/20 23:00:03 SPECI KNYC 280400Z VRB04KT 10SM BKN026 BKN055 07/02 A3010 RMK AO2 T00670017 $","FM-16","6",,,,,,,,,,,,,,,,,,,,,,,,,,,,
"72505394728","2020-04-27T23:22:00","FM-16","7",,,,,,,,,,,,,,,,,,,,,,,,,,,,,,,,,,,,,,"30.10","35","44",,,,,"71",,"SCT:04 26 BKN:07 50 OVC:08 60","29.93","10.00","40","VRB",,"6",,,,,,,,,,,,,,,,,,,,,,,,,,,,,,,,,,,,,"MET10204/27/20 23:22:02 SPECI KNYC 280422Z VRB05KT 10SM SCT026 BKN050 OVC060 07/02 A3010 RMK AO2 T00670017 $","FM-16","7",,,,,,,,,,,,,,,,,,,,,,,,,,,,
"72505394728","2020-04-27T23:51:00","FM-15","7",,,,,,,,,,,,,,,,,,,,,,,,,,,,,,,,,,,,,,"30.11","35","44","0.00",,,,"71","30.09","BKN:07 49 OVC:08 55","29.94","10.00","40","VRB",,"5",,,,,,,,,,,,,,,,,,,,,,,,,,,,,,,,,,,,,"MET11204/27/20 23:51:02 METAR KNYC 280451Z VRB04KT 10SM BKN049 OVC055 07/02 A3011 RMK AO2 SLP188 T00670017 401000039 $","FM-15","7",,,,,,,,,,,,,,,,,,,,,,,,,,,,
"72505394728","2020-04-27T23:59:00","SOD  ","6",,,,,,,,,,,,,,,,"45",,,"29.78",,"7.3","0","-11.9","20","50","39","360","24","T","0","0.0","360","16","RA",,,,,,,,,,,,,,,,,,,,,,,,,,,,,,,,,,,,,,,,,,,,,,,,,,,,,,,,"SOD76024 HR PRECIPITATION (IN):    T SNOW DEPTH (IN):0     24 HR SNOWFALL (IN):0.0  WEATHER(CODE):1  24 HR MAX TEMP (F): 5024 HR MIN TEMP (F): 39AVERAGE STATION PRESSURE(D):29.783 MINIMUM SEA LEVEL PRESSURE:29.80 TIME OF OCCURRENCE:0302 PEAK WIND SPEED (MPH): 24 PEAK WIND DIR (DEG):360 PEAK WIND TIME (LST):      FASTEST 2MIN SPEED (MPH): 16FASTEST 2MIN DIR (DEG):360 FASTEST 2MIN TIME (LST):     AVERAGE WIND SPEED (MPH): 7.3 24 HR AVG TEMP (F): 45DEPART FROM NORMAL:-12  HEATING DEGREE DAYS: 20 COOLING DEGREE DAYS:  0 LATEST DAY MAX TEMP (0700-1900 LST): 50 LATEST NIGHT MIN TEMP(1900-0800 LST):39 HOURLY INCREMENTAL PRECIPITATION VALUES (IN):0.00 0.00 0.00 0.00 0.00 0.00 0.00T    T     0.00 0.00 0.00T     0.00 0.00T    T     0.00 0.00 0.00 0.00 0.00 0.00 0.00","SOD  ","6",,,,,,,,,,,,,,,,,,,,,,,,,"0459","1849",,
"72505394728","2020-04-28T00:51:00","FM-15","7",,,,,,,,,,,,,,,,,,,,,,,,,,,,,,,,,,,,,,"30.10","35","44","0.00",,"-0.01","0","71","30.08","OVC:08 50","29.93","10.00","40","VRB",,"7",,,,,,,,,,,,,,,,,,,,,,,,,,,,,,,,,,,,,"MET11704/28/20 00:51:02 METAR KNYC 280551Z VRB06KT 10SM OVC050 07/02 A3010 RMK AO2 SLP185 T00670017 10078 20067 50003 $ RTX","FM-15","7",,,,,,,,,,,,,,,,,,,,,,,,,,,,
"72505394728","2020-04-28T01:51:00","FM-15","7",,,,,,,,,,,,,,,,,,,,,,,,,,,,,,,,,,,,,,"30.11","34","42","0.00",,,,"73","30.08","FEW:02 55","29.94","10.00","39","000",,"0",,,,,,,,,,,,,,,,,,,,,,,,,,,,,,,,,,,,,"MET10404/28/20 01:51:02 METAR KNYC 280651Z 00000KT 10SM FEW055 06/01 A3011 RMK AO2 SLP186 T00560011 $ RTX FIBI","FM-15","7",,,,,,,,,,,,,,,,,,,,,,,,,,,,
"72505394728","2020-04-28T02:51:00","FM-15","7",,,,,,,,,,,,,,,,,,,,,,,,,,,,,,,,,,,,,,"30.12","34","42","0.00",,,,"73","30.09","OVC:08 55","29.95","10.00","39","000",,"0",,,,,,,,,,,,,,,,,,,,,,,,,,,,,,,,,,,,,"MET09904/28/20 02:51:02 METAR KNYC 280751Z 00000KT 10SM OVC055 06/01 A3012 RMK AO2 SLP191 T00560011 $ RTX","FM-15","7",,,,,,,,,,,,,,,,,,,,,,,,,,,,
"72505394728","2020-04-28T03:51:00","FM-15","7",,,,,,,,,,,,,,,,,,,,,,,,,,,,,,,,,,,,,,"30.14","34","42","0.00",,"-0.04","3","73","30.11","BKN:07 55","29.97","10.00","39","000",,"0",,,,,,,,,,,,,,,,,,,,,,,,,,,,,,,,,,,,,"MET10504/28/20 03:51:02 METAR KNYC 280851Z 00000KT 10SM BKN055 06/01 A3014 RMK AO2 SLP197 T00560011 53013 $ RTX","FM-15","7",,,,,,,,,,,,,,,,,,,,,,,,,,,,
"72505394728","2020-04-28T04:51:00","FM-15","7",,,,,,,,,,,,,,,,,,,,,,,,,,,,,,,,,,,,,,"30.14","34","42","0.00",,,,"73","30.12","CLR:00","29.97","10.00","39","290",,"7",,,,,,,,,,,,,,,,,,,,,,,,,,,,,,,,,,,,,"MET10104/28/20 04:51:02 METAR KNYC 280951Z 29006KT 10SM CLR 06/01 A3014 RMK AO2 SLP200 T00560011 $ RTX FIBI","FM-15","7",,,,,,,,,,,,,,,,,,,,,,,,,,,,
"72505394728","2020-04-28T05:51:00","FM-15","7",,,,,,,,,,,,,,,,,,,,,,,,,,,,,,,,,,,,,,"30.17","35","41","0.00",,,,"79","30.14","CLR:00","30.00","10.00","38","VRB",,"5",,,,,,,,,,,,,,,,,,,,,,,,,,,,,,,,,,,,,"MET09604/28/20 05:51:02 METAR KNYC 281051Z VRB04KT 10SM CLR 05/02 A3017 RMK AO2 SLP207 T00500017 $ RTX","FM-15","7",,,,,,,,,,,,,,,,,,,,,,,,,,,,
"72505394728","2020-04-28T06:51:00","FM-15","7",,,,,,,,,,,,,,,,,,,,,,,,,,,,,,,,,,,,,,"30.17","34","43","0.00",,"-0.04","1","71","30.15","CLR:00","30.00","10.00","39","000",,"0",,,,,,,,,,,,,,,,,,,,,,,,,,,,,,,,,,,,,"MET11404/28/20 06:51:02 METAR KNYC 281151Z 00000KT 10SM CLR 06/01 A3017 RMK AO2 SLP209 T00610011 10067 20050 51013 $ RTX","FM-15","7",,,,,,,,,,,,,,,,,,,,,,,,,,,,
"72505394728","2020-04-28T07:51:00","FM-15","7",,,,,,,,,,,,,,,,,,,,,,,,,,,,,,,,,,,,,,"30.16","33","47","0.00",,,,"59","30.14","CLR:00","29.99","10.00","41",,,,,,,,,,,,,,,,,,,,,,,,,,,,,,,,,,,,,,,,"MET09604/28/20 07:51:02 METAR KNYC 281251Z      KT 10SM CLR 08/01 A3016 RMK AO2 SLP206 T00830006 $ RTX","FM-15","7",,,,,,,,,,,,,,,,,,,,,,,,,,,,
"72505394728","2020-04-28T08:51:00","FM-15","7",,,,,,,,,,,,,,,,,,,,,,,,,,,,,,,,,,,,,,"30.16","31","50","0.00",,,,"48","30.14","CLR:00","29.99","10.00","42","VRB",,"5",,,,,,,,,,,,,,,,,,,,,,,,,,,,,,,,,,,,,"MET09704/28/20 08:51:02 METAR KNYC 281351Z VRB04KT 10SM CLR 10/M01 A3016 RMK AO2 SLP205 T01001006 $ RTX","FM-15","7",,,,,,,,,,,,,,,,,,,,,,,,,,,,
"72505394728","2020-04-28T09:51:00","FM-15","6",,,,,,,,,,,,,,,,,,,,,,,,,,,,,,,,,,,,,,,,,"0.00",,,,,,,,,,,,,,,,,,,,,,,,,,,,,,,,,,,,,,,,,,,,,,,,,"MET04804/28/20 09:51:02 METAR KNYC 281451Z      KT RMK","FM-15","6",,,,,,,,,,,,,,,,,,,,,,,,,,,,
"72505394728","2020-04-28T10:51:00","FM-15","7",,,,,,,,,,,,,,,,,,,,,,,,,,,,,,,,,,,,,,"30.15","31","58","0.00",,,,"36","30.12","CLR:00","29.98","10.00","46","VRB",,"5",,,,,,,,,,,,,,,,,,,,,,,,,,,,,,,,,,,,,"MET09704/28/20 10:51:02 METAR KNYC 281551Z VRB04KT 10SM CLR 14/M01 A3015 RMK AO2 SLP201 T01441006 $ RTX","FM-15","7",,,,,,,,,,,,,,,,,,,,,,,,,,,,
"72505394728","2020-04-28T11:51:00","FM-15","7",,,,,,,,,,,,,,,,,,,,,,,,,,,,,,,,,,,,,,"30.13","29","59","0.00",,,,"32","30.10","CLR:00","29.96","10.00","46","VRB",,"3",,,,,,,,,,,,,,,,,,,,,,,,,,,,,,,,,,,,,"MET09704/28/20 11:51:02 METAR KNYC 281651Z VRB03KT 10SM CLR 15/M02 A3013 RMK AO2 SLP193 T01501017 $ RTX","FM-15","7",,,,,,,,,,,,,,,,,,,,,,,,,,,,
"72505394728","2020-04-28T12:51:00","FM-15","7",,,,,,,,,,,,,,,,,,,,,,,,,,,,,,,,,,,,,,"30.11","29","63","0.00",,"+0.05","8","28","30.09","CLR:00","29.94","10.00","48","VRB",,"3",,,,,,,,,,,,,,,,,,,,,,,,,,,,,,,,,,,,,"MET11504/28/20 12:51:02 METAR KNYC 281751Z VRB03KT 10SM CLR 17/M02 A3011 RMK AO2 SLP189 T01721017 10172 20061 58016 $ RTX","FM-15","7",,,,,,,,,,,,,,,,,,,,,,,,,,,,
"72505394728","2020-04-28T13:51:00","FM-15","7",,,,,,,,,,,,,,,,,,,,,,,,,,,,,,,,,,,,,,"30.10","26","63","0.00",,,,"25","30.07","CLR:00","29.93","10.00","47","VRB",,"7",,,,,,,,,,,,,,,,,,,,,,,,,,,,,,,,,,,,,"MET10204/28/20 13:51:02 METAR KNYC 281851Z VRB06KT 10SM CLR 17/M03 A3010 RMK AO2 SLP183 T01721033 $ RTX FIBI","FM-15","7",,,,,,,,,,,,,,,,,,,,,,,,,,,,
"72505394728","2020-04-28T14:51:00","FM-15","7",,,,,,,,,,,,,,,,,,,,,,,,,,,,,,,,,,,,,,"30.08","24","65","0.00",,,,"21","30.06",,,"10.00",,"VRB","18","8",,,,,,,,,,,,,,,,,,,,,,,,,,,,,,,,,,,,,"MET05604/28/20 14:51:02 METAR KNYC 281951Z 30007G16KT 10SM RMK","FM-15","7",,,,,,,,,,,,,,,,,,,,,,,,,,,,
"72505394728","2020-04-28T15:51:00","FM-15","7",,,,,,,,,,,,,,,,,,,,,,,,,,,,,,,,,,,,,,"30.08","25","66","0.00",,"+0.04","6","21","30.05","CLR:00","29.91","10.00","48","VRB",,"5",,,,,,,,,,,,,,,,,,,,,,,,,,,,,,,,,,,,,"MET10304/28/20 15:51:02 METAR KNYC 282051Z VRB04KT 10SM CLR 19/M04 A3008 RMK AO2 SLP177 T01891039 56012 $ RTX","FM-15","7",,,,,,,,,,,,,,,,,,,,,,,,,,,,
"72505394728","2020-04-28T16:51:00","FM-15","7",,,,,,,,,,,,,,,,,,,,,,,,,,,,,,,,,,,,,,"30.07","25","65","0.00",,,,"22","30.05","CLR:00","29.90","10.00","47","000",,"0",,,,,,,,,,,,,,,,,,,,,,,,,,,,,,,,,,,,,"MET09704/28/20 16:51:02 METAR KNYC 282151Z 00000KT 10SM CLR 18/M04 A3007 RMK AO2 SLP176 T01831039 $ RTX","FM-15","7",,,,,,,,,,,,,,,,,,,,,,,,,,,,
"72505394728","2020-04-28T17:51:00","FM-15","7",,,,,,,,,,,,,,,,,,,,,,,,,,,,,,,,,,,,,,"30.10","35","60","0.00",,,,"39","30.07","CLR:00","29.93","10.00","48","VRB",,"6",,,,,,,,,,,,,,,,,,,,,,,,,,,,,,,,,,,,,"MET09604/28/20 17:51:02 METAR KNYC 282251Z VRB05KT 10SM CLR 16/02 A3010 RMK AO2 SLP184 T01560017 $ RTX","FM-15","7",,,,,,,,,,,,,,,,,,,,,,,,,,,,
"72505394728","2020-04-28T18:51:00","FM-15","7",,,,,,,,,,,,,,,,,,,,,,,,,,,,,,,,,,,,,,"30.10","36","57","0.00",,"-0.02","3","45","30.08","FEW:02 100","29.93","10.00","47","VRB",,"5",,,,,,,,,,,,,,,,,,,,,,,,,,,,,,,,,,,,,"MET11704/28/20 18:51:02 METAR KNYC 282351Z VRB04KT 10SM FEW100 14/02 A3010 RMK AO2 SLP185 T01390022 10194 20139 53008 $ RTX","FM-15","7",,,,,,,,,,,,,,,,,,,,,,,,,,,,
"72505394728","2020-04-28T19:51:00","FM-15","7",,,,,,,,,,,,,,,,,,,,,,,,,,,,,,,,,,,,,,"30.12","38","55","0.00",,,,"53","30.10","CLR:00","29.95","10.00","47","150",,"3",,,,,,,,,,,,,,,,,,,,,,,,,,,,,,,,,,,,,"MET09204/28/20 19:51:01 METAR KNYC 290051Z 15003KT 10SM CLR 13/03 A3012 RMK AO2 SLP193 T01280033 $","FM-15","7",,,,,,,,,,,,,,,,,,,,,,,,,,,,
"72505394728","2020-04-28T20:51:00","FM-15","7",,,,,,,,,,,,,,,,,,,,,,,,,,,,,,,,,,,,,,"30.14","41","54","0.00",,,,"62","30.12","CLR:00","29.97","10.00","48","130",,"3",,,,,,,,,,,,,,,,,,,,,,,,,,,,,,,,,,,,,"MET09204/28/20 20:51:01 METAR KNYC 290151Z 13003KT 10SM CLR 12/05 A3014 RMK AO2 SLP200 T01220050 $","FM-15","7",,,,,,,,,,,,,,,,,,,,,,,,,,,,
"72505394728","2020-04-28T21:51:00","FM-15","7",,,,,,,,,,,,,,,,,,,,,,,,,,,,,,,,,,,,,,"30.15","43","51","0.00",,"-0.05","1","74","30.13","CLR:00","29.98","10.00","47","000",,"0",,,,,,,,,,,,,,,,,,,,,,,,,,,,,,,,,,,,,"MET09804/28/20 21:51:01 METAR KNYC 290251Z 00000KT 10SM CLR 11/06 A3015 RMK AO2 SLP202 T01060061 51018 $","FM-15","7",,,,,,,,,,,,,,,,,,,,,,,,,,,,
"72505394728","2020-04-28T22:51:00","FM-15","7",,,,,,,,,,,,,,,,,,,,,,,,,,,,,,,,,,,,,,"30.16","43","50","0.00",,,,"77","30.14","CLR:00","29.99","10.00","47","000",,"0",,,,,,,,,,,,,,,,,,,,,,,,,,,,,,,,,,,,,"MET09204/28/20 22:51:02 METAR KNYC 290351Z 00000KT 10SM CLR 10/06 A3016 RMK AO2 SLP206 T01000061 $","FM-15","7",,,,,,,,,,,,,,,,,,,,,,,,,,,,
"72505394728","2020-04-28T23:51:00","FM-15","7",,,,,,,,,,,,,,,,,,,,,,,,,,,,,,,,,,,,,,"30.16","43","50","0.00",,,,"77","30.13","CLR:00","29.99","10.00","47","030",,"3",,,,,,,,,,,,,,,,,,,,,,,,,,,,,,,,,,,,,"MET10604/28/20 23:51:02 METAR KNYC 290451Z 03003KT 10SM CLR 10/06 A3016 RMK AO2 SLP204 T01000061 401940050 $ RTX","FM-15","7",,,,,,,,,,,,,,,,,,,,,,,,,,,,
"72505394728","2020-04-28T23:59:00","SOD  ","6",,,,,,,,,,,,,,,,"54",,,"29.96",,"3.7","0","-3.2","11","67","41","270","20","0.00","0","0.0","280","12",,,,,,,,,,,,,,,,,,,,,,,,,,,,,,,,,,,,,,,,,,,,,,,,,,,,,,,,,"SOD74324 HR PRECIPITATION (IN): 0.00 SNOW DEPTH (IN):0     24 HR SNOWFALL (IN):0.0  24 HR MAX TEMP (F): 6724 HR MIN TEMP (F): 41AVERAGE STATION PRESSURE(D):29.959 MINIMUM SEA LEVEL PRESSURE:30.05 TIME OF OCCURRENCE:1722 PEAK WIND SPEED (MPH): 20 PEAK WIND DIR (DEG):270 PEAK WIND TIME (LST):      FASTEST 2MIN SPEED (MPH): 12FASTEST 2MIN DIR (DEG):280 FASTEST 2MIN TIME (LST):     AVERAGE WIND SPEED (MPH): 3.7 24 HR AVG TEMP (F): 54DEPART FROM NORMAL: -3  HEATING DEGREE DAYS: 11 COOLING DEGREE DAYS:  0 LATEST DAY MAX TEMP (0700-1900 LST): 67 LATEST NIGHT MIN TEMP(1900-0800 LST):41 HOURLY INCREMENTAL PRECIPITATION VALUES (IN):0.00 0.00 0.00 0.00 0.00 0.00 0.00 0.00 0.00 0.00 0.00 0.00 0.00 0.00 0.00 0.00 0.00 0.00 0.00 0.00 0.00 0.00 0.00 0.00","SOD  ","6",,,,,,,,,,,,,,,,,,,,,,,,,"0457","1850",,
"72505394728","2020-04-29T00:51:00","FM-15","7",,,,,,,,,,,,,,,,,,,,,,,,,,,,,,,,,,,,,,"30.17","43","50","0.00",,"-0.01","1","77","30.14","CLR:00","30.00","10.00","47","000",,"0",,,,,,,,,,,,,,,,,,,,,,,,,,,,,,,,,,,,,"MET11904/29/20 00:51:02 METAR KNYC 290551Z 00000KT 10SM CLR 10/06 A3017 RMK AO2 SLP206 T01000061 10139 20094 51004 $ RTX FIBI","FM-15","7",,,,,,,,,,,,,,,,,,,,,,,,,,,,
"72505394728","2020-04-29T01:51:00","FM-15","7",,,,,,,,,,,,,,,,,,,,,,,,,,,,,,,,,,,,,,"30.16","43","49","0.00",,,,"80","30.13","CLR:00","29.99","10.00","46","000",,"0",,,,,,,,,,,,,,,,,,,,,,,,,,,,,,,,,,,,,"MET09604/29/20 01:51:02 METAR KNYC 290651Z 00000KT 10SM CLR 09/06 A3016 RMK AO2 SLP203 T00940061 $ RTX","FM-15","7",,,,,,,,,,,,,,,,,,,,,,,,,,,,
"72505394728","2020-04-29T02:51:00","FM-15","7",,,,,,,,,,,,,,,,,,,,,,,,,,,,,,,,,,,,,,"30.17","43","48","0.00",,,,"83","30.14","CLR:00","30.00","10.00","46","000",,"0",,,,,,,,,,,,,,,,,,,,,,,,,,,,,,,,,,,,,"MET09604/29/20 02:51:02 METAR KNYC 290751Z 00000KT 10SM CLR 09/06 A3017 RMK AO2 SLP206 T00890061 $ RTX","FM-15","7",,,,,,,,,,,,,,,,,,,,,,,,,,,,
"72505394728","2020-04-29T03:51:00","FM-15","7",,,,,,,,,,,,,,,,,,,,,,,,,,,,,,,,,,,,,,"30.18","43","48","0.00",,"-0.01","3","83","30.15","BKN:07 80","30.01","10.00","46","050",,"6",,,,,,,,,,,,,,,,,,,,,,,,,,,,,,,,,,,,,"MET10504/29/20 03:51:02 METAR KNYC 290851Z 05005KT 10SM BKN080 09/06 A3018 RMK AO2 SLP210 T00890061 53004 $ RTX","FM-15","7",,,,,,,,,,,,,,,,,,,,,,,,,,,,
"72505394728","2020-04-29T04:27:00","FM-16","7",,,,,,,,,,,,,,,,,,,,,,,,,,,,,,,,,,,,,,"30.19","45","48",,,,,"89",,"FEW:02 9 OVC:08 80","30.02","9.00","47","070",,"6",,,,,,,,,,,,,,,,,,,,,,,,,,,,,,,,,,,,,"MET10304/29/20 04:27:02 SPECI KNYC 290927Z 07005KT 9SM FEW009 OVC080 09/07 A3019 RMK AO2 T00890072 $ RTX FIBI","FM-16","7",,,,,,,,,,,,,,,,,,,,,,,,,,,,
"72505394728","2020-04-29T04:49:00","FM-16","6",,,,,,,,,,,,,,,,,,,,,,,,,,,,,,,,,,,,,,"30.20","45","48",,,,,"87",,"BKN:07 8 OVC:08 80","30.03","10.00","47","050",,"6",,,,,,,,,,,,,,,,,,,,,,,,,,,,,,,,,,,,,"MET09004/29/20 04:49:02 SPECI KNYC 290949Z 05005KT 10SM BKN008 OVC080 09/07 A3020 RMK AO2 $ FIBI","FM-16","6",,,,,,,,,,,,,,,,,,,,,,,,,,,,
"72505394728","2020-04-29T04:51:00","FM-15","7",,,,,,,,,,,,,,,,,,,,,,,,,,,,,,,,,,,,,,"30.20","44","48","0.00",,,,"86","30.17","BKN:07 8 OVC:08 80","30.03","10.00","46","050",,"8",,,,,,,,,,,,,,,,,,,,,,,,,,,,,,,,,,,,,"MET11104/29/20 04:51:02 METAR KNYC 290951Z 05007KT 10SM BKN008 OVC080 09/07 A3020 RMK AO2 SLP216 T00890067 $ RTX FIBI","FM-15","7",,,,,,,,,,,,,,,,,,,,,,,,,,,,
"72505394728","2020-04-29T04:51:00","FM-16","4",,,,,,,,,,,,,,,,,,,,,,,,,,,,,,,,,,,,,,"30.20","44","48",,,,,"86","30.17",,,"10.00",,"050",,"8",,,,,,,,,,,,,,,,,,,,,,,,,,,,,,,,,,,,,"MET099SPECI KNYC 290951Z AUTO 05007KT 10SM BKN008 OVC080 09/07 A3020 RMK AO2 SLP216 T00890067 $ RTX FIBI=","FM-16","4",,,,,,,,,,,,,,,,,,,,,,,,,,,,
"72505394728","2020-04-29T05:51:00","FM-15","7",,,,,,,,,,,,,,,,,,,,,,,,,,,,,,,,,,,,,,"30.20","44","48","0.00",,,,"86","30.17","OVC:08 7","30.03","9.00","46","VRB",,"8",,,,,,,,,,,,,,,,,,,,,,,,,,,,,,,,,,,,,"MET10304/29/20 05:51:02 METAR KNYC 291051Z 06007KT 9SM OVC007 09/07 A3020 RMK AO2 SLP218 T00890067 $ RTX FIBI","FM-15","7",,,,,,,,,,,,,,,,,,,,,,,,,,,,
"72505394728","2020-04-29T06:51:00","FM-15","7",,,,,,,,,,,,,,,,,,,,,,,,,,,,,,,,,,,,,,"30.23","44","48","0.00",,"-0.05","3","86","30.20","OVC:08 8","30.06","8.00","46","060",,"9",,,,,,,,,,,,,,,,,,,,,,,,,,,,,,,,,,,,,"MET11604/29/20 06:51:02 METAR KNYC 291151Z 06008KT 8SM OVC008 09/07 A3023 RMK AO2 SLP227 T00890067 10100 20083 53016 $ RTX","FM-15","7",,,,,,,,,,,,,,,,,,,,,,,,,,,,
"72505394728","2020-04-29T07:51:00","FM-15","7",,,,,,,,,,,,,,,,,,,,,,,,,,,,,,,,,,,,,,"30.25","44","47","T",,,,"90","30.22","OVC:08 7","30.08","8.00","46","VRB","18","7",,,,,,,,,,,,,,,,,,,,,,,,,,,,,,,,,,,,,"MET11604/29/20 07:51:02 METAR KNYC 291251Z VRB06G16KT 8SM OVC007 08/07 A3025 RMK AO2 RAB13E46 SLP234 P0000 T00830067 $ RTX","FM-15","7",,,,,,,,,,,,,,,,,,,,,,,,,,,,
"72505394728","2020-04-29T08:51:00","FM-15","7",,,,,,,,,,,,,,,,,,,,,,,,,,,,,,,,,,,,,,"30.24","44","48","0.00",,,,"86","30.22","OVC:08 8","30.07","10.00","46","080",,"9",,,,,,,,,,,,,,,,,,,,,,,,,,,,,,,,,,,,,"MET09904/29/20 08:51:02 METAR KNYC 291351Z 08008KT 10SM OVC008 09/07 A3024 RMK AO2 SLP233 T00890067 $ RTX","FM-15","7",,,,,,,,,,,,,,,,,,,,,,,,,,,,
"72505394728","2020-04-29T09:32:00","FM-16","7",,,,,,,,,,,,,,,,,,,,,,,,,,,,,,,,,,,,,,"30.26","44","49",,,,,"83",,"SCT:04 9 OVC:08 45","30.09","10.00","47","VRB",,"9",,,,,,,,,,,,,,,,,,,,,,,,,,,,,,,,,,,,,"MET09904/29/20 09:32:02 SPECI KNYC 291432Z 08008KT 10SM SCT009 OVC045 09/07 A3026 RMK AO2 T00940067 $ RTX","FM-16","7",,,,,,,,,,,,,,,,,,,,,,,,,,,,
"72505394728","2020-04-29T09:51:00","FM-15","7",,,,,,,,,,,,,,,,,,,,,,,,,,,,,,,,,,,,,,"30.26","44","50","0.00",,"-0.03","1","80","30.23","BKN:07 46 OVC:08 90","30.09","10.00","47","VRB",,"6",,,,,,,,,,,,,,,,,,,,,,,,,,,,,,,,,,,,,"MET11804/29/20 09:51:02 METAR KNYC 291451Z VRB05KT 10SM BKN046 OVC090 10/07 A3026 RMK AO2 SLP237 60000 T01000067 51010 $ RTX","FM-15","7",,,,,,,,,,,,,,,,,,,,,,,,,,,,
"72505394728","2020-04-29T10:51:00","FM-15","7",,,,,,,,,,,,,,,,,,,,,,,,,,,,,,,,,,,,,,"30.27","44","51","0.00",,,,"77","30.24","OVC:08 43","30.10","10.00","48","080",,"7",,,,,,,,,,,,,,,,,,,,,,,,,,,,,,,,,,,,,"MET09904/29/20 10:51:02 METAR KNYC 291551Z 08006KT 10SM OVC043 11/07 A3027 RMK AO2 SLP242 T01060067 $ RTX","FM-15","7",,,,,,,,,,,,,,,,,,,,,,,,,,,,
"72505394728","2020-04-29T11:51:00","FM-15","7",,,,,,,,,,,,,,,,,,,,,,,,,,,,,,,,,,,,,,"30.26","45","54","0.00",,,,"72","30.23","BKN:07 47 BKN:07 55 OVC:08 90","30.09","10.00","49","090",,"8",,,,,,,,,,,,,,,,,,,,,,,,,,,,,,,,,,,,,"MET11804/29/20 11:51:02 METAR KNYC 291651Z 09007KT 10SM BKN047 BKN055 OVC090 12/07 A3026 RMK AO2 SLP238 T01220072 $ RTX FIBI","FM-15","7",,,,,,,,,,,,,,,,,,,,,,,,,,,,
"72505394728","2020-04-29T12:51:00","FM-15","7",,,,,,,,,,,,,,,,,,,,,,,,,,,,,,,,,,,,,,"30.24","45","58","0.00",,"+0.02","8","62","30.22","OVC:08 43","30.07","10.00","51","050",,"9",,,,,,,,,,,,,,,,,,,,,,,,,,,,,,,,,,,,,"MET12304/29/20 12:51:02 METAR KNYC 291751Z 05008KT 10SM OVC043 14/07 A3024 RMK AO2 SLP232 60000 T01440072 10144 20083 58006 $ RTX","FM-15","7",,,,,,,,,,,,,,,,,,,,,,,,,,,,
"72505394728","2020-04-29T13:51:00","FM-15","7",,,,,,,,,,,,,,,,,,,,,,,,,,,,,,,,,,,,,,"30.25","41","56","0.00",,,,"57","30.23","OVC:08 44","30.08","10.00","49","VRB",,"6",,,,,,,,,,,,,,,,,,,,,,,,,,,,,,,,,,,,,"MET10404/29/20 13:51:02 METAR KNYC 291851Z VRB05KT 10SM OVC044 13/05 A3025 RMK AO2 SLP237 T01330050 $ RTX FIBI","FM-15","7",,,,,,,,,,,,,,,,,,,,,,,,,,,,
"72505394728","2020-04-29T14:51:00","FM-15","7",,,,,,,,,,,,,,,,,,,,,,,,,,,,,,,,,,,,,,"30.25","41","55","0.00",,,,"59","30.23","OVC:08 44","30.08","10.00","48",,,,,,,,,,,,,,,,,,,,,,,,,,,,,,,,,,,,,,,,"MET09904/29/20 14:51:02 METAR KNYC 291951Z      KT 10SM OVC044 13/05 A3025 RMK AO2 SLP236 T01280050 $ RTX","FM-15","7",,,,,,,,,,,,,,,,,,,,,,,,,,,,
"72505394728","2020-04-29T15:51:00","FM-15","7",,,,,,,,,,,,,,,,,,,,,,,,,,,,,,,,,,,,,,"30.25","40","54","0.00",,"-0.01","0","59","30.22","OVC:08 44","30.08","10.00","47","VRB","20","7",,,,,,,,,,,,,,,,,,,,,,,,,,,,,,,,,,,,,"MET10404/29/20 15:51:02 METAR KNYC 292051Z VRB06G17KT 10SM OVC044 12/04 A3025 RMK AO2 SLP235 T01220044 50003 $","FM-15","7",,,,,,,,,,,,,,,,,,,,,,,,,,,,
"72505394728","2020-04-29T16:51:00","FM-15","7",,,,,,,,,,,,,,,,,,,,,,,,,,,,,,,,,,,,,,"30.24","40","54","0.00",,,,"59","30.22","OVC:08 39","30.07","10.00","47","VRB","17","6",,,,,,,,,,,,,,,,,,,,,,,,,,,,,,,,,,,,,"MET09804/29/20 16:51:02 METAR KNYC 292151Z VRB05G15KT 10SM OVC039 12/04 A3024 RMK AO2 SLP234 T01220044 $","FM-15","7",,,,,,,,,,,,,,,,,,,,,,,,,,,,
"72505394728","2020-04-29T17:51:00","FM-15","7",,,,,,,,,,,,,,,,,,,,,,,,,,,,,,,,,,,,,,"30.24","45","51","0.01","-RA:02 |RA |RA",,,"80","30.22","OVC:08 34","30.07","9.00","48","VRB","16","7",,,,,,,,,,,,,,,,,,,,,,,,,,,,,,,,,,,,,"MET11704/29/20 17:51:02 METAR KNYC 292251Z VRB06G14KT 9SM -RA OVC034 11/07 A3024 RMK AO2 RAB37 SLP234 P0001 T01060072 $ RTX","FM-15","7",,,,,,,,,,,,,,,,,,,,,,,,,,,,
"72505394728","2020-04-29T18:51:00","FM-15","7",,,,,,,,,,,,,,,,,,,,,,,,,,,,,,,,,,,,,,"30.25","42","51","T",,"+0.00","5","71","30.22","OVC:08 31","30.08","10.00","47","VRB","21","6",,,,,,,,,,,,,,,,,,,,,,,,,,,,,,,,,,,,,"MET13404/29/20 18:51:02 METAR KNYC 292351Z VRB05G18KT 10SM OVC031 11/06 A3025 RMK AO2 RAE00 SLP234 P0000 60001 T01060056 10150 20106 55001 $","FM-15","7",,,,,,,,,,,,,,,,,,,,,,,,,,,,
"72505394728","2020-04-29T19:51:00","FM-15","7",,,,,,,,,,,,,,,,,,,,,,,,,,,,,,,,,,,,,,"30.24","41","51","0.00",,,,"69","30.22","OVC:08 30","30.07","10.00","46","VRB","20","10",,,,,,,,,,,,,,,,,,,,,,,,,,,,,,,,,,,,,"MET10204/29/20 19:51:03 METAR KNYC 300051Z 08009G17KT 10SM OVC030 11/05 A3024 RMK AO2 SLP233 T01060050 $ RTX","FM-15","7",,,,,,,,,,,,,,,,,,,,,,,,,,,,
"72505394728","2020-04-29T20:51:00","FM-15","7",,,,,,,,,,,,,,,,,,,,,,,,,,,,,,,,,,,,,,"30.24","41","51","0.00",,,,"69","30.22","OVC:08 30","30.07","10.00","46","100","20","10",,,,,,,,,,,,,,,,,,,,,,,,,,,,,,,,,,,,,"MET10704/29/20 20:51:03 METAR KNYC 300151Z 10009G17KT 10SM OVC030 11/05 A3024 RMK AO2 SLP233 T01060050 $ RTX FIBI","FM-15","7",,,,,,,,,,,,,,,,,,,,,,,,,,,,
"72505394728","2020-04-29T21:39:00","FM-16","7",,,,,,,,,,,,,,,,,,,,,,,,,,,,,,,,,,,,,,"30.24","43","50",,"-RA:02 |RA |RA",,,"77",,"OVC:08 29","30.07","9.00","47","VRB",,"8",,,,,,,,,,,,,,,,,,,,,,,,,,,,,,,,,,,,,"MET11204/29/20 21:39:03 SPECI KNYC 300239Z 12007KT 9SM -RA OVC029 10/06 A3024 RMK AO2 RAB12 P0000 T01000061 $ RTX FIBI","FM-16","7",,,,,,,,,,,,,,,,,,,,,,,,,,,,
"72505394728","2020-04-29T21:49:00","FM-16","6",,,,,,,,,,,,,,,,,,,,,,,,,,,,,,,,,,,,,,"30.24","43","50",,,,,"76",,"OVC:08 30","30.07","10.00","47","110","18","8",,,,,,,,,,,,,,,,,,,,,,,,,,,,,,,,,,,,,"MET10104/29/20 21:49:03 SPECI KNYC 300249Z 11007G16KT 10SM OVC030 10/06 A3024 RMK AO2 RAB12E49 P0000 $ FIBI","FM-16","6",,,,,,,,,,,,,,,,,,,,,,,,,,,,
"72505394728","2020-04-29T21:51:00","FM-15","7",,,,,,,,,,,,,,,,,,,,,,,,,,,,,,,,,,,,,,"30.24","42","50","T",,"+0.01","8","74","30.21","OVC:08 30","30.07","10.00","46","110","18","11",,,,,,,,,,,,,,,,,,,,,,,,,,,,,,,,,,,,,"MET12904/29/20 21:51:03 METAR KNYC 300251Z 11010G16KT 10SM OVC030 10/06 A3024 RMK AO2 RAB12E49 SLP231 P0000 60000 T01000056 58003 $ RTX","FM-15","7",,,,,,,,,,,,,,,,,,,,,,,,,,,,
"72505394728","2020-04-29T22:38:00","FM-16","7",,,,,,,,,,,,,,,,,,,,,,,,,,,,,,,,,,,,,,"30.23","41","51",,,,,"69",,"OVC:08 29","30.06","10.00","46","VRB","20","10",,,,,,,,,,,,,,,,,,,,,,,,,,,,,,,,,,,,,"MET09504/29/20 22:38:03 SPECI KNYC 300338Z 11009G17KT 10SM OVC029 11/05 A3023 RMK AO2 T01060050 $ RTX","FM-16","7",,,,,,,,,,,,,,,,,,,,,,,,,,,,
"72505394728","2020-04-29T22:51:00","FM-15","7",,,,,,,,,,,,,,,,,,,,,,,,,,,,,,,,,,,,,,"30.22","41","51","0.00",,,,"69","30.20","OVC:08 27","30.05","10.00","46","VRB",,"8",,,,,,,,,,,,,,,,,,,,,,,,,,,,,,,,,,,,,"MET09904/29/20 22:51:03 METAR KNYC 300351Z 10007KT 10SM OVC027 11/05 A3022 RMK AO2 SLP226 T01060050 $ RTX","FM-15","7",,,,,,,,,,,,,,,,,,,,,,,,,,,,
"72505394728","2020-04-29T23:51:00","FM-15","7",,,,,,,,,,,,,,,,,,,,,,,,,,,,,,,,,,,,,,"30.21","43","51","T","-RA:02 |RA |RA",,,"74","30.19","OVC:08 24","30.04","10.00","47",,,,,,,,,,,,,,,,,,,,,,,,,,,,,,,,,,,,,,,,"MET12504/29/20 23:51:03 METAR KNYC 300451Z      KT 10SM -RA OVC024 11/06 A3021 RMK AO2 RAB30 SLP223 P0000 T01060061 401500083 $ RTX","FM-15","7",,,,,,,,,,,,,,,,,,,,,,,,,,,,
"72505394728","2020-04-29T23:59:00","SOD  ","6",,,,,,,,,,,,,,,,"53",,,"30.06",,"6.7","0","-4.5","12","59","47","080","23","0.01","0","0.0","060","16","RA",,,,,,,,,,,,,,,,,,,,,,,,,,,,,,,,,,,,,,,,,,,,,,,,,,,,,,,,"SOD73924 HR PRECIPITATION (IN): 0.01 SNOW DEPTH (IN):0     24 HR SNOWFALL (IN):0.0  24 HR MAX TEMP (F): 5924 HR MIN TEMP (F): 47AVERAGE STATION PRESSURE(D):30.056 MINIMUM SEA LEVEL PRESSURE:30.13 TIME OF OCCURRENCE:0213 PEAK WIND SPEED (MPH): 23 PEAK WIND DIR (DEG): 80 PEAK WIND TIME (LST):      FASTEST 2MIN SPEED (MPH): 16FASTEST 2MIN DIR (DEG): 60 FASTEST 2MIN TIME (LST):     AVERAGE WIND SPEED (MPH): 6.7 24 HR AVG TEMP (F): 53DEPART FROM NORMAL: -5  HEATING DEGREE DAYS: 12 COOLING DEGREE DAYS:  0 LATEST DAY MAX TEMP (0700-1900 LST): 59 LATEST NIGHT MIN TEMP(1900-0800 LST):47 HOURLY INCREMENTAL PRECIPITATION VALUES (IN):0.00 0.00 0.00 0.00 0.00 0.00 0.00T     0.00 0.00 0.00 0.00 0.00 0.00 0.00 0.00 0.00 0.01T     0.00 0.00T     0.00T","SOD  ","6",,,,,,,,,,,,,,,,,,,,,,,,,"0456","1851",,
"72505394728","2020-04-30T00:51:00","FM-15","7",,,,,,,,,,,,,,,,,,,,,,,,,,,,,,,,,,,,,,"30.19","46","50","0.01",,"+0.04","8","86","30.17","OVC:08 19","30.02","10.00","48","110","17","8",,,,,,,,,,,,,,,,,,,,,,,,,,,,,,,,,,,,,"MET15104/30/20 00:51:02 METAR KNYC 300551Z 11007G15KT 10SM OVC019 10/08 A3019 RMK AO2 RAE0454B20E50 SLP216 P0001 60001 T01000078 10111 20100 58015 $ RTX FIBI","FM-15","7",,,,,,,,,,,,,,,,,,,,,,,,,,,,
"72505394728","2020-04-30T01:35:00","FM-16","7",,,,,,,,,,,,,,,,,,,,,,,,,,,,,,,,,,,,,,"30.18","47","50","0.01",,,,"89",,"OVC:08 14","30.01","10.00","48","VRB",,"10",,,,,,,,,,,,,,,,,,,,,,,,,,,,,,,,,,,,,"MET10904/30/20 01:35:02 SPECI KNYC 300635Z 10009KT 10SM OVC014 10/08 A3018 RMK AO2 RAB0556E34 P0001 T01000083 $ RTX","FM-16","7",,,,,,,,,,,,,,,,,,,,,,,,,,,,
"72505394728","2020-04-30T01:51:00","FM-15","7",,,,,,,,,,,,,,,,,,,,,,,,,,,,,,,,,,,,,,"30.17","47","50","0.01",,,,"89","30.14","OVC:08 13","30.00","10.00","48","VRB",,"8",,,,,,,,,,,,,,,,,,,,,,,,,,,,,,,,,,,,,"MET11204/30/20 01:51:02 METAR KNYC 300651Z 11007KT 10SM OVC013 10/08 A3017 RMK AO2 RAB0556E34 SLP208 P0001 T01000083 $","FM-15","7",,,,,,,,,,,,,,,,,,,,,,,,,,,,
"72505394728","2020-04-30T02:51:00","FM-15","7",,,,,,,,,,,,,,,,,,,,,,,,,,,,,,,,,,,,,,"30.16","47","50","0.03","-RA:02 BR:1 |RA |RA",,,"89","30.13","OVC:08 11","29.99","4.00","48","VRB",,"8",,,,,,,,,,,,,,,,,,,,,,,,,,,,,,,,,,,,,"MET12204/30/20 02:51:02 METAR KNYC 300751Z 10007KT 4SM -RA BR OVC011 10/08 A3016 RMK AO2 RAB18 SLP204 P0001 T01000083 $ RTX FIBI","FM-15","7",,,,,,,,,,,,,,,,,,,,,,,,,,,,
"72505394728","2020-04-30T03:02:00","FM-16","7",,,,,,,,,,,,,,,,,,,,,,,,,,,,,,,,,,,,,,"30.15","47","50","0.02","-RA:02 BR:1 |RA |RA",,,"89",,"OVC:08 11","29.98","2.50","48","VRB",,"7",,,,,,,,,,,,,,,,,,,,,,,,,,,,,,,,,,,,,"MET10804/30/20 03:02:02 SPECI KNYC 300802Z VRB06KT 2 1/2SM -RA BR OVC011 10/08 A3015 RMK AO2 P0002 T01000083 $ RTX","FM-16","7",,,,,,,,,,,,,,,,,,,,,,,,,,,,
"72505394728","2020-04-30T03:09:00","FM-16","7",,,,,,,,,,,,,,,,,,,,,,,,,,,,,,,,,,,,,,"30.15","48","50","0.03","-RA:02 BR:1 |RA |RA",,,"93",,"OVC:08 10","29.98","5.00","49","100",,"8",,,,,,,,,,,,,,,,,,,,,,,,,,,,,,,,,,,,,"MET10404/30/20 03:09:02 SPECI KNYC 300809Z 10007KT 5SM -RA BR OVC010 10/09 A3015 RMK AO2 P0003 T01000089 $ RTX","FM-16","7",,,,,,,,,,,,,,,,,,,,,,,,,,,,
"72505394728","2020-04-30T03:36:00","FM-16","7",,,,,,,,,,,,,,,,,,,,,,,,,,,,,,,,,,,,,,"30.15","48","50","0.05","-RA:02 BR:1 |RA |RA",,,"93",,"OVC:08 9","29.98","4.00","49","VRB",,"6",,,,,,,,,,,,,,,,,,,,,,,,,,,,,,,,,,,,,"MET10404/30/20 03:36:02 SPECI KNYC 300836Z VRB05KT 4SM -RA BR OVC009 10/09 A3015 RMK AO2 P0005 T01000089 $ RTX","FM-16","7",,,,,,,,,,,,,,,,,,,,,,,,,,,,
"72505394728","2020-04-30T03:51:00","FM-15","7",,,,,,,,,,,,,,,,,,,,,,,,,,,,,,,,,,,,,,"30.15","48","50","0.05","-RA:02 BR:1 |RA |RA","+0.04","6","93","30.12","OVC:08 8","29.98","5.00","49","090",,"5",,,,,,,,,,,,,,,,,,,,,,,,,,,,,,,,,,,,,"MET12304/30/20 03:51:02 METAR KNYC 300851Z 09004KT 5SM -RA BR OVC008 10/09 A3015 RMK AO2 SLP201 P0006 60008 T01000089 56014 $ RTX","FM-15","7",,,,,,,,,,,,,,,,,,,,,,,,,,,,
"72505394728","2020-04-30T04:51:00","FM-15","7",,,,,,,,,,,,,,,,,,,,,,,,,,,,,,,,,,,,,,"30.13","48","50","0.02","-RA:02 |RA |RA",,,"93","30.11","OVC:08 6","29.96","8.00","49","VRB","18","9",,,,,,,,,,,,,,,,,,,,,,,,,,,,,,,,,,,,,"MET12804/30/20 04:51:02 METAR KNYC 300951Z 09008G16KT 8SM -RA OVC006 10/09 A3013 RMK AO2 CIG 005V008 SLP196 P0003 T01000089 $ RTX FIBI","FM-15","7",,,,,,,,,,,,,,,,,,,,,,,,,,,,
"72505394728","2020-04-30T05:51:00","FM-15","7",,,,,,,,,,,,,,,,,,,,,,,,,,,,,,,,,,,,,,"30.13","48","50","T","BR:1 ||",,,"93","30.11","OVC:08 4","29.96","6.00","49","080",,"8",,,,,,,,,,,,,,,,,,,,,,,,,,,,,,,,,,,,,"MET11804/30/20 05:51:02 METAR KNYC 301051Z 08007KT 6SM BR OVC004 10/09 A3013 RMK AO2 RAE03 SLP195 P0000 T01000089 $ RTX FIBI","FM-15","7",,,,,,,,,,,,,,,,,,,,,,,,,,,,
"72505394728","2020-04-30T06:51:00","FM-15","7",,,,,,,,,,,,,,,,,,,,,,,,,,,,,,,,,,,,,,"30.12","49","51","T","BR:1 ||","+0.04","6","92","30.09","OVC:08 3","29.95","3.00","50","070",,"7",,,,,,,,,,,,,,,,,,,,,,,,,,,,,,,,,,,,,"MET14604/30/20 06:51:02 METAR KNYC 301151Z 07006KT 3SM BR OVC003 11/09 A3012 RMK AO2 RAB09E19 SLP190 P0000 60011 70013 T01060094 10106 20094 56012 $ RTX","FM-15","7",,,,,,,,,,,,,,,,,,,,,,,,,,,,
"72505394728","2020-04-30T07:09:00","FM-16","7",,,,,,,,,,,,,,,,,,,,,,,,,,,,,,,,,,,,,,"30.11","50","51","T","RA:02 BR:1 |RA |RA",,,"96",,"OVC:08 3","29.94","1.75","50","VRB",,"6",,,,,,,,,,,,,,,,,,,,,,,,,,,,,,,,,,,,,"MET11304/30/20 07:09:02 SPECI KNYC 301209Z VRB05KT 1 3/4SM RA BR OVC003 11/10 A3011 RMK AO2 RAB04 P0000 T01060100 $ RTX","FM-16","7",,,,,,,,,,,,,,,,,,,,,,,,,,,,
"72505394728","2020-04-30T07:29:00","FM-16","7",,,,,,,,,,,,,,,,,,,,,,,,,,,,,,,,,,,,,,"30.10","51","52","0.10","-RA:02 BR:1 |RA |RA",,,"97",,"OVC:08 4","29.93","3.00","51","VRB",,"5",,,,,,,,,,,,,,,,,,,,,,,,,,,,,,,,,,,,,"MET11004/30/20 07:29:02 SPECI KNYC 301229Z VRB04KT 3SM -RA BR OVC004 11/11 A3010 RMK AO2 RAB04 P0010 T01110106 $ RTX","FM-16","7",,,,,,,,,,,,,,,,,,,,,,,,,,,,
"72505394728","2020-04-30T07:38:00","FM-16","7",,,,,,,,,,,,,,,,,,,,,,,,,,,,,,,,,,,,,,"30.10","51","52","0.10","-RA:02 BR:1 |RA |RA",,,"97",,"OVC:08 5","29.93","4.00","51","VRB","16","8",,,,,,,,,,,,,,,,,,,,,,,,,,,,,,,,,,,,,"MET11804/30/20 07:38:02 SPECI KNYC 301238Z 12007G14KT 4SM -RA BR OVC005 11/11 A3010 RMK AO2 RAB04 P0010 T01110106 $ RTX FIBI","FM-16","7",,,,,,,,,,,,,,,,,,,,,,,,,,,,
"72505394728","2020-04-30T07:47:00","FM-16","6",,,,,,,,,,,,,,,,,,,,,,,,,,,,,,,,,,,,,,"30.10","52","54",,"RA:02 BR:1 |RA |RA",,,"94",,"OVC:08 5","29.93","1.75","53","130",,"6",,,,,,,,,,,,,,,,,,,,,,,,,,,,,,,,,,,,,"MET10804/30/20 07:47:02 SPECI KNYC 301247Z 13005KT 1 3/4SM RA BR OVC005 12/11 A3010 RMK AO2 RAB04 P0011 $ RTX FIBI","FM-16","6",,,,,,,,,,,,,,,,,,,,,,,,,,,,
"72505394728","2020-04-30T07:51:00","FM-15","7",,,,,,,,,,,,,,,,,,,,,,,,,,,,,,,,,,,,,,"30.10","51","53","0.15","RA:02 BR:1 |RA |RA",,,"93","30.07","OVC:08 6","29.93","1.25","52","VRB",,"6",,,,,,,,,,,,,,,,,,,,,,,,,,,,,,,,,,,,,"MET12504/30/20 07:51:02 METAR KNYC 301251Z VRB05KT 1 1/4SM RA BR OVC006 12/11 A3010 RMK AO2 RAB04 SLP184 P0012 T01170106 $ RTX FIBI","FM-15","7",,,,,,,,,,,,,,,,,,,,,,,,,,,,
"72505394728","2020-04-30T08:03:00","FM-16","7",,,,,,,,,,,,,,,,,,,,,,,,,,,,,,,,,,,,,,"30.10","52","53","0.03","-RA:02 BR:1 |RA |RA",,,"96",,"OVC:08 6","29.93","3.00","52","VRB",,"3",,,,,,,,,,,,,,,,,,,,,,,,,,,,,,,,,,,,,"MET10004/30/20 08:03:02 SPECI KNYC 301303Z VRB03KT 3SM -RA BR OVC006 12/11 A3010 RMK AO2 P0003 T01170111 $","FM-16","7",,,,,,,,,,,,,,,,,,,,,,,,,,,,
"72505394728","2020-04-30T08:19:00","FM-16","7",,,,,,,,,,,,,,,,,,,,,,,,,,,,,,,,,,,,,,"30.09","52","53","0.03","RA:02 BR:1 |RA |RA",,,"96",,"OVC:08 6","29.92","1.75","52","160",,"7",,,,,,,,,,,,,,,,,,,,,,,,,,,,,,,,,,,,,"MET10704/30/20 08:19:02 SPECI KNYC 301319Z 16006KT 1 3/4SM RA BR OVC006 12/11 A3009 RMK AO2 P0003 T01170111 $ RTX","FM-16","7",,,,,,,,,,,,,,,,,,,,,,,,,,,,
"72505394728","2020-04-30T08:30:00","FM-16","7",,,,,,,,,,,,,,,,,,,,,,,,,,,,,,,,,,,,,,"30.09","52","54","0.05","-RA:02 BR:1 |RA |RA",,,"93",,"OVC:08 6","29.92","3.00","53","VRB",,"6",,,,,,,,,,,,,,,,,,,,,,,,,,,,,,,,,,,,,"MET10404/30/20 08:30:02 SPECI KNYC 301330Z VRB05KT 3SM -RA BR OVC006 12/11 A3009 RMK AO2 P0005 T01220111 $ RTX","FM-16","7",,,,,,,,,,,,,,,,,,,,,,,,,,,,
"72505394728","2020-04-30T08:51:00","FM-15","6",,,,,,,,,,,,,,,,,,,,,,,,,,,,,,,,,,,,,,"30.09","53","55","0.06","-RA:02 BR:1 |RA |RA",,,"93","30.06","OVC:08 5","29.92","3.00","54","150",,"8",,,,,,,,,,,,,,,,,,,,,,,,,,,,,,,,,,,,,"MET11604/30/20 08:51:02 METAR KNYC 301351Z 15007KT 3SM -RA BR OVC005 13/12 A3009 RMK AO2 SLP180 P0005 T01280117 $ RTX FIBI","FM-15","6",,,,,,,,,,,,,,,,,,,,,,,,,,,,
"72505394728","2020-04-30T08:53:00","FM-16","7",,,,,,,,,,,,,,,,,,,,,,,,,,,,,,,,,,,,,,"30.09","53","54","T","RA:02 BR:1 |RA |RA",,,"97",,"OVC:08 5","29.92","1.50","53","140","20","11",,,,,,,,,,,,,,,,,,,,,,,,,,,,,,,,,,,,,"MET11004/30/20 08:53:02 SPECI KNYC 301353Z 14010G17KT 1 1/2SM RA BR OVC005 12/12 A3009 RMK AO2 P0000 T01220117 $ RTX","FM-16","7",,,,,,,,,,,,,,,,,,,,,,,,,,,,
"72505394728","2020-04-30T09:09:00","FM-16","7",,,,,,,,,,,,,,,,,,,,,,,,,,,,,,,,,,,,,,"30.08","53","55","0.05","-RA:02 BR:1 |RA |RA",,,"93",,"OVC:08 6","29.91","3.00","54","VRB",,"3",,,,,,,,,,,,,,,,,,,,,,,,,,,,,,,,,,,,,"MET10404/30/20 09:09:02 SPECI KNYC 301409Z VRB03KT 3SM -RA BR OVC006 13/12 A3008 RMK AO2 P0005 T01280117 $ RTX","FM-16","7",,,,,,,,,,,,,,,,,,,,,,,,,,,,
"72505394728","2020-04-30T09:51:00","FM-15","7",,,,,,,,,,,,,,,,,,,,,,,,,,,,,,,,,,,,,,"30.07","54","56","0.02","-RA:02 BR:1 |RA |RA","+0.04","6","93","30.05","OVC:08 7","29.90","4.00","55",,,,,,,,,,,,,,,,,,,,,,,,,,,,,,,,,,,,,,,,"MET12304/30/20 09:51:02 METAR KNYC 301451Z      KT 4SM -RA BR OVC007 13/12 A3007 RMK AO2 SLP176 P0006 60023 T01330122 56014 $ RTX","FM-15","7",,,,,,,,,,,,,,,,,,,,,,,,,,,,
"72505394728","2020-04-30T10:06:00","FM-16","7",,,,,,,,,,,,,,,,,,,,,,,,,,,,,,,,,,,,,,"30.07","55","56","0.01","-RA:02 BR:1 |RA |RA",,,"97",,"OVC:08 7","29.90","2.00","55",,,,,,,,,,,,,,,,,,,,,,,,,,,,,,,,,,,,,,,,"MET10404/30/20 10:06:02 SPECI KNYC 301506Z      KT 2SM -RA BR OVC007 13/13 A3007 RMK AO2 P0001 T01330128 $ RTX","FM-16","7",,,,,,,,,,,,,,,,,,,,,,,,,,,,
"72505394728","2020-04-30T10:42:00","FM-16","6",,,,,,,,,,,,,,,,,,,,,,,,,,,,,,,,,,,,,,"30.06","54","56",,"-RA:02 BR:1 |RA |RA",,,"93",,"OVC:08 6","29.89","3.00","55","VRB","18","9",,,,,,,,,,,,,,,,,,,,,,,,,,,,,,,,,,,,,"MET11204/30/20 10:42:02 SPECI KNYC 301542Z 14008G16KT 3SM -RA BR OVC006 13/12 A3006 RMK AO2 P0004 T01330122 $ RTX FIBI","FM-16","6",,,,,,,,,,,,,,,,,,,,,,,,,,,,
"72505394728","2020-04-30T10:46:00","FM-16","7",,,,,,,,,,,,,,,,,,,,,,,,,,,,,,,,,,,,,,"30.06","54","55","0.05","-RA:02 BR:1 |RA |RA",,,"94",,"OVC:08 6","29.89","1.75V","54","VRB","18","5",,,,,,,,,,,,,,,,,,,,,,,,,,,,,,,,,,,,,"MET11404/30/20 10:46:02 SPECI KNYC 301546Z VRB04G16KT 1 3/4SM -RA BR OVC006 13/12 A3006 RMK AO2 VIS 1V5 P0005 $ RTX FIBI","FM-16","7",,,,,,,,,,,,,,,,,,,,,,,,,,,,
"72505394728","2020-04-30T10:51:00","FM-15","7",,,,,,,,,,,,,,,,,,,,,,,,,,,,,,,,,,,,,,"30.06","54","56","0.07","RA:02 BR:1 |RA |RA",,,"93","30.03","OVC:08 6","29.89","1.25V","55",,,,,,,,,,,,,,,,,,,,,,,,,,,,,,,,,,,,,,,,"MET12904/30/20 10:51:02 METAR KNYC 301551Z      KT 1 1/4SM RA BR OVC006 13/12 A3006 RMK AO2 VIS 3/4V3 SLP170 P0007 T01330122 $ RTX FIBI","FM-15","7",,,,,,,,,,,,,,,,,,,,,,,,,,,,
"72505394728","2020-04-30T10:57:00","FM-16","7",,,,,,,,,,,,,,,,,,,,,,,,,,,,,,,,,,,,,,"30.05","54","56","T","-RA:02 BR:1 |RA |RA",,,"93",,"OVC:08 6","29.88","3.00","55","VRB",,"6",,,,,,,,,,,,,,,,,,,,,,,,,,,,,,,,,,,,,"MET10904/30/20 10:57:02 SPECI KNYC 301557Z VRB05KT 3SM -RA BR OVC006 13/12 A3005 RMK AO2 P0000 T01330122 $ RTX FIBI","FM-16","7",,,,,,,,,,,,,,,,,,,,,,,,,,,,
"72505394728","2020-04-30T11:39:00","FM-16","7",,,,,,,,,,,,,,,,,,,,,,,,,,,,,,,,,,,,,,"30.04","55","57","T","BR:1 ||",,,"93",,"OVC:08 10","29.87","6.00","56",,,,,,,,,,,,,,,,,,,,,,,,,,,,,,,,,,,,,,,,"MET10604/30/20 11:39:02 SPECI KNYC 301639Z      KT 6SM BR OVC010 14/13 A3004 RMK AO2 RAE11 P0000 T01390128 $ RTX","FM-16","7",,,,,,,,,,,,,,,,,,,,,,,,,,,,
"72505394728","2020-04-30T11:51:00","FM-15","7",,,,,,,,,,,,,,,,,,,,,,,,,,,,,,,,,,,,,,"30.04","55","57","T",,,,"93","30.01","BKN:07 11 OVC:08 34","29.87","7.00","56","VRB","20","9",,,,,,,,,,,,,,,,,,,,,,,,,,,,,,,,,,,,,"MET11604/30/20 11:51:02 METAR KNYC 301651Z 15008G17KT 7SM BKN011 OVC034 14/13 A3004 RMK AO2 RAE11 SLP164 P0000 T01390128 $","FM-15","7",,,,,,,,,,,,,,,,,,,,,,,,,,,,
"72505394728","2020-04-30T12:51:00","FM-15","7",,,,,,,,,,,,,,,,,,,,,,,,,,,,,,,,,,,,,,"30.01","54","59","0.00",,"+0.06","8","83","29.98","BKN:07 14 OVC:08 65","29.84","9.00","56","VRB","29","7",,,,,,,,,,,,,,,,,,,,,,,,,,,,,,,,,,,,,"MET15004/30/20 12:51:02 METAR KNYC 301751Z VRB06G25KT 9SM BKN014 OVC065 15/12 A3001 RMK AO2 PK WND 15027/1715 SLP154 60030 T01500122 10150 20106 58021 $ RTX","FM-15","7",,,,,,,,,,,,,,,,,,,,,,,,,,,,
"72505394728","2020-04-30T13:04:00","FM-16","7",,,,,,,,,,,,,,,,,,,,,,,,,,,,,,,,,,,,,,"30.01","54","59",,,,,"83",,"BKN:07 16 BKN:07 65","29.84","9.00","56","VRB","36","8",,,,,,,,,,,,,,,,,,,,,,,,,,,,,,,,,,,,,"MET11904/30/20 13:04:02 SPECI KNYC 301804Z 16007G31KT 9SM BKN016 BKN065 15/12 A3001 RMK AO2 PK WND 16031/1756 T01500122 $ RTX","FM-16","7",,,,,,,,,,,,,,,,,,,,,,,,,,,,
"72505394728","2020-04-30T13:18:00","FM-16","7",,,,,,,,,,,,,,,,,,,,,,,,,,,,,,,,,,,,,,"30.00","54","59",,,,,"83",,"SCT:04 15 BKN:07 40 BKN:07 70","29.83","9.00","56","VRB","23","11",,,,,,,,,,,,,,,,,,,,,,,,,,,,,,,,,,,,,"MET12604/30/20 13:18:02 SPECI KNYC 301818Z 15010G20KT 9SM SCT015 BKN040 BKN070 15/12 A3000 RMK AO2 PK WND 16031/1756 T01500122 $ RTX","FM-16","7",,,,,,,,,,,,,,,,,,,,,,,,,,,,
"72505394728","2020-04-30T13:51:00","FM-15","7",,,,,,,,,,,,,,,,,,,,,,,,,,,,,,,,,,,,,,"29.99","54","59","0.00",,,,"83","29.96","SCT:04 14 BKN:07 42 OVC:08 60","29.82","9.00","56",,,,,,,,,,,,,,,,,,,,,,,,,,,,,,,,,,,,,,,,"MET13004/30/20 13:51:02 METAR KNYC 301851Z      KT 9SM SCT014 BKN042 OVC060 15/12 A2999 RMK AO2 PK WND 16031/1756 SLP145 T01500122 $ RTX","FM-15","7",,,,,,,,,,,,,,,,,,,,,,,,,,,,
"72505394728","2020-04-30T14:51:00","FM-15","7",,,,,,,,,,,,,,,,,,,,,,,,,,,,,,,,,,,,,,"29.96","53","60","0.00",,,,"78","29.93","FEW:02 16 BKN:07 47 OVC:08 60","29.79","10.00","56","VRB","25","14",,,,,,,,,,,,,,,,,,,,,,,,,,,,,,,,,,,,,"MET13904/30/20 14:51:02 METAR KNYC 301951Z 16012G22KT 10SM FEW016 BKN047 OVC060 16/12 A2996 RMK AO2 PK WND 16031/1938 SLP136 T01560117 $ RTX FIBI","FM-15","7",,,,,,,,,,,,,,,,,,,,,,,,,,,,
"72505394728","2020-04-30T15:51:00","FM-15","7",,,,,,,,,,,,,,,,,,,,,,,,,,,,,,,,,,,,,,"29.94","53","60","0.00",,"+0.08","6","78","29.91","SCT:04 17 OVC:08 70","29.77","10.00","56","VRB","28","7",,,,,,,,,,,,,,,,,,,,,,,,,,,,,,,,,,,,,"MET12004/30/20 15:51:02 METAR KNYC 302051Z VRB06G24KT 10SM SCT017 OVC070 16/12 A2994 RMK AO2 SLP128 T01560117 56026 $ RTX FIBI","FM-15","7",,,,,,,,,,,,,,,,,,,,,,,,,,,,
"72505394728","2020-04-30T16:47:00","FM-16","6",,,,,,,,,,,,,,,,,,,,,,,,,,,,,,,,,,,,,,"29.92","54","59",,,,,"82",,"BKN:07 17 BKN:07 46 OVC:08 65","29.75","10.00","56","VRB","24","7",,,,,,,,,,,,,,,,,,,,,,,,,,,,,,,,,,,,,"MET10404/30/20 16:47:02 SPECI KNYC 302147Z VRB06G21KT 10SM BKN017 BKN046 OVC065 15/12 A2992 RMK AO2 $ RTX FIBI","FM-16","6",,,,,,,,,,,,,,,,,,,,,,,,,,,,
"72505394728","2020-04-30T16:51:00","FM-15","7",,,,,,,,,,,,,,,,,,,,,,,,,,,,,,,,,,,,,,"29.92","53","59","0.00",,,,"81","29.89","BKN:07 17 BKN:07 46 OVC:08 65","29.75","10.00","56","VRB",,"9",,,,,,,,,,,,,,,,,,,,,,,,,,,,,,,,,,,,,"MET11804/30/20 16:51:02 METAR KNYC 302151Z 12008KT 10SM BKN017 BKN046 OVC065 15/12 A2992 RMK AO2 SLP123 T01500117 $ RTX FIBI","FM-15","7",,,,,,,,,,,,,,,,,,,,,,,,,,,,
"72505394728","2020-04-30T17:42:00","FM-16","7",,,,,,,,,,,,,,,,,,,,,,,,,,,,,,,,,,,,,,"29.90","52","58",,,,,"81",,"SCT:04 15 BKN:07 42 OVC:08 60","29.73","9.00","55","130","25","14",,,,,,,,,,,,,,,,,,,,,,,,,,,,,,,,,,,,,"MET10804/30/20 17:42:02 SPECI KNYC 302242Z 13012G22KT 9SM SCT015 BKN042 OVC060 14/11 A2990 RMK AO2 T01440111 $ RTX","FM-16","7",,,,,,,,,,,,,,,,,,,,,,,,,,,,
"72505394728","2020-04-30T17:51:00","FM-15","7",,,,,,,,,,,,,,,,,,,,,,,,,,,,,,,,,,,,,,"29.89","52","59","0.00",,,,"78","29.86","FEW:02 16 OVC:08 60","29.72","9.00","55","VRB","24","16",,,,,,,,,,,,,,,,,,,,,,,,,,,,,,,,,,,,,"MET11304/30/20 17:51:02 METAR KNYC 302251Z 13014G21KT 9SM FEW016 OVC060 15/11 A2989 RMK AO2 SLP112 T01500111 $ RTX FIBI","FM-15","7",,,,,,,,,,,,,,,,,,,,,,,,,,,,
"72505394728","2020-04-30T18:51:00","FM-15","7",,,,,,,,,,,,,,,,,,,,,,,,,,,,,,,,,,,,,,"29.86","53","59","0.00",,"+0.06","8","81","29.83","SCT:04 16 BKN:07 39 OVC:08 55","29.69","10.00","56","VRB","25","11",,,,,,,,,,,,,,,,,,,,,,,,,,,,,,,,,,,,,"MET15204/30/20 18:51:02 METAR KNYC 302351Z 14010G22KT 10SM SCT016 BKN039 OVC055 15/12 A2986 RMK AO2 PK WND 13027/2253 SLP103 T01500117 10156 20144 58020 $ RTX","FM-15","7",,,,,,,,,,,,,,,,,,,,,,,,,,,,
"72505394728","2020-04-30T19:18:00","FM-16","7",,,,,,,,,,,,,,,,,,,,,,,,,,,,,,,,,,,,,,"29.84","53","58","T","-RA:02 |RA |RA",,,"84",,"BKN:07 15 OVC:08 39","29.67","9.00","55","VRB","25","6",,,,,,,,,,,,,,,,,,,,,,,,,,,,,,,,,,,,,"MET11704/30/20 19:18:03 SPECI KNYC 010018Z VRB05G22KT 9SM -RA BKN015 OVC039 14/12 A2984 RMK AO2 RAB07 P0000 T01440117 $ RTX","FM-16","7",,,,,,,,,,,,,,,,,,,,,,,,,,,,
"72505394728","2020-04-30T19:37:00","FM-16","7",,,,,,,,,,,,,,,,,,,,,,,,,,,,,,,,,,,,,,"29.83","54","57","0.03","RA:02 BR:1 |RA |RA",,,"90",,"BKN:07 15 BKN:07 31 OVC:08 37","29.66","2.00","55","130","32","15",,,,,,,,,,,,,,,,,,,,,,,,,,,,,,,,,,,,,"MET14404/30/20 19:37:03 SPECI KNYC 010037Z 13013G28KT 2SM RA BR BKN015 BKN031 OVC037 14/12 A2983 RMK AO2 PK WND 13028/0034 RAB07 P0003 T01390122 $ RTX","FM-16","7",,,,,,,,,,,,,,,,,,,,,,,,,,,,
"72505394728","2020-04-30T19:42:00","FM-16","7",,,,,,,,,,,,,,,,,,,,,,,,,,,,,,,,,,,,,,"29.83","54","57","0.04","-RA:02 BR:1 |RA |RA",,,"90",,"BKN:07 13 BKN:07 31 OVC:08 38","29.66","3.00","55","VRB","32","13",,,,,,,,,,,,,,,,,,,,,,,,,,,,,,,,,,,,,"MET14504/30/20 19:42:03 SPECI KNYC 010042Z 12011G28KT 3SM -RA BR BKN013 BKN031 OVC038 14/12 A2983 RMK AO2 PK WND 13028/0034 RAB07 P0004 T01390122 $ RTX","FM-16","7",,,,,,,,,,,,,,,,,,,,,,,,,,,,
"72505394728","2020-04-30T19:51:00","FM-15","7",,,,,,,,,,,,,,,,,,,,,,,,,,,,,,,,,,,,,,"29.83","54","57","0.06","-RA:02 BR:1 |RA |RA",,,"90","29.80","BKN:07 13 OVC:08 33","29.66","4.00","55","VRB","29","11",,,,,,,,,,,,,,,,,,,,,,,,,,,,,,,,,,,,,"MET14504/30/20 19:51:03 METAR KNYC 010051Z 12010G25KT 4SM -RA BR BKN013 OVC033 14/12 A2983 RMK AO2 PK WND 13028/0034 RAB07 SLP091 P0006 T01390122 $ RTX","FM-15","7",,,,,,,,,,,,,,,,,,,,,,,,,,,,
"72505394728","2020-04-30T20:23:00","FM-16","7",,,,,,,,,,,,,,,,,,,,,,,,,,,,,,,,,,,,,,"29.82","54","56","0.02","RA:02 BR:1 |RA |RA",,,"93",,"BKN:07 13 OVC:08 26","29.65","1.75","55","VRB","30","11",,,,,,,,,,,,,,,,,,,,,,,,,,,,,,,,,,,,,"MET13504/30/20 20:23:03 SPECI KNYC 010123Z 11010G26KT 1 3/4SM RA BR BKN013 OVC026 13/12 A2982 RMK AO2 PK WND 14029/0115 P0002 T01330122 $ RTX","FM-16","7",,,,,,,,,,,,,,,,,,,,,,,,,,,,
"72505394728","2020-04-30T20:46:00","FM-16","6",,,,,,,,,,,,,,,,,,,,,,,,,,,,,,,,,,,,,,"29.82","55","57",,"-RA:02 BR:1 |RA |RA",,,"94",,"OVC:08 12","29.65","3.00","56","VRB","34","10",,,,,,,,,,,,,,,,,,,,,,,,,,,,,,,,,,,,,"MET12004/30/20 20:46:03 SPECI KNYC 010146Z 16009G30KT 3SM -RA BR OVC012 14/13 A2982 RMK AO2 PK WND 14030/0137 P0016 $ RTX FIBI","FM-16","6",,,,,,,,,,,,,,,,,,,,,,,,,,,,
"72505394728","2020-04-30T20:51:00","FM-15","7",,,,,,,,,,,,,,,,,,,,,,,,,,,,,,,,,,,,,,"29.83","55","58","0.17","-RA:02 BR:1 |RA |RA",,,"90","29.80","OVC:08 12","29.66","5.00","56","VRB","31","11",,,,,,,,,,,,,,,,,,,,,,,,,,,,,,,,,,,,,"MET12804/30/20 20:51:03 METAR KNYC 010151Z 16010G27KT 5SM -RA BR OVC012 14/13 A2983 RMK AO2 PK WND 14030/0137 SLP091 P0016 T01440128 $","FM-15","7",,,,,,,,,,,,,,,,,,,,,,,,,,,,
"72505394728","2020-04-30T21:40:00","FM-16","7",,,,,,,,,,,,,,,,,,,,,,,,,,,,,,,,,,,,,,"29.83","54","55","0.03","-RA:02 BR:1 |RA |RA",,,"96",,"OVC:08 9","29.66","5.00","54","150","20","13",,,,,,,,,,,,,,,,,,,,,,,,,,,,,,,,,,,,,"MET13704/30/20 21:40:03 SPECI KNYC 010240Z 15011G17KT 5SM -RA BR OVC009 13/12 A2983 RMK AO2 PK WND 12027/0157 CIG 007V011 P0003 T01280122 $ RTX","FM-16","7",,,,,,,,,,,,,,,,,,,,,,,,,,,,
"72505394728","2020-04-30T21:51:00","FM-15","7",,,,,,,,,,,,,,,,,,,,,,,,,,,,,,,,,,,,,,"29.83","54","55","0.02",,"+0.04","5","96","29.80","OVC:08 8","29.66","7.00","54","160","26","10",,,,,,,,,,,,,,,,,,,,,,,,,,,,,,,,,,,,,"MET14304/30/20 21:51:03 METAR KNYC 010251Z 16009G23KT 7SM OVC008 13/12 A2983 RMK AO2 PK WND 12027/0157 RAE49 SLP091 P0003 60025 T01280122 55012 $ RTX","FM-15","7",,,,,,,,,,,,,,,,,,,,,,,,,,,,
"72505394728","2020-04-30T22:51:00","FM-15","7",,,,,,,,,,,,,,,,,,,,,,,,,,,,,,,,,,,,,,"29.82","53","55","0.02","-RA:02 BR:1 |RA |RA",,,"93","29.79","OVC:08 7","29.65","5.00","54","150","18","11",,,,,,,,,,,,,,,,,,,,,,,,,,,,,,,,,,,,,"MET12004/30/20 22:51:03 METAR KNYC 010351Z 15010G16KT 5SM -RA BR OVC007 13/12 A2982 RMK AO2 RAB15 SLP087 P0002 T01280117 $ RTX","FM-15","7",,,,,,,,,,,,,,,,,,,,,,,,,,,,
"72505394728","2020-04-30T23:49:00","FM-16","6",,,,,,,,,,,,,,,,,,,,,,,,,,,,,,,,,,,,,,"29.79","54","55",,"-RA:02 BR:1 |RA |RA",,,"94",,"SCT:04 6 OVC:08 85","29.62","6.00","54",,,,,,,,,,,,,,,,,,,,,,,,,,,,,,,,,,,,,,,,"MET10604/30/20 23:49:03 SPECI KNYC 010449Z      KT 6SM -RA BR SCT006 OVC085 13/12 A2979 RMK AO2 P0002 $ RTX FIBI","FM-16","6",,,,,,,,,,,,,,,,,,,,,,,,,,,,
"72505394728","2020-04-30T23:51:00","FM-15","7",,,,,,,,,,,,,,,,,,,,,,,,,,,,,,,,,,,,,,"29.79","53","55","0.02","-RA:02 BR:1 |RA |RA",,,"93","29.76","FEW:02 6 OVC:08 85","29.62","6.00","54",,,,,,,,,,,,,,,,,,,,,,,,,,,,,,,,,,,,,,,,"MET12804/30/20 23:51:03 METAR KNYC 010451Z      KT 6SM -RA BR FEW006 OVC085 13/12 A2979 RMK AO2 SLP079 P0002 T01280117 401560094 $ RTX","FM-15","7",,,,,,,,,,,,,,,,,,,,,,,,,,,,
"72505394728","2020-04-30T23:59:00","SOD  ","6",,,,,,,,,,,,,,,,"55",,,"29.88",,"9.1","0","-2.8","10","60","49","160","36","0.71","0","0.0","130","18","RA BR",,,,,,,,,,,,,,,,,,,,,,,,,,,,,,,,,,,,,,,,,,,,,,,,,,,,,,,,"SOD75624 HR PRECIPITATION (IN): 0.71 SNOW DEPTH (IN):0     24 HR SNOWFALL (IN):0.0  WEATHER(CODE):1  24 HR MAX TEMP (F): 6024 HR MIN TEMP (F): 49AVERAGE STATION PRESSURE:29.875 MINIMUM SEA LEVEL PRESSURE:29.76 TIME OF OCCURRENCE:2358 PEAK WIND SPEED (MPH): 36 PEAK WIND DIR (DEG):160 PEAK WIND TIME (LST):      FASTEST 2MIN SPEED (MPH): 18FASTEST 2MIN DIR (DEG):130 FASTEST 2MIN TIME (LST):     AVERAGE WIND SPEED (MPH): 9.1 24 HR AVG TEMP (F): 55DEPART FROM NORMAL: -3  HEATING DEGREE DAYS: 10 COOLING DEGREE DAYS:  0 LATEST DAY MAX TEMP (0700-1900 LST):60  LATEST NIGHT MIN TEMP(1900-0800 LST):49 HOURLY INCREMENTAL PRECIPITATION VALUES (IN):.01 0.01 0.03 0.05 0.02 T    T    0.15 0.06 0.02 0.07 T    0.00 0.00 0.00 0.00 0.00 0.00 0.00 0.06 0.17 0.02 0.02 0.02","SOD  ","6",,,,,,,,,,,,,,,,,,,,,,,,,"0455","1852",,
"72505394728","2020-04-30T23:59:00","SOM  ","6",,,,,,,,,,,,,,,,,,,,,,,,,,,,,,,,,,,,,,,,,,,,,,,,,,,,,,,"14s","9s","0","0","0","0","-2.6",,,"-3.5","-1.8","-0.01s",,"1.92","13-13",,,,,"30.32","17","0647","57.7","50.4","29.14","09","1250","43.0","29.86","29.72","4.49s",,,"11","371","SOM793PCP MTOT:4.49 PCP GT 24HRS:1.92 DATE(S):13 DAYS W/PCP >=.01:14 DAYS W/PCP >=.10:9  DAYS W/ PCP >=.50:2 DAYS W/PCP >=1.00:1 MSDP AMTS W/DATE-TIME TAGS:MIN:5 0.07  13/1452 MIN:10 0.09  30/2037 MIN:15 0.12  30/2037 MIN:20 0.14  30/2043 MIN:30 0.17  13/1006 MIN:45 0.22  13/1006 MIN:60 0.27  13/0840 MIN:80 0.39  13/0840 MIN:100 0.46  13/0840 MIN:120 0.52  13/1006 MIN:150 0.65  13/0950 MIN:180 0.77  13/1006 AVG DLY MIN:43.0  AVG DLY MAX:57.7  AVG MLY TMP:50.4  MIN TMP:36 DATE(S):22 17 MAX TMP:68  DATE(S):07 DAYS MAX <=32:0 DAYS MAX >=90:0  DAYS MIN <=32:0  DAYS MIN  <=0:0  AVG STP:29.720 LWST SLP:29.14 DATE/TIME:091250 HGST SLP:30.32 DATE/TIME:170647 HDD MTH TOT:432 DEP NORM:-2553 SEASON(JUL 1-JUN 30):4088 DEP NORM:-25536 CDD MTH TOT:0 DEP NORM:-2553 SEASON(JAN 1-DEC 31):0 DEP NORM:-25536","SOM  ","6","2020-04-13 14:52","2020-04-30 20:37","2020-04-30 20:37","2020-04-30 20:43","2020-04-13 10:06","2020-04-13 10:06","2020-04-13 08:40","2020-04-13 08:40","2020-04-13 08:40","2020-04-13 10:06","2020-04-13 09:50","2020-04-13 10:06","0.07","0.09","0.12","0.14","0.17","0.22","0.27","0.39","0.46","0.52","0.65","0.77",,,,
