"STATION","DATE","REPORT_TYPE","SOURCE","AWND","BackupDirection","BackupDistance","BackupDistanceUnit","BackupElements","BackupElevation","BackupElevationUnit","BackupEquipment","BackupLatitude","BackupLongitude","BackupName","CDSD","CLDD","DSNW","DailyAverageDewPointTemperature","DailyAverageDryBulbTemperature","DailyAverageRelativeHumidity","DailyAverageSeaLevelPressure","DailyAverageStationPressure","DailyAverageWetBulbTemperature","DailyAverageWindSpeed","DailyCoolingDegreeDays","DailyDepartureFromNormalAverageTemperature","DailyHeatingDegreeDays","DailyMaximumDryBulbTemperature","DailyMinimumDryBulbTemperature","DailyPeakWindDirection","DailyPeakWindSpeed","DailyPrecipitation","DailySnowDepth","DailySnowfall","DailySustainedWindDirection","DailySustainedWindSpeed","DailyWeather","HDSD","HTDD","HeavyFog","HourlyAltimeterSetting","HourlyDewPointTemperature","HourlyDryBulbTemperature","HourlyPrecipitation","HourlyPresentWeatherType","HourlyPressureChange","HourlyPressureTendency","HourlyRelativeHumidity","HourlySeaLevelPressure","HourlySkyConditions","HourlyStationPressure","HourlyVisibility","HourlyWetBulbTemperature","HourlyWindDirection","HourlyWindGustSpeed","HourlyWindSpeed","MonthlyAverageRH","MonthlyDaysWithGT001Precip","MonthlyDaysWithGT010Precip","MonthlyDaysWithGT32Temp","MonthlyDaysWithGT90Temp","MonthlyDaysWithLT0Temp","MonthlyDaysWithLT32Temp","MonthlyDepartureFromNormalAverageTemperature","MonthlyDepartureFromNormalCoolingDegreeDays","MonthlyDepartureFromNormalHeatingDegreeDays","MonthlyDepartureFromNormalMaximumTemperature","MonthlyDepartureFromNormalMinimumTemperature","MonthlyDepartureFromNormalPrecipitation","MonthlyDewpointTemperature","MonthlyGreatestPrecip","MonthlyGreatestPrecipDate","MonthlyGreatestSnowDepth","MonthlyGreatestSnowDepthDate","MonthlyGreatestSnowfall","MonthlyGreatestSnowfallDate","MonthlyMaxSeaLevelPressureValue","MonthlyMaxSeaLevelPressureValueDate","MonthlyMaxSeaLevelPressureValueTime","MonthlyMaximumTemperature","MonthlyMeanTemperature","MonthlyMinSeaLevelPressureValue","MonthlyMinSeaLevelPressureValueDate","MonthlyMinSeaLevelPressureValueTime","MonthlyMinimumTemperature","MonthlySeaLevelPressure","MonthlyStationPressure","MonthlyTotalLiquidPrecipitation","MonthlyTotalSnowfall","MonthlyWetBulb","NormalsCoolingDegreeDay","NormalsHeatingDegreeDay","REM","REPORT_TYPE","SOURCE","ShortDurationEndDate005","ShortDurationEndDate010","ShortDurationEndDate015","ShortDurationEndDate020","ShortDurationEndDate030","ShortDurationEndDate045","ShortDurationEndDate060","ShortDurationEndDate080","ShortDurationEndDate100","ShortDurationEndDate120","ShortDurationEndDate150","ShortDurationEndDate180","ShortDurationPrecipitationValue005","ShortDurationPrecipitationValue010","ShortDurationPrecipitationValue015","ShortDurationPrecipitationValue020","ShortDurationPrecipitationValue030","ShortDurationPrecipitationValue045","ShortDurationPrecipitationValue060","ShortDurationPrecipitationValue080","ShortDurationPrecipitationValue100","ShortDurationPrecipitationValue120","ShortDurationPrecipitationValue150","ShortDurationPrecipitationValue180","Sunrise","Sunset","TStorms","WindEquipmentChangeDate"
"72503014732","2020-03-12T00:51:00","FM-15","7",,,,,,,,,,,,,,,,,,,,,,,,,,,,,,,,,,,,,,"30.08","30","44","0.00",,"+0.01","5","58","30.08","SCT:04 250","30.05","10.00","38","060",,"3",,,,,,,,,,,,,,,,,,,,,,,,,,,,,,,,,,,,,"MET11403/12/20 00:51:01 METAR KLGA 120551Z 06003KT 10SM SCT250 07/M01 A3008 RMK AO2 SLP186 T00671011 10122 20067 55005 $","FM-15","7",,,,,,,,,,,,,,,,,,,,,,,,,,,,
"72503014732","2020-03-12T01:00:00","FM-12","4",,,,,,,,,,,,,,,,,,,,,,,,,,,,,,,,,,,,,,,"30","44",,,"+0.01","5","58","30.08",,"30.04","9.94","38","060",,"3",,,,,,,,,,,,,,,,,,,,,,,,,,,,,,,,,,,,,"SYN08072503 32966 40603 10067 21011 30172 40186 55005 90551 333 10122 20067 555 91206=","FM-12","4",,,,,,,,,,,,,,,,,,,,,,,,,,,,
"72503014732","2020-03-12T01:51:00","FM-15","7",,,,,,,,,,,,,,,,,,,,,,,,,,,,,,,,,,,,,,"30.08","32","43","0.00",,,,"65","30.07","SCT:04 250","30.05","10.00","38","050",,"3",,,,,,,,,,,,,,,,,,,,,,,,,,,,,,,,,,,,,"MET09503/12/20 01:51:01 METAR KLGA 120651Z 05003KT 10SM SCT250 06/00 A3008 RMK AO2 SLP184 T00610000 $","FM-15","7",,,,,,,,,,,,,,,,,,,,,,,,,,,,
"72503014732","2020-03-12T02:51:00","FM-15","7",,,,,,,,,,,,,,,,,,,,,,,,,,,,,,,,,,,,,,"30.08","33","42","0.00",,,,"71","30.07","FEW:02 250","30.05","10.00","38","040",,"5",,,,,,,,,,,,,,,,,,,,,,,,,,,,,,,,,,,,,"MET09503/12/20 02:51:01 METAR KLGA 120751Z 04004KT 10SM FEW250 06/01 A3008 RMK AO2 SLP184 T00560006 $","FM-15","7",,,,,,,,,,,,,,,,,,,,,,,,,,,,
"72503014732","2020-03-12T03:51:00","FM-15","7",,,,,,,,,,,,,,,,,,,,,,,,,,,,,,,,,,,,,,"30.09","33","42","0.00",,"-0.01","3","71","30.09","FEW:02 100 FEW:02 250","30.06","10.00","38","050",,"6",,,,,,,,,,,,,,,,,,,,,,,,,,,,,,,,,,,,,"MET10803/12/20 03:51:01 METAR KLGA 120851Z 05005KT 10SM FEW100 FEW250 06/01 A3009 RMK AO2 SLP189 T00560006 53003 $","FM-15","7",,,,,,,,,,,,,,,,,,,,,,,,,,,,
"72503014732","2020-03-12T04:00:00","FM-12","4",,,,,,,,,,,,,,,,,,,,,,,,,,,,,,,,,,,,,,,"33","42",,,"-0.01","3","71","30.09",,"30.05","9.94","38","050",,"6",,,,,,,,,,,,,,,,,,,,,,,,,,,,,,,,,,,,,"SYN06472503 32966 20505 10056 20006 30176 40189 53003 90851 555 91209=","FM-12","4",,,,,,,,,,,,,,,,,,,,,,,,,,,,
"72503014732","2020-03-12T04:51:00","FM-15","7",,,,,,,,,,,,,,,,,,,,,,,,,,,,,,,,,,,,,,"30.11","32","42","0.00",,,,"68","30.11","BKN:07 60","30.08","10.00","38","060",,"8",,,,,,,,,,,,,,,,,,,,,,,,,,,,,,,,,,,,,"MET09503/12/20 04:51:01 METAR KLGA 120951Z 06007KT 10SM BKN060 06/00 A3011 RMK AO2 SLP196 T00560000 $","FM-15","7",,,,,,,,,,,,,,,,,,,,,,,,,,,,
"72503014732","2020-03-12T05:51:00","FM-15","7",,,,,,,,,,,,,,,,,,,,,,,,,,,,,,,,,,,,,,"30.12","34","42","0.00",,,,"73","30.12","BKN:07 60","30.09","10.00","39","050",,"8",,,,,,,,,,,,,,,,,,,,,,,,,,,,,,,,,,,,,"MET09503/12/20 05:51:01 METAR KLGA 121051Z 05007KT 10SM BKN060 06/01 A3012 RMK AO2 SLP199 T00560011 $","FM-15","7",,,,,,,,,,,,,,,,,,,,,,,,,,,,
"72503014732","2020-03-12T06:51:00","FM-15","7",,,,,,,,,,,,,,,,,,,,,,,,,,,,,,,,,,,,,,"30.14","33","43","0.00",,"-0.05","1","68","30.14","FEW:02 60 BKN:07 100","30.11","10.00","39","050",,"9",,,,,,,,,,,,,,,,,,,,,,,,,,,,,,,,,,,,,"MET12003/12/20 06:51:02 METAR KLGA 121151Z 05008KT 10SM FEW060 BKN100 06/01 A3014 RMK AO2 SLP205 T00610006 10067 20050 51016 $","FM-15","7",,,,,,,,,,,,,,,,,,,,,,,,,,,,
"72503014732","2020-03-12T07:00:00","FM-12","4",,,,,,,,,,,,,,,,,,,,,,,,,,,,,,,,,,,,,,,"33","43",,,"-0.05","1","68","30.14","57","30.10","9.94","39","050",,"9",,,,,,,,,,,,,,,,,,,,,,,,,,,,,,,,,,,,,"SYN08072503 32766 60508 10061 20006 30193 40205 51016 91151 333 10133 20050 555 91212=","FM-12","4",,,,,,,,,,,,,,,,,,,,,,,,,,,,
"72503014732","2020-03-12T07:51:00","FM-15","7",,,,,,,,,,,,,,,,,,,,,,,,,,,,,,,,,,,,,,"30.16","33","43","0.00",,,,"68","30.16","OVC:08 80","30.13","10.00","39","050",,"10",,,,,,,,,,,,,,,,,,,,,,,,,,,,,,,,,,,,,"MET09503/12/20 07:51:02 METAR KLGA 121251Z 05009KT 10SM OVC080 06/01 A3016 RMK AO2 SLP212 T00610006 $","FM-15","7",,,,,,,,,,,,,,,,,,,,,,,,,,,,
"72503014732","2020-03-12T08:51:00","FM-15","7",,,,,,,,,,,,,,,,,,,,,,,,,,,,,,,,,,,,,,"30.18","35","43","0.00",,,,"74","30.18","FEW:02 15 BKN:07 60 OVC:08 90","30.15","10.00","40","050",,"10",,,,,,,,,,,,,,,,,,,,,,,,,,,,,,,,,,,,,"MET10903/12/20 08:51:02 METAR KLGA 121351Z 05009KT 10SM FEW015 BKN060 OVC090 06/02 A3018 RMK AO2 SLP219 T00610017 $","FM-15","7",,,,,,,,,,,,,,,,,,,,,,,,,,,,
"72503014732","2020-03-12T09:51:00","FM-15","7",,,,,,,,,,,,,,,,,,,,,,,,,,,,,,,,,,,,,,"30.19","37","44","0.00",,"-0.05","1","76","30.19","SCT:04 18 OVC:08 55","30.16","10.00","41","040",,"8",,,,,,,,,,,,,,,,,,,,,,,,,,,,,,,,,,,,,"MET10803/12/20 09:51:02 METAR KLGA 121451Z 04007KT 10SM SCT018 OVC055 07/03 A3019 RMK AO2 SLP222 T00670028 51016 $","FM-15","7",,,,,,,,,,,,,,,,,,,,,,,,,,,,
"72503014732","2020-03-12T10:00:00","FM-12","4",,,,,,,,,,,,,,,,,,,,,,,,,,,,,,,,,,,,,,,"37","44",,,"-0.05","1","76","30.19","15","30.15","9.94","41","040",,"8",,,,,,,,,,,,,,,,,,,,,,,,,,,,,,,,,,,,,"SYN06472503 32466 80407 10067 20028 30210 40222 51016 91451 555 91215=","FM-12","4",,,,,,,,,,,,,,,,,,,,,,,,,,,,
"72503014732","2020-03-12T10:07:00","FM-16","7",,,,,,,,,,,,,,,,,,,,,,,,,,,,,,,,,,,,,,"30.19","38","44",,,,,"79",,"BKN:07 17 OVC:08 55","30.16","10.00","41","040",,"8",,,,,,,,,,,,,,,,,,,,,,,,,,,,,,,,,,,,,"MET09503/12/20 10:07:02 SPECI KLGA 121507Z 04007KT 10SM BKN017 OVC055 07/03 A3019 RMK AO2 T00670033 $","FM-16","7",,,,,,,,,,,,,,,,,,,,,,,,,,,,
"72503014732","2020-03-12T10:37:00","FM-16","7",,,,,,,,,,,,,,,,,,,,,,,,,,,,,,,,,,,,,,"30.19","39","46","T",,,,"77",,"SCT:04 17 OVC:08 55","30.16","10.00","43","050",,"10",,,,,,,,,,,,,,,,,,,,,,,,,,,,,,,,,,,,,"MET11003/12/20 10:37:02 SPECI KLGA 121537Z 05009KT 10SM SCT017 OVC055 08/04 A3019 RMK AO2 RAB24E35 P0000 T00780039 $","FM-16","7",,,,,,,,,,,,,,,,,,,,,,,,,,,,
"72503014732","2020-03-12T10:51:00","FM-15","7",,,,,,,,,,,,,,,,,,,,,,,,,,,,,,,,,,,,,,"30.19","39","46","T",,,,"77","30.19","FEW:02 17 OVC:08 50","30.16","10.00","43","040",,"10",,,,,,,,,,,,,,,,,,,,,,,,,,,,,,,,,,,,,"MET11703/12/20 10:51:02 METAR KLGA 121551Z 04009KT 10SM FEW017 OVC050 08/04 A3019 RMK AO2 RAB24E35 SLP223 P0000 T00780039 $","FM-15","7",,,,,,,,,,,,,,,,,,,,,,,,,,,,
"72503014732","2020-03-12T11:51:00","FM-15","7",,,,,,,,,,,,,,,,,,,,,,,,,,,,,,,,,,,,,,"30.19","38","46","0.00",,,,"73","30.19","FEW:02 21 OVC:08 50","30.16","10.00","42","050",,"11",,,,,,,,,,,,,,,,,,,,,,,,,,,,,,,,,,,,,"MET10203/12/20 11:51:02 METAR KLGA 121651Z 05010KT 10SM FEW021 OVC050 08/03 A3019 RMK AO2 SLP222 T00780033 $","FM-15","7",,,,,,,,,,,,,,,,,,,,,,,,,,,,
"72503014732","2020-03-12T12:51:00","FM-15","7",,,,,,,,,,,,,,,,,,,,,,,,,,,,,,,,,,,,,,"30.18","38","46","0.00",,"+0.01","8","73","30.18","FEW:02 21 OVC:08 50","30.15","10.00","42","040",,"13",,,,,,,,,,,,,,,,,,,,,,,,,,,,,,,,,,,,,"MET12603/12/20 12:51:02 METAR KLGA 121751Z 04011KT 10SM FEW021 OVC050 08/03 A3018 RMK AO2 SLP219 60000 T00780033 10089 20056 58002 $","FM-15","7",,,,,,,,,,,,,,,,,,,,,,,,,,,,
"72503014732","2020-03-12T13:00:00","FM-12","4",,,,,,,,,,,,,,,,,,,,,,,,,,,,,,,,,,,,,,,"38","46",,,"+0.01","8","73","30.18","26","30.14","9.94","42","040",,"13",,,,,,,,,,,,,,,,,,,,,,,,,,,,,,,,,,,,,"SYN08672503 12566 80411 10078 20033 30206 40219 58002 69901 91751 333 10089 20056 555 91218=","FM-12","4",,,,,,,,,,,,,,,,,,,,,,,,,,,,
"72503014732","2020-03-12T13:51:00","FM-15","7",,,,,,,,,,,,,,,,,,,,,,,,,,,,,,,,,,,,,,"30.16","38","47","0.00",,,,"71","30.16","FEW:02 20 OVC:08 50","30.13","10.00","43","050",,"11",,,,,,,,,,,,,,,,,,,,,,,,,,,,,,,,,,,,,"MET10203/12/20 13:51:02 METAR KLGA 121851Z 05010KT 10SM FEW020 OVC050 08/03 A3016 RMK AO2 SLP212 T00830033 $","FM-15","7",,,,,,,,,,,,,,,,,,,,,,,,,,,,
"72503014732","2020-03-12T14:51:00","FM-15","7",,,,,,,,,,,,,,,,,,,,,,,,,,,,,,,,,,,,,,"30.16","38","45","0.00",,,,"77","30.16","FEW:02 18 BKN:07 22 OVC:08 45","30.13","10.00","42","050",,"10",,,,,,,,,,,,,,,,,,,,,,,,,,,,,,,,,,,,,"MET10903/12/20 14:51:02 METAR KLGA 121951Z 05009KT 10SM FEW018 BKN022 OVC045 07/03 A3016 RMK AO2 SLP213 T00720033 $","FM-15","7",,,,,,,,,,,,,,,,,,,,,,,,,,,,
"72503014732","2020-03-12T15:51:00","FM-15","7",,,,,,,,,,,,,,,,,,,,,,,,,,,,,,,,,,,,,,"30.16","39","47","0.00",,"+0.02","6","74","30.16","OVC:08 17","30.13","10.00","43","040",,"11",,,,,,,,,,,,,,,,,,,,,,,,,,,,,,,,,,,,,"MET10103/12/20 15:51:02 METAR KLGA 122051Z 04010KT 10SM OVC017 08/04 A3016 RMK AO2 SLP212 T00830039 56007 $","FM-15","7",,,,,,,,,,,,,,,,,,,,,,,,,,,,
"72503014732","2020-03-12T16:00:00","FM-12","4",,,,,,,,,,,,,,,,,,,,,,,,,,,,,,,,,,,,,,,"39","47",,,"+0.02","6","74","30.16","15","30.12","9.94","43","040",,"11",,,,,,,,,,,,,,,,,,,,,,,,,,,,,,,,,,,,,"SYN06472503 32466 80410 10083 20039 30200 40212 56007 92051 555 91221=","FM-12","4",,,,,,,,,,,,,,,,,,,,,,,,,,,,
"72503014732","2020-03-12T16:51:00","FM-15","7",,,,,,,,,,,,,,,,,,,,,,,,,,,,,,,,,,,,,,"30.14","39","47","0.00",,,,"74","30.13","BKN:07 16 OVC:08 24","30.11","10.00","43","050",,"10",,,,,,,,,,,,,,,,,,,,,,,,,,,,,,,,,,,,,"MET10203/12/20 16:51:02 METAR KLGA 122151Z 05009KT 10SM BKN016 OVC024 08/04 A3014 RMK AO2 SLP204 T00830039 $","FM-15","7",,,,,,,,,,,,,,,,,,,,,,,,,,,,
"72503014732","2020-03-12T17:51:00","FM-15","7",,,,,,,,,,,,,,,,,,,,,,,,,,,,,,,,,,,,,,"30.14","40","48","0.00",,,,"74","30.14","OVC:08 14","30.11","10.00","44","070",,"10",,,,,,,,,,,,,,,,,,,,,,,,,,,,,,,,,,,,,"MET09503/12/20 17:51:02 METAR KLGA 122251Z 07009KT 10SM OVC014 09/04 A3014 RMK AO2 SLP205 T00890044 $","FM-15","7",,,,,,,,,,,,,,,,,,,,,,,,,,,,
"72503014732","2020-03-12T18:51:00","FM-15","7",,,,,,,,,,,,,,,,,,,,,,,,,,,,,,,,,,,,,,"30.14","39","45","0.00",,"+0.02","5","80","30.14","OVC:08 13","30.11","10.00","42","030",,"9",,,,,,,,,,,,,,,,,,,,,,,,,,,,,,,,,,,,,"MET11303/12/20 18:51:02 METAR KLGA 122351Z 03008KT 10SM OVC013 07/04 A3014 RMK AO2 SLP206 T00720039 10100 20072 55006 $","FM-15","7",,,,,,,,,,,,,,,,,,,,,,,,,,,,
"72503014732","2020-03-12T19:00:00","FM-12","4",,,,,,,,,,,,,,,,,,,,,,,,,,,,,,,,,,,,,,,"39","45",,,"+0.02","5","80","30.14","15","30.10","9.94","42","030",,"9",,,,,,,,,,,,,,,,,,,,,,,,,,,,,,,,,,,,,"SYN08072503 32466 80308 10072 20039 30193 40206 55006 92351 333 10100 20050 555 91300=","FM-12","4",,,,,,,,,,,,,,,,,,,,,,,,,,,,
"72503014732","2020-03-12T19:51:00","FM-15","7",,,,,,,,,,,,,,,,,,,,,,,,,,,,,,,,,,,,,,"30.15","40","45","0.01","-RA:02 |RA |RA",,,"83","30.14","OVC:08 11","30.12","9.00","43","040",,"9",,,,,,,,,,,,,,,,,,,,,,,,,,,,,,,,,,,,,"MET11003/12/20 19:51:01 METAR KLGA 130051Z 04008KT 9SM -RA OVC011 07/04 A3015 RMK AO2 RAB07 SLP208 P0001 T00720044 $","FM-15","7",,,,,,,,,,,,,,,,,,,,,,,,,,,,
"72503014732","2020-03-12T20:51:00","FM-15","7",,,,,,,,,,,,,,,,,,,,,,,,,,,,,,,,,,,,,,"30.13","41","46","T",,,,"83","30.13","OVC:08 10","30.10","10.00","44","030",,"7",,,,,,,,,,,,,,,,,,,,,,,,,,,,,,,,,,,,,"MET10703/12/20 20:51:01 METAR KLGA 130151Z 03006KT 10SM OVC010 08/05 A3013 RMK AO2 RAE13 SLP203 P0000 T00780050 $","FM-15","7",,,,,,,,,,,,,,,,,,,,,,,,,,,,
"72503014732","2020-03-12T21:51:00","FM-15","7",,,,,,,,,,,,,,,,,,,,,,,,,,,,,,,,,,,,,,"30.12","40","44","0.00",,"+0.02","8","85","30.11","OVC:08 11","30.09","10.00","42","060",,"13",,,,,,,,,,,,,,,,,,,,,,,,,,,,,,,,,,,,,"MET10703/12/20 21:51:01 METAR KLGA 130251Z 06011KT 10SM OVC011 07/04 A3012 RMK AO2 SLP198 60001 T00670044 58008 $","FM-15","7",,,,,,,,,,,,,,,,,,,,,,,,,,,,
"72503014732","2020-03-12T22:00:00","FM-12","4",,,,,,,,,,,,,,,,,,,,,,,,,,,,,,,,,,,,,,,"40","44",,,"+0.02","8","85","30.11","15","30.08","9.94","42","060",,"13",,,,,,,,,,,,,,,,,,,,,,,,,,,,,,,,,,,,,"SYN07072503 12466 80611 10067 20044 30186 40198 58008 69937 90251 555 91303=","FM-12","4",,,,,,,,,,,,,,,,,,,,,,,,,,,,
"72503014732","2020-03-12T22:51:00","FM-15","7",,,,,,,,,,,,,,,,,,,,,,,,,,,,,,,,,,,,,,"30.10","40","44","T",,,,"85","30.09","OVC:08 10","30.07","9.00","42","050",,"10",,,,,,,,,,,,,,,,,,,,,,,,,,,,,,,,,,,,,"MET10903/12/20 22:51:02 METAR KLGA 130351Z 05009KT 9SM OVC010 07/04 A3010 RMK AO2 RAB04E46 SLP191 P0000 T00670044 $","FM-15","7",,,,,,,,,,,,,,,,,,,,,,,,,,,,
"72503014732","2020-03-12T23:28:00","FM-16","7",,,,,,,,,,,,,,,,,,,,,,,,,,,,,,,,,,,,,,"30.08","41","44",,,,,"89",,"OVC:08 9","30.05","9.00","43","030",,"9",,,,,,,,,,,,,,,,,,,,,,,,,,,,,,,,,,,,,"MET08703/12/20 23:28:02 SPECI KLGA 130428Z 03008KT 9SM OVC009 07/05 A3008 RMK AO2 T00670050 $","FM-16","7",,,,,,,,,,,,,,,,,,,,,,,,,,,,
"72503014732","2020-03-12T23:51:00","FM-15","6",,,,,,,,,,,,,,,,,,,,,,,,,,,,,,,,,,,,,,"30.07","41","45","0.01","-RA:02 BR:1 |RA |RA",,,"86","30.07","OVC:08 7","30.04","4.00","43","040",,"10",,,,,,,,,,,,,,,,,,,,,,,,,,,,,,,,,,,,,"MET12303/12/20 23:51:02 METAR KLGA 130451Z 04009KT 4SM -RA BR OVC007 07/05 A3007 RMK AO2 RAB40 SLP183 P0000 T00720050 401000050 $","FM-15","6",,,,,,,,,,,,,,,,,,,,,,,,,,,,
"72503014732","2020-03-12T23:59:00","SOD  ","6",,,,,,,,,,,,,,,"37","46","75","30.13","30.11","41","9.1","0","5.2","19","50","41","050","22","0.02","0","0.0","090","15","RA BR",,,,,,,,,,,,,,,,,,,,,,,,,,,,,,,,,,,,,,,,,,,,,,,,,,,,,,,,"SOD76024 HR PRECIPITATION (IN): 0.02 SNOW DEPTH (IN):0     24 HR SNOWFALL (IN):0.0  WEATHER(CODE):1  24 HR MAX TEMP (F): 5024 HR MIN TEMP (F): 41AVERAGE STATION PRESSURE(D):30.106 MINIMUM SEA LEVEL PRESSURE:30.07 TIME OF OCCURRENCE:2359 PEAK WIND SPEED (MPH): 22 PEAK WIND DIR (DEG): 50 PEAK WIND TIME (LST):      FASTEST 2MIN SPEED (MPH): 15FASTEST 2MIN DIR (DEG): 90 FASTEST 2MIN TIME (LST):     AVERAGE WIND SPEED (MPH): 9.1 24 HR AVG TEMP (F): 46DEPART FROM NORMAL:  5  HEATING DEGREE DAYS: 19 COOLING DEGREE DAYS:  0 LATEST DAY MAX TEMP (0700-1900 LST): 50 LATEST NIGHT MIN TEMP(1900-0800 LST):41 HOURLY INCREMENTAL PRECIPITATION VALUES (IN):0.00 0.00 0.00 0.00 0.00 0.00 0.00 0.00 0.00 0.00T     0.00 0.00 0.00 0.00 0.00 0.00 0.00 0.00 0.01T     0.00T     0.01","SOD  ","6",,,,,,,,,,,,,,,,,,,,,,,,,"0611","1800",,
"72503014732","2020-03-13T00:51:00","FM-15","6",,,,,,,,,,,,,,,,,,,,,,,,,,,,,,,,,,,,,,"30.05","40","43","T",,"+0.07","8","89","30.04","OVC:08 7","30.02","9.00","42","060",,"16",,,,,,,,,,,,,,,,,,,,,,,,,,,,,,,,,,,,,"MET13803/13/20 00:51:02 METAR KLGA 130551Z 06014KT 9SM OVC007 06/04 A3005 RMK AO2 RAE05DZB14E47 SLP174 P0001 60002 T00610044 10089 20061 58024 $","FM-15","6",,,,,,,,,,,,,,,,,,,,,,,,,,,,
"72503014732","2020-03-13T01:51:00","FM-15","7",,,,,,,,,,,,,,,,,,,,,,,,,,,,,,,,,,,,,,"30.02","41","44","0.00",,,,"89","30.01","OVC:08 7","29.99","8.00","43","050",,"15",,,,,,,,,,,,,,,,,,,,,,,,,,,,,,,,,,,,,"MET09403/13/20 01:51:02 METAR KLGA 130651Z 05013KT 8SM OVC007 07/05 A3002 RMK AO2 SLP164 T00670050 $","FM-15","7",,,,,,,,,,,,,,,,,,,,,,,,,,,,
"72503014732","2020-03-13T02:38:00","FM-16","7",,,,,,,,,,,,,,,,,,,,,,,,,,,,,,,,,,,,,,"29.99","41","43","T","-DZ:01 BR:1 |DZ |DZ",,,"93",,"OVC:08 4","29.96","4.00","42","050",,"14",,,,,,,,,,,,,,,,,,,,,,,,,,,,,,,,,,,,,"MET10603/13/20 02:38:02 SPECI KLGA 130738Z 05012KT 4SM -DZ BR OVC004 06/05 A2999 RMK AO2 DZB38 P0000 T00610050 $","FM-16","7",,,,,,,,,,,,,,,,,,,,,,,,,,,,
"72503014732","2020-03-13T02:51:00","FM-15","7",,,,,,,,,,,,,,,,,,,,,,,,,,,,,,,,,,,,,,"29.97","41","43","T","-DZ:01 BR:1 |DZ |DZ",,,"93","29.97","OVC:08 3","29.94","3.00","42","060",,"14",,,,,,,,,,,,,,,,,,,,,,,,,,,,,,,,,,,,,"MET11303/13/20 02:51:02 METAR KLGA 130751Z 06012KT 3SM -DZ BR OVC003 06/05 A2997 RMK AO2 DZB38 SLP148 P0000 T00610050 $","FM-15","7",,,,,,,,,,,,,,,,,,,,,,,,,,,,
"72503014732","2020-03-13T03:07:00","FM-16","7",,,,,,,,,,,,,,,,,,,,,,,,,,,,,,,,,,,,,,"29.96","41","43","T","-DZ:01 BR:1 |s DZ s |DZ s",,,"93",,"OVC:08 3","29.93","0.50","42","050",,"10",,,,,,,,,,,,,,,,,,,,,,,,,,,,,,,,,,,,,"MET11603/13/20 03:07:02 SPECI KLGA 130807Z 05009KT 1/2SM -DZ BR OVC003 06/05 A2996 RMK AO2 SFC VIS 1 1/2 P0000 T00610050 $","FM-16","7",,,,,,,,,,,,,,,,,,,,,,,,,,,,
"72503014732","2020-03-13T03:28:00","FM-16","7",,,,,,,,,,,,,,,,,,,,,,,,,,,,,,,,,,,,,,"29.95","41","43","T","-DZ:01 BR:1 |s DZ s |DZ s",,,"93",,"OVC:08 2","29.92","0.50","42","040",,"11",,,,,,,,,,,,,,,,,,,,,,,,,,,,,,,,,,,,,"MET11203/13/20 03:28:02 SPECI KLGA 130828Z 04010KT 1/2SM -DZ BR OVC002 06/05 A2995 RMK AO2 SFC VIS 1 P0000 T00610050 $","FM-16","7",,,,,,,,,,,,,,,,,,,,,,,,,,,,
"72503014732","2020-03-13T03:51:00","FM-15","7",,,,,,,,,,,,,,,,,,,,,,,,,,,,,,,,,,,,,,"29.94","41","43","T","-DZ:01 BR:1 |s DZ s |DZ s","+0.11","7","93","29.94","OVC:08 2","29.91","0.50","42","060",,"15",,,,,,,,,,,,,,,,,,,,,,,,,,,,,,,,,,,,,"MET14303/13/20 03:51:02 METAR KLGA 130851Z 06013KT 1/2SM R04/P6000FT -DZ BR OVC002 06/05 A2994 RMK AO2 SFC VIS 1 SLP138 P0000 60000 T00610050 57036 /","FM-15","7",,,,,,,,,,,,,,,,,,,,,,,,,,,,
"72503014732","2020-03-13T04:00:00","FM-12","4",,,,,,,,,,,,,,,,,,,,,,,,,,,,,,,,,,,,,,,"41","43",,"||DZ","+0.11","7","93","29.94","2","29.90","0.50","42","060",,"15",,,,,,,,,,,,,,,,,,,,,,,,,,,,,,,,,,,,,"SYN08672503 11108 80613 10061 20050 30125 40138 57036 69907 751// 90851 333 96010 555 91309=","FM-12","4",,,,,,,,,,,,,,,,,,,,,,,,,,,,
"72503014732","2020-03-13T04:51:00","FM-15","7",,,,,,,,,,,,,,,,,,,,,,,,,,,,,,,,,,,,,,"29.91","42","44","T","-DZ:01 BR:1 |s DZ s |DZ s",,,"93","29.90","OVC:08 2","29.88","0.50","43","050",,"11",,,,,,,,,,,,,,,,,,,,,,,,,,,,,,,,,,,,,"MET13303/13/20 04:51:02 METAR KLGA 130951Z 05010KT 1/2SM R04/P6000FT -DZ BR OVC002 07/06 A2991 RMK AO2 SFC VIS 3/4 SLP126 P0000 T00670056 $","FM-15","7",,,,,,,,,,,,,,,,,,,,,,,,,,,,
"72503014732","2020-03-13T05:51:00","FM-15","7",,,,,,,,,,,,,,,,,,,,,,,,,,,,,,,,,,,,,,"29.86","50","51","0.03","RA:02 BR:1 |RA |RA",,,"96","29.85","OVC:08 3","29.83","1.50","50","170","18","13",,,,,,,,,,,,,,,,,,,,,,,,,,,,,,,,,,,,,"MET13403/13/20 05:51:02 METAR KLGA 131051Z 17011G16KT 1 1/2SM RA BR OVC003 11/10 A2986 RMK AO2 SFC VIS 2 DZE04RAB33 SLP110 P0001 T01060100 $","FM-15","7",,,,,,,,,,,,,,,,,,,,,,,,,,,,
"72503014732","2020-03-13T06:12:00","FM-16","7",,,,,,,,,,,,,,,,,,,,,,,,,,,,,,,,,,,,,,"29.87","49","51","0.10","RA:02 BR:1 |RA |RA",,,"92",,"OVC:08 4","29.84","1.50","50","200","24","10",,,,,,,,,,,,,,,,,,,,,,,,,,,,,,,,,,,,,"MET13303/13/20 06:12:02 SPECI KLGA 131112Z 20009G21KT 1 1/2SM R04/6000VP6000FT RA BR OVC004 11/09 A2987 RMK AO2 SFC VIS 2 P0010 T01060094 $","FM-16","7",,,,,,,,,,,,,,,,,,,,,,,,,,,,
"72503014732","2020-03-13T06:25:00","FM-16","7",,,,,,,,,,,,,,,,,,,,,,,,,,,,,,,,,,,,,,"29.86","49","50","0.13","-RA:02 BR:1 |RA |RA",,,"96",,"OVC:08 5","29.83","5.00","49","190","21","15",,,,,,,,,,,,,,,,,,,,,,,,,,,,,,,,,,,,,"MET10303/13/20 06:25:02 SPECI KLGA 131125Z 19013G18KT 5SM -RA BR OVC005 10/09 A2986 RMK AO2 P0013 T01000094 $","FM-16","7",,,,,,,,,,,,,,,,,,,,,,,,,,,,
"72503014732","2020-03-13T06:51:00","FM-15","6",,,,,,,,,,,,,,,,,,,,,,,,,,,,,,,,,,,,,,"29.83","49","51","0.12","-RA:02 BR:1 |RA |RA","+0.11","6","92","29.83","OVC:08 5","29.80","5.00","50","170","24","15",,,,,,,,,,,,,,,,,,,,,,,,,,,,,,,,,,,,,"MET14003/13/20 06:51:02 METAR KLGA 131151Z 17013G21KT 5SM -RA BR OVC005 11/09 A2983 RMK AO2 SLP102 P0014 60015 70017 T01060094 10111 20061 56037 $","FM-15","6",,,,,,,,,,,,,,,,,,,,,,,,,,,,
"72503014732","2020-03-13T07:29:00","FM-16","6",,,,,,,,,,,,,,,,,,,,,,,,,,,,,,,,,,,,,,"29.84","50","52",,"-RA:02 BR:1 |RA |RA",,,"93",,"OVC:08 4","29.81","3.00","51","180","22","15",,,,,,,,,,,,,,,,,,,,,,,,,,,,,,,,,,,,,"MET10303/13/20 07:29:02 SPECI KLGA 131229Z 18013G19KT 3SM -RA BR OVC004 11/10 A2984 RMK AO2 P0002 T01110100 $","FM-16","6",,,,,,,,,,,,,,,,,,,,,,,,,,,,
"72503014732","2020-03-13T07:51:00","FM-15","6",,,,,,,,,,,,,,,,,,,,,,,,,,,,,,,,,,,,,,"29.83","50","52","0.05","RA:02 BR:1 |RA |RA",,,"93","29.83","OVC:08 4","29.80","2.00","51","180","20","14",,,,,,,,,,,,,,,,,,,,,,,,,,,,,,,,,,,,,"MET12303/13/20 07:51:02 METAR KLGA 131251Z 18012G17KT 2SM RA BR OVC004 11/10 A2983 RMK AO2 SFC VIS 2 1/2 SLP102 P0004 T01110100 $","FM-15","6",,,,,,,,,,,,,,,,,,,,,,,,,,,,
"72503014732","2020-03-13T08:51:00","FM-15","7",,,,,,,,,,,,,,,,,,,,,,,,,,,,,,,,,,,,,,"29.79","50","53","0.05","-RA:02 BR:1 |RA |RA",,,"89","29.79","OVC:08 4","29.76","1.00","51","180",,"11",,,,,,,,,,,,,,,,,,,,,,,,,,,,,,,,,,,,,"MET12903/13/20 08:51:02 METAR KLGA 131351Z 18010KT 1SM R04/P6000FT -RA BR OVC004 12/10 A2979 RMK AO2 SFC VIS 2 SLP088 P0005 T01170100 $","FM-15","7",,,,,,,,,,,,,,,,,,,,,,,,,,,,
"72503014732","2020-03-13T09:32:00","FM-16","7",,,,,,,,,,,,,,,,,,,,,,,,,,,,,,,,,,,,,,"29.77","51","53","0.03","BR:1 ||",,,"93",,"OVC:08 5","29.74","5.00","52","180",,"15",,,,,,,,,,,,,,,,,,,,,,,,,,,,,,,,,,,,,"MET10203/13/20 09:32:02 SPECI KLGA 131432Z 18013KT 5SM BR OVC005 12/11 A2977 RMK AO2 RAE28 P0003 T01170106 $","FM-16","7",,,,,,,,,,,,,,,,,,,,,,,,,,,,
"72503014732","2020-03-13T09:51:00","FM-15","7",,,,,,,,,,,,,,,,,,,,,,,,,,,,,,,,,,,,,,"29.77","51","53","0.02","BR:1 ||","+0.06","8","93","29.77","OVC:08 4","29.74","4.00","52","200",,"14",,,,,,,,,,,,,,,,,,,,,,,,,,,,,,,,,,,,,"MET12103/13/20 09:51:02 METAR KLGA 131451Z 20012KT 4SM BR OVC004 12/11 A2977 RMK AO2 RAE28 SLP081 P0003 60012 T01170106 58021 $","FM-15","7",,,,,,,,,,,,,,,,,,,,,,,,,,,,
"72503014732","2020-03-13T10:00:00","FM-12","4",,,,,,,,,,,,,,,,,,,,,,,,,,,,,,,,,,,,,,,"51","53",,,"+0.06","8","93","29.77","5","29.73","3.73","52","200",,"14",,,,,,,,,,,,,,,,,,,,,,,,,,,,,,,,,,,,,"SYN07672503 11256 82012 10117 20106 30068 40081 58021 60037 710// 91451 555 91315=","FM-12","4",,,,,,,,,,,,,,,,,,,,,,,,,,,,
"72503014732","2020-03-13T10:51:00","FM-15","7",,,,,,,,,,,,,,,,,,,,,,,,,,,,,,,,,,,,,,"29.76","53","56","0.00","BR:1 ||",,,"90","29.76","OVC:08 6","29.73","5.00","54","230",,"5",,,,,,,,,,,,,,,,,,,,,,,,,,,,,,,,,,,,,"MET09703/13/20 10:51:02 METAR KLGA 131551Z 23004KT 5SM BR OVC006 13/12 A2976 RMK AO2 SLP077 T01330117 $","FM-15","7",,,,,,,,,,,,,,,,,,,,,,,,,,,,
"72503014732","2020-03-13T11:10:00","FM-16","7",,,,,,,,,,,,,,,,,,,,,,,,,,,,,,,,,,,,,,"29.75","55","59",,"BR:1 ||",,,"87",,"BKN:07 7 OVC:08 11","29.72","6.00","57","220",,"10",,,,,,,,,,,,,,,,,,,,,,,,,,,,,,,,,,,,,"MET09703/13/20 11:10:02 SPECI KLGA 131610Z 22009KT 6SM BR BKN007 OVC011 15/13 A2975 RMK AO2 T01500128 $","FM-16","7",,,,,,,,,,,,,,,,,,,,,,,,,,,,
"72503014732","2020-03-13T11:41:00","FM-16","7",,,,,,,,,,,,,,,,,,,,,,,,,,,,,,,,,,,,,,"29.75","55","63",,,,,"75",,"FEW:02 7 BKN:07 17 BKN:07 27","29.72","9.00","58","VRB",,"9",,,,,,,,,,,,,,,,,,,,,,,,,,,,,,,,,,,,,"MET10103/13/20 11:41:02 SPECI KLGA 131641Z 23008KT 9SM FEW007 BKN017 BKN027 17/13 A2975 RMK AO2 T01720128 $","FM-16","7",,,,,,,,,,,,,,,,,,,,,,,,,,,,
"72503014732","2020-03-13T11:51:00","FM-15","7",,,,,,,,,,,,,,,,,,,,,,,,,,,,,,,,,,,,,,"29.76","56","64","0.00",,,,"75","29.75","FEW:02 7 BKN:07 17 BKN:07 27","29.73","10.00","59","240","17","13",,,,,,,,,,,,,,,,,,,,,,,,,,,,,,,,,,,,,"MET11203/13/20 11:51:02 METAR KLGA 131651Z 24011G15KT 10SM FEW007 BKN017 BKN027 18/13 A2976 RMK AO2 SLP076 T01780133 $","FM-15","7",,,,,,,,,,,,,,,,,,,,,,,,,,,,
"72503014732","2020-03-13T12:51:00","FM-15","7",,,,,,,,,,,,,,,,,,,,,,,,,,,,,,,,,,,,,,"29.74","53","64","0.00",,"+0.03","8","68","29.74","FEW:02 18 BKN:07 23","29.71","10.00","58","230","24","16",,,,,,,,,,,,,,,,,,,,,,,,,,,,,,,,,,,,,"MET12903/13/20 12:51:02 METAR KLGA 131751Z 23014G21KT 10SM FEW018 BKN023 18/12 A2974 RMK AO2 SLP071 60012 T01780117 10178 20106 58010 $","FM-15","7",,,,,,,,,,,,,,,,,,,,,,,,,,,,
"72503014732","2020-03-13T13:00:00","FM-12","4",,,,,,,,,,,,,,,,,,,,,,,,,,,,,,,,,,,,,,,"53","64",,,"+0.03","8","68","29.74","15","29.70","9.94","58","230",,"16",,,,,,,,,,,,,,,,,,,,,,,,,,,,,,,,,,,,,"SYN09272503 12466 62314 10178 20117 30057 40071 58010 60031 91751 333 10178 20072 91021 555 91318=","FM-12","4",,,,,,,,,,,,,,,,,,,,,,,,,,,,
"72503014732","2020-03-13T13:47:00","FM-16","7",,,,,,,,,,,,,,,,,,,,,,,,,,,,,,,,,,,,,,"29.72","50","68",,,,,"53",,"FEW:02 18 SCT:04 23","29.69","10.00","58","250","32","18",,,,,,,,,,,,,,,,,,,,,,,,,,,,,,,,,,,,,"MET10603/13/20 13:47:02 SPECI KLGA 131847Z 25016G28KT 10SM FEW018 SCT023 20/10 A2972 RMK AO2 PK WND 23028/1838 $","FM-16","7",,,,,,,,,,,,,,,,,,,,,,,,,,,,
"72503014732","2020-03-13T13:51:00","FM-15","7",,,,,,,,,,,,,,,,,,,,,,,,,,,,,,,,,,,,,,"29.72","49","68","0.00",,,,"51","29.72","FEW:02 18 SCT:04 23","29.69","10.00","58","260","31","17",,,,,,,,,,,,,,,,,,,,,,,,,,,,,,,,,,,,,"MET12303/13/20 13:51:02 METAR KLGA 131851Z 26015G27KT 10SM FEW018 SCT023 20/09 A2972 RMK AO2 PK WND 23028/1838 SLP065 T02000094 $","FM-15","7",,,,,,,,,,,,,,,,,,,,,,,,,,,,
"72503014732","2020-03-13T14:51:00","FM-15","7",,,,,,,,,,,,,,,,,,,,,,,,,,,,,,,,,,,,,,"29.74","43","70","0.00",,,,"38","29.74","FEW:02 65","29.71","10.00","56","260","33","18",,,,,,,,,,,,,,,,,,,,,,,,,,,,,,,,,,,,,"MET11603/13/20 14:51:02 METAR KLGA 131951Z 26016G29KT 10SM FEW065 21/06 A2974 RMK AO2 PK WND 27029/1945 SLP071 T02110061 $","FM-15","7",,,,,,,,,,,,,,,,,,,,,,,,,,,,
"72503014732","2020-03-13T15:51:00","FM-15","7",,,,,,,,,,,,,,,,,,,,,,,,,,,,,,,,,,,,,,"29.76","41","70","0.00",,"-0.02","3","35","29.76","FEW:02 65","29.73","10.00","55","260","38","26",,,,,,,,,,,,,,,,,,,,,,,,,,,,,,,,,,,,,"MET12203/13/20 15:51:02 METAR KLGA 132051Z 26023G33KT 10SM FEW065 21/05 A2976 RMK AO2 PK WND 26034/1953 SLP078 T02110050 53007 $","FM-15","7",,,,,,,,,,,,,,,,,,,,,,,,,,,,
"72503014732","2020-03-13T16:00:00","FM-12","4",,,,,,,,,,,,,,,,,,,,,,,,,,,,,,,,,,,,,,,"41","70",,,"-0.02","3","35","29.76","57","29.72","9.94","55","260",,"26",,,,,,,,,,,,,,,,,,,,,,,,,,,,,,,,,,,,,"SYN07472503 32766 22623 10211 20050 30064 40078 53007 92051 333 91033 555 91321=","FM-12","4",,,,,,,,,,,,,,,,,,,,,,,,,,,,
"72503014732","2020-03-13T16:51:00","FM-15","7",,,,,,,,,,,,,,,,,,,,,,,,,,,,,,,,,,,,,,"29.79","24","69","0.00",,,,"18","29.79","FEW:02 65","29.76","10.00","49","290","41","23",,,,,,,,,,,,,,,,,,,,,,,,,,,,,,,,,,,,,"MET11703/13/20 16:51:02 METAR KLGA 132151Z 29020G36KT 10SM FEW065 21/M04 A2979 RMK AO2 PK WND 28036/2138 SLP089 T02061044 $","FM-15","7",,,,,,,,,,,,,,,,,,,,,,,,,,,,
"72503014732","2020-03-13T17:51:00","FM-15","7",,,,,,,,,,,,,,,,,,,,,,,,,,,,,,,,,,,,,,"29.85","17","67","0.00",,,,"15","29.85","FEW:02 65 FEW:02 250","29.82","10.00","46","280","26","17",,,,,,,,,,,,,,,,,,,,,,,,,,,,,,,,,,,,,"MET12403/13/20 17:51:02 METAR KLGA 132251Z 28015G23KT 10SM FEW065 FEW250 19/M08 A2985 RMK AO2 PK WND 29036/2153 SLP109 T01941083 $","FM-15","7",,,,,,,,,,,,,,,,,,,,,,,,,,,,
"72503014732","2020-03-13T18:51:00","FM-15","7",,,,,,,,,,,,,,,,,,,,,,,,,,,,,,,,,,,,,,"29.90","14s","63","0.00",,"-0.14","3","15","29.90","FEW:02 65 FEW:02 250","29.87","10.00","44","280","30","20",,,,,,,,,,,,,,,,,,,,,,,,,,,,,,,,,,,,,"MET14203/13/20 18:51:02 METAR KLGA 132351Z 28017G26KT 10SM FEW065 FEW250 17/M10 A2990 RMK AO2 PK WND 30029/2312 SLP126 T01721100 10211 20172 53048 $","FM-15","7",,,,,,,,,,,,,,,,,,,,,,,,,,,,
"72503014732","2020-03-13T19:00:00","FM-12","4",,,,,,,,,,,,,,,,,,,,,,,,,,,,,,,,,,,,,,,"14s","63",,,"-0.14","3","15","29.90","57","29.86","9.94","44","280",,"20",,,,,,,,,,,,,,,,,,,,,,,,,,,,,,,,,,,,,"SYN08672503 32766 22817 10172 21100 30112 40126 53048 92351 333 10211 20061 91026 555 91400=","FM-12","4",,,,,,,,,,,,,,,,,,,,,,,,,,,,
"72503014732","2020-03-13T19:51:00","FM-15","7",,,,,,,,,,,,,,,,,,,,,,,,,,,,,,,,,,,,,,"29.96","15s","62","0.00",,,,"16","29.96","FEW:02 65 FEW:02 250","29.93","10.00","44","290","29","21",,,,,,,,,,,,,,,,,,,,,,,,,,,,,,,,,,,,,"MET12403/13/20 19:51:01 METAR KLGA 140051Z 29018G25KT 10SM FEW065 FEW250 17/M09 A2996 RMK AO2 PK WND 27026/0021 SLP144 T01671094 $","FM-15","7",,,,,,,,,,,,,,,,,,,,,,,,,,,,
"72503014732","2020-03-13T20:51:00","FM-15","7",,,,,,,,,,,,,,,,,,,,,,,,,,,,,,,,,,,,,,"30.00","17","60","0.00",,,,"19","29.99","FEW:02 65 FEW:02 250","29.97","10.00","43","290","29","16",,,,,,,,,,,,,,,,,,,,,,,,,,,,,,,,,,,,,"MET12403/13/20 20:51:01 METAR KLGA 140151Z 29014G25KT 10SM FEW065 FEW250 16/M08 A3000 RMK AO2 PK WND 30027/0134 SLP157 T01561083 $","FM-15","7",,,,,,,,,,,,,,,,,,,,,,,,,,,,
"72503014732","2020-03-13T21:51:00","FM-15","7",,,,,,,,,,,,,,,,,,,,,,,,,,,,,,,,,,,,,,"30.05","21","55","0.00",,"-0.14","1","26","30.04","FEW:02 60 FEW:02 250","30.02","10.00","41","310",,"16",,,,,,,,,,,,,,,,,,,,,,,,,,,,,,,,,,,,,"MET10903/13/20 21:51:01 METAR KLGA 140251Z 31014KT 10SM FEW060 FEW250 13/M06 A3005 RMK AO2 SLP174 T01281061 51048 $","FM-15","7",,,,,,,,,,,,,,,,,,,,,,,,,,,,
"72503014732","2020-03-13T22:00:00","FM-12","4",,,,,,,,,,,,,,,,,,,,,,,,,,,,,,,,,,,,,,,"21","55",,,"-0.14","1","26","30.04","57","30.01","9.94","41","310",,"16",,,,,,,,,,,,,,,,,,,,,,,,,,,,,,,,,,,,,"SYN06472503 32766 23114 10128 21061 30162 40174 51048 90251 555 91403=","FM-12","4",,,,,,,,,,,,,,,,,,,,,,,,,,,,
"72503014732","2020-03-13T22:51:00","FM-15","7",,,,,,,,,,,,,,,,,,,,,,,,,,,,,,,,,,,,,,"30.11","23","51","0.00",,,,"33","30.11","FEW:02 60 FEW:02 250","30.08","10.00","40","320","31","21",,,,,,,,,,,,,,,,,,,,,,,,,,,,,,,,,,,,,"MET12403/13/20 22:51:02 METAR KLGA 140351Z 32018G27KT 10SM FEW060 FEW250 11/M05 A3011 RMK AO2 PK WND 33029/0339 SLP195 T01061050 $","FM-15","7",,,,,,,,,,,,,,,,,,,,,,,,,,,,
"72503014732","2020-03-13T23:51:00","FM-15","7",,,,,,,,,,,,,,,,,,,,,,,,,,,,,,,,,,,,,,"30.13","23","49","0.00",,,,"36","30.13","FEW:02 250","30.10","10.00","39","320",,"18",,,,,,,,,,,,,,,,,,,,,,,,,,,,,,,,,,,,,"MET10603/13/20 23:51:02 METAR KLGA 140451Z 32016KT 10SM FEW250 09/M05 A3013 RMK AO2 SLP203 T00941050 402110061 $","FM-15","7",,,,,,,,,,,,,,,,,,,,,,,,,,,,
"72503014732","2020-03-13T23:59:00","SOD  ","6",,,,,,,,,,,,,,,"38","57","59","29.88","29.84","48","16.1","0","15.9","8","70","43","290","42","0.27","0","0.0","290","32","RA DZ BR",,,,,,,,,,,,,,,,,,,,,,,,,,,,,,,,,,,,,,,,,,,,,,,,,,,,,,,,"SOD76124 HR PRECIPITATION (IN): 0.27 SNOW DEPTH (IN):0     24 HR SNOWFALL (IN):0.0  WEATHER(CODE):18  24 HR MAX TEMP (F): 7024 HR MIN TEMP (F): 43AVERAGE STATION PRESSURE(D):29.842 MINIMUM SEA LEVEL PRESSURE:29.72 TIME OF OCCURRENCE:1430 PEAK WIND SPEED (MPH): 42 PEAK WIND DIR (DEG):290 PEAK WIND TIME (LST):      FASTEST 2MIN SPEED (MPH): 32FASTEST 2MIN DIR (DEG):290 FASTEST 2MIN TIME (LST):     AVERAGE WIND SPEED (MPH):16.1 24 HR AVG TEMP (F): 57DEPART FROM NORMAL: 16  HEATING DEGREE DAYS:  8 COOLING DEGREE DAYS:  0 LATEST DAY MAX TEMP (0700-1900 LST): 70 LATEST NIGHT MIN TEMP(1900-0800 LST):43 HOURLY INCREMENTAL PRECIPITATION VALUES (IN):     0.00T    T    T     0.03 0.12 0.05 0.05 0.02 0.00 0.00 0.00 0.00 0.00 0.00 0.00 0.00 0.00 0.00 0.00 0.00 0.00 0.00","SOD  ","6",,,,,,,,,,,,,,,,,,,,,,,,,"0609","1801",,
"72503014732","2020-03-14T00:51:00","FM-15","6",,,,,,,,,,,,,,,,,,,,,,,,,,,,,,,,,,,,,,"30.17","21","49","0.00",,"-0.12","1","33","30.16","FEW:02 250","30.14","10.00","38","300","28","20",,,,,,,,,,,,,,,,,,,,,,,,,,,,,,,,,,,,,"MET11703/14/20 00:51:02 METAR KLGA 140551Z 30017G24KT 10SM FEW250 09/M06 A3017 RMK AO2 SLP215 T00941061 10178 20094 51041 $","FM-15","6",,,,,,,,,,,,,,,,,,,,,,,,,,,,
"72503014732","2020-03-14T01:51:00","FM-15","6",,,,,,,,,,,,,,,,,,,,,,,,,,,,,,,,,,,,,,"30.18","22","47","0.00",,,,"37","30.18","CLR:00","30.15","10.00","37","320","32","24",,,,,,,,,,,,,,,,,,,,,,,,,,,,,,,,,,,,,"MET11403/14/20 01:51:02 METAR KLGA 140651Z 32021G28KT 10SM CLR 08/M06 A3018 RMK AO2 PK WND 29036/0620 SLP219 T00831056 $","FM-15","6",,,,,,,,,,,,,,,,,,,,,,,,,,,,
"72503014732","2020-03-14T02:51:00","FM-15","6",,,,,,,,,,,,,,,,,,,,,,,,,,,,,,,,,,,,,,"30.19","19","47","0.00",,,,"33","30.19","FEW:02 250","30.16","10.00","37","290","26","15",,,,,,,,,,,,,,,,,,,,,,,,,,,,,,,,,,,,,"MET11703/14/20 02:51:02 METAR KLGA 140751Z 29013G23KT 10SM FEW250 08/M07 A3019 RMK AO2 PK WND 29028/0715 SLP223 T00831072 $","FM-15","6",,,,,,,,,,,,,,,,,,,,,,,,,,,,
"72503014732","2020-03-14T03:51:00","FM-15","6",,,,,,,,,,,,,,,,,,,,,,,,,,,,,,,,,,,,,,"30.20","20","46","0.00",,"-0.04","3","35","30.20","FEW:02 250","30.17","10.00","36","290",,"13",,,,,,,,,,,,,,,,,,,,,,,,,,,,,,,,,,,,,"MET10203/14/20 03:51:02 METAR KLGA 140851Z 29011KT 10SM FEW250 08/M07 A3020 RMK AO2 SLP228 T00781067 53013 $","FM-15","6",,,,,,,,,,,,,,,,,,,,,,,,,,,,
"72503014732","2020-03-14T04:51:00","FM-15","6",,,,,,,,,,,,,,,,,,,,,,,,,,,,,,,,,,,,,,"30.23","19","46","0.00",,,,"34","30.23","FEW:02 250","30.20","10.00","36","300",,"16",,,,,,,,,,,,,,,,,,,,,,,,,,,,,,,,,,,,,"MET09603/14/20 04:51:02 METAR KLGA 140951Z 30014KT 10SM FEW250 08/M07 A3023 RMK AO2 SLP237 T00781072 $","FM-15","6",,,,,,,,,,,,,,,,,,,,,,,,,,,,
"72503014732","2020-03-14T05:51:00","FM-15","6",,,,,,,,,,,,,,,,,,,,,,,,,,,,,,,,,,,,,,"30.26","20","45","0.00",,,,"37","30.26","FEW:02 250","30.23","10.00","36","290","26","14",,,,,,,,,,,,,,,,,,,,,,,,,,,,,,,,,,,,,"MET09903/14/20 05:51:02 METAR KLGA 141051Z 29012G23KT 10SM FEW250 07/M07 A3026 RMK AO2 SLP247 T00721067 $","FM-15","6",,,,,,,,,,,,,,,,,,,,,,,,,,,,
"72503014732","2020-03-14T06:51:00","FM-15","6",,,,,,,,,,,,,,,,,,,,,,,,,,,,,,,,,,,,,,"30.29","20","45","0.00",,"-0.09","3","37","30.29","FEW:02 250","30.26","10.00","36","290",,"16",,,,,,,,,,,,,,,,,,,,,,,,,,,,,,,,,,,,,"MET12003/14/20 06:51:02 METAR KLGA 141151Z 29014KT 10SM FEW250 07/M07 A3029 RMK AO2 SLP257 70012 T00721067 10094 20067 53030 $","FM-15","6",,,,,,,,,,,,,,,,,,,,,,,,,,,,
"72503014732","2020-03-14T07:51:00","FM-15","7",,,,,,,,,,,,,,,,,,,,,,,,,,,,,,,,,,,,,,"30.29","20","45","0.00",,,,"37","30.29","SCT:04 250","30.26","10.00","36","290","28","17",,,,,,,,,,,,,,,,,,,,,,,,,,,,,,,,,,,,,"MET09903/14/20 07:51:02 METAR KLGA 141251Z 29015G24KT 10SM SCT250 07/M07 A3029 RMK AO2 SLP256 T00721067 $","FM-15","7",,,,,,,,,,,,,,,,,,,,,,,,,,,,
"72503014732","2020-03-14T08:51:00","FM-15","7",,,,,,,,,,,,,,,,,,,,,,,,,,,,,,,,,,,,,,"30.29","22","45","0.00",,,,"40","30.29","SCT:04 250","30.26","10.00","36","310",,"21",,,,,,,,,,,,,,,,,,,,,,,,,,,,,,,,,,,,,"MET09603/14/20 08:51:02 METAR KLGA 141351Z 31018KT 10SM SCT250 07/M06 A3029 RMK AO2 SLP256 T00721056 $","FM-15","7",,,,,,,,,,,,,,,,,,,,,,,,,,,,
"72503014732","2020-03-14T09:51:00","FM-15","7",,,,,,,,,,,,,,,,,,,,,,,,,,,,,,,,,,,,,,"30.30","23","47","0.00",,"-0.01","3","39","30.30","SCT:04 250","30.27","10.00","38","320",,"15",,,,,,,,,,,,,,,,,,,,,,,,,,,,,,,,,,,,,"MET10203/14/20 09:51:02 METAR KLGA 141451Z 32013KT 10SM SCT250 08/M05 A3030 RMK AO2 SLP261 T00831050 53003 $","FM-15","7",,,,,,,,,,,,,,,,,,,,,,,,,,,,
"72503014732","2020-03-14T10:00:00","FM-12","4",,,,,,,,,,,,,,,,,,,,,,,,,,,,,,,,,,,,,,,"23","47",,,"-0.01","3","39","30.30",,"30.26","9.94","38","320",,"15",,,,,,,,,,,,,,,,,,,,,,,,,,,,,,,,,,,,,"SYN06472503 32966 43213 10083 21050 30247 40261 53003 91451 555 91415=","FM-12","4",,,,,,,,,,,,,,,,,,,,,,,,,,,,
"72503014732","2020-03-14T10:51:00","FM-15","7",,,,,,,,,,,,,,,,,,,,,,,,,,,,,,,,,,,,,,"30.31","22","49","0.00",,,,"35","30.30","SCT:04 250","30.28","10.00","39","300",,"13",,,,,,,,,,,,,,,,,,,,,,,,,,,,,,,,,,,,,"MET09603/14/20 10:51:02 METAR KLGA 141551Z 30011KT 10SM SCT250 09/M06 A3031 RMK AO2 SLP262 T00941056 $","FM-15","7",,,,,,,,,,,,,,,,,,,,,,,,,,,,
"72503014732","2020-03-14T11:51:00","FM-15","7",,,,,,,,,,,,,,,,,,,,,,,,,,,,,,,,,,,,,,"30.32","22","50","0.00",,,,"33","30.32","SCT:04 250","30.29","10.00","39","310","21","15",,,,,,,,,,,,,,,,,,,,,,,,,,,,,,,,,,,,,"MET09903/14/20 11:51:02 METAR KLGA 141651Z 31013G18KT 10SM SCT250 10/M06 A3032 RMK AO2 SLP266 T01001056 $","FM-15","7",,,,,,,,,,,,,,,,,,,,,,,,,,,,
"72503014732","2020-03-14T12:51:00","FM-15","7",,,,,,,,,,,,,,,,,,,,,,,,,,,,,,,,,,,,,,"30.29","22","53","0.00",,"+0.01","8","30","30.29","FEW:02 200 SCT:04 250","30.26","10.00","41","310","20","15",,,,,,,,,,,,,,,,,,,,,,,,,,,,,,,,,,,,,"MET12403/14/20 12:51:02 METAR KLGA 141751Z 31013G17KT 10SM FEW200 SCT250 12/M06 A3029 RMK AO2 SLP258 T01171056 10117 20067 58003 $","FM-15","7",,,,,,,,,,,,,,,,,,,,,,,,,,,,
"72503014732","2020-03-14T13:00:00","FM-12","4",,,,,,,,,,,,,,,,,,,,,,,,,,,,,,,,,,,,,,,"22","53",,,"+0.01","8","30","30.29",,"30.25","9.94","41","310",,"15",,,,,,,,,,,,,,,,,,,,,,,,,,,,,,,,,,,,,"SYN08672503 32966 43113 10117 21056 30244 40258 58003 91751 333 10117 20067 91017 555 91418=","FM-12","4",,,,,,,,,,,,,,,,,,,,,,,,,,,,
"72503014732","2020-03-14T13:51:00","FM-15","7",,,,,,,,,,,,,,,,,,,,,,,,,,,,,,,,,,,,,,"30.28","22","54","0.00",,,,"29","30.28","SCT:04 200 BKN:07 250","30.25","10.00","41","320",,"8",,,,,,,,,,,,,,,,,,,,,,,,,,,,,,,,,,,,,"MET10303/14/20 13:51:02 METAR KLGA 141851Z 32007KT 10SM SCT200 BKN250 12/M06 A3028 RMK AO2 SLP255 T01221056 $","FM-15","7",,,,,,,,,,,,,,,,,,,,,,,,,,,,
"72503014732","2020-03-14T14:51:00","FM-15","7",,,,,,,,,,,,,,,,,,,,,,,,,,,,,,,,,,,,,,"30.28","21","55","0.00",,,,"26","30.27","SCT:04 200 BKN:07 250","30.25","10.00","41","310",,"10",,,,,,,,,,,,,,,,,,,,,,,,,,,,,,,,,,,,,"MET10303/14/20 14:51:02 METAR KLGA 141951Z 31009KT 10SM SCT200 BKN250 13/M06 A3028 RMK AO2 SLP251 T01281061 $","FM-15","7",,,,,,,,,,,,,,,,,,,,,,,,,,,,
"72503014732","2020-03-14T15:51:00","FM-15","7",,,,,,,,,,,,,,,,,,,,,,,,,,,,,,,,,,,,,,"30.29","22","54","0.00",,"+0.01","5","29","30.29","SCT:04 120 BKN:07 250","30.26","10.00","41","320",,"11",,,,,,,,,,,,,,,,,,,,,,,,,,,,,,,,,,,,,"MET10903/14/20 15:51:02 METAR KLGA 142051Z 32010KT 10SM SCT120 BKN250 12/M06 A3029 RMK AO2 SLP256 T01221056 55002 $","FM-15","7",,,,,,,,,,,,,,,,,,,,,,,,,,,,
"72503014732","2020-03-14T16:00:00","FM-12","4",,,,,,,,,,,,,,,,,,,,,,,,,,,,,,,,,,,,,,,"22","54",,,"+0.01","5","29","30.29",,"30.25","9.94","41","320",,"11",,,,,,,,,,,,,,,,,,,,,,,,,,,,,,,,,,,,,"SYN06472503 32966 63210 10122 21056 30244 40256 55002 92051 555 91421=","FM-12","4",,,,,,,,,,,,,,,,,,,,,,,,,,,,
"72503014732","2020-03-14T16:51:00","FM-15","7",,,,,,,,,,,,,,,,,,,,,,,,,,,,,,,,,,,,,,"30.32","22","53","0.00",,,,"30","30.31","BKN:07 160 BKN:07 230 BKN:07 260","30.29","10.00","41","330","21","15",,,,,,,,,,,,,,,,,,,,,,,,,,,,,,,,,,,,,"MET11303/14/20 16:51:02 METAR KLGA 142151Z 33013G18KT 10SM BKN160 BKN230 BKN260 12/M06 A3032 RMK AO2 SLP265 T01171056 $","FM-15","7",,,,,,,,,,,,,,,,,,,,,,,,,,,,
"72503014732","2020-03-14T17:51:00","FM-15","7",,,,,,,,,,,,,,,,,,,,,,,,,,,,,,,,,,,,,,"30.31","22","51","0.00",,,,"32","30.31","SCT:04 140 OVC:08 250","30.28","10.00","40","320","22","13",,,,,,,,,,,,,,,,,,,,,,,,,,,,,,,,,,,,,"MET10603/14/20 17:51:02 METAR KLGA 142251Z 32011G19KT 10SM SCT140 OVC250 11/M06 A3031 RMK AO2 SLP264 T01061056 $","FM-15","7",,,,,,,,,,,,,,,,,,,,,,,,,,,,
"72503014732","2020-03-14T18:51:00","FM-15","7",,,,,,,,,,,,,,,,,,,,,,,,,,,,,,,,,,,,,,"30.32","24","50","0.00",,"-0.03","1","36","30.31","BKN:07 120 OVC:08 250","30.29","10.00","40","320",,"9",,,,,,,,,,,,,,,,,,,,,,,,,,,,,,,,,,,,,"MET12103/14/20 18:51:02 METAR KLGA 142351Z 32008KT 10SM BKN120 OVC250 10/M04 A3032 RMK AO2 SLP265 T01001044 10128 20100 51009 $","FM-15","7",,,,,,,,,,,,,,,,,,,,,,,,,,,,
"72503014732","2020-03-14T19:00:00","FM-12","4",,,,,,,,,,,,,,,,,,,,,,,,,,,,,,,,,,,,,,,"24","50",,,"-0.03","1","36","30.31",,"30.28","9.94","40","320",,"9",,,,,,,,,,,,,,,,,,,,,,,,,,,,,,,,,,,,,"SYN08072503 32966 83208 10100 21044 30254 40265 51009 92351 333 10128 20067 555 91500=","FM-12","4",,,,,,,,,,,,,,,,,,,,,,,,,,,,
"72503014732","2020-03-14T19:51:00","FM-15","7",,,,,,,,,,,,,,,,,,,,,,,,,,,,,,,,,,,,,,"30.34","25","50","0.00",,,,"38","30.34","OVC:08 110","30.31","10.00","40","310",,"11",,,,,,,,,,,,,,,,,,,,,,,,,,,,,,,,,,,,,"MET09603/14/20 19:51:01 METAR KLGA 150051Z 31010KT 10SM OVC110 10/M04 A3034 RMK AO2 SLP273 T01001039 $","FM-15","7",,,,,,,,,,,,,,,,,,,,,,,,,,,,
"72503014732","2020-03-14T20:51:00","FM-15","7",,,,,,,,,,,,,,,,,,,,,,,,,,,,,,,,,,,,,,"30.36","22","49","0.00",,,,"35","30.36","OVC:08 95","30.33","10.00","39","320",,"17",,,,,,,,,,,,,,,,,,,,,,,,,,,,,,,,,,,,,"MET09603/14/20 20:51:01 METAR KLGA 150151Z 32015KT 10SM OVC095 09/M06 A3036 RMK AO2 SLP281 T00941056 $","FM-15","7",,,,,,,,,,,,,,,,,,,,,,,,,,,,
"72503014732","2020-03-14T21:51:00","FM-15","7",,,,,,,,,,,,,,,,,,,,,,,,,,,,,,,,,,,,,,"30.36","22","48","0.00",,"-0.05","1","36","30.36","OVC:08 95","30.33","10.00","38","330",,"14",,,,,,,,,,,,,,,,,,,,,,,,,,,,,,,,,,,,,"MET10203/14/20 21:51:01 METAR KLGA 150251Z 33012KT 10SM OVC095 09/M06 A3036 RMK AO2 SLP282 T00891056 51017 $","FM-15","7",,,,,,,,,,,,,,,,,,,,,,,,,,,,
"72503014732","2020-03-14T22:00:00","FM-12","4",,,,,,,,,,,,,,,,,,,,,,,,,,,,,,,,,,,,,,,"22","48",,,"-0.05","1","36","30.36",,"30.32","9.94","38","330",,"14",,,,,,,,,,,,,,,,,,,,,,,,,,,,,,,,,,,,,"SYN06472503 32966 83312 10089 21056 30267 40282 51017 90251 555 91503=","FM-12","4",,,,,,,,,,,,,,,,,,,,,,,,,,,,
"72503014732","2020-03-14T22:51:00","FM-15","7",,,,,,,,,,,,,,,,,,,,,,,,,,,,,,,,,,,,,,"30.37","23","47","0.00",,,,"39","30.37","OVC:08 90","30.34","10.00","38","310",,"11",,,,,,,,,,,,,,,,,,,,,,,,,,,,,,,,,,,,,"MET09603/14/20 22:51:02 METAR KLGA 150351Z 31010KT 10SM OVC090 08/M05 A3037 RMK AO2 SLP284 T00831050 $","FM-15","7",,,,,,,,,,,,,,,,,,,,,,,,,,,,
"72503014732","2020-03-14T23:51:00","FM-15","7",,,,,,,,,,,,,,,,,,,,,,,,,,,,,,,,,,,,,,"30.37","24","46","0.00",,,,"42","30.37","OVC:08 80","30.34","10.00","37","320",,"11",,,,,,,,,,,,,,,,,,,,,,,,,,,,,,,,,,,,,"MET10603/14/20 23:51:02 METAR KLGA 150451Z 32010KT 10SM OVC080 08/M04 A3037 RMK AO2 SLP283 T00781044 401280067 $","FM-15","7",,,,,,,,,,,,,,,,,,,,,,,,,,,,
"72503014732","2020-03-14T23:59:00","SOD  ","6",,,,,,,,,,,,,,,"22","50","35","30.29","30.26","38","14.4","0","8.6","15","55","44","290","42","0.00","0","0.0","310","33",,,,,,,,,,,,,,,,,,,,,,,,,,,,,,,,,,,,,,,,,,,,,,,,,,,,,,,,,"SOD74324 HR PRECIPITATION (IN): 0.00 SNOW DEPTH (IN):0     24 HR SNOWFALL (IN):0.0  24 HR MAX TEMP (F): 5524 HR MIN TEMP (F): 44AVERAGE STATION PRESSURE(D):30.257 MINIMUM SEA LEVEL PRESSURE:30.13 TIME OF OCCURRENCE:0009 PEAK WIND SPEED (MPH): 42 PEAK WIND DIR (DEG):290 PEAK WIND TIME (LST):      FASTEST 2MIN SPEED (MPH): 33FASTEST 2MIN DIR (DEG):310 FASTEST 2MIN TIME (LST):     AVERAGE WIND SPEED (MPH):14.4 24 HR AVG TEMP (F): 50DEPART FROM NORMAL:  9  HEATING DEGREE DAYS: 15 COOLING DEGREE DAYS:  0 LATEST DAY MAX TEMP (0700-1900 LST): 55 LATEST NIGHT MIN TEMP(1900-0800 LST):44 HOURLY INCREMENTAL PRECIPITATION VALUES (IN):0.00 0.00 0.00 0.00 0.00 0.00 0.00 0.00 0.00 0.00 0.00 0.00 0.00 0.00 0.00 0.00 0.00 0.00 0.00 0.00 0.00 0.00 0.00 0.00","SOD  ","6",,,,,,,,,,,,,,,,,,,,,,,,,"0608","1802",,
"72503014732","2020-03-15T00:51:00","FM-15","7",,,,,,,,,,,,,,,,,,,,,,,,,,,,,,,,,,,,,,"30.38","24","45","0.00",,"-0.02","3","44","30.38","BKN:07 90 OVC:08 100","30.35","10.00","37","340",,"13",,,,,,,,,,,,,,,,,,,,,,,,,,,,,,,,,,,,,"MET12103/15/20 00:51:02 METAR KLGA 150551Z 34011KT 10SM BKN090 OVC100 07/M04 A3038 RMK AO2 SLP288 T00721044 10100 20072 53006 $","FM-15","7",,,,,,,,,,,,,,,,,,,,,,,,,,,,
"72503014732","2020-03-15T01:00:00","FM-12","4",,,,,,,,,,,,,,,,,,,,,,,,,,,,,,,,,,,,,,,"24","45",,,"-0.02","3","44","30.38",,"30.34","9.94","37","340",,"13",,,,,,,,,,,,,,,,,,,,,,,,,,,,,,,,,,,,,"SYN08072503 32966 83411 10072 21044 30274 40288 53006 90551 333 10100 20067 555 91506=","FM-12","4",,,,,,,,,,,,,,,,,,,,,,,,,,,,
"72503014732","2020-03-15T01:51:00","FM-15","4",,,,,,,,,,,,,,,,,,,,,,,,,,,,,,,,,,,,,,"30.38","25","44",,,,,"47","30.37",,,"10.00",,"350",,"10",,,,,,,,,,,,,,,,,,,,,,,,,,,,,,,,,,,,,"MET079METAR KLGA 150651Z 35009KT 10SM OVC070 07/M04 A3038 RMK AO2 SLP285 T00671039 $=","FM-15","4",,,,,,,,,,,,,,,,,,,,,,,,,,,,
"72503014732","2020-03-15T02:51:00","FM-15","7",,,,,,,,,,,,,,,,,,,,,,,,,,,,,,,,,,,,,,"30.35","23","44","0.00",,,,"43","30.35","SCT:04 75 OVC:08 90","30.32","10.00","36","020",,"6",,,,,,,,,,,,,,,,,,,,,,,,,,,,,,,,,,,,,"MET10303/15/20 02:51:02 METAR KLGA 150751Z 02005KT 10SM SCT075 OVC090 07/M05 A3035 RMK AO2 SLP278 T00671050 $","FM-15","7",,,,,,,,,,,,,,,,,,,,,,,,,,,,
"72503014732","2020-03-15T03:51:00","FM-15","7",,,,,,,,,,,,,,,,,,,,,,,,,,,,,,,,,,,,,,"30.37","23","44","0.00",,"+0.02","5","43","30.36","BKN:07 80 OVC:08 95","30.34","10.00","36","030",,"7",,,,,,,,,,,,,,,,,,,,,,,,,,,,,,,,,,,,,"MET10903/15/20 03:51:02 METAR KLGA 150851Z 03006KT 10SM BKN080 OVC095 07/M05 A3037 RMK AO2 SLP282 T00671050 55006 $","FM-15","7",,,,,,,,,,,,,,,,,,,,,,,,,,,,
"72503014732","2020-03-15T04:00:00","FM-12","4",,,,,,,,,,,,,,,,,,,,,,,,,,,,,,,,,,,,,,,"23","44",,,"+0.02","5","43","30.36","74","30.33","9.94","36","030",,"7",,,,,,,,,,,,,,,,,,,,,,,,,,,,,,,,,,,,,"SYN06472503 32866 80306 10067 21050 30271 40282 55006 90851 555 91509=","FM-12","4",,,,,,,,,,,,,,,,,,,,,,,,,,,,
"72503014732","2020-03-15T04:51:00","FM-15","7",,,,,,,,,,,,,,,,,,,,,,,,,,,,,,,,,,,,,,"30.39","25","43","0.00",,,,"49","30.39","OVC:08 90","30.36","10.00","36","360",,"6",,,,,,,,,,,,,,,,,,,,,,,,,,,,,,,,,,,,,"MET09603/15/20 04:51:02 METAR KLGA 150951Z 36005KT 10SM OVC090 06/M04 A3039 RMK AO2 SLP291 T00611039 $","FM-15","7",,,,,,,,,,,,,,,,,,,,,,,,,,,,
"72503014732","2020-03-15T05:51:00","FM-15","7",,,,,,,,,,,,,,,,,,,,,,,,,,,,,,,,,,,,,,"30.42","24","43","0.00",,,,"47","30.42","FEW:02 75 BKN:07 90 OVC:08 250","30.39","10.00","36","360",,"9",,,,,,,,,,,,,,,,,,,,,,,,,,,,,,,,,,,,,"MET11003/15/20 05:51:02 METAR KLGA 151051Z 36008KT 10SM FEW075 BKN090 OVC250 06/M04 A3042 RMK AO2 SLP300 T00611044 $","FM-15","7",,,,,,,,,,,,,,,,,,,,,,,,,,,,
"72503014732","2020-03-15T06:51:00","FM-15","7",,,,,,,,,,,,,,,,,,,,,,,,,,,,,,,,,,,,,,"30.44","25","42","0.00",,"-0.07","1","51","30.44","FEW:02 75 SCT:04 90 BKN:07 110","30.41","10.00","35","010",,"9",,,,,,,,,,,,,,,,,,,,,,,,,,,,,,,,,,,,,"MET12803/15/20 06:51:02 METAR KLGA 151151Z 01008KT 10SM FEW075 SCT090 BKN110 06/M04 A3044 RMK AO2 SLP308 T00561039 10072 20056 51025 $","FM-15","7",,,,,,,,,,,,,,,,,,,,,,,,,,,,
"72503014732","2020-03-15T07:00:00","FM-12","4",,,,,,,,,,,,,,,,,,,,,,,,,,,,,,,,,,,,,,,"25","42",,,"-0.07","1","51","30.44","74","30.40","9.94","35","010",,"9",,,,,,,,,,,,,,,,,,,,,,,,,,,,,,,,,,,,,"SYN08072503 32866 60108 10056 21039 30294 40308 51025 91151 333 10128 20056 555 91512=","FM-12","4",,,,,,,,,,,,,,,,,,,,,,,,,,,,
"72503014732","2020-03-15T07:51:00","FM-15","7",,,,,,,,,,,,,,,,,,,,,,,,,,,,,,,,,,,,,,"30.46","24","43","0.00",,,,"47","30.45","FEW:02 75 BKN:07 95 BKN:07 170","30.43","10.00","36","360",,"13",,,,,,,,,,,,,,,,,,,,,,,,,,,,,,,,,,,,,"MET11003/15/20 07:51:02 METAR KLGA 151251Z 36011KT 10SM FEW075 BKN095 BKN170 06/M04 A3046 RMK AO2 SLP313 T00611044 $","FM-15","7",,,,,,,,,,,,,,,,,,,,,,,,,,,,
"72503014732","2020-03-15T08:51:00","FM-15","7",,,,,,,,,,,,,,,,,,,,,,,,,,,,,,,,,,,,,,"30.46","22","43","0.00",,,,"43","30.46","FEW:02 75 BKN:07 95 BKN:07 170","30.43","10.00","35","350",,"13",,,,,,,,,,,,,,,,,,,,,,,,,,,,,,,,,,,,,"MET11003/15/20 08:51:02 METAR KLGA 151351Z 35011KT 10SM FEW075 BKN095 BKN170 06/M06 A3046 RMK AO2 SLP315 T00611056 $","FM-15","7",,,,,,,,,,,,,,,,,,,,,,,,,,,,
"72503014732","2020-03-15T09:51:00","FM-15","7",,,,,,,,,,,,,,,,,,,,,,,,,,,,,,,,,,,,,,"30.46","22","45","0.00",,"-0.02","0","40","30.46","FEW:02 100 SCT:04 170","30.43","10.00","36","340",,"9",,,,,,,,,,,,,,,,,,,,,,,,,,,,,,,,,,,,,"MET10903/15/20 09:51:02 METAR KLGA 151451Z 34008KT 10SM FEW100 SCT170 07/M06 A3046 RMK AO2 SLP314 T00721056 50006 $","FM-15","7",,,,,,,,,,,,,,,,,,,,,,,,,,,,
"72503014732","2020-03-15T10:00:00","FM-12","4",,,,,,,,,,,,,,,,,,,,,,,,,,,,,,,,,,,,,,,"22","45",,,"0.02","9","40","30.46",,"30.42","9.94","36","340",,"9",,,,,,,,,,,,,,,,,,,,,,,,,,,,,,,,,,,,,"SYN06472503 32966 43408 10072 21056 30301 40314 50006 91451 555 91515=","FM-12","4",,,,,,,,,,,,,,,,,,,,,,,,,,,,
"72503014732","2020-03-15T10:51:00","FM-15","7",,,,,,,,,,,,,,,,,,,,,,,,,,,,,,,,,,,,,,"30.46","20","48","0.00",,,,"33","30.45","FEW:02 40 SCT:04 100 SCT:04 170","30.43","10.00","37","340",,"10",,,,,,,,,,,,,,,,,,,,,,,,,,,,,,,,,,,,,"MET11003/15/20 10:51:02 METAR KLGA 151551Z 34009KT 10SM FEW040 SCT100 SCT170 09/M07 A3046 RMK AO2 SLP313 T00891067 $","FM-15","7",,,,,,,,,,,,,,,,,,,,,,,,,,,,
"72503014732","2020-03-15T11:51:00","FM-15","7",,,,,,,,,,,,,,,,,,,,,,,,,,,,,,,,,,,,,,"30.45","17","49","0.00",,,,"28","30.45","FEW:02 45 FEW:02 190 FEW:02 250","30.42","10.00","37","020","20","10",,,,,,,,,,,,,,,,,,,,,,,,,,,,,,,,,,,,,"MET11303/15/20 11:51:02 METAR KLGA 151651Z 02009G17KT 10SM FEW045 FEW190 FEW250 09/M08 A3045 RMK AO2 SLP311 T00941083 $","FM-15","7",,,,,,,,,,,,,,,,,,,,,,,,,,,,
"72503014732","2020-03-15T12:51:00","FM-15","7",,,,,,,,,,,,,,,,,,,,,,,,,,,,,,,,,,,,,,"30.43","17","50","0.00",,"+0.03","8","27","30.43","FEW:02 50 FEW:02 190 FEW:02 250","30.40","10.00","38","020","17","13",,,,,,,,,,,,,,,,,,,,,,,,,,,,,,,,,,,,,"MET13103/15/20 12:51:02 METAR KLGA 151751Z 02011G15KT 10SM FEW050 FEW190 FEW250 10/M08 A3043 RMK AO2 SLP304 T01001083 10106 20056 58010 $","FM-15","7",,,,,,,,,,,,,,,,,,,,,,,,,,,,
"72503014732","2020-03-15T13:00:00","FM-12","4",,,,,,,,,,,,,,,,,,,,,,,,,,,,,,,,,,,,,,,"17","50",,,"+0.03","8","27","30.43","57","30.39","9.94","38","020",,"13",,,,,,,,,,,,,,,,,,,,,,,,,,,,,,,,,,,,,"SYN08672503 32766 20211 10100 21083 30291 40304 58010 91751 333 10106 20056 91015 555 91518=","FM-12","4",,,,,,,,,,,,,,,,,,,,,,,,,,,,
"72503014732","2020-03-15T13:51:00","FM-15","7",,,,,,,,,,,,,,,,,,,,,,,,,,,,,,,,,,,,,,"30.41","17","52","0.00",,,,"25","30.40","FEW:02 250","30.38","10.00","39","320",,"5",,,,,,,,,,,,,,,,,,,,,,,,,,,,,,,,,,,,,"MET09603/15/20 13:51:02 METAR KLGA 151851Z 32004KT 10SM FEW250 11/M08 A3041 RMK AO2 SLP295 T01111083 $","FM-15","7",,,,,,,,,,,,,,,,,,,,,,,,,,,,
"72503014732","2020-03-15T14:51:00","FM-15","7",,,,,,,,,,,,,,,,,,,,,,,,,,,,,,,,,,,,,,"30.40","17","52","0.00",,,,"25","30.40","FEW:02 40","30.37","10.00","39","320",,"5",,,,,,,,,,,,,,,,,,,,,,,,,,,,,,,,,,,,,"MET09603/15/20 14:51:02 METAR KLGA 151951Z 32004KT 10SM FEW040 11/M08 A3040 RMK AO2 SLP294 T01111083 $","FM-15","7",,,,,,,,,,,,,,,,,,,,,,,,,,,,
"72503014732","2020-03-15T15:51:00","FM-15","7",,,,,,,,,,,,,,,,,,,,,,,,,,,,,,,,,,,,,,"30.40","17","53","0.00",,"+0.03","6","24","30.40","FEW:02 40","30.37","10.00","39","360",,"7",,,,,,,,,,,,,,,,,,,,,,,,,,,,,,,,,,,,,"MET10203/15/20 15:51:02 METAR KLGA 152051Z 36006KT 10SM FEW040 12/M08 A3040 RMK AO2 SLP293 T01171083 56011 $","FM-15","7",,,,,,,,,,,,,,,,,,,,,,,,,,,,
"72503014732","2020-03-15T16:00:00","FM-12","4",,,,,,,,,,,,,,,,,,,,,,,,,,,,,,,,,,,,,,,"17","53",,,"+0.03","6","24","30.40","41","30.36","9.94","39","360",,"7",,,,,,,,,,,,,,,,,,,,,,,,,,,,,,,,,,,,,"SYN06472503 32666 23606 10117 21083 30281 40293 56011 92051 555 91521=","FM-12","4",,,,,,,,,,,,,,,,,,,,,,,,,,,,
"72503014732","2020-03-15T16:51:00","FM-15","7",,,,,,,,,,,,,,,,,,,,,,,,,,,,,,,,,,,,,,"30.40","15","52","0.00",,,,"23","30.40","CLR:00","30.37","10.00","38","080",,"13",,,,,,,,,,,,,,,,,,,,,,,,,,,,,,,,,,,,,"MET09303/15/20 16:51:02 METAR KLGA 152151Z 08011KT 10SM CLR 11/M09 A3040 RMK AO2 SLP294 T01111094 $","FM-15","7",,,,,,,,,,,,,,,,,,,,,,,,,,,,
"72503014732","2020-03-15T17:51:00","FM-15","7",,,,,,,,,,,,,,,,,,,,,,,,,,,,,,,,,,,,,,"30.42","15","51","0.00",,,,"24","30.42","CLR:00","30.39","10.00","38","070",,"9",,,,,,,,,,,,,,,,,,,,,,,,,,,,,,,,,,,,,"MET09303/15/20 17:51:02 METAR KLGA 152251Z 07008KT 10SM CLR 11/M09 A3042 RMK AO2 SLP300 T01061094 $","FM-15","7",,,,,,,,,,,,,,,,,,,,,,,,,,,,
"72503014732","2020-03-15T18:51:00","FM-15","7",,,,,,,,,,,,,,,,,,,,,,,,,,,,,,,,,,,,,,"30.44","17","50","0.00",,"-0.04","3","27","30.44","CLR:00","30.41","10.00","38","060",,"8",,,,,,,,,,,,,,,,,,,,,,,,,,,,,,,,,,,,,"MET11103/15/20 18:51:02 METAR KLGA 152351Z 06007KT 10SM CLR 10/M08 A3044 RMK AO2 SLP307 T01001083 10122 20100 53014 $","FM-15","7",,,,,,,,,,,,,,,,,,,,,,,,,,,,
"72503014732","2020-03-15T19:00:00","FM-12","4",,,,,,,,,,,,,,,,,,,,,,,,,,,,,,,,,,,,,,,"17","50",,,"-0.04","3","27","30.44",,"30.40","9.94","38","060",,"8",,,,,,,,,,,,,,,,,,,,,,,,,,,,,,,,,,,,,"SYN08072503 32966 00607 10100 21083 30294 40307 53014 92351 333 10122 20056 555 91600=","FM-12","4",,,,,,,,,,,,,,,,,,,,,,,,,,,,
"72503014732","2020-03-15T19:51:00","FM-15","7",,,,,,,,,,,,,,,,,,,,,,,,,,,,,,,,,,,,,,"30.47","17","49","0.00",,,,"28","30.47","CLR:00","30.44","10.00","37","060",,"10",,,,,,,,,,,,,,,,,,,,,,,,,,,,,,,,,,,,,"MET09303/15/20 19:51:01 METAR KLGA 160051Z 06009KT 10SM CLR 09/M08 A3047 RMK AO2 SLP317 T00941083 $","FM-15","7",,,,,,,,,,,,,,,,,,,,,,,,,,,,
"72503014732","2020-03-15T20:51:00","FM-15","7",,,,,,,,,,,,,,,,,,,,,,,,,,,,,,,,,,,,,,"30.49","11","46","0.00",,,,"24","30.49","CLR:00","30.46","10.00","34","030",,"13",,,,,,,,,,,,,,,,,,,,,,,,,,,,,,,,,,,,,"MET09303/15/20 20:51:01 METAR KLGA 160151Z 03011KT 10SM CLR 08/M12 A3049 RMK AO2 SLP325 T00781117 $","FM-15","7",,,,,,,,,,,,,,,,,,,,,,,,,,,,
"72503014732","2020-03-15T21:51:00","FM-15","7",,,,,,,,,,,,,,,,,,,,,,,,,,,,,,,,,,,,,,"30.51","13","45","0.00",,"-0.07","1","27","30.51","CLR:00","30.48","10.00","34","360",,"10",,,,,,,,,,,,,,,,,,,,,,,,,,,,,,,,,,,,,"MET09903/15/20 21:51:01 METAR KLGA 160251Z 36009KT 10SM CLR 07/M11 A3051 RMK AO2 SLP331 T00721106 51024 $","FM-15","7",,,,,,,,,,,,,,,,,,,,,,,,,,,,
"72503014732","2020-03-15T22:00:00","FM-12","4",,,,,,,,,,,,,,,,,,,,,,,,,,,,,,,,,,,,,,,"13","45",,,"-0.07","1","27","30.51",,"30.47","9.94","34","360",,"10",,,,,,,,,,,,,,,,,,,,,,,,,,,,,,,,,,,,,"SYN06472503 32966 03609 10072 21106 30318 40331 51024 90251 555 91603=","FM-12","4",,,,,,,,,,,,,,,,,,,,,,,,,,,,
"72503014732","2020-03-15T22:51:00","FM-15","7",,,,,,,,,,,,,,,,,,,,,,,,,,,,,,,,,,,,,,"30.52","10","43","0.00",,,,"26","30.52","CLR:00","30.49","10.00","32","010",,"8",,,,,,,,,,,,,,,,,,,,,,,,,,,,,,,,,,,,,"MET09303/15/20 22:51:02 METAR KLGA 160351Z 01007KT 10SM CLR 06/M12 A3052 RMK AO2 SLP334 T00611122 $","FM-15","7",,,,,,,,,,,,,,,,,,,,,,,,,,,,
"72503014732","2020-03-15T23:51:00","FM-15","7",,,,,,,,,,,,,,,,,,,,,,,,,,,,,,,,,,,,,,"30.53","10","41","0.00",,,,"28","30.53","FEW:02 250","30.50","10.00","31","020",,"9",,,,,,,,,,,,,,,,,,,,,,,,,,,,,,,,,,,,,"MET10603/15/20 23:51:02 METAR KLGA 160451Z 02008KT 10SM FEW250 05/M12 A3053 RMK AO2 SLP338 T00501122 401220050 $","FM-15","7",,,,,,,,,,,,,,,,,,,,,,,,,,,,
"72503014732","2020-03-15T23:59:00","SOD  ","6",,,,,,,,,,,,,,,"18","48","34","30.44","30.40","35","9.3","0","6.3","17","54","41","350","22","0.00","0","0.0","350","18",,,,,,,,,,,,,,,,,,,,,,,,,,,,,,,,,,,,,,,,,,,,,,,,,,,,,,,,,"SOD74324 HR PRECIPITATION (IN): 0.00 SNOW DEPTH (IN):0     24 HR SNOWFALL (IN):0.0  24 HR MAX TEMP (F): 5424 HR MIN TEMP (F): 41AVERAGE STATION PRESSURE(D):30.406 MINIMUM SEA LEVEL PRESSURE:30.35 TIME OF OCCURRENCE:0324 PEAK WIND SPEED (MPH): 22 PEAK WIND DIR (DEG):350 PEAK WIND TIME (LST):      FASTEST 2MIN SPEED (MPH): 18FASTEST 2MIN DIR (DEG):350 FASTEST 2MIN TIME (LST):     AVERAGE WIND SPEED (MPH): 9.3 24 HR AVG TEMP (F): 48DEPART FROM NORMAL:  6  HEATING DEGREE DAYS: 17 COOLING DEGREE DAYS:  0 LATEST DAY MAX TEMP (0700-1900 LST): 54 LATEST NIGHT MIN TEMP(1900-0800 LST):42 HOURLY INCREMENTAL PRECIPITATION VALUES (IN):0.00 0.00 0.00 0.00 0.00 0.00 0.00 0.00 0.00 0.00 0.00 0.00 0.00 0.00 0.00 0.00 0.00 0.00 0.00 0.00 0.00 0.00 0.00 0.00","SOD  ","6",,,,,,,,,,,,,,,,,,,,,,,,,"0606","1803",,
"72503014732","2020-03-16T00:51:00","FM-15","7",,,,,,,,,,,,,,,,,,,,,,,,,,,,,,,,,,,,,,"30.54","12","40","0.00",,"-0.03","3","32","30.54","FEW:02 250","30.51","10.00","31","020",,"11",,,,,,,,,,,,,,,,,,,,,,,,,,,,,,,,,,,,,"MET11403/16/20 00:51:02 METAR KLGA 160551Z 02010KT 10SM FEW250 04/M11 A3054 RMK AO2 SLP341 T00441111 10106 20044 53009 $","FM-15","7",,,,,,,,,,,,,,,,,,,,,,,,,,,,
"72503014732","2020-03-16T01:00:00","FM-12","4",,,,,,,,,,,,,,,,,,,,,,,,,,,,,,,,,,,,,,,"12","40",,,"-0.03","3","32","30.54",,"30.50","9.94","31","020",,"11",,,,,,,,,,,,,,,,,,,,,,,,,,,,,,,,,,,,,"SYN08072503 32966 20210 10044 21111 30328 40341 53009 90551 333 10106 20044 555 91606=","FM-12","4",,,,,,,,,,,,,,,,,,,,,,,,,,,,
"72503014732","2020-03-16T01:51:00","FM-15","7",,,,,,,,,,,,,,,,,,,,,,,,,,,,,,,,,,,,,,"30.55","13","39","0.00",,,,"34","30.55","FEW:02 250","30.52","10.00","31","040",,"11",,,,,,,,,,,,,,,,,,,,,,,,,,,,,,,,,,,,,"MET09603/16/20 01:51:02 METAR KLGA 160651Z 04010KT 10SM FEW250 04/M11 A3055 RMK AO2 SLP344 T00391106 $","FM-15","7",,,,,,,,,,,,,,,,,,,,,,,,,,,,
"72503014732","2020-03-16T02:51:00","FM-15","7",,,,,,,,,,,,,,,,,,,,,,,,,,,,,,,,,,,,,,"30.55","15","38","0.00",,,,"39","30.55","FEW:02 250","30.52","10.00","30","050",,"17",,,,,,,,,,,,,,,,,,,,,,,,,,,,,,,,,,,,,"MET09603/16/20 02:51:02 METAR KLGA 160751Z 05015KT 10SM FEW250 03/M09 A3055 RMK AO2 SLP346 T00331094 $","FM-15","7",,,,,,,,,,,,,,,,,,,,,,,,,,,,
"72503014732","2020-03-16T03:51:00","FM-15","7",,,,,,,,,,,,,,,,,,,,,,,,,,,,,,,,,,,,,,"30.56","13","37","0.00",,"-0.02","1","37","30.55","FEW:02 250","30.53","10.00","29","040",,"11",,,,,,,,,,,,,,,,,,,,,,,,,,,,,,,,,,,,,"MET10203/16/20 03:51:02 METAR KLGA 160851Z 04010KT 10SM FEW250 03/M11 A3056 RMK AO2 SLP346 T00281106 51006 $","FM-15","7",,,,,,,,,,,,,,,,,,,,,,,,,,,,
"72503014732","2020-03-16T04:00:00","FM-12","4",,,,,,,,,,,,,,,,,,,,,,,,,,,,,,,,,,,,,,,"13","37",,,"-0.02","1","37","30.55",,"30.52","9.94","29","040",,"11",,,,,,,,,,,,,,,,,,,,,,,,,,,,,,,,,,,,,"SYN06472503 32966 20410 10028 21106 30335 40346 51006 90851 555 91609=","FM-12","4",,,,,,,,,,,,,,,,,,,,,,,,,,,,
"72503014732","2020-03-16T04:51:00","FM-15","7",,,,,,,,,,,,,,,,,,,,,,,,,,,,,,,,,,,,,,"30.58","11","35","0.00",,,,"37","30.57","FEW:02 250","30.55","10.00","28","030",,"14",,,,,,,,,,,,,,,,,,,,,,,,,,,,,,,,,,,,,"MET09603/16/20 04:51:02 METAR KLGA 160951Z 03012KT 10SM FEW250 02/M12 A3058 RMK AO2 SLP353 T00171117 $","FM-15","7",,,,,,,,,,,,,,,,,,,,,,,,,,,,
"72503014732","2020-03-16T05:51:00","FM-15","7",,,,,,,,,,,,,,,,,,,,,,,,,,,,,,,,,,,,,,"30.59","9","34","0.00",,,,"35","30.58","FEW:02 250","30.56","10.00","27","040",,"14",,,,,,,,,,,,,,,,,,,,,,,,,,,,,,,,,,,,,"MET09603/16/20 05:51:02 METAR KLGA 161051Z 04012KT 10SM FEW250 01/M13 A3059 RMK AO2 SLP356 T00111128 $","FM-15","7",,,,,,,,,,,,,,,,,,,,,,,,,,,,
"72503014732","2020-03-16T06:51:00","FM-15","7",,,,,,,,,,,,,,,,,,,,,,,,,,,,,,,,,,,,,,"30.60","11","35","0.00",,"-0.05","1","37","30.60","FEW:02 250","30.57","10.00","28","060",,"18",,,,,,,,,,,,,,,,,,,,,,,,,,,,,,,,,,,,,"MET11403/16/20 06:51:02 METAR KLGA 161151Z 06016KT 10SM FEW250 02/M12 A3060 RMK AO2 SLP362 T00171117 10044 20006 51016 $","FM-15","7",,,,,,,,,,,,,,,,,,,,,,,,,,,,
"72503014732","2020-03-16T07:00:00","FM-12","4",,,,,,,,,,,,,,,,,,,,,,,,,,,,,,,,,,,,,,,"11","35",,,"-0.05","1","37","30.60",,"30.56","9.94","28","060",,"18",,,,,,,,,,,,,,,,,,,,,,,,,,,,,,,,,,,,,"SYN08072503 32966 20616 10017 21117 30348 40362 51016 91151 333 10122 20006 555 91612=","FM-12","4",,,,,,,,,,,,,,,,,,,,,,,,,,,,
"72503014732","2020-03-16T07:51:00","FM-15","7",,,,,,,,,,,,,,,,,,,,,,,,,,,,,,,,,,,,,,"30.62","10","35","0.00",,,,"35","30.62","FEW:02 250","30.59","10.00","27","070",,"17",,,,,,,,,,,,,,,,,,,,,,,,,,,,,,,,,,,,,"MET09603/16/20 07:51:02 METAR KLGA 161251Z 07015KT 10SM FEW250 02/M12 A3062 RMK AO2 SLP369 T00171122 $","FM-15","7",,,,,,,,,,,,,,,,,,,,,,,,,,,,
"72503014732","2020-03-16T08:51:00","FM-15","7",,,,,,,,,,,,,,,,,,,,,,,,,,,,,,,,,,,,,,"30.62","12","36","0.00",,,,"37","30.62","FEW:02 250","30.59","10.00","28","060",,"15",,,,,,,,,,,,,,,,,,,,,,,,,,,,,,,,,,,,,"MET09603/16/20 08:51:02 METAR KLGA 161351Z 06013KT 10SM FEW250 02/M11 A3062 RMK AO2 SLP368 T00221111 $","FM-15","7",,,,,,,,,,,,,,,,,,,,,,,,,,,,
"72503014732","2020-03-16T09:51:00","FM-15","7",,,,,,,,,,,,,,,,,,,,,,,,,,,,,,,,,,,,,,"30.63","17","37","0.00",,"-0.02","1","44","30.63","FEW:02 42 SCT:04 170 SCT:04 250","30.60","10.00","30","040",,"11",,,,,,,,,,,,,,,,,,,,,,,,,,,,,,,,,,,,,"MET11603/16/20 09:51:02 METAR KLGA 161451Z 04010KT 10SM FEW042 SCT170 SCT250 03/M08 A3063 RMK AO2 SLP371 T00281083 51008 $","FM-15","7",,,,,,,,,,,,,,,,,,,,,,,,,,,,
"72503014732","2020-03-16T10:00:00","FM-12","4",,,,,,,,,,,,,,,,,,,,,,,,,,,,,,,,,,,,,,,"17","37",,,"-0.02","1","44","30.63","41","30.59","9.94","30","040",,"11",,,,,,,,,,,,,,,,,,,,,,,,,,,,,,,,,,,,,"SYN06472503 32666 40410 10028 21083 30359 40371 51008 91451 555 91615=","FM-12","4",,,,,,,,,,,,,,,,,,,,,,,,,,,,
"72503014732","2020-03-16T10:51:00","FM-15","7",,,,,,,,,,,,,,,,,,,,,,,,,,,,,,,,,,,,,,"30.62","20","38","0.00",,,,"48","30.62","FEW:02 35 SCT:04 250","30.59","10.00","32","040",,"15",,,,,,,,,,,,,,,,,,,,,,,,,,,,,,,,,,,,,"MET10303/16/20 10:51:02 METAR KLGA 161551Z 04013KT 10SM FEW035 SCT250 03/M07 A3062 RMK AO2 SLP368 T00331067 $","FM-15","7",,,,,,,,,,,,,,,,,,,,,,,,,,,,
"72503014732","2020-03-16T11:51:00","FM-15","7",,,,,,,,,,,,,,,,,,,,,,,,,,,,,,,,,,,,,,"30.61","22","41","0.00",,,,"47","30.60","FEW:02 36 BKN:07 250","30.58","10.00","34","050",,"14",,,,,,,,,,,,,,,,,,,,,,,,,,,,,,,,,,,,,"MET10303/16/20 11:51:02 METAR KLGA 161651Z 05012KT 10SM FEW036 BKN250 05/M06 A3061 RMK AO2 SLP364 T00501056 $","FM-15","7",,,,,,,,,,,,,,,,,,,,,,,,,,,,
"72503014732","2020-03-16T12:51:00","FM-15","7",,,,,,,,,,,,,,,,,,,,,,,,,,,,,,,,,,,,,,"30.57","24","40","0.00",,"+0.06","8","53","30.57","FEW:02 37 BKN:07 250","30.54","10.00","34","040",,"15",,,,,,,,,,,,,,,,,,,,,,,,,,,,,,,,,,,,,"MET12103/16/20 12:51:02 METAR KLGA 161751Z 04013KT 10SM FEW037 BKN250 04/M04 A3057 RMK AO2 SLP352 T00441044 10050 20017 58019 $","FM-15","7",,,,,,,,,,,,,,,,,,,,,,,,,,,,
"72503014732","2020-03-16T13:00:00","FM-12","4",,,,,,,,,,,,,,,,,,,,,,,,,,,,,,,,,,,,,,,"24","40",,,"+0.06","8","53","30.57","41","30.53","9.94","34","040",,"15",,,,,,,,,,,,,,,,,,,,,,,,,,,,,,,,,,,,,"SYN08072503 32666 60413 10044 21044 30338 40352 58019 91751 333 10050 20017 555 91618=","FM-12","4",,,,,,,,,,,,,,,,,,,,,,,,,,,,
"72503014732","2020-03-16T13:51:00","FM-15","7",,,,,,,,,,,,,,,,,,,,,,,,,,,,,,,,,,,,,,"30.54","26","40","0.00",,,,"58","30.54","BKN:07 38 BKN:07 250","30.51","10.00","35","040",,"15",,,,,,,,,,,,,,,,,,,,,,,,,,,,,,,,,,,,,"MET10303/16/20 13:51:02 METAR KLGA 161851Z 04013KT 10SM BKN038 BKN250 04/M03 A3054 RMK AO2 SLP342 T00441033 $","FM-15","7",,,,,,,,,,,,,,,,,,,,,,,,,,,,
"72503014732","2020-03-16T14:51:00","FM-15","7",,,,,,,,,,,,,,,,,,,,,,,,,,,,,,,,,,,,,,"30.53","28","41","0.00",,,,"60","30.52","BKN:07 39 BKN:07 250","30.50","10.00","36","050",,"13",,,,,,,,,,,,,,,,,,,,,,,,,,,,,,,,,,,,,"MET10303/16/20 14:51:02 METAR KLGA 161951Z 05011KT 10SM BKN039 BKN250 05/M02 A3053 RMK AO2 SLP336 T00501022 $","FM-15","7",,,,,,,,,,,,,,,,,,,,,,,,,,,,
"72503014732","2020-03-16T15:51:00","FM-15","7",,,,,,,,,,,,,,,,,,,,,,,,,,,,,,,,,,,,,,"30.50","29","43","0.00",,"+0.08","8","58","30.49","OVC:08 34","30.47","10.00","37","VRB",,"11",,,,,,,,,,,,,,,,,,,,,,,,,,,,,,,,,,,,,"MET10203/16/20 15:51:02 METAR KLGA 162051Z 15010KT 10SM OVC034 06/M02 A3050 RMK AO2 SLP326 T00611017 58026 $","FM-15","7",,,,,,,,,,,,,,,,,,,,,,,,,,,,
"72503014732","2020-03-16T16:00:00","FM-12","4",,,,,,,,,,,,,,,,,,,,,,,,,,,,,,,,,,,,,,,"29","43",,,"+0.08","8","58","30.49","41","30.46","9.94","37","150",,"11",,,,,,,,,,,,,,,,,,,,,,,,,,,,,,,,,,,,,"SYN06472503 32666 81510 10061 21017 30315 40326 58026 92051 555 91621=","FM-12","4",,,,,,,,,,,,,,,,,,,,,,,,,,,,
"72503014732","2020-03-16T16:51:00","FM-15","7",,,,,,,,,,,,,,,,,,,,,,,,,,,,,,,,,,,,,,"30.48","26","42","0.00",,,,"53","30.48","BKN:07 45 BKN:07 250","30.45","10.00","36","140",,"14",,,,,,,,,,,,,,,,,,,,,,,,,,,,,,,,,,,,,"MET10303/16/20 16:51:02 METAR KLGA 162151Z 14012KT 10SM BKN045 BKN250 06/M03 A3048 RMK AO2 SLP321 T00561033 $","FM-15","7",,,,,,,,,,,,,,,,,,,,,,,,,,,,
"72503014732","2020-03-16T17:51:00","FM-15","7",,,,,,,,,,,,,,,,,,,,,,,,,,,,,,,,,,,,,,"30.49","27","42","0.00",,,,"55","30.48","BKN:07 35 OVC:08 42","30.46","10.00","36","130",,"14",,,,,,,,,,,,,,,,,,,,,,,,,,,,,,,,,,,,,"MET10303/16/20 17:51:02 METAR KLGA 162251Z 13012KT 10SM BKN035 OVC042 06/M03 A3049 RMK AO2 SLP323 T00561028 $","FM-15","7",,,,,,,,,,,,,,,,,,,,,,,,,,,,
"72503014732","2020-03-16T18:51:00","FM-15","7",,,,,,,,,,,,,,,,,,,,,,,,,,,,,,,,,,,,,,"30.48","27","41","0.00",,"+0.01","6","57","30.48","FEW:02 30 BKN:07 40 OVC:08 80","30.45","10.00","36","130",,"14",,,,,,,,,,,,,,,,,,,,,,,,,,,,,,,,,,,,,"MET12803/16/20 18:51:02 METAR KLGA 162351Z 13012KT 10SM FEW030 BKN040 OVC080 05/M03 A3048 RMK AO2 SLP321 T00501028 10061 20039 56005 $","FM-15","7",,,,,,,,,,,,,,,,,,,,,,,,,,,,
"72503014732","2020-03-16T19:00:00","FM-12","4",,,,,,,,,,,,,,,,,,,,,,,,,,,,,,,,,,,,,,,"27","41",,,"+0.01","6","57","30.48","26","30.44","9.94","36","130",,"14",,,,,,,,,,,,,,,,,,,,,,,,,,,,,,,,,,,,,"SYN08072503 32566 81312 10050 21028 30308 40321 56005 92351 333 10061 20006 555 91700=","FM-12","4",,,,,,,,,,,,,,,,,,,,,,,,,,,,
"72503014732","2020-03-16T19:51:00","FM-15","7",,,,,,,,,,,,,,,,,,,,,,,,,,,,,,,,,,,,,,"30.48","28","41","0.00",,,,"60","30.47","BKN:07 28 OVC:08 37","30.45","10.00","36","120",,"15",,,,,,,,,,,,,,,,,,,,,,,,,,,,,,,,,,,,,"MET10303/16/20 19:51:01 METAR KLGA 170051Z 12013KT 10SM BKN028 OVC037 05/M02 A3048 RMK AO2 SLP320 T00501022 $","FM-15","7",,,,,,,,,,,,,,,,,,,,,,,,,,,,
"72503014732","2020-03-16T20:51:00","FM-15","7",,,,,,,,,,,,,,,,,,,,,,,,,,,,,,,,,,,,,,"30.46","29","41","0.00",,,,"62","30.46","BKN:07 28 BKN:07 36 OVC:08 70","30.43","10.00","36","120",,"13",,,,,,,,,,,,,,,,,,,,,,,,,,,,,,,,,,,,,"MET11003/16/20 20:51:01 METAR KLGA 170151Z 12011KT 10SM BKN028 BKN036 OVC070 05/M02 A3046 RMK AO2 SLP315 T00501017 $","FM-15","7",,,,,,,,,,,,,,,,,,,,,,,,,,,,
"72503014732","2020-03-16T21:51:00","FM-15","7",,,,,,,,,,,,,,,,,,,,,,,,,,,,,,,,,,,,,,"30.45","30","41","0.00",,"+0.03","8","65","30.45","FEW:02 23 SCT:04 38 OVC:08 70","30.42","10.00","37","120",,"13",,,,,,,,,,,,,,,,,,,,,,,,,,,,,,,,,,,,,"MET11603/16/20 21:51:01 METAR KLGA 170251Z 12011KT 10SM FEW023 SCT038 OVC070 05/M01 A3045 RMK AO2 SLP311 T00501011 58009 $","FM-15","7",,,,,,,,,,,,,,,,,,,,,,,,,,,,
"72503014732","2020-03-16T22:00:00","FM-12","4",,,,,,,,,,,,,,,,,,,,,,,,,,,,,,,,,,,,,,,"30","41",,,"+0.03","8","65","30.45","26","30.41","9.94","37","120",,"13",,,,,,,,,,,,,,,,,,,,,,,,,,,,,,,,,,,,,"SYN06472503 32566 81211 10050 21011 30298 40311 58009 90251 555 91703=","FM-12","4",,,,,,,,,,,,,,,,,,,,,,,,,,,,
"72503014732","2020-03-16T22:16:00","FM-16","7",,,,,,,,,,,,,,,,,,,,,,,,,,,,,,,,,,,,,,"30.44","31","41",,,,,"67",,"BKN:07 23 BKN:07 27 OVC:08 70","30.41","10.00","37","130",,"11",,,,,,,,,,,,,,,,,,,,,,,,,,,,,,,,,,,,,"MET10303/16/20 22:16:01 SPECI KLGA 170316Z 13010KT 10SM BKN023 BKN027 OVC070 05/M01 A3044 RMK AO2 T00501006 $","FM-16","7",,,,,,,,,,,,,,,,,,,,,,,,,,,,
"72503014732","2020-03-16T22:47:00","FM-16","7",,,,,,,,,,,,,,,,,,,,,,,,,,,,,,,,,,,,,,"30.41","30","41",,,,,"66",,"SCT:04 22 OVC:08 75","30.38","10.00","37","120",,"11",,,,,,,,,,,,,,,,,,,,,,,,,,,,,,,,,,,,,"MET08603/16/20 22:47:02 SPECI KLGA 170347Z 12010KT 10SM SCT022 OVC075 05/M01 A3041 RMK AO2 $","FM-16","7",,,,,,,,,,,,,,,,,,,,,,,,,,,,
"72503014732","2020-03-16T22:51:00","FM-15","7",,,,,,,,,,,,,,,,,,,,,,,,,,,,,,,,,,,,,,"30.41","31","41","0.00",,,,"67","30.41","FEW:02 22 BKN:07 75","30.38","10.00","37","120",,"13",,,,,,,,,,,,,,,,,,,,,,,,,,,,,,,,,,,,,"MET10303/16/20 22:51:02 METAR KLGA 170351Z 12011KT 10SM FEW022 BKN075 05/M01 A3041 RMK AO2 SLP297 T00501006 $","FM-15","7",,,,,,,,,,,,,,,,,,,,,,,,,,,,
"72503014732","2020-03-16T23:45:00","FM-16","7",,,,,,,,,,,,,,,,,,,,,,,,,,,,,,,,,,,,,,"30.40","32","41",,,,,"70",,"BKN:07 20 OVC:08 70","30.37","10.00","37","120",,"10",,,,,,,,,,,,,,,,,,,,,,,,,,,,,,,,,,,,,"MET08503/16/20 23:45:02 SPECI KLGA 170445Z 12009KT 10SM BKN020 OVC070 05/00 A3040 RMK AO2 $","FM-16","7",,,,,,,,,,,,,,,,,,,,,,,,,,,,
"72503014732","2020-03-16T23:51:00","FM-15","7",,,,,,,,,,,,,,,,,,,,,,,,,,,,,,,,,,,,,,"30.39","32","42","0.00",,,,"68","30.39","OVC:08 20","30.36","10.00","38","120",,"11",,,,,,,,,,,,,,,,,,,,,,,,,,,,,,,,,,,,,"MET10503/16/20 23:51:02 METAR KLGA 170451Z 12010KT 10SM OVC020 06/00 A3039 RMK AO2 SLP291 T00560000 400610006 $","FM-15","7",,,,,,,,,,,,,,,,,,,,,,,,,,,,
"72503014732","2020-03-16T23:59:00","SOD  ","6",,,,,,,,,,,,,,,"21","38","50","30.53","30.49","33","13.8","0","-4.0","27","43","33","050","25","0.00","0","0.0","060","21",,,,,,,,,,,,,,,,,,,,,,,,,,,,,,,,,,,,,,,,,,,,,,,,,,,,,,,,,"SOD74324 HR PRECIPITATION (IN): 0.00 SNOW DEPTH (IN):0     24 HR SNOWFALL (IN):0.0  24 HR MAX TEMP (F): 4324 HR MIN TEMP (F): 33AVERAGE STATION PRESSURE(D):30.490 MINIMUM SEA LEVEL PRESSURE:30.38 TIME OF OCCURRENCE:2359 PEAK WIND SPEED (MPH): 25 PEAK WIND DIR (DEG): 50 PEAK WIND TIME (LST):      FASTEST 2MIN SPEED (MPH): 21FASTEST 2MIN DIR (DEG): 60 FASTEST 2MIN TIME (LST):     AVERAGE WIND SPEED (MPH):13.8 24 HR AVG TEMP (F): 38DEPART FROM NORMAL: -4  HEATING DEGREE DAYS: 27 COOLING DEGREE DAYS:  0 LATEST DAY MAX TEMP (0700-1900 LST): 43 LATEST NIGHT MIN TEMP(1900-0800 LST):33 HOURLY INCREMENTAL PRECIPITATION VALUES (IN):0.00 0.00 0.00 0.00 0.00 0.00 0.00 0.00 0.00 0.00 0.00 0.00 0.00 0.00 0.00 0.00 0.00 0.00 0.00 0.00 0.00 0.00 0.00 0.00","SOD  ","6",,,,,,,,,,,,,,,,,,,,,,,,,"0604","1804",,
"72503014732","2020-03-17T00:51:00","FM-15","7",,,,,,,,,,,,,,,,,,,,,,,,,,,,,,,,,,,,,,"30.37","33","42","0.00",,"+0.09","6","71","30.36","OVC:08 18","30.34","10.00","38","120",,"11",,,,,,,,,,,,,,,,,,,,,,,,,,,,,,,,,,,,,"MET11303/17/20 00:51:02 METAR KLGA 170551Z 12010KT 10SM OVC018 06/01 A3037 RMK AO2 SLP282 T00560006 10056 20050 56029 $","FM-15","7",,,,,,,,,,,,,,,,,,,,,,,,,,,,
"72503014732","2020-03-17T01:00:00","FM-12","4",,,,,,,,,,,,,,,,,,,,,,,,,,,,,,,,,,,,,,,"33","42",,,"+0.09","6","71","30.36","15","30.33","9.94","38","120",,"11",,,,,,,,,,,,,,,,,,,,,,,,,,,,,,,,,,,,,"SYN08072503 32466 81210 10056 20006 30271 40282 56029 90551 333 10056 20006 555 91706=","FM-12","4",,,,,,,,,,,,,,,,,,,,,,,,,,,,
"72503014732","2020-03-17T01:51:00","FM-15","7",,,,,,,,,,,,,,,,,,,,,,,,,,,,,,,,,,,,,,"30.33","35","43","0.00",,,,"74","30.32","OVC:08 16","30.30","10.00","40","130",,"9",,,,,,,,,,,,,,,,,,,,,,,,,,,,,,,,,,,,,"MET09503/17/20 01:51:02 METAR KLGA 170651Z 13008KT 10SM OVC016 06/02 A3033 RMK AO2 SLP269 T00610017 $","FM-15","7",,,,,,,,,,,,,,,,,,,,,,,,,,,,
"72503014732","2020-03-17T02:51:00","FM-15","7",,,,,,,,,,,,,,,,,,,,,,,,,,,,,,,,,,,,,,"30.30","35","43","T",,,,"74","30.30","BKN:07 15 OVC:08 21","30.27","10.00","40","130",,"10",,,,,,,,,,,,,,,,,,,,,,,,,,,,,,,,,,,,,"MET10203/17/20 02:51:02 METAR KLGA 170751Z 13009KT 10SM BKN015 OVC021 06/02 A3030 RMK AO2 SLP260 T00610017 $","FM-15","7",,,,,,,,,,,,,,,,,,,,,,,,,,,,
"72503014732","2020-03-17T03:11:00","FM-16","7",,,,,,,,,,,,,,,,,,,,,,,,,,,,,,,,,,,,,,"30.29","36","43","T","-RA:02 |RA |RA",,,"76",,"BKN:07 13 OVC:08 20","30.26","10.00","40","140",,"8",,,,,,,,,,,,,,,,,,,,,,,,,,,,,,,,,,,,,"MET11303/17/20 03:11:02 SPECI KLGA 170811Z 14007KT 10SM -RA BKN013 OVC020 06/02 A3029 RMK AO2 RAB0753 P0000 T00610022 $","FM-16","7",,,,,,,,,,,,,,,,,,,,,,,,,,,,
"72503014732","2020-03-17T03:51:00","FM-15","7",,,,,,,,,,,,,,,,,,,,,,,,,,,,,,,,,,,,,,"30.27","37","42","0.04","-RA:02 |RA |RA","+0.10","6","82","30.26","SCT:04 12 BKN:07 18 OVC:08 75","30.24","10.00","40","140",,"9",,,,,,,,,,,,,,,,,,,,,,,,,,,,,,,,,,,,,"MET13903/17/20 03:51:02 METAR KLGA 170851Z 14008KT 10SM -RA SCT012 BKN018 OVC075 06/03 A3027 RMK AO2 RAB0753 SLP248 P0004 60004 T00560028 56034 $","FM-15","7",,,,,,,,,,,,,,,,,,,,,,,,,,,,
"72503014732","2020-03-17T04:00:00","FM-12","4",,,,,,,,,,,,,,,,,,,,,,,,,,,,,,,,,,,,,,,"37","42",,"||RA","+0.10","6","82","30.26","15","30.23","9.94","40","140",,"9",,,,,,,,,,,,,,,,,,,,,,,,,,,,,,,,,,,,,"SYN07672503 11466 81408 10056 20028 30237 40248 56034 60017 761// 90851 555 91709=","FM-12","4",,,,,,,,,,,,,,,,,,,,,,,,,,,,
"72503014732","2020-03-17T04:43:00","FM-16","7",,,,,,,,,,,,,,,,,,,,,,,,,,,,,,,,,,,,,,"30.25","38","42","T",,,,"85",,"FEW:02 9 OVC:08 13","30.22","10.00","40","130",,"9",,,,,,,,,,,,,,,,,,,,,,,,,,,,,,,,,,,,,"MET11303/17/20 04:43:02 SPECI KLGA 170943Z 13008KT 10SM FEW009 OVC013 06/03 A3025 RMK AO2 RAE04B29E38 P0000 T00560033 $","FM-16","7",,,,,,,,,,,,,,,,,,,,,,,,,,,,
"72503014732","2020-03-17T04:51:00","FM-15","7",,,,,,,,,,,,,,,,,,,,,,,,,,,,,,,,,,,,,,"30.25","38","43","T",,,,"82","30.25","SCT:04 9 BKN:07 13 OVC:08 21","30.22","10.00","41","130",,"8",,,,,,,,,,,,,,,,,,,,,,,,,,,,,,,,,,,,,"MET12703/17/20 04:51:02 METAR KLGA 170951Z 13007KT 10SM SCT009 BKN013 OVC021 06/03 A3025 RMK AO2 RAE04B29E38 SLP243 P0000 T00610033 $","FM-15","7",,,,,,,,,,,,,,,,,,,,,,,,,,,,
"72503014732","2020-03-17T05:51:00","FM-15","7",,,,,,,,,,,,,,,,,,,,,,,,,,,,,,,,,,,,,,"30.25","38","42","0.02","-RA:02 |RA |RA",,,"85","30.24","SCT:04 8 BKN:07 12 OVC:08 20","30.22","10.00","40","150",,"7",,,,,,,,,,,,,,,,,,,,,,,,,,,,,,,,,,,,,"MET12703/17/20 05:51:02 METAR KLGA 171051Z 15006KT 10SM -RA SCT008 BKN012 OVC020 06/03 A3025 RMK AO2 RAB0954 SLP241 P0002 T00560033 $","FM-15","7",,,,,,,,,,,,,,,,,,,,,,,,,,,,
"72503014732","2020-03-17T06:51:00","FM-15","7",,,,,,,,,,,,,,,,,,,,,,,,,,,,,,,,,,,,,,"30.22","39","43","0.03","-RA:02 |RA |RA","+0.05","8","86","30.22","FEW:02 8 BKN:07 12 OVC:08 50","30.19","7.00","41","130",,"7",,,,,,,,,,,,,,,,,,,,,,,,,,,,,,,,,,,,,"MET14803/17/20 06:51:02 METAR KLGA 171151Z 13006KT 7SM -RA FEW008 BKN012 OVC050 06/04 A3022 RMK AO2 SLP232 P0002 60008 70008 T00610039 10067 20056 58016 $","FM-15","7",,,,,,,,,,,,,,,,,,,,,,,,,,,,
"72503014732","2020-03-17T07:00:00","FM-12","4",,,,,,,,,,,,,,,,,,,,,,,,,,,,,,,,,,,,,,,"39","43",,"||RA","+0.05","8","86","30.22","8","30.18","6.84","41","130",,"7",,,,,,,,,,,,,,,,,,,,,,,,,,,,,,,,,,,,,"SYN09872503 11361 81306 10061 20039 30220 40232 58016 60021 761// 91151 333 10061 20050 70020 555 91712=","FM-12","4",,,,,,,,,,,,,,,,,,,,,,,,,,,,
"72503014732","2020-03-17T07:03:00","FM-16","7",,,,,,,,,,,,,,,,,,,,,,,,,,,,,,,,,,,,,,"30.21","39","43","0.01","-RA:02 |RA |RA",,,"86",,"BKN:07 9 BKN:07 12 OVC:08 35","30.18","10.00","41","120",,"8",,,,,,,,,,,,,,,,,,,,,,,,,,,,,,,,,,,,,"MET11203/17/20 07:03:02 SPECI KLGA 171203Z 12007KT 10SM -RA BKN009 BKN012 OVC035 06/04 A3021 RMK AO2 P0001 T00610039 $","FM-16","7",,,,,,,,,,,,,,,,,,,,,,,,,,,,
"72503014732","2020-03-17T07:51:00","FM-15","7",,,,,,,,,,,,,,,,,,,,,,,,,,,,,,,,,,,,,,"30.20","39","43","0.02","-RA:02 |RA |RA",,,"86","30.20","BKN:07 8 BKN:07 12 OVC:08 70","30.17","10.00","41","130",,"7",,,,,,,,,,,,,,,,,,,,,,,,,,,,,,,,,,,,,"MET11903/17/20 07:51:02 METAR KLGA 171251Z 13006KT 10SM -RA BKN008 BKN012 OVC070 06/04 A3020 RMK AO2 SLP227 P0002 T00610039 $","FM-15","7",,,,,,,,,,,,,,,,,,,,,,,,,,,,
"72503014732","2020-03-17T08:51:00","FM-15","7",,,,,,,,,,,,,,,,,,,,,,,,,,,,,,,,,,,,,,"30.20","40","44","0.03","-RA:02 |RA |RA",,,"85","30.20","BKN:07 8 OVC:08 10","30.17","10.00","42","040",,"5",,,,,,,,,,,,,,,,,,,,,,,,,,,,,,,,,,,,,"MET11203/17/20 08:51:02 METAR KLGA 171351Z 04004KT 10SM -RA BKN008 OVC010 07/04 A3020 RMK AO2 SLP227 P0004 T00670044 $","FM-15","7",,,,,,,,,,,,,,,,,,,,,,,,,,,,
"72503014732","2020-03-17T09:51:00","FM-15","7",,,,,,,,,,,,,,,,,,,,,,,,,,,,,,,,,,,,,,"30.18","40","43","0.01","-RA:02 |RA |RA","+0.04","8","89","30.17","OVC:08 8","30.15","7.00","42","070",,"7",,,,,,,,,,,,,,,,,,,,,,,,,,,,,,,,,,,,,"MET11603/17/20 09:51:02 METAR KLGA 171451Z 07006KT 7SM -RA OVC008 06/04 A3018 RMK AO2 SLP218 P0001 60007 T00610044 58014 $","FM-15","7",,,,,,,,,,,,,,,,,,,,,,,,,,,,
"72503014732","2020-03-17T10:00:00","FM-12","4",,,,,,,,,,,,,,,,,,,,,,,,,,,,,,,,,,,,,,,"40","43",,"||RA","+0.04","8","89","30.17","8","30.14","6.84","42","070",,"7",,,,,,,,,,,,,,,,,,,,,,,,,,,,,,,,,,,,,"SYN07672503 11361 80706 10061 20044 30206 40218 58014 60027 761// 91451 555 91715=","FM-12","4",,,,,,,,,,,,,,,,,,,,,,,,,,,,
"72503014732","2020-03-17T10:51:00","FM-15","7",,,,,,,,,,,,,,,,,,,,,,,,,,,,,,,,,,,,,,"30.15","43","46","T",,,,"89","30.15","BKN:07 8 BKN:07 55 OVC:08 110","30.12","10.00","45","060",,"5",,,,,,,,,,,,,,,,,,,,,,,,,,,,,,,,,,,,,"MET12103/17/20 10:51:02 METAR KLGA 171551Z 06004KT 10SM BKN008 BKN055 OVC110 08/06 A3015 RMK AO2 RAE18 SLP209 P0000 T00780061 $","FM-15","7",,,,,,,,,,,,,,,,,,,,,,,,,,,,
"72503014732","2020-03-17T11:20:00","FM-16","7",,,,,,,,,,,,,,,,,,,,,,,,,,,,,,,,,,,,,,"30.15","43","47",,,,,"86",,"SCT:04 8 BKN:07 12 OVC:08 55","30.12","10.00","45","040",,"6",,,,,,,,,,,,,,,,,,,,,,,,,,,,,,,,,,,,,"MET10203/17/20 11:20:02 SPECI KLGA 171620Z 04005KT 10SM SCT008 BKN012 OVC055 08/06 A3015 RMK AO2 T00830061 $","FM-16","7",,,,,,,,,,,,,,,,,,,,,,,,,,,,
"72503014732","2020-03-17T11:47:00","FM-16","7",,,,,,,,,,,,,,,,,,,,,,,,,,,,,,,,,,,,,,"30.13","43","46",,,,,"87",,"SCT:04 14 BKN:07 21 OVC:08 65","30.10","10.00","45","030",,"6",,,,,,,,,,,,,,,,,,,,,,,,,,,,,,,,,,,,,"MET09203/17/20 11:47:02 SPECI KLGA 171647Z 03005KT 10SM SCT014 BKN021 OVC065 08/06 A3013 RMK AO2 $","FM-16","7",,,,,,,,,,,,,,,,,,,,,,,,,,,,
"72503014732","2020-03-17T11:51:00","FM-15","7",,,,,,,,,,,,,,,,,,,,,,,,,,,,,,,,,,,,,,"30.13","42","47","0.00",,,,"83","30.13","SCT:04 14 BKN:07 21 OVC:08 65","30.10","10.00","45","030",,"6",,,,,,,,,,,,,,,,,,,,,,,,,,,,,,,,,,,,,"MET10903/17/20 11:51:02 METAR KLGA 171651Z 03005KT 10SM SCT014 BKN021 OVC065 08/06 A3013 RMK AO2 SLP202 T00830056 $","FM-15","7",,,,,,,,,,,,,,,,,,,,,,,,,,,,
"72503014732","2020-03-17T12:51:00","FM-15","7",,,,,,,,,,,,,,,,,,,,,,,,,,,,,,,,,,,,,,"30.10","41","50","0.00",,"+0.05","8","71","30.09","BKN:07 25 BKN:07 30 OVC:08 48","30.07","10.00","46","270",,"8",,,,,,,,,,,,,,,,,,,,,,,,,,,,,,,,,,,,,"MET13303/17/20 12:51:02 METAR KLGA 171751Z 27007KT 10SM BKN025 BKN030 OVC048 10/05 A3010 RMK AO2 SLP191 60007 T01000050 10100 20061 58018 $","FM-15","7",,,,,,,,,,,,,,,,,,,,,,,,,,,,
"72503014732","2020-03-17T13:00:00","FM-12","4",,,,,,,,,,,,,,,,,,,,,,,,,,,,,,,,,,,,,,,"41","50",,,"+0.05","8","71","30.09","26","30.06","9.94","46","270",,"8",,,,,,,,,,,,,,,,,,,,,,,,,,,,,,,,,,,,,"SYN08672503 12566 82707 10100 20050 30179 40191 58018 60021 91751 333 10100 20039 555 91718=","FM-12","4",,,,,,,,,,,,,,,,,,,,,,,,,,,,
"72503014732","2020-03-17T13:20:00","FM-16","7",,,,,,,,,,,,,,,,,,,,,,,,,,,,,,,,,,,,,,"30.08","41","51",,,,,"69",,"SCT:04 26 OVC:08 47","30.05","10.00","46","260",,"6",,,,,,,,,,,,,,,,,,,,,,,,,,,,,,,,,,,,,"MET09503/17/20 13:20:02 SPECI KLGA 171820Z 26005KT 10SM SCT026 OVC047 11/05 A3008 RMK AO2 T01060050 $","FM-16","7",,,,,,,,,,,,,,,,,,,,,,,,,,,,
"72503014732","2020-03-17T13:51:00","FM-15","7",,,,,,,,,,,,,,,,,,,,,,,,,,,,,,,,,,,,,,"30.08","40","52","0.00",,,,"64","30.08","SCT:04 28 BKN:07 37 OVC:08 50","30.05","10.00","46","280",,"8",,,,,,,,,,,,,,,,,,,,,,,,,,,,,,,,,,,,,"MET12403/17/20 13:51:02 METAR KLGA 171851Z 28007KT 10SM SCT028 BKN037 OVC050 11/04 A3008 RMK AO2 CIG 026 R22 SW SLP185 T01110044 $","FM-15","7",,,,,,,,,,,,,,,,,,,,,,,,,,,,
"72503014732","2020-03-17T14:12:00","FM-16","7",,,,,,,,,,,,,,,,,,,,,,,,,,,,,,,,,,,,,,"30.06","40","52",,,,,"64",,"BKN:07 28 BKN:07 50 OVC:08 70","30.03","10.00","46","250",,"3",,,,,,,,,,,,,,,,,,,,,,,,,,,,,,,,,,,,,"MET10203/17/20 14:12:02 SPECI KLGA 171912Z 25003KT 10SM BKN028 BKN050 OVC070 11/04 A3006 RMK AO2 T01110044 $","FM-16","7",,,,,,,,,,,,,,,,,,,,,,,,,,,,
"72503014732","2020-03-17T14:41:00","FM-16","7",,,,,,,,,,,,,,,,,,,,,,,,,,,,,,,,,,,,,,"30.05","40","54",,,,,"59",,"SCT:04 28 OVC:08 75","30.02","10.00","47","240",,"10",,,,,,,,,,,,,,,,,,,,,,,,,,,,,,,,,,,,,"MET11003/17/20 14:41:02 SPECI KLGA 171941Z 24009KT 10SM SCT028 OVC075 12/04 A3005 RMK AO2 CIG 027 R22 SW T01220044 $","FM-16","7",,,,,,,,,,,,,,,,,,,,,,,,,,,,
"72503014732","2020-03-17T14:51:00","FM-15","7",,,,,,,,,,,,,,,,,,,,,,,,,,,,,,,,,,,,,,"30.05","39","53","0.00",,,,"59","30.05","BKN:07 28 OVC:08 75","30.02","10.00","46","220",,"9",,,,,,,,,,,,,,,,,,,,,,,,,,,,,,,,,,,,,"MET10203/17/20 14:51:02 METAR KLGA 171951Z 22008KT 10SM BKN028 OVC075 12/04 A3005 RMK AO2 SLP176 T01170039 $","FM-15","7",,,,,,,,,,,,,,,,,,,,,,,,,,,,
"72503014732","2020-03-17T15:47:00","FM-16","7",,,,,,,,,,,,,,,,,,,,,,,,,,,,,,,,,,,,,,"30.06","39","54",,,,,"58",,"OVC:08 32","30.03","10.00","47","260",,"10",,,,,,,,,,,,,,,,,,,,,,,,,,,,,,,,,,,,,"MET07803/17/20 15:47:02 SPECI KLGA 172047Z 26009KT 10SM OVC032 12/04 A3006 RMK AO2 $","FM-16","7",,,,,,,,,,,,,,,,,,,,,,,,,,,,
"72503014732","2020-03-17T15:51:00","FM-15","7",,,,,,,,,,,,,,,,,,,,,,,,,,,,,,,,,,,,,,"30.06","40","54","0.00",,"+0.01","5","59","30.06","OVC:08 30","30.03","10.00","47","250",,"10",,,,,,,,,,,,,,,,,,,,,,,,,,,,,,,,,,,,,"MET10103/17/20 15:51:02 METAR KLGA 172051Z 25009KT 10SM OVC030 12/04 A3006 RMK AO2 SLP180 T01220044 55005 $","FM-15","7",,,,,,,,,,,,,,,,,,,,,,,,,,,,
"72503014732","2020-03-17T16:00:00","FM-12","4",,,,,,,,,,,,,,,,,,,,,,,,,,,,,,,,,,,,,,,"40","54",,,"+0.01","5","59","30.06","26","30.02","9.94","47","250",,"10",,,,,,,,,,,,,,,,,,,,,,,,,,,,,,,,,,,,,"SYN06472503 32566 82509 10122 20044 30166 40180 55005 92051 555 91721=","FM-12","4",,,,,,,,,,,,,,,,,,,,,,,,,,,,
"72503014732","2020-03-17T16:51:00","FM-15","7",,,,,,,,,,,,,,,,,,,,,,,,,,,,,,,,,,,,,,"30.08","38","55","0.00",,,,"53","30.07","BKN:07 41","30.05","10.00","47","280","21","11",,,,,,,,,,,,,,,,,,,,,,,,,,,,,,,,,,,,,"MET09803/17/20 16:51:02 METAR KLGA 172151Z 28010G18KT 10SM BKN041 13/03 A3008 RMK AO2 SLP184 T01280033 $","FM-15","7",,,,,,,,,,,,,,,,,,,,,,,,,,,,
"72503014732","2020-03-17T17:51:00","FM-15","7",,,,,,,,,,,,,,,,,,,,,,,,,,,,,,,,,,,,,,"30.11","38","54","0.00",,,,"55","30.11","BKN:07 46","30.08","10.00","46","270",,"9",,,,,,,,,,,,,,,,,,,,,,,,,,,,,,,,,,,,,"MET09503/17/20 17:51:02 METAR KLGA 172251Z 27008KT 10SM BKN046 12/03 A3011 RMK AO2 SLP196 T01220033 $","FM-15","7",,,,,,,,,,,,,,,,,,,,,,,,,,,,
"72503014732","2020-03-17T18:51:00","FM-15","7",,,,,,,,,,,,,,,,,,,,,,,,,,,,,,,,,,,,,,"30.13","38","53","0.00",,"-0.06","3","57","30.13","FEW:02 48","30.10","10.00","46","250",,"9",,,,,,,,,,,,,,,,,,,,,,,,,,,,,,,,,,,,,"MET11303/17/20 18:51:02 METAR KLGA 172351Z 25008KT 10SM FEW048 12/03 A3013 RMK AO2 SLP202 T01170033 10128 20100 53022 $","FM-15","7",,,,,,,,,,,,,,,,,,,,,,,,,,,,
"72503014732","2020-03-17T19:00:00","FM-12","4",,,,,,,,,,,,,,,,,,,,,,,,,,,,,,,,,,,,,,,"38","53",,,"-0.06","3","57","30.13","41","30.09","9.94","46","250",,"9",,,,,,,,,,,,,,,,,,,,,,,,,,,,,,,,,,,,,"SYN08072503 32666 22508 10117 20033 30189 40202 53022 92351 333 10128 20056 555 91800=","FM-12","4",,,,,,,,,,,,,,,,,,,,,,,,,,,,
"72503014732","2020-03-17T19:51:00","FM-15","7",,,,,,,,,,,,,,,,,,,,,,,,,,,,,,,,,,,,,,"30.16","39","53","0.00",,,,"59","30.16","FEW:02 48","30.13","10.00","46","240",,"8",,,,,,,,,,,,,,,,,,,,,,,,,,,,,,,,,,,,,"MET09503/17/20 19:51:01 METAR KLGA 180051Z 24007KT 10SM FEW048 12/04 A3016 RMK AO2 SLP213 T01170039 $","FM-15","7",,,,,,,,,,,,,,,,,,,,,,,,,,,,
"72503014732","2020-03-17T20:51:00","FM-15","7",,,,,,,,,,,,,,,,,,,,,,,,,,,,,,,,,,,,,,"30.19","38","53","0.00",,,,"57","30.18","BKN:07 48","30.16","10.00","46","290",,"6",,,,,,,,,,,,,,,,,,,,,,,,,,,,,,,,,,,,,"MET09503/17/20 20:51:01 METAR KLGA 180151Z 29005KT 10SM BKN048 12/03 A3019 RMK AO2 SLP221 T01170033 $","FM-15","7",,,,,,,,,,,,,,,,,,,,,,,,,,,,
"72503014732","2020-03-17T21:51:00","FM-15","7",,,,,,,,,,,,,,,,,,,,,,,,,,,,,,,,,,,,,,"30.22","38","51","0.00",,"-0.09","1","61","30.21","BKN:07 40","30.19","10.00","45","320",,"11",,,,,,,,,,,,,,,,,,,,,,,,,,,,,,,,,,,,,"MET10103/17/20 21:51:01 METAR KLGA 180251Z 32010KT 10SM BKN040 11/03 A3022 RMK AO2 SLP231 T01060033 51029 $","FM-15","7",,,,,,,,,,,,,,,,,,,,,,,,,,,,
"72503014732","2020-03-17T22:00:00","FM-12","4",,,,,,,,,,,,,,,,,,,,,,,,,,,,,,,,,,,,,,,"38","51",,,"-0.09","1","61","30.21","41","30.18","9.94","45","320",,"11",,,,,,,,,,,,,,,,,,,,,,,,,,,,,,,,,,,,,"SYN06472503 32666 63210 10106 20033 30220 40231 51029 90251 555 91803=","FM-12","4",,,,,,,,,,,,,,,,,,,,,,,,,,,,
"72503014732","2020-03-17T22:51:00","FM-15","7",,,,,,,,,,,,,,,,,,,,,,,,,,,,,,,,,,,,,,"30.26","32","50","0.00",,,,"50","30.26","OVC:08 47","30.23","10.00","42","350",,"11",,,,,,,,,,,,,,,,,,,,,,,,,,,,,,,,,,,,,"MET09503/17/20 22:51:02 METAR KLGA 180351Z 35010KT 10SM OVC047 10/00 A3026 RMK AO2 SLP247 T01000000 $","FM-15","7",,,,,,,,,,,,,,,,,,,,,,,,,,,,
"72503014732","2020-03-17T23:51:00","FM-15","7",,,,,,,,,,,,,,,,,,,,,,,,,,,,,,,,,,,,,,"30.29","29","48","0.00",,,,"48","30.29","BKN:07 48","30.26","10.00","40","320","24","18",,,,,,,,,,,,,,,,,,,,,,,,,,,,,,,,,,,,,"MET10903/17/20 23:51:02 METAR KLGA 180451Z 32016G21KT 10SM BKN048 09/M02 A3029 RMK AO2 SLP256 T00891017 401280056 $","FM-15","7",,,,,,,,,,,,,,,,,,,,,,,,,,,,
"72503014732","2020-03-17T23:59:00","SOD  ","6",,,,,,,,,,,,,,,"38","49","70","30.19","30.14","43","8.8","0","6.7","16","55","42","310","25","0.15","0","0.0","320","20","RA",,,,,,,,,,,,,,,,,,,,,,,,,,,,,,,,,,,,,,,,,,,,,,,,,,,,,,,,"SOD76024 HR PRECIPITATION (IN): 0.15 SNOW DEPTH (IN):0     24 HR SNOWFALL (IN):0.0  WEATHER(CODE):1  24 HR MAX TEMP (F): 5524 HR MIN TEMP (F): 42AVERAGE STATION PRESSURE(D):30.146 MINIMUM SEA LEVEL PRESSURE:30.05 TIME OF OCCURRENCE:1537 PEAK WIND SPEED (MPH): 25 PEAK WIND DIR (DEG):310 PEAK WIND TIME (LST):      FASTEST 2MIN SPEED (MPH): 20FASTEST 2MIN DIR (DEG):320 FASTEST 2MIN TIME (LST):     AVERAGE WIND SPEED (MPH): 8.8 24 HR AVG TEMP (F): 49DEPART FROM NORMAL:  7  HEATING DEGREE DAYS: 16 COOLING DEGREE DAYS:  0 LATEST DAY MAX TEMP (0700-1900 LST): 55 LATEST NIGHT MIN TEMP(1900-0800 LST):41 HOURLY INCREMENTAL PRECIPITATION VALUES (IN):0.00 0.00T     0.04T     0.02 0.03 0.02 0.03 0.01T     0.00 0.00 0.00 0.00 0.00 0.00 0.00 0.00 0.00 0.00 0.00 0.00 0.00","SOD  ","6",,,,,,,,,,,,,,,,,,,,,,,,,"0603","1805",,
"72503014732","2020-03-18T00:51:00","FM-15","7",,,,,,,,,,,,,,,,,,,,,,,,,,,,,,,,,,,,,,"30.31","28","47","0.00",,"-0.10","1","48","30.31","SCT:04 250","30.28","10.00","39","320",,"14",,,,,,,,,,,,,,,,,,,,,,,,,,,,,,,,,,,,,"MET11403/18/20 00:51:02 METAR KLGA 180551Z 32012KT 10SM SCT250 08/M02 A3031 RMK AO2 SLP265 T00831022 10117 20083 51034 $","FM-15","7",,,,,,,,,,,,,,,,,,,,,,,,,,,,
"72503014732","2020-03-18T01:00:00","FM-12","4",,,,,,,,,,,,,,,,,,,,,,,,,,,,,,,,,,,,,,,"28","47",,,"-0.10","1","48","30.31",,"30.27","9.94","39","320",,"14",,,,,,,,,,,,,,,,,,,,,,,,,,,,,,,,,,,,,"SYN08072503 32966 43212 10083 21022 30250 40265 51034 90551 333 10117 20056 555 91806=","FM-12","4",,,,,,,,,,,,,,,,,,,,,,,,,,,,
"72503014732","2020-03-18T01:51:00","FM-15","7",,,,,,,,,,,,,,,,,,,,,,,,,,,,,,,,,,,,,,"30.33","27","46","0.00",,,,"47","30.33","FEW:02 250","30.30","10.00","38","320",,"11",,,,,,,,,,,,,,,,,,,,,,,,,,,,,,,,,,,,,"MET09603/18/20 01:51:02 METAR KLGA 180651Z 32010KT 10SM FEW250 08/M03 A3033 RMK AO2 SLP271 T00781028 $","FM-15","7",,,,,,,,,,,,,,,,,,,,,,,,,,,,
"72503014732","2020-03-18T02:51:00","FM-15","7",,,,,,,,,,,,,,,,,,,,,,,,,,,,,,,,,,,,,,"30.34","27","45","0.00",,,,"49","30.33","FEW:02 250","30.31","10.00","38","320",,"9",,,,,,,,,,,,,,,,,,,,,,,,,,,,,,,,,,,,,"MET09603/18/20 02:51:02 METAR KLGA 180751Z 32008KT 10SM FEW250 07/M03 A3034 RMK AO2 SLP272 T00721028 $","FM-15","7",,,,,,,,,,,,,,,,,,,,,,,,,,,,
"72503014732","2020-03-18T03:51:00","FM-15","7",,,,,,,,,,,,,,,,,,,,,,,,,,,,,,,,,,,,,,"30.35","27","45","0.00",,"-0.03","1","49","30.35","CLR:00","30.32","10.00","38","310",,"11",,,,,,,,,,,,,,,,,,,,,,,,,,,,,,,,,,,,,"MET09903/18/20 03:51:02 METAR KLGA 180851Z 31010KT 10SM CLR 07/M03 A3035 RMK AO2 SLP276 T00721028 51011 $","FM-15","7",,,,,,,,,,,,,,,,,,,,,,,,,,,,
"72503014732","2020-03-18T04:00:00","FM-12","4",,,,,,,,,,,,,,,,,,,,,,,,,,,,,,,,,,,,,,,"27","45",,,"-0.03","1","49","30.35",,"30.31","9.94","38","310",,"11",,,,,,,,,,,,,,,,,,,,,,,,,,,,,,,,,,,,,"SYN06472503 32966 03110 10072 21028 30264 40276 51011 90851 555 91809=","FM-12","4",,,,,,,,,,,,,,,,,,,,,,,,,,,,
"72503014732","2020-03-18T04:51:00","FM-15","7",,,,,,,,,,,,,,,,,,,,,,,,,,,,,,,,,,,,,,"30.38","26","44","0.00",,,,"49","30.38","CLR:00","30.35","10.00","37","320",,"10",,,,,,,,,,,,,,,,,,,,,,,,,,,,,,,,,,,,,"MET09303/18/20 04:51:02 METAR KLGA 180951Z 32009KT 10SM CLR 07/M03 A3038 RMK AO2 SLP287 T00671033 $","FM-15","7",,,,,,,,,,,,,,,,,,,,,,,,,,,,
"72503014732","2020-03-18T05:51:00","FM-15","7",,,,,,,,,,,,,,,,,,,,,,,,,,,,,,,,,,,,,,"30.42","26","44","0.00",,,,"49","30.42","SCT:04 250","30.39","10.00","37","330",,"9",,,,,,,,,,,,,,,,,,,,,,,,,,,,,,,,,,,,,"MET09603/18/20 05:51:02 METAR KLGA 181051Z 33008KT 10SM SCT250 07/M03 A3042 RMK AO2 SLP300 T00671033 $","FM-15","7",,,,,,,,,,,,,,,,,,,,,,,,,,,,
"72503014732","2020-03-18T06:51:00","FM-15","7",,,,,,,,,,,,,,,,,,,,,,,,,,,,,,,,,,,,,,"30.45","26","44","0.00",,"-0.10","1","49","30.44","BKN:07 250","30.42","10.00","37","310",,"6",,,,,,,,,,,,,,,,,,,,,,,,,,,,,,,,,,,,,"MET12003/18/20 06:51:01 METAR KLGA 181151Z 31005KT 10SM BKN250 07/M03 A3045 RMK AO2 SLP309 70007 T00671033 10083 20067 51033 $","FM-15","7",,,,,,,,,,,,,,,,,,,,,,,,,,,,
"72503014732","2020-03-18T07:00:00","FM-12","4",,,,,,,,,,,,,,,,,,,,,,,,,,,,,,,,,,,,,,,"26","44",,,"-0.10","1","49","30.44",,"30.41","9.94","37","310",,"6",,,,,,,,,,,,,,,,,,,,,,,,,,,,,,,,,,,,,"SYN08672503 32966 63105 10067 21033 30298 40309 51033 91151 333 10128 20067 70018 555 91812=","FM-12","4",,,,,,,,,,,,,,,,,,,,,,,,,,,,
"72503014732","2020-03-18T07:51:00","FM-15","7",,,,,,,,,,,,,,,,,,,,,,,,,,,,,,,,,,,,,,"30.47","25","46","0.00",,,,"44","30.47","SCT:04 250","30.44","10.00","38","350",,"5",,,,,,,,,,,,,,,,,,,,,,,,,,,,,,,,,,,,,"MET09603/18/20 07:51:01 METAR KLGA 181251Z 35004KT 10SM SCT250 08/M04 A3047 RMK AO2 SLP318 T00781039 $","FM-15","7",,,,,,,,,,,,,,,,,,,,,,,,,,,,
"72503014732","2020-03-18T08:51:00","FM-15","7",,,,,,,,,,,,,,,,,,,,,,,,,,,,,,,,,,,,,,"30.48","26","47","0.00",,,,"44","30.47","FEW:02 250","30.45","10.00","39","080",,"9",,,,,,,,,,,,,,,,,,,,,,,,,,,,,,,,,,,,,"MET09603/18/20 08:51:01 METAR KLGA 181351Z 08008KT 10SM FEW250 08/M03 A3048 RMK AO2 SLP320 T00831033 $","FM-15","7",,,,,,,,,,,,,,,,,,,,,,,,,,,,
"72503014732","2020-03-18T09:51:00","FM-15","7",,,,,,,,,,,,,,,,,,,,,,,,,,,,,,,,,,,,,,"30.50","26","48","0.00",,"-0.05","1","42","30.50","FEW:02 250","30.47","10.00","39","060",,"8",,,,,,,,,,,,,,,,,,,,,,,,,,,,,,,,,,,,,"MET10203/18/20 09:51:02 METAR KLGA 181451Z 06007KT 10SM FEW250 09/M03 A3050 RMK AO2 SLP327 T00891033 51018 $","FM-15","7",,,,,,,,,,,,,,,,,,,,,,,,,,,,
"72503014732","2020-03-18T10:00:00","FM-12","4",,,,,,,,,,,,,,,,,,,,,,,,,,,,,,,,,,,,,,,"26","48",,,"-0.05","1","42","30.50",,"30.46","9.94","39","060",,"8",,,,,,,,,,,,,,,,,,,,,,,,,,,,,,,,,,,,,"SYN06472503 32966 20607 10089 21033 30315 40327 51018 91451 555 91815=","FM-12","4",,,,,,,,,,,,,,,,,,,,,,,,,,,,
"72503014732","2020-03-18T10:51:00","FM-15","7",,,,,,,,,,,,,,,,,,,,,,,,,,,,,,,,,,,,,,"30.50","27","51","0.00",,,,"39","30.50","FEW:02 250","30.47","10.00","41","050",,"6",,,,,,,,,,,,,,,,,,,,,,,,,,,,,,,,,,,,,"MET09603/18/20 10:51:02 METAR KLGA 181551Z 05005KT 10SM FEW250 11/M03 A3050 RMK AO2 SLP327 T01061028 $","FM-15","7",,,,,,,,,,,,,,,,,,,,,,,,,,,,
"72503014732","2020-03-18T11:51:00","FM-15","7",,,,,,,,,,,,,,,,,,,,,,,,,,,,,,,,,,,,,,"30.49","26","52","0.00",,,,"37","30.49","BKN:07 250","30.46","10.00","41","VRB",,"8",,,,,,,,,,,,,,,,,,,,,,,,,,,,,,,,,,,,,"MET09603/18/20 11:51:02 METAR KLGA 181651Z 12007KT 10SM BKN250 11/M03 A3049 RMK AO2 SLP324 T01111033 $","FM-15","7",,,,,,,,,,,,,,,,,,,,,,,,,,,,
"72503014732","2020-03-18T12:51:00","FM-15","7",,,,,,,,,,,,,,,,,,,,,,,,,,,,,,,,,,,,,,"30.48","26","52","0.00",,"+0.02","8","37","30.47","BKN:07 250","30.45","10.00","41","180",,"7",,,,,,,,,,,,,,,,,,,,,,,,,,,,,,,,,,,,,"MET11403/18/20 12:51:02 METAR KLGA 181751Z 18006KT 10SM BKN250 11/M03 A3048 RMK AO2 SLP319 T01111033 10117 20067 58008 $","FM-15","7",,,,,,,,,,,,,,,,,,,,,,,,,,,,
"72503014732","2020-03-18T13:00:00","FM-12","4",,,,,,,,,,,,,,,,,,,,,,,,,,,,,,,,,,,,,,,"26","52",,,"+0.02","8","37","30.47",,"30.44","9.94","41","180",,"7",,,,,,,,,,,,,,,,,,,,,,,,,,,,,,,,,,,,,"SYN08072503 32966 61806 10111 21033 30308 40319 58008 91751 333 10117 20067 555 91818=","FM-12","4",,,,,,,,,,,,,,,,,,,,,,,,,,,,
"72503014732","2020-03-18T13:51:00","FM-15","7",,,,,,,,,,,,,,,,,,,,,,,,,,,,,,,,,,,,,,"30.46","23","53","0.00",,,,"31","30.46","BKN:07 250","30.43","10.00","41","190","20","10",,,,,,,,,,,,,,,,,,,,,,,,,,,,,,,,,,,,,"MET09903/18/20 13:51:01 METAR KLGA 181851Z 19009G17KT 10SM BKN250 12/M05 A3046 RMK AO2 SLP316 T01171050 $","FM-15","7",,,,,,,,,,,,,,,,,,,,,,,,,,,,
"72503014732","2020-03-18T14:51:00","FM-15","7",,,,,,,,,,,,,,,,,,,,,,,,,,,,,,,,,,,,,,"30.45","27","52","0.00",,,,"38","30.45","BKN:07 250","30.42","10.00","42","170",,"11",,,,,,,,,,,,,,,,,,,,,,,,,,,,,,,,,,,,,"MET09603/18/20 14:51:01 METAR KLGA 181951Z 17010KT 10SM BKN250 11/M03 A3045 RMK AO2 SLP311 T01111028 $","FM-15","7",,,,,,,,,,,,,,,,,,,,,,,,,,,,
"72503014732","2020-03-18T15:51:00","FM-15","7",,,,,,,,,,,,,,,,,,,,,,,,,,,,,,,,,,,,,,"30.44","26","50","0.00",,"+0.04","8","39","30.43","BKN:07 250","30.41","10.00","40","170",,"10",,,,,,,,,,,,,,,,,,,,,,,,,,,,,,,,,,,,,"MET10203/18/20 15:51:01 METAR KLGA 182051Z 17009KT 10SM BKN250 10/M03 A3044 RMK AO2 SLP306 T01001033 58014 $","FM-15","7",,,,,,,,,,,,,,,,,,,,,,,,,,,,
"72503014732","2020-03-18T16:00:00","FM-12","4",,,,,,,,,,,,,,,,,,,,,,,,,,,,,,,,,,,,,,,"26","50",,,"+0.04","8","39","30.43",,"30.40","9.94","40","170",,"10",,,,,,,,,,,,,,,,,,,,,,,,,,,,,,,,,,,,,"SYN06472503 32966 61709 10100 21033 30294 40306 58014 92051 555 91821=","FM-12","4",,,,,,,,,,,,,,,,,,,,,,,,,,,,
"72503014732","2020-03-18T16:51:00","FM-15","7",,,,,,,,,,,,,,,,,,,,,,,,,,,,,,,,,,,,,,"30.43","25","49","0.00",,,,"39","30.43","BKN:07 250","30.40","10.00","39","180",,"13",,,,,,,,,,,,,,,,,,,,,,,,,,,,,,,,,,,,,"MET09603/18/20 16:51:02 METAR KLGA 182151Z 18011KT 10SM BKN250 09/M04 A3043 RMK AO2 SLP304 T00941039 $","FM-15","7",,,,,,,,,,,,,,,,,,,,,,,,,,,,
"72503014732","2020-03-18T17:51:00","FM-15","7",,,,,,,,,,,,,,,,,,,,,,,,,,,,,,,,,,,,,,"30.44","25","48","0.00",,,,"41","30.44","BKN:07 250","30.41","10.00","39","170","20","11",,,,,,,,,,,,,,,,,,,,,,,,,,,,,,,,,,,,,"MET09903/18/20 17:51:02 METAR KLGA 182251Z 17010G17KT 10SM BKN250 09/M04 A3044 RMK AO2 SLP307 T00891039 $","FM-15","7",,,,,,,,,,,,,,,,,,,,,,,,,,,,
"72503014732","2020-03-18T18:51:00","FM-15","7",,,,,,,,,,,,,,,,,,,,,,,,,,,,,,,,,,,,,,"30.44","28","47","0.00",,"-0.01","3","48","30.44","BKN:07 250","30.41","10.00","39","180",,"13",,,,,,,,,,,,,,,,,,,,,,,,,,,,,,,,,,,,,"MET11403/18/20 18:51:02 METAR KLGA 182351Z 18011KT 10SM BKN250 08/M02 A3044 RMK AO2 SLP308 T00831022 10117 20083 53003 $","FM-15","7",,,,,,,,,,,,,,,,,,,,,,,,,,,,
"72503014732","2020-03-18T19:00:00","FM-12","4",,,,,,,,,,,,,,,,,,,,,,,,,,,,,,,,,,,,,,,"28","47",,,"-0.01","3","48","30.44",,"30.40","9.94","39","180",,"13",,,,,,,,,,,,,,,,,,,,,,,,,,,,,,,,,,,,,"SYN08072503 32966 61811 10083 21022 30294 40308 53003 92351 333 10117 20067 555 91900=","FM-12","4",,,,,,,,,,,,,,,,,,,,,,,,,,,,
"72503014732","2020-03-18T19:51:00","FM-15","7",,,,,,,,,,,,,,,,,,,,,,,,,,,,,,,,,,,,,,"30.43","30","47","0.00",,,,"52","30.43","BKN:07 170 OVC:08 250","30.40","10.00","40","170",,"11",,,,,,,,,,,,,,,,,,,,,,,,,,,,,,,,,,,,,"MET10303/18/20 19:51:01 METAR KLGA 190051Z 17010KT 10SM BKN170 OVC250 08/M01 A3043 RMK AO2 SLP304 T00831011 $","FM-15","7",,,,,,,,,,,,,,,,,,,,,,,,,,,,
"72503014732","2020-03-18T20:51:00","FM-15","7",,,,,,,,,,,,,,,,,,,,,,,,,,,,,,,,,,,,,,"30.43","29","46","0.00",,,,"51","30.42","FEW:02 55 BKN:07 160 OVC:08 250","30.40","10.00","39","140",,"8",,,,,,,,,,,,,,,,,,,,,,,,,,,,,,,,,,,,,"MET11003/18/20 20:51:01 METAR KLGA 190151Z 14007KT 10SM FEW055 BKN160 OVC250 08/M02 A3043 RMK AO2 SLP302 T00781017 $","FM-15","7",,,,,,,,,,,,,,,,,,,,,,,,,,,,
"72503014732","2020-03-18T21:51:00","FM-15","7",,,,,,,,,,,,,,,,,,,,,,,,,,,,,,,,,,,,,,"30.40","29","46","0.00",,"+0.04","8","51","30.40","OVC:08 60","30.37","10.00","39","140",,"10",,,,,,,,,,,,,,,,,,,,,,,,,,,,,,,,,,,,,"MET10203/18/20 21:51:01 METAR KLGA 190251Z 14009KT 10SM OVC060 08/M02 A3040 RMK AO2 SLP294 T00781017 58014 $","FM-15","7",,,,,,,,,,,,,,,,,,,,,,,,,,,,
"72503014732","2020-03-18T22:00:00","FM-12","4",,,,,,,,,,,,,,,,,,,,,,,,,,,,,,,,,,,,,,,"29","46",,,"+0.04","8","51","30.40","57","30.36","9.94","39","140",,"10",,,,,,,,,,,,,,,,,,,,,,,,,,,,,,,,,,,,,"SYN06472503 32766 81409 10078 21017 30281 40294 58014 90251 555 91903=","FM-12","4",,,,,,,,,,,,,,,,,,,,,,,,,,,,
"72503014732","2020-03-18T22:51:00","FM-15","7",,,,,,,,,,,,,,,,,,,,,,,,,,,,,,,,,,,,,,"30.40","29","46","T",,,,"51","30.40","OVC:08 50","30.37","10.00","39","160",,"9",,,,,,,,,,,,,,,,,,,,,,,,,,,,,,,,,,,,,"MET11103/18/20 22:51:01 METAR KLGA 190351Z 16008KT 10SM OVC050 08/M02 A3040 RMK AO2 RAB29E42 SLP293 P0000 T00781017 $","FM-15","7",,,,,,,,,,,,,,,,,,,,,,,,,,,,
"72503014732","2020-03-18T23:51:00","FM-15","7",,,,,,,,,,,,,,,,,,,,,,,,,,,,,,,,,,,,,,"30.37","32","45","T",,,,"61","30.37","OVC:08 45","30.34","10.00","40","150",,"9",,,,,,,,,,,,,,,,,,,,,,,,,,,,,,,,,,,,,"MET12003/18/20 23:51:01 METAR KLGA 190451Z 15008KT 10SM OVC045 07/00 A3037 RMK AO2 RAB16E48 SLP283 P0000 T00720000 401170067 $","FM-15","7",,,,,,,,,,,,,,,,,,,,,,,,,,,,
"72503014732","2020-03-18T23:59:00","SOD  ","6",,,,,,,,,,,,,,,"27","49","45","30.42","30.39","39","9.6","0","6.4","16","53","44","170","21","T","0","0.0","190","17",,,,,,,,,,,,,,,,,,,,,,,,,,,,,,,,,,,,,,,,,,,,,,,,,,,,,,,,,"SOD73924 HR PRECIPITATION (IN):    T SNOW DEPTH (IN):0     24 HR SNOWFALL (IN):0.0  24 HR MAX TEMP (F): 5324 HR MIN TEMP (F): 44AVERAGE STATION PRESSURE(D):30.393 MINIMUM SEA LEVEL PRESSURE:30.29 TIME OF OCCURRENCE:0014 PEAK WIND SPEED (MPH): 21 PEAK WIND DIR (DEG):170 PEAK WIND TIME (LST):      FASTEST 2MIN SPEED (MPH): 17FASTEST 2MIN DIR (DEG):190 FASTEST 2MIN TIME (LST):     AVERAGE WIND SPEED (MPH): 9.6 24 HR AVG TEMP (F): 49DEPART FROM NORMAL:  6  HEATING DEGREE DAYS: 16 COOLING DEGREE DAYS:  0 LATEST DAY MAX TEMP (0700-1900 LST): 53 LATEST NIGHT MIN TEMP(1900-0800 LST):44 HOURLY INCREMENTAL PRECIPITATION VALUES (IN):0.00 0.00 0.00 0.00 0.00 0.00 0.00 0.00 0.00 0.00 0.00 0.00 0.00 0.00 0.00 0.00 0.00 0.00 0.00 0.00 0.00 0.00T    T","SOD  ","6",,,,,,,,,,,,,,,,,,,,,,,,,"0601","1806",,
"72503014732","2020-03-19T00:51:00","FM-15","7",,,,,,,,,,,,,,,,,,,,,,,,,,,,,,,,,,,,,,"30.35","33","43","0.03s","RA:02 |RA |RA","+0.05","8","68","30.35","SCT:04 22 SCT:04 27 OVC:08 37","30.32","5.00","39","110",,"7",,,,,,,,,,,,,,,,,,,,,,,,,,,,,,,,,,,,,"MET14903/19/20 00:51:01 METAR KLGA 190551Z 11006KT 5SM RA SCT022 SCT027 OVC037 06/01 A3035 RMK AO2 RAB0459 SLP278 P0002 60002 T00610006 10089 20061 58016 $","FM-15","7",,,,,,,,,,,,,,,,,,,,,,,,,,,,
"72503014732","2020-03-19T01:00:00","FM-12","4",,,,,,,,,,,,,,,,,,,,,,,,,,,,,,,,,,,,,,,"33","43",,"||RA","+0.05","8","68","30.35","26","30.31","4.97","39","110",,"7",,,,,,,,,,,,,,,,,,,,,,,,,,,,,,,,,,,,,"SYN09272503 11558 81106 10061 20006 30264 40278 58016 69951 763// 90551 333 10089 20061 555 91906=","FM-12","4",,,,,,,,,,,,,,,,,,,,,,,,,,,,
"72503014732","2020-03-19T01:44:00","FM-16","7",,,,,,,,,,,,,,,,,,,,,,,,,,,,,,,,,,,,,,"30.34","36","42","0.12","RA:02 |RA |RA",,,"79",,"BKN:07 12 BKN:07 17 OVC:08 25","30.31","4.00","39","050",,"7",,,,,,,,,,,,,,,,,,,,,,,,,,,,,,,,,,,,,"MET11003/19/20 01:44:01 SPECI KLGA 190644Z 05006KT 4SM RA BKN012 BKN017 OVC025 06/02 A3034 RMK AO2 P0012 T00560022 $","FM-16","7",,,,,,,,,,,,,,,,,,,,,,,,,,,,
"72503014732","2020-03-19T01:51:00","FM-15","7",,,,,,,,,,,,,,,,,,,,,,,,,,,,,,,,,,,,,,"30.33","37","42","0.15","RA:02 |RA |RA",,,"82","30.33","BKN:07 10 BKN:07 17 OVC:08 25","30.30","4.00","40","050",,"10",,,,,,,,,,,,,,,,,,,,,,,,,,,,,,,,,,,,,"MET11703/19/20 01:51:01 METAR KLGA 190651Z 05009KT 4SM RA BKN010 BKN017 OVC025 06/03 A3033 RMK AO2 SLP271 P0014 T00560028 $","FM-15","7",,,,,,,,,,,,,,,,,,,,,,,,,,,,
"72503014732","2020-03-19T02:44:00","FM-16","7",,,,,,,,,,,,,,,,,,,,,,,,,,,,,,,,,,,,,,"30.29","38","42","0.12","RA:02 BR:1 |RA |RA",,,"85",,"OVC:08 7","30.26","5.00","40","060",,"14",,,,,,,,,,,,,,,,,,,,,,,,,,,,,,,,,,,,,"MET09903/19/20 02:44:01 SPECI KLGA 190744Z 06012KT 5SM RA BR OVC007 06/03 A3029 RMK AO2 P0012 T00560033 $","FM-16","7",,,,,,,,,,,,,,,,,,,,,,,,,,,,
"72503014732","2020-03-19T02:51:00","FM-15","7",,,,,,,,,,,,,,,,,,,,,,,,,,,,,,,,,,,,,,"30.29","38","42","0.14","RA:02 BR:1 |RA |RA",,,"85","30.29","OVC:08 7","30.26","4.00","40","060",,"11",,,,,,,,,,,,,,,,,,,,,,,,,,,,,,,,,,,,,"MET10603/19/20 02:51:01 METAR KLGA 190751Z 06010KT 4SM RA BR OVC007 06/03 A3029 RMK AO2 SLP257 P0014 T00560033 $","FM-15","7",,,,,,,,,,,,,,,,,,,,,,,,,,,,
"72503014732","2020-03-19T03:21:00","FM-16","7",,,,,,,,,,,,,,,,,,,,,,,,,,,,,,,,,,,,,,"30.29","39","42","0.08","RA:02 BR:1 |RA |RA",,,"89",,"OVC:08 6","30.26","4.00","41","050",,"9",,,,,,,,,,,,,,,,,,,,,,,,,,,,,,,,,,,,,"MET09903/19/20 03:21:01 SPECI KLGA 190821Z 05008KT 4SM RA BR OVC006 06/04 A3029 RMK AO2 P0008 T00560039 $","FM-16","7",,,,,,,,,,,,,,,,,,,,,,,,,,,,
"72503014732","2020-03-19T03:51:00","FM-15","7",,,,,,,,,,,,,,,,,,,,,,,,,,,,,,,,,,,,,,"30.27","39","43","0.18","+RA:02 BR:1 |RA |RA","+0.08","7","86","30.27","OVC:08 6","30.24","4.00","41","060",,"10",,,,,,,,,,,,,,,,,,,,,,,,,,,,,,,,,,,,,"MET11903/19/20 03:51:01 METAR KLGA 190851Z 06009KT 4SM +RA BR OVC006 06/04 A3027 RMK AO2 SLP250 P0016 60044 T00610039 57028 $","FM-15","7",,,,,,,,,,,,,,,,,,,,,,,,,,,,
"72503014732","2020-03-19T04:00:00","FM-12","4",,,,,,,,,,,,,,,,,,,,,,,,,,,,,,,,,,,,,,,"39","43",,"||RA","+0.08","7","86","30.27","5","30.23","3.73","41","060",,"10",,,,,,,,,,,,,,,,,,,,,,,,,,,,,,,,,,,,,"SYN08672503 11256 80609 10061 20039 30237 40250 57028 60117 765// 90851 333 96010 555 91909=","FM-12","4",,,,,,,,,,,,,,,,,,,,,,,,,,,,
"72503014732","2020-03-19T04:26:00","FM-16","7",,,,,,,,,,,,,,,,,,,,,,,,,,,,,,,,,,,,,,"30.25","39","42","0.19","+RA:02 BR:1 |RA |RA",,,"89",,"BKN:07 5 BKN:07 14 OVC:08 23","30.22","2.50","41","070",,"14",,,,,,,,,,,,,,,,,,,,,,,,,,,,,,,,,,,,,"MET12803/19/20 04:26:02 SPECI KLGA 190926Z 07012KT 2 1/2SM +RA BR BKN005 BKN014 OVC023 06/04 A3025 RMK AO2 SFC VIS 3 P0019 T00560039 $","FM-16","7",,,,,,,,,,,,,,,,,,,,,,,,,,,,
"72503014732","2020-03-19T04:51:00","FM-15","7",,,,,,,,,,,,,,,,,,,,,,,,,,,,,,,,,,,,,,"30.25","39","42","0.34","+RA:02 BR:1 |RA |RA",,,"89","30.24","OVC:08 5","30.22","2.50","41","070",,"11",,,,,,,,,,,,,,,,,,,,,,,,,,,,,,,,,,,,,"MET12103/19/20 04:51:02 METAR KLGA 190951Z 07010KT 2 1/2SM +RA BR OVC005 06/04 A3025 RMK AO2 SFC VIS 3 SLP242 P0034 T00560039 $","FM-15","7",,,,,,,,,,,,,,,,,,,,,,,,,,,,
"72503014732","2020-03-19T05:51:00","FM-15","7",,,,,,,,,,,,,,,,,,,,,,,,,,,,,,,,,,,,,,"30.25","40","43","0.15","-RA:02 BR:1 |RA |RA",,,"89","30.25","BKN:07 5 OVC:08 11","30.22","2.50","42","040",,"15",,,,,,,,,,,,,,,,,,,,,,,,,,,,,,,,,,,,,"MET11803/19/20 05:51:02 METAR KLGA 191051Z 04013KT 2 1/2SM -RA BR BKN005 OVC011 06/04 A3025 RMK AO2 SLP243 P0018 T00610044 $","FM-15","7",,,,,,,,,,,,,,,,,,,,,,,,,,,,
"72503014732","2020-03-19T06:51:00","FM-15","7",,,,,,,,,,,,,,,,,,,,,,,,,,,,,,,,,,,,,,"30.26","40","43","0.01","-RA:02 BR:1 |RA |RA","+0.01","5","89","30.26","BKN:07 5 OVC:08 12","30.23","2.50","42","040",,"18",,,,,,,,,,,,,,,,,,,,,,,,,,,,,,,,,,,,,"MET14803/19/20 06:51:02 METAR KLGA 191151Z 04016KT 2 1/2SM -RA BR BKN005 OVC012 06/04 A3026 RMK AO2 SLP246 P0002 60098 70100 T00610044 10061 20056 55003 $","FM-15","7",,,,,,,,,,,,,,,,,,,,,,,,,,,,
"72503014732","2020-03-19T07:00:00","FM-12","4",,,,,,,,,,,,,,,,,,,,,,,,,,,,,,,,,,,,,,,"40","43",,"||RA","+0.01","5","89","30.26","5","30.22","2.49","42","040",,"18",,,,,,,,,,,,,,,,,,,,,,,,,,,,,,,,,,,,,"SYN10472503 11240 80416 10061 20044 30233 40246 55003 60251 761// 91151 333 10117 20056 70254 96010 555 91912=","FM-12","4",,,,,,,,,,,,,,,,,,,,,,,,,,,,
"72503014732","2020-03-19T07:51:00","FM-15","7",,,,,,,,,,,,,,,,,,,,,,,,,,,,,,,,,,,,,,"30.26","40","44","0.01","-RA:02 BR:1 |RA |RA",,,"85","30.26","BKN:07 5 OVC:08 13","30.23","2.50","42","040",,"18",,,,,,,,,,,,,,,,,,,,,,,,,,,,,,,,,,,,,"MET11803/19/20 07:51:02 METAR KLGA 191251Z 04016KT 2 1/2SM -RA BR BKN005 OVC013 07/04 A3026 RMK AO2 SLP246 P0001 T00670044 $","FM-15","7",,,,,,,,,,,,,,,,,,,,,,,,,,,,
"72503014732","2020-03-19T08:51:00","FM-15","7",,,,,,,,,,,,,,,,,,,,,,,,,,,,,,,,,,,,,,"30.26","41","44","0.01","-DZ:01 BR:1 |DZ |DZ",,,"89","30.26","OVC:08 5","30.23","3.00","43","040",,"16",,,,,,,,,,,,,,,,,,,,,,,,,,,,,,,,,,,,,"MET12803/19/20 08:51:02 METAR KLGA 191351Z 04014KT 3SM -DZ BR OVC005 07/05 A3026 RMK AO2 SFC VIS 5 RAE44DZB49 SLP247 P0001 T00670050 $","FM-15","7",,,,,,,,,,,,,,,,,,,,,,,,,,,,
"72503014732","2020-03-19T09:51:00","FM-15","7",,,,,,,,,,,,,,,,,,,,,,,,,,,,,,,,,,,,,,"30.26","41","45","T",,"+0.00","5","86","30.26","OVC:08 7","30.23","10.00","43","040",,"15",,,,,,,,,,,,,,,,,,,,,,,,,,,,,,,,,,,,,"MET11903/19/20 09:51:01 METAR KLGA 191451Z 04013KT 10SM OVC007 07/05 A3026 RMK AO2 DZE45 SLP247 P0000 60002 T00720050 55000 $","FM-15","7",,,,,,,,,,,,,,,,,,,,,,,,,,,,
"72503014732","2020-03-19T10:00:00","FM-12","4",,,,,,,,,,,,,,,,,,,,,,,,,,,,,,,,,,,,,,,"41","45",,,"+0.00","5","86","30.26","8","30.22","9.94","43","040",,"15",,,,,,,,,,,,,,,,,,,,,,,,,,,,,,,,,,,,,"SYN07072503 12366 80413 10072 20050 30233 40247 55000 69957 91451 555 91915=","FM-12","4",,,,,,,,,,,,,,,,,,,,,,,,,,,,
"72503014732","2020-03-19T10:51:00","FM-15","7",,,,,,,,,,,,,,,,,,,,,,,,,,,,,,,,,,,,,,"30.25","41","47","0.00",,,,"80","30.24","OVC:08 11","30.22","10.00","44","040",,"17",,,,,,,,,,,,,,,,,,,,,,,,,,,,,,,,,,,,,"MET09503/19/20 10:51:01 METAR KLGA 191551Z 04015KT 10SM OVC011 08/05 A3025 RMK AO2 SLP242 T00830050 $","FM-15","7",,,,,,,,,,,,,,,,,,,,,,,,,,,,
"72503014732","2020-03-19T11:51:00","FM-15","7",,,,,,,,,,,,,,,,,,,,,,,,,,,,,,,,,,,,,,"30.24","42","48","0.00",,,,"80","30.23","OVC:08 12","30.21","10.00","45","050",,"11",,,,,,,,,,,,,,,,,,,,,,,,,,,,,,,,,,,,,"MET09503/19/20 11:51:02 METAR KLGA 191651Z 05010KT 10SM OVC012 09/06 A3024 RMK AO2 SLP238 T00890056 $","FM-15","7",,,,,,,,,,,,,,,,,,,,,,,,,,,,
"72503014732","2020-03-19T12:51:00","FM-15","7",,,,,,,,,,,,,,,,,,,,,,,,,,,,,,,,,,,,,,"30.23","41","48","0.00",,"+0.03","6","77","30.23","OVC:08 13","30.20","10.00","45","050",,"7",,,,,,,,,,,,,,,,,,,,,,,,,,,,,,,,,,,,,"MET11903/19/20 12:51:02 METAR KLGA 191751Z 05006KT 10SM OVC013 09/05 A3023 RMK AO2 SLP238 60002 T00890050 10094 20061 56009 $","FM-15","7",,,,,,,,,,,,,,,,,,,,,,,,,,,,
"72503014732","2020-03-19T13:00:00","FM-12","4",,,,,,,,,,,,,,,,,,,,,,,,,,,,,,,,,,,,,,,"41","48",,,"+0.03","6","77","30.23","15","30.19","9.94","45","050",,"7",,,,,,,,,,,,,,,,,,,,,,,,,,,,,,,,,,,,,"SYN08672503 12466 80506 10089 20050 30223 40238 56009 69951 91751 333 10094 20061 555 91918=","FM-12","4",,,,,,,,,,,,,,,,,,,,,,,,,,,,
"72503014732","2020-03-19T13:51:00","FM-15","7",,,,,,,,,,,,,,,,,,,,,,,,,,,,,,,,,,,,,,"30.22","42","50","0.00",,,,"74","30.22","OVC:08 14","30.19","10.00","46","060",,"7",,,,,,,,,,,,,,,,,,,,,,,,,,,,,,,,,,,,,"MET09503/19/20 13:51:02 METAR KLGA 191851Z 06006KT 10SM OVC014 10/06 A3022 RMK AO2 SLP232 T01000056 $","FM-15","7",,,,,,,,,,,,,,,,,,,,,,,,,,,,
"72503014732","2020-03-19T14:06:00","FM-16","7",,,,,,,,,,,,,,,,,,,,,,,,,,,,,,,,,,,,,,"30.20","42","50",,,,,"74",,"OVC:08 15","30.17","10.00","46","070",,"8",,,,,,,,,,,,,,,,,,,,,,,,,,,,,,,,,,,,,"MET08803/19/20 14:06:02 SPECI KLGA 191906Z 07007KT 10SM OVC015 10/06 A3020 RMK AO2 T01000056 $","FM-16","7",,,,,,,,,,,,,,,,,,,,,,,,,,,,
"72503014732","2020-03-19T14:51:00","FM-15","7",,,,,,,,,,,,,,,,,,,,,,,,,,,,,,,,,,,,,,"30.20","42","50","0.00",,,,"74","30.19","OVC:08 17","30.17","10.00","46","040",,"6",,,,,,,,,,,,,,,,,,,,,,,,,,,,,,,,,,,,,"MET09503/19/20 14:51:02 METAR KLGA 191951Z 04005KT 10SM OVC017 10/06 A3020 RMK AO2 SLP225 T01000056 $","FM-15","7",,,,,,,,,,,,,,,,,,,,,,,,,,,,
"72503014732","2020-03-19T15:51:00","FM-15","7",,,,,,,,,,,,,,,,,,,,,,,,,,,,,,,,,,,,,,"30.21","43","52","0.00",,"+0.03","5","72","30.21","OVC:08 18","30.18","10.00","48","VRB",,"5",,,,,,,,,,,,,,,,,,,,,,,,,,,,,,,,,,,,,"MET10103/19/20 15:51:02 METAR KLGA 192051Z VRB04KT 10SM OVC018 11/06 A3021 RMK AO2 SLP229 T01110061 55009 $","FM-15","7",,,,,,,,,,,,,,,,,,,,,,,,,,,,
"72503014732","2020-03-19T16:00:00","FM-12","4",,,,,,,,,,,,,,,,,,,,,,,,,,,,,,,,,,,,,,,"43","52",,,"+0.03","5","72","30.21","15","30.17","9.94","48",,,"5",,,,,,,,,,,,,,,,,,,,,,,,,,,,,,,,,,,,,"SYN06472503 32466 8//04 10111 20061 30216 40229 55009 92051 555 91921=","FM-12","4",,,,,,,,,,,,,,,,,,,,,,,,,,,,
"72503014732","2020-03-19T16:51:00","FM-15","7",,,,,,,,,,,,,,,,,,,,,,,,,,,,,,,,,,,,,,"30.21","42","51","0.00",,,,"71","30.21","BKN:07 22 OVC:08 28","30.18","10.00","47","040",,"6",,,,,,,,,,,,,,,,,,,,,,,,,,,,,,,,,,,,,"MET10203/19/20 16:51:02 METAR KLGA 192151Z 04005KT 10SM BKN022 OVC028 11/06 A3021 RMK AO2 SLP231 T01060056 $","FM-15","7",,,,,,,,,,,,,,,,,,,,,,,,,,,,
"72503014732","2020-03-19T17:51:00","FM-15","7",,,,,,,,,,,,,,,,,,,,,,,,,,,,,,,,,,,,,,"30.23","42","51","0.00",,,,"71","30.23","OVC:08 25","30.20","10.00","47","070",,"5",,,,,,,,,,,,,,,,,,,,,,,,,,,,,,,,,,,,,"MET09503/19/20 17:51:02 METAR KLGA 192251Z 07004KT 10SM OVC025 11/06 A3023 RMK AO2 SLP236 T01060056 $","FM-15","7",,,,,,,,,,,,,,,,,,,,,,,,,,,,
"72503014732","2020-03-19T18:51:00","FM-15","7",,,,,,,,,,,,,,,,,,,,,,,,,,,,,,,,,,,,,,"30.24","42","50","0.00",,"-0.03","3","74","30.24","OVC:08 20","30.21","10.00","46","040",,"6",,,,,,,,,,,,,,,,,,,,,,,,,,,,,,,,,,,,,"MET11303/19/20 18:51:02 METAR KLGA 192351Z 04005KT 10SM OVC020 10/06 A3024 RMK AO2 SLP240 T01000056 10111 20089 53011 $","FM-15","7",,,,,,,,,,,,,,,,,,,,,,,,,,,,
"72503014732","2020-03-19T19:00:00","FM-12","4",,,,,,,,,,,,,,,,,,,,,,,,,,,,,,,,,,,,,,,"42","50",,,"-0.03","3","74","30.24","26","30.20","9.94","46","040",,"6",,,,,,,,,,,,,,,,,,,,,,,,,,,,,,,,,,,,,"SYN08072503 32566 80405 10100 20056 30227 40240 53011 92351 333 10111 20056 555 92000=","FM-12","4",,,,,,,,,,,,,,,,,,,,,,,,,,,,
"72503014732","2020-03-19T19:51:00","FM-15","7",,,,,,,,,,,,,,,,,,,,,,,,,,,,,,,,,,,,,,"30.22","42","50","0.00",,,,"74","30.22","OVC:08 21","30.19","10.00","46","060",,"6",,,,,,,,,,,,,,,,,,,,,,,,,,,,,,,,,,,,,"MET09503/19/20 19:51:01 METAR KLGA 200051Z 06005KT 10SM OVC021 10/06 A3022 RMK AO2 SLP234 T01000056 $","FM-15","7",,,,,,,,,,,,,,,,,,,,,,,,,,,,
"72503014732","2020-03-19T20:51:00","FM-15","7",,,,,,,,,,,,,,,,,,,,,,,,,,,,,,,,,,,,,,"30.23","43","50","0.00",,,,"77","30.22","OVC:08 19","30.20","10.00","47","160",,"3",,,,,,,,,,,,,,,,,,,,,,,,,,,,,,,,,,,,,"MET09503/19/20 20:51:01 METAR KLGA 200151Z 16003KT 10SM OVC019 10/06 A3023 RMK AO2 SLP235 T01000061 $","FM-15","7",,,,,,,,,,,,,,,,,,,,,,,,,,,,
"72503014732","2020-03-19T21:51:00","FM-15","7",,,,,,,,,,,,,,,,,,,,,,,,,,,,,,,,,,,,,,"30.21","43","50","0.00",,"+0.03","8","77","30.21","OVC:08 19","30.18","10.00","47","150",,"6",,,,,,,,,,,,,,,,,,,,,,,,,,,,,,,,,,,,,"MET10103/19/20 21:51:02 METAR KLGA 200251Z 15005KT 10SM OVC019 10/06 A3021 RMK AO2 SLP230 T01000061 58010 $","FM-15","7",,,,,,,,,,,,,,,,,,,,,,,,,,,,
"72503014732","2020-03-19T22:00:00","FM-12","4",,,,,,,,,,,,,,,,,,,,,,,,,,,,,,,,,,,,,,,"43","50",,,"+0.03","8","77","30.21","15","30.17","9.94","47","150",,"6",,,,,,,,,,,,,,,,,,,,,,,,,,,,,,,,,,,,,"SYN06472503 32466 81505 10100 20061 30216 40230 58010 90251 555 92003=","FM-12","4",,,,,,,,,,,,,,,,,,,,,,,,,,,,
"72503014732","2020-03-19T22:51:00","FM-15","7",,,,,,,,,,,,,,,,,,,,,,,,,,,,,,,,,,,,,,"30.20","43","49","0.00",,,,"80","30.20","OVC:08 19","30.17","10.00","46","180",,"8",,,,,,,,,,,,,,,,,,,,,,,,,,,,,,,,,,,,,"MET09503/19/20 22:51:02 METAR KLGA 200351Z 18007KT 10SM OVC019 09/06 A3020 RMK AO2 SLP227 T00940061 $","FM-15","7",,,,,,,,,,,,,,,,,,,,,,,,,,,,
"72503014732","2020-03-19T23:51:00","FM-15","7",,,,,,,,,,,,,,,,,,,,,,,,,,,,,,,,,,,,,,"30.18","42","49","T",,,,"77","30.18","BKN:07 12 BKN:07 21 OVC:08 55","30.15","10.00","46","170",,"7",,,,,,,,,,,,,,,,,,,,,,,,,,,,,,,,,,,,,"MET11903/19/20 23:51:02 METAR KLGA 200451Z 17006KT 10SM BKN012 BKN021 OVC055 09/06 A3018 RMK AO2 SLP220 T00940056 401110056 $","FM-15","7",,,,,,,,,,,,,,,,,,,,,,,,,,,,
"72503014732","2020-03-19T23:59:00","SOD  ","6",,,,,,,,,,,,,,,"41","47","80","30.24","30.22","44","9.7","0","4.1","18","52","42","050","28","1.02","0","0.0","040","24","RA DZ BR",,,,,,,,,,,,,,,,,,,,,,,,,,,,,,,,,,,,,,,,,,,,,,,,,,,,,,,,"SOD78324 HR PRECIPITATION (IN): 1.02 SNOW DEPTH (IN):0     24 HR SNOWFALL (IN):0.0  WEATHER(CODE):1  24 HR MAX TEMP (F): 5224 HR MIN TEMP (F): 42AVERAGE STATION PRESSURE(D):30.217 MINIMUM SEA LEVEL PRESSURE:30.17 TIME OF OCCURRENCE:2359 PEAK WIND SPEED (MPH): 28 PEAK WIND DIR (DEG): 50 PEAK WIND TIME (LST):      FASTEST 2MIN SPEED (MPH): 24FASTEST 2MIN DIR (DEG): 40 FASTEST 2MIN TIME (LST):     AVERAGE WIND SPEED (MPH): 9.7 24 HR AVG TEMP (F): 47DEPART FROM NORMAL:  4  SKY COVER SR-SS (TENTHS): 1HEATING DEGREE DAYS: 18 COOLING DEGREE DAYS:  0 LATEST DAY MAX TEMP (0700-1900 LST): 52 LATEST NIGHT MIN TEMP(1900-0800 LST):42 HOURLY INCREMENTAL PRECIPITATION VALUES (IN):0.03 0.15 0.14 0.18 0.34 0.15 0.01 0.01 0.01T     0.00 0.00 0.00 0.00 0.00 0.00 0.00 0.00 0.00 0.00 0.00 0.00 0.00T","SOD  ","6",,,,,,,,,,,,,,,,,,,,,,,,,"0559","1807",,
"72503014732","2020-03-20T00:10:00","FM-16","7",,,,,,,,,,,,,,,,,,,,,,,,,,,,,,,,,,,,,,"30.17","42","49","T",,,,"77",,"SCT:04 12 OVC:08 50","30.14","10.00","46","150",,"8",,,,,,,,,,,,,,,,,,,,,,,,,,,,,,,,,,,,,"MET11203/20/20 00:10:02 SPECI KLGA 200510Z 15007KT 10SM SCT012 OVC050 09/06 A3017 RMK AO2 RAB0459E09 P0000 T00940056 $","FM-16","7",,,,,,,,,,,,,,,,,,,,,,,,,,,,
"72503014732","2020-03-20T00:44:00","FM-16","7",,,,,,,,,,,,,,,,,,,,,,,,,,,,,,,,,,,,,,"30.16","42","48","T",,,,"80",,"BKN:07 12 BKN:07 19 OVC:08 41","30.13","10.00","45","150",,"7",,,,,,,,,,,,,,,,,,,,,,,,,,,,,,,,,,,,,"MET11903/20/20 00:44:02 SPECI KLGA 200544Z 15006KT 10SM BKN012 BKN019 OVC041 09/06 A3016 RMK AO2 RAB0459E09 P0000 T00890056 $","FM-16","7",,,,,,,,,,,,,,,,,,,,,,,,,,,,
"72503014732","2020-03-20T00:51:00","FM-15","7",,,,,,,,,,,,,,,,,,,,,,,,,,,,,,,,,,,,,,"30.15","42","48","T",,"+0.06","8","80","30.15","BKN:07 12 OVC:08 41","30.12","10.00","45","160",,"10",,,,,,,,,,,,,,,,,,,,,,,,,,,,,,,,,,,,,"MET14303/20/20 00:51:02 METAR KLGA 200551Z 16009KT 10SM BKN012 OVC041 09/06 A3015 RMK AO2 RAB0459E09 SLP211 P0000 60000 T00890056 10106 20089 58019 $","FM-15","7",,,,,,,,,,,,,,,,,,,,,,,,,,,,
"72503014732","2020-03-20T01:00:00","FM-12","4",,,,,,,,,,,,,,,,,,,,,,,,,,,,,,,,,,,,,,,"42","48",,,"+0.06","8","80","30.15","15","30.11","9.94","45","160",,"10",,,,,,,,,,,,,,,,,,,,,,,,,,,,,,,,,,,,,"SYN08672503 12466 81609 10089 20056 30196 40211 58019 69901 90551 333 10106 20056 555 92006=","FM-12","4",,,,,,,,,,,,,,,,,,,,,,,,,,,,
"72503014732","2020-03-20T01:51:00","FM-15","7",,,,,,,,,,,,,,,,,,,,,,,,,,,,,,,,,,,,,,"30.11","42","48","0.00",,,,"80","30.11","BKN:07 11 OVC:08 36","30.08","10.00","45","160",,"6",,,,,,,,,,,,,,,,,,,,,,,,,,,,,,,,,,,,,"MET10203/20/20 01:51:02 METAR KLGA 200651Z 16005KT 10SM BKN011 OVC036 09/06 A3011 RMK AO2 SLP196 T00890056 $","FM-15","7",,,,,,,,,,,,,,,,,,,,,,,,,,,,
"72503014732","2020-03-20T02:51:00","FM-15","7",,,,,,,,,,,,,,,,,,,,,,,,,,,,,,,,,,,,,,"30.08","42","48","0.00",,,,"80","30.08","OVC:08 10","30.05","10.00","45","160",,"11",,,,,,,,,,,,,,,,,,,,,,,,,,,,,,,,,,,,,"MET09503/20/20 02:51:02 METAR KLGA 200751Z 16010KT 10SM OVC010 09/06 A3008 RMK AO2 SLP185 T00890056 $","FM-15","7",,,,,,,,,,,,,,,,,,,,,,,,,,,,
"72503014732","2020-03-20T03:02:00","FM-16","7",,,,,,,,,,,,,,,,,,,,,,,,,,,,,,,,,,,,,,"30.09","42","48",,,,,"80",,"OVC:08 9","30.06","10.00","45","180",,"9",,,,,,,,,,,,,,,,,,,,,,,,,,,,,,,,,,,,,"MET08803/20/20 03:02:02 SPECI KLGA 200802Z 18008KT 10SM OVC009 09/06 A3009 RMK AO2 T00890056 $","FM-16","7",,,,,,,,,,,,,,,,,,,,,,,,,,,,
"72503014732","2020-03-20T03:51:00","FM-15","7",,,,,,,,,,,,,,,,,,,,,,,,,,,,,,,,,,,,,,"30.06","43","48","0.00",,"+0.09","6","83","30.06","OVC:08 8","30.03","10.00","46","160",,"9",,,,,,,,,,,,,,,,,,,,,,,,,,,,,,,,,,,,,"MET10103/20/20 03:51:02 METAR KLGA 200851Z 16008KT 10SM OVC008 09/06 A3006 RMK AO2 SLP180 T00890061 56031 $","FM-15","7",,,,,,,,,,,,,,,,,,,,,,,,,,,,
"72503014732","2020-03-20T04:00:00","FM-12","4",,,,,,,,,,,,,,,,,,,,,,,,,,,,,,,,,,,,,,,"43","48",,,"+0.09","6","83","30.06","8","30.02","9.94","46","160",,"9",,,,,,,,,,,,,,,,,,,,,,,,,,,,,,,,,,,,,"SYN06472503 32366 81608 10089 20061 30166 40180 56031 90851 555 92009=","FM-12","4",,,,,,,,,,,,,,,,,,,,,,,,,,,,
"72503014732","2020-03-20T04:09:00","FM-16","7",,,,,,,,,,,,,,,,,,,,,,,,,,,,,,,,,,,,,,"30.06","43","48",,,,,"83",,"OVC:08 7","30.03","10.00","46","160",,"9",,,,,,,,,,,,,,,,,,,,,,,,,,,,,,,,,,,,,"MET08803/20/20 04:09:02 SPECI KLGA 200909Z 16008KT 10SM OVC007 09/06 A3006 RMK AO2 T00890061 $","FM-16","7",,,,,,,,,,,,,,,,,,,,,,,,,,,,
"72503014732","2020-03-20T04:51:00","FM-15","7",,,,,,,,,,,,,,,,,,,,,,,,,,,,,,,,,,,,,,"30.05","43","47","0.00","BR:1 ||",,,"86","30.05","OVC:08 6","30.02","5.00","45","180",,"6",,,,,,,,,,,,,,,,,,,,,,,,,,,,,,,,,,,,,"MET09703/20/20 04:51:02 METAR KLGA 200951Z 18005KT 5SM BR OVC006 08/06 A3005 RMK AO2 SLP176 T00830061 $","FM-15","7",,,,,,,,,,,,,,,,,,,,,,,,,,,,
"72503014732","2020-03-20T05:06:00","FM-16","7",,,,,,,,,,,,,,,,,,,,,,,,,,,,,,,,,,,,,,"30.05","43","47",,"BR:1 ||",,,"86",,"OVC:08 5","30.02","3.00","45","190",,"8",,,,,,,,,,,,,,,,,,,,,,,,,,,,,,,,,,,,,"MET09003/20/20 05:06:02 SPECI KLGA 201006Z 19007KT 3SM BR OVC005 08/06 A3005 RMK AO2 T00830061 $","FM-16","7",,,,,,,,,,,,,,,,,,,,,,,,,,,,
"72503014732","2020-03-20T05:15:00","FM-16","7",,,,,,,,,,,,,,,,,,,,,,,,,,,,,,,,,,,,,,"30.05","44","47","T","-DZ:01 BR:1 |DZ |DZ",,,"90",,"OVC:08 3","30.02","2.00","46","180",,"9",,,,,,,,,,,,,,,,,,,,,,,,,,,,,,,,,,,,,"MET10603/20/20 05:15:02 SPECI KLGA 201015Z 18008KT 2SM -DZ BR OVC003 08/07 A3005 RMK AO2 DZB12 P0000 T00830067 $","FM-16","7",,,,,,,,,,,,,,,,,,,,,,,,,,,,
"72503014732","2020-03-20T05:40:00","FM-16","7",,,,,,,,,,,,,,,,,,,,,,,,,,,,,,,,,,,,,,"30.04","44","47","T","-DZ:01 BR:1 |DZ |DZ",,,"90",,"OVC:08 3","30.01","1.00","46","180",,"5",,,,,,,,,,,,,,,,,,,,,,,,,,,,,,,,,,,,,"MET11803/20/20 05:40:02 SPECI KLGA 201040Z 18004KT 1SM R04/P6000FT -DZ BR OVC003 08/07 A3004 RMK AO2 DZB12 P0000 T00830067 $","FM-16","7",,,,,,,,,,,,,,,,,,,,,,,,,,,,
"72503014732","2020-03-20T05:51:00","FM-15","7",,,,,,,,,,,,,,,,,,,,,,,,,,,,,,,,,,,,,,"30.03","44","47","T","-DZ:01 BR:1 |s DZ s |DZ s",,,"90","30.03","OVC:08 3","30.00","0.50","46","160",,"6",,,,,,,,,,,,,,,,,,,,,,,,,,,,,,,,,,,,,"MET13903/20/20 05:51:02 METAR KLGA 201051Z 16005KT 1/2SM R04/P6000FT -DZ BR OVC003 08/07 A3003 RMK AO2 SFC VIS 3/4 DZB12 SLP169 P0000 T00830067 $","FM-15","7",,,,,,,,,,,,,,,,,,,,,,,,,,,,
"72503014732","2020-03-20T06:25:00","FM-16","7",,,,,,,,,,,,,,,,,,,,,,,,,,,,,,,,,,,,,,"30.03","44","47","T","-DZ:01 BR:1 |s DZ s |DZ s",,,"90",,"OVC:08 2","30.00","0.50","46","150",,"6",,,,,,,,,,,,,,,,,,,,,,,,,,,,,,,,,,,,,"MET12603/20/20 06:25:02 SPECI KLGA 201125Z 15005KT 1/2SM R04/P6000FT -DZ BR OVC002 08/07 A3003 RMK AO2 SFC VIS 3/4 P0000 T00830067 $","FM-16","7",,,,,,,,,,,,,,,,,,,,,,,,,,,,
"72503014732","2020-03-20T06:51:00","FM-15","7",,,,,,,,,,,,,,,,,,,,,,,,,,,,,,,,,,,,,,"30.01","45","47","T","BR:1 ||","+0.05","8","93","30.01","OVC:08 2","29.98","1.00","46","160",,"6",,,,,,,,,,,,,,,,,,,,,,,,,,,,,,,,,,,,,"MET15103/20/20 06:51:02 METAR KLGA 201151Z 16005KT 1SM R04/P6000FT BR OVC002 08/07 A3001 RMK AO2 DZE27 SLP162 P0000 60000 70002 T00830072 10089 20083 58018 $","FM-15","7",,,,,,,,,,,,,,,,,,,,,,,,,,,,
"72503014732","2020-03-20T07:00:00","FM-12","4",,,,,,,,,,,,,,,,,,,,,,,,,,,,,,,,,,,,,,,"45","47",,,"+0.05","8","93","30.01","2","29.97","0.99","46","160",,"6",,,,,,,,,,,,,,,,,,,,,,,,,,,,,,,,,,,,,"SYN09872503 11116 81605 10083 20072 30149 40162 58018 69901 710// 91151 333 10111 20083 70005 555 92012=","FM-12","4",,,,,,,,,,,,,,,,,,,,,,,,,,,,
"72503014732","2020-03-20T07:06:00","FM-16","7",,,,,,,,,,,,,,,,,,,,,,,,,,,,,,,,,,,,,,"30.01","45","48",,"BR:1 ||",,,"89",,"OVC:08 3","29.98","1.50","47","000",,"0",,,,,,,,,,,,,,,,,,,,,,,,,,,,,,,,,,,,,"MET10403/20/20 07:06:02 SPECI KLGA 201206Z 00000KT 1 1/2SM BR OVC003 09/07 A3001 RMK AO2 SFC VIS 2 T00890072 $","FM-16","7",,,,,,,,,,,,,,,,,,,,,,,,,,,,
"72503014732","2020-03-20T07:51:00","FM-15","7",,,,,,,,,,,,,,,,,,,,,,,,,,,,,,,,,,,,,,"29.99","46","48","0.00","BR:1 ||",,,"93","29.99","OVC:08 4","29.96","1.50","47","150",,"5",,,,,,,,,,,,,,,,,,,,,,,,,,,,,,,,,,,,,"MET11103/20/20 07:51:02 METAR KLGA 201251Z 15004KT 1 1/2SM BR OVC004 09/08 A2999 RMK AO2 SFC VIS 3 SLP155 T00890078 $","FM-15","7",,,,,,,,,,,,,,,,,,,,,,,,,,,,
"72503014732","2020-03-20T08:36:00","FM-16","7",,,,,,,,,,,,,,,,,,,,,,,,,,,,,,,,,,,,,,"29.98","47","50",,"BR:1 ||",,,"89",,"OVC:08 5","29.95","2.00","48","210",,"5",,,,,,,,,,,,,,,,,,,,,,,,,,,,,,,,,,,,,"MET10003/20/20 08:36:02 SPECI KLGA 201336Z 21004KT 2SM BR OVC005 10/08 A2998 RMK AO2 SFC VIS 3 T01000083 $","FM-16","7",,,,,,,,,,,,,,,,,,,,,,,,,,,,
"72503014732","2020-03-20T08:51:00","FM-15","7",,,,,,,,,,,,,,,,,,,,,,,,,,,,,,,,,,,,,,"29.98","47","50","0.00","BR:1 ||",,,"89","29.98","OVC:08 5","29.95","2.00","48","190",,"6",,,,,,,,,,,,,,,,,,,,,,,,,,,,,,,,,,,,,"MET10703/20/20 08:51:02 METAR KLGA 201351Z 19005KT 2SM BR OVC005 10/08 A2998 RMK AO2 SFC VIS 3 SLP151 T01000083 $","FM-15","7",,,,,,,,,,,,,,,,,,,,,,,,,,,,
"72503014732","2020-03-20T09:16:00","FM-16","7",,,,,,,,,,,,,,,,,,,,,,,,,,,,,,,,,,,,,,"29.97","48","53",,"HZ:7 |FU |HZ",,,"83",,"OVC:08 6","29.94","3.00","50","VRB",,"6",,,,,,,,,,,,,,,,,,,,,,,,,,,,,,,,,,,,,"MET10003/20/20 09:16:02 SPECI KLGA 201416Z VRB05KT 3SM HZ OVC006 12/09 A2997 RMK AO2 SFC VIS 4 T01170089 $","FM-16","7",,,,,,,,,,,,,,,,,,,,,,,,,,,,
"72503014732","2020-03-20T09:40:00","FM-16","7",,,,,,,,,,,,,,,,,,,,,,,,,,,,,,,,,,,,,,"29.96","48","52",,"BR:1 ||",,,"86",,"OVC:08 7","29.93","3.00","50","220",,"7",,,,,,,,,,,,,,,,,,,,,,,,,,,,,,,,,,,,,"MET10003/20/20 09:40:02 SPECI KLGA 201440Z 22006KT 3SM BR OVC007 11/09 A2996 RMK AO2 SFC VIS 4 T01110089 $","FM-16","7",,,,,,,,,,,,,,,,,,,,,,,,,,,,
"72503014732","2020-03-20T09:51:00","FM-15","7",,,,,,,,,,,,,,,,,,,,,,,,,,,,,,,,,,,,,,"29.96","48","53","0.00","HZ:7 |FU |HZ","+0.06","7","83","29.96","OVC:08 8","29.93","3.00","50","210",,"7",,,,,,,,,,,,,,,,,,,,,,,,,,,,,,,,,,,,,"MET11303/20/20 09:51:02 METAR KLGA 201451Z 21006KT 3SM HZ OVC008 12/09 A2996 RMK AO2 SFC VIS 4 SLP144 T01170089 57019 $","FM-15","7",,,,,,,,,,,,,,,,,,,,,,,,,,,,
"72503014732","2020-03-20T10:00:00","FM-12","4",,,,,,,,,,,,,,,,,,,,,,,,,,,,,,,,,,,,,,,"48","53",,"||HZ","+0.06","7","83","29.96","8","29.92","2.98","50","210",,"7",,,,,,,,,,,,,,,,,,,,,,,,,,,,,,,,,,,,,"SYN07072503 31348 82106 10117 20089 30132 40144 57019 705// 91451 555 92015=","FM-12","4",,,,,,,,,,,,,,,,,,,,,,,,,,,,
"72503014732","2020-03-20T10:29:00","FM-16","7",,,,,,,,,,,,,,,,,,,,,,,,,,,,,,,,,,,,,,"29.95","49","55","T","-RA:02 |RA |RA",,,"80",,"FEW:02 8 OVC:08 10","29.92","5.00","52","220",,"7",,,,,,,,,,,,,,,,,,,,,,,,,,,,,,,,,,,,,"MET11003/20/20 10:29:02 SPECI KLGA 201529Z 22006KT 5SM -RA FEW008 OVC010 13/09 A2995 RMK AO2 RAB27 P0000 T01280094 $","FM-16","7",,,,,,,,,,,,,,,,,,,,,,,,,,,,
"72503014732","2020-03-20T10:51:00","FM-15","7",,,,,,,,,,,,,,,,,,,,,,,,,,,,,,,,,,,,,,"29.94","50","55","T","HZ:7 |FU |HZ",,,"83","29.94","BKN:07 8 OVC:08 10","29.91","5.00","52","210",,"7",,,,,,,,,,,,,,,,,,,,,,,,,,,,,,,,,,,,,"MET11903/20/20 10:51:02 METAR KLGA 201551Z 21006KT 5SM HZ BKN008 OVC010 13/10 A2994 RMK AO2 RAB27E37 SLP138 P0000 T01280100 $","FM-15","7",,,,,,,,,,,,,,,,,,,,,,,,,,,,
"72503014732","2020-03-20T11:39:00","FM-16","7",,,,,,,,,,,,,,,,,,,,,,,,,,,,,,,,,,,,,,"29.91","51","58",,,,,"78",,"FEW:02 8 BKN:07 10 OVC:08 150","29.88","7.00","54","230",,"8",,,,,,,,,,,,,,,,,,,,,,,,,,,,,,,,,,,,,"MET10103/20/20 11:39:02 SPECI KLGA 201639Z 23007KT 7SM FEW008 BKN010 OVC150 14/11 A2991 RMK AO2 T01440106 $","FM-16","7",,,,,,,,,,,,,,,,,,,,,,,,,,,,
"72503014732","2020-03-20T11:51:00","FM-15","7",,,,,,,,,,,,,,,,,,,,,,,,,,,,,,,,,,,,,,"29.91","52","58","0.00",,,,"81","29.91","FEW:02 8 BKN:07 10 OVC:08 150","29.88","7.00","55","230",,"13",,,,,,,,,,,,,,,,,,,,,,,,,,,,,,,,,,,,,"MET10803/20/20 11:51:02 METAR KLGA 201651Z 23011KT 7SM FEW008 BKN010 OVC150 14/11 A2991 RMK AO2 SLP127 T01440111 $","FM-15","7",,,,,,,,,,,,,,,,,,,,,,,,,,,,
"72503014732","2020-03-20T12:05:00","FM-16","7",,,,,,,,,,,,,,,,,,,,,,,,,,,,,,,,,,,,,,"29.90","53","60",,"HZ:7 |FU |HZ",,,"78",,"FEW:02 10 SCT:04 120 OVC:08 250","29.87","6.00","56","230",,"9",,,,,,,,,,,,,,,,,,,,,,,,,,,,,,,,,,,,,"MET10403/20/20 12:05:02 SPECI KLGA 201705Z 23008KT 6SM HZ FEW010 SCT120 OVC250 16/12 A2990 RMK AO2 T01560117 $","FM-16","7",,,,,,,,,,,,,,,,,,,,,,,,,,,,
"72503014732","2020-03-20T12:51:00","FM-15","7",,,,,,,,,,,,,,,,,,,,,,,,,,,,,,,,,,,,,,"29.84","55","63","T",,"+0.12","8","75","29.84","SCT:04 32 SCT:04 95 OVC:08 180","29.81","8.00","58","200",,"11",,,,,,,,,,,,,,,,,,,,,,,,,,,,,,,,,,,,,"MET15403/20/20 12:51:02 METAR KLGA 201751Z 20010KT 8SM SCT032 SCT095 OVC180 17/13 A2984 RMK AO2 RAB33E51 PRESFR SLP104 P0000 60000 T01720128 10172 20083 58040 $","FM-15","7",,,,,,,,,,,,,,,,,,,,,,,,,,,,
"72503014732","2020-03-20T13:00:00","FM-12","4",,,,,,,,,,,,,,,,,,,,,,,,,,,,,,,,,,,,,,,"55","63",,,"+0.12","8","75","29.84","26","29.80","7.46","58","200",,"11",,,,,,,,,,,,,,,,,,,,,,,,,,,,,,,,,,,,,"SYN08672503 12562 82010 10172 20128 30091 40104 58040 69901 91751 333 10172 20083 555 92018=","FM-12","4",,,,,,,,,,,,,,,,,,,,,,,,,,,,
"72503014732","2020-03-20T13:51:00","FM-15","7",,,,,,,,,,,,,,,,,,,,,,,,,,,,,,,,,,,,,,"29.81","56","67","0.00",,,,"68","29.81","SCT:04 120","29.78","10.00","61","240","21","14",,,,,,,,,,,,,,,,,,,,,,,,,,,,,,,,,,,,,"MET09803/20/20 13:51:02 METAR KLGA 201851Z 24012G18KT 10SM SCT120 19/13 A2981 RMK AO2 SLP096 T01940133 $","FM-15","7",,,,,,,,,,,,,,,,,,,,,,,,,,,,
"72503014732","2020-03-20T14:51:00","FM-15","7",,,,,,,,,,,,,,,,,,,,,,,,,,,,,,,,,,,,,,"29.78","54","66","0.00",,,,"65","29.78","SCT:04 120 BKN:07 250","29.75","10.00","59","180",,"9",,,,,,,,,,,,,,,,,,,,,,,,,,,,,,,,,,,,,"MET10203/20/20 14:51:02 METAR KLGA 201951Z 18008KT 10SM SCT120 BKN250 19/12 A2978 RMK AO2 SLP083 T01890122 $","FM-15","7",,,,,,,,,,,,,,,,,,,,,,,,,,,,
"72503014732","2020-03-20T15:51:00","FM-15","7",,,,,,,,,,,,,,,,,,,,,,,,,,,,,,,,,,,,,,"29.76","55","71","0.00",,"+0.08","6","57","29.76","SCT:04 120 BKN:07 250","29.73","10.00","62","190",,"5",,,,,,,,,,,,,,,,,,,,,,,,,,,,,,,,,,,,,"MET10803/20/20 15:51:02 METAR KLGA 202051Z 19004KT 10SM SCT120 BKN250 22/13 A2976 RMK AO2 SLP077 T02170128 56027 $","FM-15","7",,,,,,,,,,,,,,,,,,,,,,,,,,,,
"72503014732","2020-03-20T16:00:00","FM-12","4",,,,,,,,,,,,,,,,,,,,,,,,,,,,,,,,,,,,,,,"55","71",,,"+0.08","6","57","29.76",,"29.72","9.94","62","190",,"5",,,,,,,,,,,,,,,,,,,,,,,,,,,,,,,,,,,,,"SYN06472503 32966 61904 10217 20128 30064 40077 56027 92051 555 92021=","FM-12","4",,,,,,,,,,,,,,,,,,,,,,,,,,,,
"72503014732","2020-03-20T16:51:00","FM-15","7",,,,,,,,,,,,,,,,,,,,,,,,,,,,,,,,,,,,,,"29.76","55","73","0.00",,,,"53","29.76","BKN:07 65 BKN:07 250","29.73","10.00","62","210",,"7",,,,,,,,,,,,,,,,,,,,,,,,,,,,,,,,,,,,,"MET10203/20/20 16:51:02 METAR KLGA 202151Z 21006KT 10SM BKN065 BKN250 23/13 A2976 RMK AO2 SLP079 T02280128 $","FM-15","7",,,,,,,,,,,,,,,,,,,,,,,,,,,,
"72503014732","2020-03-20T17:51:00","FM-15","7",,,,,,,,,,,,,,,,,,,,,,,,,,,,,,,,,,,,,,"29.80","53","77","0.00",,,,"43","29.80","SCT:04 55 SCT:04 70 BKN:07 250","29.77","10.00","63","260","25","16",,,,,,,,,,,,,,,,,,,,,,,,,,,,,,,,,,,,,"MET11203/20/20 17:51:02 METAR KLGA 202251Z 26014G22KT 10SM SCT055 SCT070 BKN250 25/12 A2980 RMK AO2 SLP092 T02500117 $","FM-15","7",,,,,,,,,,,,,,,,,,,,,,,,,,,,
"72503014732","2020-03-20T18:51:00","FM-15","7",,,,,,,,,,,,,,,,,,,,,,,,,,,,,,,,,,,,,,"29.84","52","75","0.00",,"-0.08","3","45","29.84","FEW:02 60 SCT:04 100 BKN:07 250","29.81","10.00","62","280","31","20",,,,,,,,,,,,,,,,,,,,,,,,,,,,,,,,,,,,,"MET14803/20/20 18:51:02 METAR KLGA 202351Z 28017G27KT 10SM FEW060 SCT100 BKN250 24/11 A2984 RMK AO2 PK WND 27032/2326 SLP104 T02390111 10256 20172 53027 $","FM-15","7",,,,,,,,,,,,,,,,,,,,,,,,,,,,
"72503014732","2020-03-20T19:00:00","FM-12","4",,,,,,,,,,,,,,,,,,,,,,,,,,,,,,,,,,,,,,,"52","75",,,"-0.08","3","45","29.84","57","29.80","9.94","62","280",,"20",,,,,,,,,,,,,,,,,,,,,,,,,,,,,,,,,,,,,"SYN08672503 32766 62817 10239 20111 30091 40104 53027 92351 333 10256 20083 91027 555 92100=","FM-12","4",,,,,,,,,,,,,,,,,,,,,,,,,,,,
"72503014732","2020-03-20T19:51:00","FM-15","7",,,,,,,,,,,,,,,,,,,,,,,,,,,,,,,,,,,,,,"29.86","46","74","T",,,,"37","29.86","FEW:02 70 BKN:07 90 OVC:08 120","29.83","10.00","59","270","30","18",,,,,,,,,,,,,,,,,,,,,,,,,,,,,,,,,,,,,"MET14503/20/20 19:51:01 METAR KLGA 210051Z 27016G26KT 10SM FEW070 BKN090 OVC120 23/08 A2986 RMK AO2 PK WND 26030/0011 RAB42E51 SLP112 P0000 T02330078 $","FM-15","7",,,,,,,,,,,,,,,,,,,,,,,,,,,,
"72503014732","2020-03-20T20:51:00","FM-15","7",,,,,,,,,,,,,,,,,,,,,,,,,,,,,,,,,,,,,,"29.86","45","72","T",,,,"38","29.86","SCT:04 110 BKN:07 250","29.83","10.00","57","270","29","16",,,,,,,,,,,,,,,,,,,,,,,,,,,,,,,,,,,,,"MET12203/20/20 20:51:01 METAR KLGA 210151Z 27014G25KT 10SM SCT110 BKN250 22/07 A2986 RMK AO2 RAB0058E08 SLP112 P0000 T02220072 $","FM-15","7",,,,,,,,,,,,,,,,,,,,,,,,,,,,
"72503014732","2020-03-20T21:51:00","FM-15","7",,,,,,,,,,,,,,,,,,,,,,,,,,,,,,,,,,,,,,"29.89","46","71","0.00",,"-0.05","3","41","29.89","BKN:07 90 OVC:08 110","29.86","10.00","57","270","28","18",,,,,,,,,,,,,,,,,,,,,,,,,,,,,,,,,,,,,"MET11703/20/20 21:51:01 METAR KLGA 210251Z 27016G24KT 10SM BKN090 OVC110 22/08 A2989 RMK AO2 SLP121 60000 T02170078 53017 $","FM-15","7",,,,,,,,,,,,,,,,,,,,,,,,,,,,
"72503014732","2020-03-20T22:00:00","FM-12","4",,,,,,,,,,,,,,,,,,,,,,,,,,,,,,,,,,,,,,,"46","71",,,"-0.05","3","41","29.89",,"29.85","9.94","57","270",,"18",,,,,,,,,,,,,,,,,,,,,,,,,,,,,,,,,,,,,"SYN08072503 12966 82716 10217 20078 30108 40121 53017 69907 90251 333 91024 555 92103=","FM-12","4",,,,,,,,,,,,,,,,,,,,,,,,,,,,
"72503014732","2020-03-20T22:51:00","FM-15","7",,,,,,,,,,,,,,,,,,,,,,,,,,,,,,,,,,,,,,"29.90","45","70","T","-RA:02 |RA |RA",,,"41","29.90","BKN:07 95 BKN:07 200","29.87","10.00","57","280","29","21",,,,,,,,,,,,,,,,,,,,,,,,,,,,,,,,,,,,,"MET13903/20/20 22:51:02 METAR KLGA 210351Z 28018G25KT 10SM -RA BKN095 BKN200 21/07 A2990 RMK AO2 PK WND 28028/0341 RAB39 SLP126 P0000 T02110072 $","FM-15","7",,,,,,,,,,,,,,,,,,,,,,,,,,,,
"72503014732","2020-03-20T23:51:00","FM-15","7",,,,,,,,,,,,,,,,,,,,,,,,,,,,,,,,,,,,,,"29.93","46","67","T",,,,"47","29.93","SCT:04 90 BKN:07 160 BKN:07 200","29.90","10.00","56","310","24","15",,,,,,,,,,,,,,,,,,,,,,,,,,,,,,,,,,,,,"MET13403/20/20 23:51:02 METAR KLGA 210451Z 31013G21KT 10SM SCT090 BKN160 BKN200 19/08 A2993 RMK AO2 RAE00 SLP134 P0000 T01940078 402560083 $","FM-15","7",,,,,,,,,,,,,,,,,,,,,,,,,,,,
"72503014732","2020-03-20T23:59:00","SOD  ","6",,,,,,,,,,,,,,,"48","63","67","29.93","29.93","53","10.9","0","19.7","2","78","47","270","36","T","0","0.0","270","25","RA DZ BR HZ",,,,,,,,,,,,,,,,,,,,,,,,,,,,,,,,,,,,,,,,,,,,,,,,,,,,,,,,"SOD75724 HR PRECIPITATION (IN):    T SNOW DEPTH (IN):0     24 HR SNOWFALL (IN):0.0  WEATHER(CODE):18  24 HR MAX TEMP (F): 7824 HR MIN TEMP (F): 47AVERAGE STATION PRESSURE(D):29.933 MINIMUM SEA LEVEL PRESSURE:29.75 TIME OF OCCURRENCE:1630 PEAK WIND SPEED (MPH): 36 PEAK WIND DIR (DEG):270 PEAK WIND TIME (LST):      FASTEST 2MIN SPEED (MPH): 25FASTEST 2MIN DIR (DEG):270 FASTEST 2MIN TIME (LST):     AVERAGE WIND SPEED (MPH):10.9 24 HR AVG TEMP (F): 63DEPART FROM NORMAL: 20  HEATING DEGREE DAYS:  2 COOLING DEGREE DAYS:  0 LATEST DAY MAX TEMP (0700-1900 LST): 78 LATEST NIGHT MIN TEMP(1900-0800 LST):47 HOURLY INCREMENTAL PRECIPITATION VALUES (IN):     0.00 0.00 0.00 0.00T    T     0.00 0.00 0.00T     0.00T     0.00 0.00 0.00 0.00 0.00 0.00T    T     0.00T    T","SOD  ","6",,,,,,,,,,,,,,,,,,,,,,,,,"0558","1809",,
"72503014732","2020-03-21T00:51:00","FM-15","7",,,,,,,,,,,,,,,,,,,,,,,,,,,,,,,,,,,,,,"29.99","43","59","0.00",,"-0.10","3","56","29.99","SCT:04 90 BKN:07 180 OVC:08 210","29.96","10.00","51","340","26","20",,,,,,,,,,,,,,,,,,,,,,,,,,,,,,,,,,,,,"MET15403/21/20 00:51:02 METAR KLGA 210551Z 34017G23KT 10SM SCT090 BKN180 OVC210 15/06 A2999 RMK AO2 PK WND 32027/0512 SLP155 60000 T01500061 10239 20150 53034 $","FM-15","7",,,,,,,,,,,,,,,,,,,,,,,,,,,,
"72503014732","2020-03-21T01:00:00","FM-12","4",,,,,,,,,,,,,,,,,,,,,,,,,,,,,,,,,,,,,,,"43","59",,,"-0.10","3","56","29.99",,"29.95","9.94","51","340",,"20",,,,,,,,,,,,,,,,,,,,,,,,,,,,,,,,,,,,,"SYN09272503 12966 83417 10150 20061 30142 40155 53034 69901 90551 333 10239 20083 91023 555 92106=","FM-12","4",,,,,,,,,,,,,,,,,,,,,,,,,,,,
"72503014732","2020-03-21T01:51:00","FM-15","7",,,,,,,,,,,,,,,,,,,,,,,,,,,,,,,,,,,,,,"30.02","39","56","0.00",,,,"53","30.02","SCT:04 90 SCT:04 180 BKN:07 220","29.99","10.00","48","340","25","13",,,,,,,,,,,,,,,,,,,,,,,,,,,,,,,,,,,,,"MET11203/21/20 01:51:02 METAR KLGA 210651Z 34011G22KT 10SM SCT090 SCT180 BKN220 13/04 A3002 RMK AO2 SLP165 T01330039 $","FM-15","7",,,,,,,,,,,,,,,,,,,,,,,,,,,,
"72503014732","2020-03-21T02:51:00","FM-15","7",,,,,,,,,,,,,,,,,,,,,,,,,,,,,,,,,,,,,,"30.06","35","51","0.00",,,,"54","30.06","SCT:04 75 BKN:07 150 BKN:07 200","30.03","10.00","44","340","29","16",,,,,,,,,,,,,,,,,,,,,,,,,,,,,,,,,,,,,"MET13003/21/20 02:51:02 METAR KLGA 210751Z 34014G25KT 10SM SCT075 BKN150 BKN200 11/02 A3006 RMK AO2 PK WND 35028/0740 SLP178 T01060017 $","FM-15","7",,,,,,,,,,,,,,,,,,,,,,,,,,,,
"72503014732","2020-03-21T03:51:00","FM-15","7",,,,,,,,,,,,,,,,,,,,,,,,,,,,,,,,,,,,,,"30.09","33","49","0.00",,"-0.10","3","55","30.09","SCT:04 110 BKN:07 200","30.06","10.00","42","320",,"16",,,,,,,,,,,,,,,,,,,,,,,,,,,,,,,,,,,,,"MET12603/21/20 03:51:02 METAR KLGA 210851Z 32014KT 10SM SCT110 BKN200 09/01 A3009 RMK AO2 PK WND 33027/0827 SLP190 T00940006 53034 $","FM-15","7",,,,,,,,,,,,,,,,,,,,,,,,,,,,
"72503014732","2020-03-21T04:00:00","FM-12","4",,,,,,,,,,,,,,,,,,,,,,,,,,,,,,,,,,,,,,,"33","49",,,"-0.10","3","55","30.09",,"30.05","9.94","42","320",,"16",,,,,,,,,,,,,,,,,,,,,,,,,,,,,,,,,,,,,"SYN06472503 32966 63214 10094 20006 30176 40190 53034 90851 555 92109=","FM-12","4",,,,,,,,,,,,,,,,,,,,,,,,,,,,
"72503014732","2020-03-21T04:51:00","FM-15","7",,,,,,,,,,,,,,,,,,,,,,,,,,,,,,,,,,,,,,"30.15","27","48","0.00",,,,"44","30.14","SCT:04 80 SCT:04 200 BKN:07 250","30.12","10.00","39","340","30","21",,,,,,,,,,,,,,,,,,,,,,,,,,,,,,,,,,,,,"MET13803/21/20 04:51:02 METAR KLGA 210951Z 34018G26KT 10SM SCT080 SCT200 BKN250 09/M03 A3015 RMK AO2 PK WND 32029/0917 PRESRR SLP207 T00891028 $","FM-15","7",,,,,,,,,,,,,,,,,,,,,,,,,,,,
"72503014732","2020-03-21T05:51:00","FM-15","7",,,,,,,,,,,,,,,,,,,,,,,,,,,,,,,,,,,,,,"30.18","27","45","0.00",,,,"49","30.18","FEW:02 80 BKN:07 180","30.15","10.00","38","340",,"16",,,,,,,,,,,,,,,,,,,,,,,,,,,,,,,,,,,,,"MET10303/21/20 05:51:02 METAR KLGA 211051Z 34014KT 10SM FEW080 BKN180 07/M03 A3018 RMK AO2 SLP219 T00721028 $","FM-15","7",,,,,,,,,,,,,,,,,,,,,,,,,,,,
"72503014732","2020-03-21T06:51:00","FM-15","7",,,,,,,,,,,,,,,,,,,,,,,,,,,,,,,,,,,,,,"30.23","27","44","0.00",,"-0.14","1","51","30.23","FEW:02 40 SCT:04 90 BKN:07 180","30.20","10.00","37","330",,"16",,,,,,,,,,,,,,,,,,,,,,,,,,,,,,,,,,,,,"MET12803/21/20 06:51:02 METAR KLGA 211151Z 33014KT 10SM FEW040 SCT090 BKN180 07/M03 A3023 RMK AO2 SLP236 T00671028 10150 20067 51047 $","FM-15","7",,,,,,,,,,,,,,,,,,,,,,,,,,,,
"72503014732","2020-03-21T07:00:00","FM-12","4",,,,,,,,,,,,,,,,,,,,,,,,,,,,,,,,,,,,,,,"27","44",,,"-0.14","1","51","30.23","41","30.19","9.94","37","330",,"16",,,,,,,,,,,,,,,,,,,,,,,,,,,,,,,,,,,,,"SYN08072503 32666 63314 10067 21028 30223 40236 51047 91151 333 10256 20067 555 92112=","FM-12","4",,,,,,,,,,,,,,,,,,,,,,,,,,,,
"72503014732","2020-03-21T07:51:00","FM-15","7",,,,,,,,,,,,,,,,,,,,,,,,,,,,,,,,,,,,,,"30.26","26","43","0.00",,,,"51","30.26","FEW:02 40 SCT:04 90 SCT:04 180","30.23","10.00","36","340",,"14",,,,,,,,,,,,,,,,,,,,,,,,,,,,,,,,,,,,,"MET11003/21/20 07:51:02 METAR KLGA 211251Z 34012KT 10SM FEW040 SCT090 SCT180 06/M03 A3026 RMK AO2 SLP247 T00611033 $","FM-15","7",,,,,,,,,,,,,,,,,,,,,,,,,,,,
"72503014732","2020-03-21T08:51:00","FM-15","7",,,,,,,,,,,,,,,,,,,,,,,,,,,,,,,,,,,,,,"30.30","26","43","0.00",,,,"51","30.29","FEW:02 40 FEW:02 90 BKN:07 220","30.27","10.00","36","330",,"14",,,,,,,,,,,,,,,,,,,,,,,,,,,,,,,,,,,,,"MET11003/21/20 08:51:02 METAR KLGA 211351Z 33012KT 10SM FEW040 FEW090 BKN220 06/M03 A3030 RMK AO2 SLP259 T00611033 $","FM-15","7",,,,,,,,,,,,,,,,,,,,,,,,,,,,
"72503014732","2020-03-21T09:51:00","FM-15","7",,,,,,,,,,,,,,,,,,,,,,,,,,,,,,,,,,,,,,"30.33","22","44","0.00",,"-0.10","1","41","30.32","FEW:02 41 FEW:02 90 SCT:04 220","30.30","10.00","36","350","22","17",,,,,,,,,,,,,,,,,,,,,,,,,,,,,,,,,,,,,"MET11903/21/20 09:51:02 METAR KLGA 211451Z 35015G19KT 10SM FEW041 FEW090 SCT220 07/M06 A3033 RMK AO2 SLP269 T00671056 51033 $","FM-15","7",,,,,,,,,,,,,,,,,,,,,,,,,,,,
"72503014732","2020-03-21T10:00:00","FM-12","4",,,,,,,,,,,,,,,,,,,,,,,,,,,,,,,,,,,,,,,"22","44",,,"-0.10","1","41","30.32","41","30.29","9.94","36","350",,"17",,,,,,,,,,,,,,,,,,,,,,,,,,,,,,,,,,,,,"SYN07472503 32666 63515 10067 21056 30257 40269 51033 91451 333 91019 555 92115=","FM-12","4",,,,,,,,,,,,,,,,,,,,,,,,,,,,
"72503014732","2020-03-21T10:51:00","FM-15","7",,,,,,,,,,,,,,,,,,,,,,,,,,,,,,,,,,,,,,"30.34","23","46","0.00",,,,"40","30.33","FEW:02 41 SCT:04 220 BKN:07 250","30.31","10.00","37","350",,"15",,,,,,,,,,,,,,,,,,,,,,,,,,,,,,,,,,,,,"MET11003/21/20 10:51:02 METAR KLGA 211551Z 35013KT 10SM FEW041 SCT220 BKN250 08/M05 A3034 RMK AO2 SLP272 T00781050 $","FM-15","7",,,,,,,,,,,,,,,,,,,,,,,,,,,,
"72503014732","2020-03-21T11:51:00","FM-15","7",,,,,,,,,,,,,,,,,,,,,,,,,,,,,,,,,,,,,,"30.33","19","47","0.00",,,,"33","30.33","FEW:02 45 FEW:02 200 BKN:07 250","30.30","10.00","37","330",,"14",,,,,,,,,,,,,,,,,,,,,,,,,,,,,,,,,,,,,"MET11003/21/20 11:51:02 METAR KLGA 211651Z 33012KT 10SM FEW045 FEW200 BKN250 08/M07 A3033 RMK AO2 SLP271 T00831072 $","FM-15","7",,,,,,,,,,,,,,,,,,,,,,,,,,,,
"72503014732","2020-03-21T12:51:00","FM-15","7",,,,,,,,,,,,,,,,,,,,,,,,,,,,,,,,,,,,,,"30.33","19","48","0.00",,"+0.00","8","32","30.32","FEW:02 50 SCT:04 250","30.30","10.00","37","350",,"15",,,,,,,,,,,,,,,,,,,,,,,,,,,,,,,,,,,,,"MET12103/21/20 12:51:02 METAR KLGA 211751Z 35013KT 10SM FEW050 SCT250 09/M07 A3033 RMK AO2 SLP269 T00891072 10089 20061 58001 $","FM-15","7",,,,,,,,,,,,,,,,,,,,,,,,,,,,
"72503014732","2020-03-21T13:00:00","FM-12","4",,,,,,,,,,,,,,,,,,,,,,,,,,,,,,,,,,,,,,,"19","48",,,"+0.00","8","32","30.32","57","30.29","9.94","37","350",,"15",,,,,,,,,,,,,,,,,,,,,,,,,,,,,,,,,,,,,"SYN08072503 32766 43513 10089 21072 30257 40269 58001 91751 333 10150 20061 555 92118=","FM-12","4",,,,,,,,,,,,,,,,,,,,,,,,,,,,
"72503014732","2020-03-21T13:51:00","FM-15","7",,,,,,,,,,,,,,,,,,,,,,,,,,,,,,,,,,,,,,"30.31","18","49","0.00",,,,"29","30.31","FEW:02 50 BKN:07 250","30.28","10.00","37","010",,"11",,,,,,,,,,,,,,,,,,,,,,,,,,,,,,,,,,,,,"MET10303/21/20 13:51:02 METAR KLGA 211851Z 01010KT 10SM FEW050 BKN250 09/M08 A3031 RMK AO2 SLP264 T00941078 $","FM-15","7",,,,,,,,,,,,,,,,,,,,,,,,,,,,
"72503014732","2020-03-21T14:51:00","FM-15","7",,,,,,,,,,,,,,,,,,,,,,,,,,,,,,,,,,,,,,"30.31","16","50","0.00",,,,"26","30.31","FEW:02 60 SCT:04 250","30.28","10.00","38","360",,"13",,,,,,,,,,,,,,,,,,,,,,,,,,,,,,,,,,,,,"MET10303/21/20 14:51:02 METAR KLGA 211951Z 36011KT 10SM FEW060 SCT250 10/M09 A3031 RMK AO2 SLP263 T01001089 $","FM-15","7",,,,,,,,,,,,,,,,,,,,,,,,,,,,
"72503014732","2020-03-21T15:51:00","FM-15","7",,,,,,,,,,,,,,,,,,,,,,,,,,,,,,,,,,,,,,"30.30","13","51","0.00",,"+0.02","6","22","30.30","FEW:02 65 FEW:02 250","30.27","10.00","37","030",,"6",,,,,,,,,,,,,,,,,,,,,,,,,,,,,,,,,,,,,"MET10903/21/20 15:51:02 METAR KLGA 212051Z 03005KT 10SM FEW065 FEW250 11/M11 A3030 RMK AO2 SLP261 T01061106 56008 $","FM-15","7",,,,,,,,,,,,,,,,,,,,,,,,,,,,
"72503014732","2020-03-21T16:00:00","FM-12","4",,,,,,,,,,,,,,,,,,,,,,,,,,,,,,,,,,,,,,,"13","51",,,"+0.02","6","22","30.30","57","30.26","9.94","37","030",,"6",,,,,,,,,,,,,,,,,,,,,,,,,,,,,,,,,,,,,"SYN06472503 32766 20305 10106 21106 30247 40261 56008 92051 555 92121=","FM-12","4",,,,,,,,,,,,,,,,,,,,,,,,,,,,
"72503014732","2020-03-21T16:51:00","FM-15","7",,,,,,,,,,,,,,,,,,,,,,,,,,,,,,,,,,,,,,"30.31","12","50","0.00",,,,"22","30.31","FEW:02 65","30.28","10.00","37","010",,"8",,,,,,,,,,,,,,,,,,,,,,,,,,,,,,,,,,,,,"MET09603/21/20 16:51:02 METAR KLGA 212151Z 01007KT 10SM FEW065 10/M11 A3031 RMK AO2 SLP265 T01001111 $","FM-15","7",,,,,,,,,,,,,,,,,,,,,,,,,,,,
"72503014732","2020-03-21T17:51:00","FM-15","7",,,,,,,,,,,,,,,,,,,,,,,,,,,,,,,,,,,,,,"30.34","13","48","0.00",,,,"24","30.33","SCT:04 75","30.31","10.00","36","050",,"10",,,,,,,,,,,,,,,,,,,,,,,,,,,,,,,,,,,,,"MET09603/21/20 17:51:02 METAR KLGA 212251Z 05009KT 10SM SCT075 09/M11 A3034 RMK AO2 SLP272 T00891106 $","FM-15","7",,,,,,,,,,,,,,,,,,,,,,,,,,,,
"72503014732","2020-03-21T18:51:00","FM-15","7",,,,,,,,,,,,,,,,,,,,,,,,,,,,,,,,,,,,,,"30.35","12","48","0.00",,"-0.05","3","23","30.35","BKN:07 75","30.32","10.00","36","040",,"10",,,,,,,,,,,,,,,,,,,,,,,,,,,,,,,,,,,,,"MET11403/21/20 18:51:02 METAR KLGA 212351Z 04009KT 10SM BKN075 09/M11 A3035 RMK AO2 SLP277 T00891111 10106 20089 53017 $","FM-15","7",,,,,,,,,,,,,,,,,,,,,,,,,,,,
"72503014732","2020-03-21T19:00:00","FM-12","4",,,,,,,,,,,,,,,,,,,,,,,,,,,,,,,,,,,,,,,"12","48",,,"-0.05","3","23","30.35","74","30.31","9.94","36","040",,"10",,,,,,,,,,,,,,,,,,,,,,,,,,,,,,,,,,,,,"SYN08072503 32866 60409 10089 21111 30264 40277 53017 92351 333 10106 20067 555 92200=","FM-12","4",,,,,,,,,,,,,,,,,,,,,,,,,,,,
"72503014732","2020-03-21T19:51:00","FM-15","7",,,,,,,,,,,,,,,,,,,,,,,,,,,,,,,,,,,,,,"30.38","9","47","0.00",,,,"21","30.37","BKN:07 75","30.35","10.00","34","040",,"10",,,,,,,,,,,,,,,,,,,,,,,,,,,,,,,,,,,,,"MET09603/21/20 19:51:01 METAR KLGA 220051Z 04009KT 10SM BKN075 08/M13 A3038 RMK AO2 SLP285 T00831128 $","FM-15","7",,,,,,,,,,,,,,,,,,,,,,,,,,,,
"72503014732","2020-03-21T20:51:00","FM-15","7",,,,,,,,,,,,,,,,,,,,,,,,,,,,,,,,,,,,,,"30.40","13","45","0.00",,,,"27","30.39","BKN:07 80","30.37","10.00","34","010",,"10",,,,,,,,,,,,,,,,,,,,,,,,,,,,,,,,,,,,,"MET09603/21/20 20:51:01 METAR KLGA 220151Z 01009KT 10SM BKN080 07/M11 A3040 RMK AO2 SLP292 T00721106 $","FM-15","7",,,,,,,,,,,,,,,,,,,,,,,,,,,,
"72503014732","2020-03-21T21:51:00","FM-15","7",,,,,,,,,,,,,,,,,,,,,,,,,,,,,,,,,,,,,,"30.43","14","43","0.00",,"-0.08","3","31","30.43","BKN:07 80","30.40","10.00","33","030",,"8",,,,,,,,,,,,,,,,,,,,,,,,,,,,,,,,,,,,,"MET10203/21/20 21:51:01 METAR KLGA 220251Z 03007KT 10SM BKN080 06/M10 A3043 RMK AO2 SLP305 T00611100 53028 $","FM-15","7",,,,,,,,,,,,,,,,,,,,,,,,,,,,
"72503014732","2020-03-21T22:00:00","FM-12","4",,,,,,,,,,,,,,,,,,,,,,,,,,,,,,,,,,,,,,,"14","43",,,"-0.08","3","31","30.43","74","30.39","9.94","33","030",,"8",,,,,,,,,,,,,,,,,,,,,,,,,,,,,,,,,,,,,"SYN06472503 32866 60307 10061 21100 30291 40305 53028 90251 555 92203=","FM-12","4",,,,,,,,,,,,,,,,,,,,,,,,,,,,
"72503014732","2020-03-21T22:51:00","FM-15","7",,,,,,,,,,,,,,,,,,,,,,,,,,,,,,,,,,,,,,"30.45","12","42","0.00",,,,"29","30.45","SCT:04 80","30.42","10.00","32","020",,"9",,,,,,,,,,,,,,,,,,,,,,,,,,,,,,,,,,,,,"MET09603/21/20 22:51:02 METAR KLGA 220351Z 02008KT 10SM SCT080 06/M11 A3045 RMK AO2 SLP310 T00561111 $","FM-15","7",,,,,,,,,,,,,,,,,,,,,,,,,,,,
"72503014732","2020-03-21T23:51:00","FM-15","7",,,,,,,,,,,,,,,,,,,,,,,,,,,,,,,,,,,,,,"30.45","13","41","0.00",,,,"32","30.45","SCT:04 80","30.42","10.00","32","030",,"14",,,,,,,,,,,,,,,,,,,,,,,,,,,,,,,,,,,,,"MET10603/21/20 23:51:02 METAR KLGA 220451Z 03012KT 10SM SCT080 05/M11 A3045 RMK AO2 SLP310 T00501106 401830050 $","FM-15","7",,,,,,,,,,,,,,,,,,,,,,,,,,,,
"72503014732","2020-03-21T23:59:00","SOD  ","6",,,,,,,,,,,,,,,"21","53","37","30.27","30.24","38","13.2","0","9.4","12","65","41","320","33","0.00","0","0.0","330","25",,,,,,,,,,,,,,,,,,,,,,,,,,,,,,,,,,,,,,,,,,,,,,,,,,,,,,,,,"SOD74324 HR PRECIPITATION (IN): 0.00 SNOW DEPTH (IN):0     24 HR SNOWFALL (IN):0.0  24 HR MAX TEMP (F): 6524 HR MIN TEMP (F): 41AVERAGE STATION PRESSURE(D):30.245 MINIMUM SEA LEVEL PRESSURE:29.93 TIME OF OCCURRENCE:0001 PEAK WIND SPEED (MPH): 33 PEAK WIND DIR (DEG):320 PEAK WIND TIME (LST):      FASTEST 2MIN SPEED (MPH): 25FASTEST 2MIN DIR (DEG):330 FASTEST 2MIN TIME (LST):     AVERAGE WIND SPEED (MPH):13.2 24 HR AVG TEMP (F): 53DEPART FROM NORMAL:  9  HEATING DEGREE DAYS: 12 COOLING DEGREE DAYS:  0 LATEST DAY MAX TEMP (0700-1900 LST): 51 LATEST NIGHT MIN TEMP(1900-0800 LST):43 HOURLY INCREMENTAL PRECIPITATION VALUES (IN):0.00 0.00 0.00 0.00 0.00 0.00 0.00 0.00 0.00 0.00 0.00 0.00 0.00 0.00 0.00 0.00 0.00 0.00 0.00 0.00 0.00 0.00 0.00 0.00","SOD  ","6",,,,,,,,,,,,,,,,,,,,,,,,,"0556","1810",,
"72503014732","2020-03-22T00:51:00","FM-15","7",,,,,,,,,,,,,,,,,,,,,,,,,,,,,,,,,,,,,,"30.47","15","39","0.00",,"-0.03","3","38","30.46","SCT:04 80","30.44","10.00","31","360",,"11",,,,,,,,,,,,,,,,,,,,,,,,,,,,,,,,,,,,,"MET11903/22/20 00:51:02 METAR KLGA 220551Z 36010KT 10SM SCT080 04/M09 A3047 RMK AO2 SLP316 T00391094 10089 20039 53011 $ (WL)","FM-15","7",,,,,,,,,,,,,,,,,,,,,,,,,,,,
"72503014732","2020-03-22T01:00:00","FM-12","4",,,,,,,,,,,,,,,,,,,,,,,,,,,,,,,,,,,,,,,"15","39",,,"-0.03","3","38","30.46","74","30.43","9.94","31","360",,"11",,,,,,,,,,,,,,,,,,,,,,,,,,,,,,,,,,,,,"SYN08072503 32866 43610 10039 21094 30304 40316 53011 90551 333 10150 20039 555 92206=","FM-12","4",,,,,,,,,,,,,,,,,,,,,,,,,,,,
"72503014732","2020-03-22T01:51:00","FM-15","7",,,,,,,,,,,,,,,,,,,,,,,,,,,,,,,,,,,,,,"30.49","13","38","0.00",,,,"36","30.48","SCT:04 80","30.46","10.00","30","010",,"10",,,,,,,,,,,,,,,,,,,,,,,,,,,,,,,,,,,,,"MET10103/22/20 01:51:02 METAR KLGA 220651Z 01009KT 10SM SCT080 03/M11 A3049 RMK AO2 SLP323 T00331106 $ (WL)","FM-15","7",,,,,,,,,,,,,,,,,,,,,,,,,,,,
"72503014732","2020-03-22T02:51:00","FM-15","7",,,,,,,,,,,,,,,,,,,,,,,,,,,,,,,,,,,,,,"30.50","12","37","0.00",,,,"36","30.49","SCT:04 80","30.47","10.00","29","030",,"13",,,,,,,,,,,,,,,,,,,,,,,,,,,,,,,,,,,,,"MET10103/22/20 02:51:02 METAR KLGA 220751Z 03011KT 10SM SCT080 03/M11 A3050 RMK AO2 SLP326 T00281111 $ (WL)","FM-15","7",,,,,,,,,,,,,,,,,,,,,,,,,,,,
"72503014732","2020-03-22T03:51:00","FM-15","7",,,,,,,,,,,,,,,,,,,,,,,,,,,,,,,,,,,,,,"30.51","13","36","0.00",,"-0.04","1","39","30.51","SCT:04 80","30.48","10.00","29","020","22","15",,,,,,,,,,,,,,,,,,,,,,,,,,,,,,,,,,,,,"MET11003/22/20 03:51:02 METAR KLGA 220851Z 02013G19KT 10SM SCT080 02/M11 A3051 RMK AO2 SLP331 T00221106 51015 $ (WL)","FM-15","7",,,,,,,,,,,,,,,,,,,,,,,,,,,,
"72503014732","2020-03-22T04:00:00","FM-12","4",,,,,,,,,,,,,,,,,,,,,,,,,,,,,,,,,,,,,,,"13","36",,,"-0.04","1","39","30.51","74","30.47","9.94","29","020",,"15",,,,,,,,,,,,,,,,,,,,,,,,,,,,,,,,,,,,,"SYN07472503 32866 40213 10022 21106 30318 40331 51015 90851 333 91019 555 92209=","FM-12","4",,,,,,,,,,,,,,,,,,,,,,,,,,,,
"72503014732","2020-03-22T04:51:00","FM-15","7",,,,,,,,,,,,,,,,,,,,,,,,,,,,,,,,,,,,,,"30.55","13","35","0.00",,,,"40","30.55","BKN:07 39 BKN:07 80","30.52","10.00","28","020",,"17",,,,,,,,,,,,,,,,,,,,,,,,,,,,,,,,,,,,,"MET10803/22/20 04:51:02 METAR KLGA 220951Z 02015KT 10SM BKN039 BKN080 02/M11 A3055 RMK AO2 SLP344 T00171106 $ (WL)","FM-15","7",,,,,,,,,,,,,,,,,,,,,,,,,,,,
"72503014732","2020-03-22T05:51:00","FM-15","7",,,,,,,,,,,,,,,,,,,,,,,,,,,,,,,,,,,,,,"30.59","11","35","0.00",,,,"37","30.59","FEW:02 40 BKN:07 46 BKN:07 80","30.56","10.00","28","030","21","15",,,,,,,,,,,,,,,,,,,,,,,,,,,,,,,,,,,,,"MET11903/22/20 05:51:02 METAR KLGA 221051Z 03013G18KT 10SM FEW040 BKN046 BKN080 02/M12 A3059 RMK AO2 SLP358 T00171117 $ (ATK)","FM-15","7",,,,,,,,,,,,,,,,,,,,,,,,,,,,
"72503014732","2020-03-22T06:51:00","FM-15","7",,,,,,,,,,,,,,,,,,,,,,,,,,,,,,,,,,,,,,"30.62","11","36","0.00",,"-0.11","1","35","30.62","BKN:07 39 BKN:07 50 BKN:07 80","30.59","10.00","28","030",,"16",,,,,,,,,,,,,,,,,,,,,,,,,,,,,,,,,,,,,"MET13403/22/20 06:51:02 METAR KLGA 221151Z 03014KT 10SM BKN039 BKN050 BKN080 02/M12 A3062 RMK AO2 SLP369 T00221117 10039 20011 51038 $ (ATK)","FM-15","7",,,,,,,,,,,,,,,,,,,,,,,,,,,,
"72503014732","2020-03-22T07:00:00","FM-12","4",,,,,,,,,,,,,,,,,,,,,,,,,,,,,,,,,,,,,,,"11","36",,,"-0.11","1","35","30.62","41","30.58","9.94","28","030",,"16",,,,,,,,,,,,,,,,,,,,,,,,,,,,,,,,,,,,,"SYN08072503 32666 60314 10022 21117 30355 40369 51038 91151 333 10183 20011 555 92212=","FM-12","4",,,,,,,,,,,,,,,,,,,,,,,,,,,,
"72503014732","2020-03-22T07:51:00","FM-15","7",,,,,,,,,,,,,,,,,,,,,,,,,,,,,,,,,,,,,,"30.64","13","35","0.00",,,,"40","30.64","FEW:02 39 BKN:07 47 BKN:07 80","30.61","10.00","28","030","25","16",,,,,,,,,,,,,,,,,,,,,,,,,,,,,,,,,,,,,"MET11903/22/20 07:51:02 METAR KLGA 221251Z 03014G22KT 10SM FEW039 BKN047 BKN080 02/M11 A3064 RMK AO2 SLP376 T00171106 $ (ATK)","FM-15","7",,,,,,,,,,,,,,,,,,,,,,,,,,,,
"72503014732","2020-03-22T08:51:00","FM-15","7",,,,,,,,,,,,,,,,,,,,,,,,,,,,,,,,,,,,,,"30.67","9","36","0.00",,,,"32","30.66","BKN:07 43 BKN:07 80","30.64","10.00","28","050",,"14",,,,,,,,,,,,,,,,,,,,,,,,,,,,,,,,,,,,,"MET10903/22/20 08:51:02 METAR KLGA 221351Z 05012KT 10SM BKN043 BKN080 02/M13 A3067 RMK AO2 SLP384 T00221128 $ (ATK)","FM-15","7",,,,,,,,,,,,,,,,,,,,,,,,,,,,
"72503014732","2020-03-22T09:51:00","FM-15","7",,,,,,,,,,,,,,,,,,,,,,,,,,,,,,,,,,,,,,"30.68","11","36","0.00",,"-0.06","1","35","30.68","BKN:07 46 BKN:07 80","30.65","10.00","28","060",,"17",,,,,,,,,,,,,,,,,,,,,,,,,,,,,,,,,,,,,"MET11503/22/20 09:51:02 METAR KLGA 221451Z 06015KT 10SM BKN046 BKN080 02/M12 A3068 RMK AO2 SLP388 T00221117 51019 $ (ATK)","FM-15","7",,,,,,,,,,,,,,,,,,,,,,,,,,,,
"72503014732","2020-03-22T10:00:00","FM-12","4",,,,,,,,,,,,,,,,,,,,,,,,,,,,,,,,,,,,,,,"11","36",,,"-0.06","1","35","30.68","41","30.64","9.94","28","060",,"17",,,,,,,,,,,,,,,,,,,,,,,,,,,,,,,,,,,,,"SYN06472503 32666 60615 10022 21117 30375 40388 51019 91451 555 92215=","FM-12","4",,,,,,,,,,,,,,,,,,,,,,,,,,,,
"72503014732","2020-03-22T10:51:00","FM-15","7",,,,,,,,,,,,,,,,,,,,,,,,,,,,,,,,,,,,,,"30.68","15","38","0.00",,,,"39","30.68","BKN:07 50 BKN:07 80","30.65","10.00","30","050",,"15",,,,,,,,,,,,,,,,,,,,,,,,,,,,,,,,,,,,,"MET10903/22/20 10:51:02 METAR KLGA 221551Z 05013KT 10SM BKN050 BKN080 03/M09 A3068 RMK AO2 SLP389 T00331094 $ (ATK)","FM-15","7",,,,,,,,,,,,,,,,,,,,,,,,,,,,
"72503014732","2020-03-22T11:51:00","FM-15","7",,,,,,,,,,,,,,,,,,,,,,,,,,,,,,,,,,,,,,"30.70","12","39","0.00",,,,"33","30.70","BKN:07 50 BKN:07 80","30.67","10.00","30","060",,"15",,,,,,,,,,,,,,,,,,,,,,,,,,,,,,,,,,,,,"MET10903/22/20 11:51:02 METAR KLGA 221651Z 06013KT 10SM BKN050 BKN080 04/M11 A3070 RMK AO2 SLP395 T00391111 $ (ATK)","FM-15","7",,,,,,,,,,,,,,,,,,,,,,,,,,,,
"72503014732","2020-03-22T12:51:00","FM-15","7",,,,,,,,,,,,,,,,,,,,,,,,,,,,,,,,,,,,,,"30.69","12","41","0.00",,"-0.01","0","30","30.69","SCT:04 55 BKN:07 80","30.66","10.00","32","050",,"10",,,,,,,,,,,,,,,,,,,,,,,,,,,,,,,,,,,,,"MET12703/22/20 12:51:02 METAR KLGA 221751Z 05009KT 10SM SCT055 BKN080 05/M11 A3069 RMK AO2 SLP392 T00501111 10050 20011 50004 $ (ATK)","FM-15","7",,,,,,,,,,,,,,,,,,,,,,,,,,,,
"72503014732","2020-03-22T13:00:00","FM-12","4",,,,,,,,,,,,,,,,,,,,,,,,,,,,,,,,,,,,,,,"12","41",,,"0.01","9","30","30.69","57","30.65","9.94","32","050",,"10",,,,,,,,,,,,,,,,,,,,,,,,,,,,,,,,,,,,,"SYN08072503 32766 60509 10050 21111 30379 40392 50004 91751 333 10050 20011 555 92218=","FM-12","4",,,,,,,,,,,,,,,,,,,,,,,,,,,,
"72503014732","2020-03-22T13:51:00","FM-15","7",,,,,,,,,,,,,,,,,,,,,,,,,,,,,,,,,,,,,,"30.66","10","42","0.00",,,,"27","30.66","SCT:04 50 SCT:04 80 BKN:07 250","30.63","10.00","32","050",,"11",,,,,,,,,,,,,,,,,,,,,,,,,,,,,,,,,,,,,"MET11503/22/20 13:51:02 METAR KLGA 221851Z 05010KT 10SM SCT050 SCT080 BKN250 06/M12 A3066 RMK AO2 SLP381 T00561122 $ (TC)","FM-15","7",,,,,,,,,,,,,,,,,,,,,,,,,,,,
"72503014732","2020-03-22T14:51:00","FM-15","7",,,,,,,,,,,,,,,,,,,,,,,,,,,,,,,,,,,,,,"30.64","13","43","0.00",,,,"29","30.63","FEW:02 55 SCT:04 80 BKN:07 250","30.61","10.00","33","040",,"11",,,,,,,,,,,,,,,,,,,,,,,,,,,,,,,,,,,,,"MET11503/22/20 14:51:02 METAR KLGA 221951Z 04010KT 10SM FEW055 SCT080 BKN250 06/M11 A3064 RMK AO2 SLP374 T00611106 $ (TC)","FM-15","7",,,,,,,,,,,,,,,,,,,,,,,,,,,,
"72503014732","2020-03-22T15:51:00","FM-15","7",,,,,,,,,,,,,,,,,,,,,,,,,,,,,,,,,,,,,,"30.63","12","43","0.00",,"+0.06","6","28","30.63","FEW:02 50 SCT:04 80 BKN:07 250","30.60","10.00","33","030",,"6",,,,,,,,,,,,,,,,,,,,,,,,,,,,,,,,,,,,,"MET12103/22/20 15:51:02 METAR KLGA 222051Z 03005KT 10SM FEW050 SCT080 BKN250 06/M11 A3063 RMK AO2 SLP373 T00611111 56019 $ (TC)","FM-15","7",,,,,,,,,,,,,,,,,,,,,,,,,,,,
"72503014732","2020-03-22T16:00:00","FM-12","4",,,,,,,,,,,,,,,,,,,,,,,,,,,,,,,,,,,,,,,"12","43",,,"+0.06","6","28","30.63","57","30.59","9.94","33","030",,"6",,,,,,,,,,,,,,,,,,,,,,,,,,,,,,,,,,,,,"SYN06472503 32766 60305 10061 21111 30359 40373 56019 92051 555 92221=","FM-12","4",,,,,,,,,,,,,,,,,,,,,,,,,,,,
"72503014732","2020-03-22T16:51:00","FM-15","7",,,,,,,,,,,,,,,,,,,,,,,,,,,,,,,,,,,,,,"30.65","23","41","0.00",,,,"49","30.64","BKN:07 45 BKN:07 250","30.62","10.00","34","170",,"11",,,,,,,,,,,,,,,,,,,,,,,,,,,,,,,,,,,,,"MET10803/22/20 16:51:02 METAR KLGA 222151Z 17010KT 10SM BKN045 BKN250 05/M05 A3065 RMK AO2 SLP377 T00501050 $ (TC)","FM-15","7",,,,,,,,,,,,,,,,,,,,,,,,,,,,
"72503014732","2020-03-22T17:51:00","FM-15","7",,,,,,,,,,,,,,,,,,,,,,,,,,,,,,,,,,,,,,"30.66","23","39","0.00",,,,"53","30.66","BKN:07 45","30.63","10.00","33","140",,"13",,,,,,,,,,,,,,,,,,,,,,,,,,,,,,,,,,,,,"MET10103/22/20 17:51:02 METAR KLGA 222251Z 14011KT 10SM BKN045 04/M05 A3066 RMK AO2 SLP381 T00391050 $ (TC)","FM-15","7",,,,,,,,,,,,,,,,,,,,,,,,,,,,
"72503014732","2020-03-22T18:51:00","FM-15","7",,,,,,,,,,,,,,,,,,,,,,,,,,,,,,,,,,,,,,"30.67","21","38","0.00",,"-0.03","1","51","30.66","FEW:02 45 SCT:04 250","30.64","10.00","32","140",,"15",,,,,,,,,,,,,,,,,,,,,,,,,,,,,,,,,,,,,"MET12603/22/20 18:51:02 METAR KLGA 222351Z 14013KT 10SM FEW045 SCT250 03/M06 A3067 RMK AO2 SLP384 T00331061 10067 20033 51011 $ (TC)","FM-15","7",,,,,,,,,,,,,,,,,,,,,,,,,,,,
"72503014732","2020-03-22T19:00:00","FM-12","4",,,,,,,,,,,,,,,,,,,,,,,,,,,,,,,,,,,,,,,"21","38",,,"-0.03","1","51","30.66","41","30.63","9.94","32","140",,"15",,,,,,,,,,,,,,,,,,,,,,,,,,,,,,,,,,,,,"SYN08072503 32666 41413 10033 21061 30372 40384 51011 92351 333 10067 20011 555 92300=","FM-12","4",,,,,,,,,,,,,,,,,,,,,,,,,,,,
"72503014732","2020-03-22T19:51:00","FM-15","7",,,,,,,,,,,,,,,,,,,,,,,,,,,,,,,,,,,,,,"30.68","22","39","0.00",,,,"50","30.68","FEW:02 50 SCT:04 250","30.65","10.00","33","140","21","11",,,,,,,,,,,,,,,,,,,,,,,,,,,,,,,,,,,,,"MET10603/22/20 19:51:01 METAR KLGA 230051Z 14010G18KT 10SM FEW050 SCT250 04/M06 A3068 RMK AO2 SLP389 T00391056 $","FM-15","7",,,,,,,,,,,,,,,,,,,,,,,,,,,,
"72503014732","2020-03-22T20:51:00","FM-15","7",,,,,,,,,,,,,,,,,,,,,,,,,,,,,,,,,,,,,,"30.67","22","38","0.00",,,,"52","30.67","FEW:02 50 BKN:07 250","30.64","10.00","32","130",,"15",,,,,,,,,,,,,,,,,,,,,,,,,,,,,,,,,,,,,"MET10303/22/20 20:51:01 METAR KLGA 230151Z 13013KT 10SM FEW050 BKN250 03/M06 A3067 RMK AO2 SLP386 T00331056 $","FM-15","7",,,,,,,,,,,,,,,,,,,,,,,,,,,,
"72503014732","2020-03-22T21:51:00","FM-15","7",,,,,,,,,,,,,,,,,,,,,,,,,,,,,,,,,,,,,,"30.67","23","38","0.00",,"-0.01","1","55","30.67","CLR:00","30.64","10.00","33","120",,"15",,,,,,,,,,,,,,,,,,,,,,,,,,,,,,,,,,,,,"MET09903/22/20 21:51:01 METAR KLGA 230251Z 12013KT 10SM CLR 03/M05 A3067 RMK AO2 SLP386 T00331050 51002 $","FM-15","7",,,,,,,,,,,,,,,,,,,,,,,,,,,,
"72503014732","2020-03-22T22:00:00","FM-12","4",,,,,,,,,,,,,,,,,,,,,,,,,,,,,,,,,,,,,,,"23","38",,,"-0.01","1","55","30.67",,"30.63","9.94","33","120",,"15",,,,,,,,,,,,,,,,,,,,,,,,,,,,,,,,,,,,,"SYN06472503 32966 01213 10033 21050 30372 40386 51002 90251 555 92303=","FM-12","4",,,,,,,,,,,,,,,,,,,,,,,,,,,,
"72503014732","2020-03-22T22:51:00","FM-15","7",,,,,,,,,,,,,,,,,,,,,,,,,,,,,,,,,,,,,,"30.68","22","38","0.00",,,,"52","30.68","SCT:04 35 SCT:04 250","30.65","10.00","32","120",,"15",,,,,,,,,,,,,,,,,,,,,,,,,,,,,,,,,,,,,"MET10303/22/20 22:51:02 METAR KLGA 230351Z 12013KT 10SM SCT035 SCT250 03/M06 A3068 RMK AO2 SLP388 T00331056 $","FM-15","7",,,,,,,,,,,,,,,,,,,,,,,,,,,,
"72503014732","2020-03-22T23:51:00","FM-15","7",,,,,,,,,,,,,,,,,,,,,,,,,,,,,,,,,,,,,,"30.67","23","38","0.00",,,,"55","30.66","SCT:04 35 BKN:07 250","30.64","10.00","33","130",,"14",,,,,,,,,,,,,,,,,,,,,,,,,,,,,,,,,,,,,"MET11303/22/20 23:51:02 METAR KLGA 230451Z 13012KT 10SM SCT035 BKN250 03/M05 A3067 RMK AO2 SLP384 T00331050 400670011 $","FM-15","7",,,,,,,,,,,,,,,,,,,,,,,,,,,,
"72503014732","2020-03-22T23:59:00","SOD  ","6",,,,,,,,,,,,,,,"16","39","41","30.62","30.58","31","13.5","0","-4.9","26","44","34","050","25","0.00","0","0.0","050","21",,,,,,,,,,,,,,,,,,,,,,,,,,,,,,,,,,,,,,,,,,,,,,,,,,,,,,,,,"SOD73924 HR PRECIPITATION (IN): 0.00 SNOW DEPTH (IN):0     24 HR SNOWFALL (IN):0.0  24 HR MAX TEMP (F): 4424 HR MIN TEMP (F): 34AVERAGE STATION PRESSURE:30.575 MINIMUM SEA LEVEL PRESSURE:30.45 TIME OF OCCURRENCE:0021 PEAK WIND SPEED (MPH): 25 PEAK WIND DIR (DEG): 50 PEAK WIND TIME (LST):      FASTEST 2MIN SPEED (MPH): 21FASTEST 2MIN DIR (DEG): 50 FASTEST 2MIN TIME (LST):     AVERAGE WIND SPEED (MPH):13.5 24 HR AVG TEMP (F): 39DEPART FROM NORMAL: -5  HEATING DEGREE DAYS: 26 COOLING DEGREE DAYS:  0 LATEST DAY MAX TEMP (0700-1900 LST):44  LATEST NIGHT MIN TEMP(1900-0800 LST):34 HOURLY INCREMENTAL PRECIPITATION VALUES (IN):.00 0.00 0.00 0.00 0.00 0.00 0.00 0.00 0.00 0.00 0.00 0.00 0.00 0.00 0.00 0.00 0.00 0.00 0.00 0.00 0.00 0.00 0.00 0.00","SOD  ","6",,,,,,,,,,,,,,,,,,,,,,,,,"0554","1811",,
"72503014732","2020-03-23T00:51:00","FM-15","7",,,,,,,,,,,,,,,,,,,,,,,,,,,,,,,,,,,,,,"30.63","23","38","0.00",,"+0.04","8","55","30.63","SCT:04 35 BKN:07 250","30.60","10.00","33","110",,"16",,,,,,,,,,,,,,,,,,,,,,,,,,,,,,,,,,,,,"MET13403/23/20 00:51:02 METAR KLGA 230551Z 11014KT 10SM SCT035 BKN250 03/M05 A3063 RMK AO2 PRESFR SLP372 T00331050 10050 20033 58014 $ (TJC)","FM-15","7",,,,,,,,,,,,,,,,,,,,,,,,,,,,
"72503014732","2020-03-23T01:00:00","FM-12","4",,,,,,,,,,,,,,,,,,,,,,,,,,,,,,,,,,,,,,,"23","38",,,"+0.04","8","55","30.63","41","30.59","9.94","33","110",,"16",,,,,,,,,,,,,,,,,,,,,,,,,,,,,,,,,,,,,"SYN08072503 32666 61114 10033 21050 30359 40372 58014 90551 333 10050 20011 555 92306=","FM-12","4",,,,,,,,,,,,,,,,,,,,,,,,,,,,
"72503014732","2020-03-23T01:51:00","FM-15","7",,,,,,,,,,,,,,,,,,,,,,,,,,,,,,,,,,,,,,"30.62","23","38","0.00",,,,"55","30.62","SCT:04 35 OVC:08 110","30.59","10.00","33","110",,"13",,,,,,,,,,,,,,,,,,,,,,,,,,,,,,,,,,,,,"MET10903/23/20 01:51:02 METAR KLGA 230651Z 11011KT 10SM SCT035 OVC110 03/M05 A3062 RMK AO2 SLP368 T00331050 $ (TJC)","FM-15","7",,,,,,,,,,,,,,,,,,,,,,,,,,,,
"72503014732","2020-03-23T02:39:00","FM-16","7",,,,,,,,,,,,,,,,,,,,,,,,,,,,,,,,,,,,,,"30.58","25","38",,,,,"60",,"OVC:08 29","30.55","10.00","33","090",,"15",,,,,,,,,,,,,,,,,,,,,,,,,,,,,,,,,,,,,"MET09503/23/20 02:39:02 SPECI KLGA 230739Z 09013KT 10SM OVC029 03/M04 A3058 RMK AO2 T00331039 $ (TJC)","FM-16","7",,,,,,,,,,,,,,,,,,,,,,,,,,,,
"72503014732","2020-03-23T02:51:00","FM-15","7",,,,,,,,,,,,,,,,,,,,,,,,,,,,,,,,,,,,,,"30.58","25","38","0.00",,,,"60","30.58","OVC:08 28","30.55","10.00","33","100",,"16",,,,,,,,,,,,,,,,,,,,,,,,,,,,,,,,,,,,,"MET10203/23/20 02:51:02 METAR KLGA 230751Z 10014KT 10SM OVC028 03/M04 A3058 RMK AO2 SLP356 T00331039 $ (TJC)","FM-15","7",,,,,,,,,,,,,,,,,,,,,,,,,,,,
"72503014732","2020-03-23T03:51:00","FM-15","7",,,,,,,,,,,,,,,,,,,,,,,,,,,,,,,,,,,,,,"30.58","26","38","0.00",,"+0.05","6","62","30.58","OVC:08 27","30.55","10.00","33","110",,"15",,,,,,,,,,,,,,,,,,,,,,,,,,,,,,,,,,,,,"MET10803/23/20 03:51:02 METAR KLGA 230851Z 11013KT 10SM OVC027 03/M03 A3058 RMK AO2 SLP354 T00331033 56018 $ (TJC)","FM-15","7",,,,,,,,,,,,,,,,,,,,,,,,,,,,
"72503014732","2020-03-23T04:00:00","FM-12","4",,,,,,,,,,,,,,,,,,,,,,,,,,,,,,,,,,,,,,,"26","38",,,"+0.05","6","62","30.58","26","30.54","9.94","33","110",,"15",,,,,,,,,,,,,,,,,,,,,,,,,,,,,,,,,,,,,"SYN06472503 32566 81113 10033 21033 30342 40354 56018 90851 555 92309=","FM-12","4",,,,,,,,,,,,,,,,,,,,,,,,,,,,
"72503014732","2020-03-23T04:51:00","FM-15","7",,,,,,,,,,,,,,,,,,,,,,,,,,,,,,,,,,,,,,"30.54","27","38","T",,,,"65","30.54","BKN:07 26 BKN:07 39 OVC:08 65","30.51","10.00","34","100",,"16",,,,,,,,,,,,,,,,,,,,,,,,,,,,,,,,,,,,,"MET13103/23/20 04:51:02 METAR KLGA 230951Z 10014KT 10SM BKN026 BKN039 OVC065 03/M03 A3054 RMK AO2 RAB32E47 SLP342 P0000 T00331028 $ (TJC)","FM-15","7",,,,,,,,,,,,,,,,,,,,,,,,,,,,
"72503014732","2020-03-23T05:51:00","FM-15","7",,,,,,,,,,,,,,,,,,,,,,,,,,,,,,,,,,,,,,"30.53","28","38","T","-SN:03 |SN |",,,"68","30.53","OVC:08 24","30.50","7.00","34","090",,"14",,,,,,,,,,,,,,,,,,,,,,,,,,,,,,,,,,,,,"MET13103/23/20 05:51:02 METAR KLGA 231051Z 09012KT 7SM -SN OVC024 03/M02 A3053 RMK AO2 RAB12E50SNB11E12B50 SLP337 P0000 T00331022 $ (PAS)","FM-15","7",,,,,,,,,,,,,,,,,,,,,,,,,,,,
"72503014732","2020-03-23T06:51:00","FM-15","7",,,,,,,,,,,,,,,,,,,,,,,,,,,,,,,,,,,,,,"30.51","30","37","T","-RA:02 SN:03 |RA RA SN |RA","+0.07","6","76","30.50","OVC:08 21","30.48","5.00","34","090",,"15",,,,,,,,,,,,,,,,,,,,,,,,,,,,,,,,,,,,,"MET15203/23/20 06:51:02 METAR KLGA 231151Z 09013KT 5SM -RASN OVC021 03/M01 A3051 RMK AO2 RAB1057 SLP330 931000 P0000 60000 T00281011 10039 20028 56024 $ (PAS)","FM-15","7",,,,,,,,,,,,,,,,,,,,,,,,,,,,
"72503014732","2020-03-23T07:00:00","FM-12","4",,,,,,,,,,,,,,,,,,,,,,,,,,,,,,,,,,,,,,,"30","37",,,"+0.07","6","76","30.50","26","30.47","4.97","34","090",,"15",,,,,,,,,,,,,,,,,,,,,,,,,,,,,,,,,,,,,"SYN09872503 11558 80913 10028 21011 30318 40330 56024 69901 773// 91151 333 10067 20028 96073 555 92312=","FM-12","4",,,,,,,,,,,,,,,,,,,,,,,,,,,,
"72503014732","2020-03-23T07:41:00","FM-16","7",,,,,,,,,,,,,,,,,,,,,,,,,,,,,,,,,,,,,,"30.49","31","37","T","-RA:02 PL:06 SN:03 |RA RA SN |RA PL",,,"79",,"OVC:08 16","30.46","7.00","35","090",,"13",,,,,,,,,,,,,,,,,,,,,,,,,,,,,,,,,,,,,"MET11403/23/20 07:41:02 SPECI KLGA 231241Z 09011KT 7SM -RAPLSN OVC016 03/M01 A3049 RMK AO2 PLB39 P0000 T00281006 $ (PAS)","FM-16","7",,,,,,,,,,,,,,,,,,,,,,,,,,,,
"72503014732","2020-03-23T07:49:00","FM-16","6",,,,,,,,,,,,,,,,,,,,,,,,,,,,,,,,,,,,,,"30.49","30","37",,"-RA:02 SN:03 |RA SN |RA",,,"75",,"OVC:08 16","30.46","7.00","34","100",,"13",,,,,,,,,,,,,,,,,,,,,,,,,,,,,,,,,,,,,"MET11003/23/20 07:49:02 SPECI KLGA 231249Z 10011KT 7SM -RASN OVC016 03/M01 A3049 RMK AO2 PLB39E48 P0001 $ FIBI (PAS)","FM-16","6",,,,,,,,,,,,,,,,,,,,,,,,,,,,
"72503014732","2020-03-23T07:51:00","FM-15","7",,,,,,,,,,,,,,,,,,,,,,,,,,,,,,,,,,,,,,"30.49","31","37","0.01","-RA:02 SN:03 |RA RA SN |RA",,,"79","30.49","OVC:08 16","30.46","7.00","35","100",,"14",,,,,,,,,,,,,,,,,,,,,,,,,,,,,,,,,,,,,"MET12203/23/20 07:51:02 METAR KLGA 231251Z 10012KT 7SM -RASN OVC016 03/M01 A3049 RMK AO2 PLB39E48 SLP325 P0001 T00281006 $ (PAS)","FM-15","7",,,,,,,,,,,,,,,,,,,,,,,,,,,,
"72503014732","2020-03-23T08:51:00","FM-15","7",,,,,,,,,,,,,,,,,,,,,,,,,,,,,,,,,,,,,,"30.48","32","38","T","-RA:02 |RA |RA",,,"79","30.47","OVC:08 17","30.45","7.00","36","090",,"14",,,,,,,,,,,,,,,,,,,,,,,,,,,,,,,,,,,,,"MET11603/23/20 08:51:02 METAR KLGA 231351Z 09012KT 7SM -RA OVC017 03/00 A3048 RMK AO2 SNE10 SLP319 P0000 T00330000 $ (PAS)","FM-15","7",,,,,,,,,,,,,,,,,,,,,,,,,,,,
"72503014732","2020-03-23T09:36:00","FM-16","7",,,,,,,,,,,,,,,,,,,,,,,,,,,,,,,,,,,,,,"30.44","32","38","0.02","-RA:02 SN:03 |RA RA SN |RA",,,"79",,"FEW:02 9 OVC:08 13","30.41","3.00","36","080",,"16",,,,,,,,,,,,,,,,,,,,,,,,,,,,,,,,,,,,,"MET11203/23/20 09:36:02 SPECI KLGA 231436Z 08014KT 3SM -RASN FEW009 OVC013 03/00 A3044 RMK AO2 SNB35 P0002 T00330000 $","FM-16","7",,,,,,,,,,,,,,,,,,,,,,,,,,,,
"72503014732","2020-03-23T09:43:00","FM-16","7",,,,,,,,,,,,,,,,,,,,,,,,,,,,,,,,,,,,,,"30.44","32","37","0.02","-RA:02 PL:06 SN:03 |RA RA SN |RA PL",,,"82",,"FEW:02 9 OVC:08 13","30.41","2.50","35","090",,"15",,,,,,,,,,,,,,,,,,,,,,,,,,,,,,,,,,,,,"MET12303/23/20 09:43:02 SPECI KLGA 231443Z 09013KT 2 1/2SM -RAPLSN FEW009 OVC013 03/00 A3044 RMK AO2 SNB35PLB43 P0002 T00280000 $","FM-16","7",,,,,,,,,,,,,,,,,,,,,,,,,,,,
"72503014732","2020-03-23T09:45:00","FM-16","7",,,,,,,,,,,,,,,,,,,,,,,,,,,,,,,,,,,,,,"30.44","32","37","0.04","-RA:02 PL:06 SN:03 |RA RA SN |RA PL",,,"81",,"FEW:02 9 OVC:08 13","30.41","2.00","35","080",,"15",,,,,,,,,,,,,,,,,,,,,,,,,,,,,,,,,,,,,"MET13003/23/20 09:45:02 SPECI KLGA 231445Z 08013KT 2SM -RAPLSN FEW009 OVC013 03/00 A3044 RMK AO2 SFC VIS 2 1/2 SNB35PLB43 PRESFR P0004 $","FM-16","7",,,,,,,,,,,,,,,,,,,,,,,,,,,,
"72503014732","2020-03-23T09:51:00","FM-15","7",,,,,,,,,,,,,,,,,,,,,,,,,,,,,,,,,,,,,,"30.44","32","37","0.06","-RA:02 PL:06 |RA PL |RA PL","+0.05","5","82","30.44","FEW:02 9 OVC:08 13","30.41","3.00","35","080",,"13",,,,,,,,,,,,,,,,,,,,,,,,,,,,,,,,,,,,,"MET13903/23/20 09:51:02 METAR KLGA 231451Z 08011KT 3SM -RAPL FEW009 OVC013 03/00 A3044 RMK AO2 SNB35E51PLB43 SLP307 P0005 60006 T00280000 55017 $","FM-15","7",,,,,,,,,,,,,,,,,,,,,,,,,,,,
"72503014732","2020-03-23T10:00:00","FM-12","4",,,,,,,,,,,,,,,,,,,,,,,,,,,,,,,,,,,,,,,"32","37",,"||PL","+0.05","5","82","30.44","8","30.40","2.98","35","080",,"13",,,,,,,,,,,,,,,,,,,,,,,,,,,,,,,,,,,,,"SYN08672503 11348 80811 10028 20000 30294 40307 55017 60027 779// 91451 333 96079 555 92315=","FM-12","4",,,,,,,,,,,,,,,,,,,,,,,,,,,,
"72503014732","2020-03-23T10:13:00","FM-16","7",,,,,,,,,,,,,,,,,,,,,,,,,,,,,,,,,,,,,,"30.43","33","37","0.02","-RA:02 BR:1 |RA |RA",,,"86",,"FEW:02 9 OVC:08 12","30.40","3.00","35","070",,"14",,,,,,,,,,,,,,,,,,,,,,,,,,,,,,,,,,,,,"MET11303/23/20 10:13:02 SPECI KLGA 231513Z 07012KT 3SM -RA BR FEW009 OVC012 03/01 A3043 RMK AO2 PLE10 P0002 T00280006 $","FM-16","7",,,,,,,,,,,,,,,,,,,,,,,,,,,,
"72503014732","2020-03-23T10:36:00","FM-16","7",,,,,,,,,,,,,,,,,,,,,,,,,,,,,,,,,,,,,,"30.41","33","37","0.04","-RA:02 PL:06 BR:1 |RA PL |RA PL",,,"86",,"FEW:02 8 OVC:08 12","30.38","4.00","35","070",,"14",,,,,,,,,,,,,,,,,,,,,,,,,,,,,,,,,,,,,"MET11803/23/20 10:36:02 SPECI KLGA 231536Z 07012KT 4SM -RAPL BR FEW008 OVC012 03/01 A3041 RMK AO2 PLE10B32 P0004 T00280006 $","FM-16","7",,,,,,,,,,,,,,,,,,,,,,,,,,,,
"72503014732","2020-03-23T10:51:00","FM-15","7",,,,,,,,,,,,,,,,,,,,,,,,,,,,,,,,,,,,,,"30.39","33","37","0.06","-RA:02 PL:06 BR:1 |RA PL |RA PL",,,"86","30.39","FEW:02 8 OVC:08 10","30.36","3.00","35","070",,"15",,,,,,,,,,,,,,,,,,,,,,,,,,,,,,,,,,,,,"MET13203/23/20 10:51:02 METAR KLGA 231551Z 07013KT 3SM -RAPL BR FEW008 OVC010 03/01 A3039 RMK AO2 PLE10B32 PRESFR SLP290 P0006 T00280006 $","FM-15","7",,,,,,,,,,,,,,,,,,,,,,,,,,,,
"72503014732","2020-03-23T11:18:00","FM-16","7",,,,,,,,,,,,,,,,,,,,,,,,,,,,,,,,,,,,,,"30.37","33","38","0.03","-RA:02 SN:03 PL:06 |RA RA SN |RA PL",,,"83",,"BKN:07 8 OVC:08 10","30.34","8.00","36","060",,"14",,,,,,,,,,,,,,,,,,,,,,,,,,,,,,,,,,,,,"MET11403/23/20 11:18:02 SPECI KLGA 231618Z 06012KT 8SM -RASNPL BKN008 OVC010 03/01 A3037 RMK AO2 SNB15 P0003 T00330006 $","FM-16","7",,,,,,,,,,,,,,,,,,,,,,,,,,,,
"72503014732","2020-03-23T11:30:00","FM-16","7",,,,,,,,,,,,,,,,,,,,,,,,,,,,,,,,,,,,,,"30.36","34","38","0.04","-RA:02 |RA |RA",,,"86",,"SCT:04 8 OVC:08 10","30.33","9.00","36","070",,"14",,,,,,,,,,,,,,,,,,,,,,,,,,,,,,,,,,,,,"MET11803/23/20 11:30:02 SPECI KLGA 231630Z 07012KT 9SM -RA SCT008 OVC010 03/01 A3036 RMK AO2 SNB15E29PLE29 P0004 T00330011 $","FM-16","7",,,,,,,,,,,,,,,,,,,,,,,,,,,,
"72503014732","2020-03-23T11:51:00","FM-15","7",,,,,,,,,,,,,,,,,,,,,,,,,,,,,,,,,,,,,,"30.33","34","38","0.08","-RA:02 BR:1 |RA |RA",,,"86","30.32","SCT:04 8 OVC:08 10","30.30","5.00","36","070",,"17",,,,,,,,,,,,,,,,,,,,,,,,,,,,,,,,,,,,,"MET12803/23/20 11:51:02 METAR KLGA 231651Z 07015KT 5SM -RA BR SCT008 OVC010 03/01 A3033 RMK AO2 SNB15E29PLE29 SLP268 P0007 T00330011 $","FM-15","7",,,,,,,,,,,,,,,,,,,,,,,,,,,,
"72503014732","2020-03-23T12:17:00","FM-16","7",,,,,,,,,,,,,,,,,,,,,,,,,,,,,,,,,,,,,,"30.28","34","38","0.03","-RA:02 |RA |RA",,,"86",,"FEW:02 7 OVC:08 9","30.25","7.00","36","060",,"20",,,,,,,,,,,,,,,,,,,,,,,,,,,,,,,,,,,,,"MET11103/23/20 12:17:02 SPECI KLGA 231717Z 06017KT 7SM -RA FEW007 OVC009 03/01 A3028 RMK AO2 PRESFR P0003 T00330011 $","FM-16","7",,,,,,,,,,,,,,,,,,,,,,,,,,,,
"72503014732","2020-03-23T12:51:00","FM-15","7",,,,,,,,,,,,,,,,,,,,,,,,,,,,,,,,,,,,,,"30.24","35","39","0.08","RA:02 BR:1 |RA |RA","+0.20","8","86","30.24","FEW:02 7 OVC:08 9","30.21","3.00","37","060",,"16",,,,,,,,,,,,,,,,,,,,,,,,,,,,,,,,,,,,,"MET15103/23/20 12:51:02 METAR KLGA 231751Z 06014KT 3SM RA BR FEW007 OVC009 04/02 A3024 RMK AO2 PRESFR SLP240 931000 P0008 60027 T00390017 10039 20028 58067 $","FM-15","7",,,,,,,,,,,,,,,,,,,,,,,,,,,,
"72503014732","2020-03-23T13:00:00","FM-12","4",,,,,,,,,,,,,,,,,,,,,,,,,,,,,,,,,,,,,,,"35","39",,"||RA","+0.20","8","86","30.24","8","30.20","2.98","37","060",,"16",,,,,,,,,,,,,,,,,,,,,,,,,,,,,,,,,,,,,"SYN09872503 11348 80614 10039 20017 30227 40240 58067 60071 763// 91751 333 10039 20028 96010 555 92318=","FM-12","4",,,,,,,,,,,,,,,,,,,,,,,,,,,,
"72503014732","2020-03-23T13:01:00","FM-16","7",,,,,,,,,,,,,,,,,,,,,,,,,,,,,,,,,,,,,,"30.23","35","39","0.03","RA:02 BR:1 |RA |RA",,,"86",,"OVC:08 10","30.20","3.00","37","070",,"16",,,,,,,,,,,,,,,,,,,,,,,,,,,,,,,,,,,,,"MET10603/23/20 13:01:02 SPECI KLGA 231801Z 07014KT 3SM RA BR OVC010 04/02 A3023 RMK AO2 PRESFR P0003 T00390017 $","FM-16","7",,,,,,,,,,,,,,,,,,,,,,,,,,,,
"72503014732","2020-03-23T13:51:00","FM-15","7",,,,,,,,,,,,,,,,,,,,,,,,,,,,,,,,,,,,,,"30.18","36","40","0.14","RA:02 BR:1 |RA |RA",,,"86","30.17","OVC:08 10","30.15","3.00","38","070",,"16",,,,,,,,,,,,,,,,,,,,,,,,,,,,,,,,,,,,,"MET13003/23/20 13:51:02 METAR KLGA 231851Z 07014KT 3SM R04/6000VP6000FT RA BR OVC010 04/02 A3018 RMK AO2 PRESFR SLP218 P0014 T00440022 $","FM-15","7",,,,,,,,,,,,,,,,,,,,,,,,,,,,
"72503014732","2020-03-23T14:51:00","FM-15","7",,,,,,,,,,,,,,,,,,,,,,,,,,,,,,,,,,,,,,"30.12","37","41","0.12","RA:02 BR:1 |RA |RA",,,"86","30.12","BKN:07 10 OVC:08 14","30.09","3.00","39","070",,"14",,,,,,,,,,,,,,,,,,,,,,,,,,,,,,,,,,,,,"MET13003/23/20 14:51:02 METAR KLGA 231951Z 07012KT 3SM R04/5000VP6000FT RA BR BKN010 OVC014 05/03 A3012 RMK AO2 SLP199 P0011 T00500028 $","FM-15","7",,,,,,,,,,,,,,,,,,,,,,,,,,,,
"72503014732","2020-03-23T14:59:00","FM-16","7",,,,,,,,,,,,,,,,,,,,,,,,,,,,,,,,,,,,,,"30.11","37","41","0.03","RA:02 BR:1 |RA |RA",,,"86",,"BKN:07 8 OVC:08 13","30.08","3.00","39","060",,"11",,,,,,,,,,,,,,,,,,,,,,,,,,,,,,,,,,,,,"MET12303/23/20 14:59:02 SPECI KLGA 231959Z 06010KT 3SM R04/5000VP6000FT RA BR BKN008 OVC013 05/03 A3011 RMK AO2 P0003 T00500028 $","FM-16","7",,,,,,,,,,,,,,,,,,,,,,,,,,,,
"72503014732","2020-03-23T15:51:00","FM-15","7",,,,,,,,,,,,,,,,,,,,,,,,,,,,,,,,,,,,,,"30.07","38","41","0.30","+RA:02 BR:1 |RA |RA","+0.17","6","89","30.07","BKN:07 8 OVC:08 13","30.04","3.00","40","050",,"11",,,,,,,,,,,,,,,,,,,,,,,,,,,,,,,,,,,,,"MET14303/23/20 15:51:02 METAR KLGA 232051Z 05010KT 3SM R04/5000VP6000FT +RA BR BKN008 OVC013 05/03 A3007 RMK AO2 SLP183 P0027 60052 T00500033 56057 $","FM-15","7",,,,,,,,,,,,,,,,,,,,,,,,,,,,
"72503014732","2020-03-23T15:55:00","FM-16","7",,,,,,,,,,,,,,,,,,,,,,,,,,,,,,,,,,,,,,"30.06","38","41","0.04","+RA:02 BR:1 |RA |RA",,,"89",,"BKN:07 7 OVC:08 12","30.03","2.00","40","050",,"11",,,,,,,,,,,,,,,,,,,,,,,,,,,,,,,,,,,,,"MET12403/23/20 15:55:02 SPECI KLGA 232055Z 05010KT 2SM R04/5000VP6000FT +RA BR BKN007 OVC012 05/03 A3006 RMK AO2 P0004 T00500033 $","FM-16","7",,,,,,,,,,,,,,,,,,,,,,,,,,,,
"72503014732","2020-03-23T16:00:00","FM-12","4",,,,,,,,,,,,,,,,,,,,,,,,,,,,,,,,,,,,,,,"38","41",,"||RA","+0.17","6","89","30.07","8","30.03","2.98","40","050",,"11",,,,,,,,,,,,,,,,,,,,,,,,,,,,,,,,,,,,,"SYN08672503 11348 80510 10050 20033 30169 40183 56057 60137 765// 92051 333 96010 555 92321=","FM-12","4",,,,,,,,,,,,,,,,,,,,,,,,,,,,
"72503014732","2020-03-23T16:49:00","FM-16","7",,,,,,,,,,,,,,,,,,,,,,,,,,,,,,,,,,,,,,"30.01","37","41","0.28","+RA:02 BR:1 |RA |RA",,,"87",,"SCT:04 8 OVC:08 13","29.98","2.00","39","040",,"15",,,,,,,,,,,,,,,,,,,,,,,,,,,,,,,,,,,,,"MET12903/23/20 16:49:02 SPECI KLGA 232149Z 04013KT 2SM R04/4000VP6000FT +RA BR SCT008 OVC013 05/03 A3001 RMK AO2 CIG 008 R22 SW P0028 $","FM-16","7",,,,,,,,,,,,,,,,,,,,,,,,,,,,
"72503014732","2020-03-23T16:50:00","FM-15","7",,,,,,,,,,,,,,,,,,,,,,,,,,,,,,,,,,,,,,"30.01","38","42","0.28","+RA:02 BR:1 |RA |RA",,,"85","30.01","BKN:07 8 OVC:08 13","29.98","2.00","40","040",,"16",,,,,,,,,,,,,,,,,,,,,,,,,,,,,,,,,,,,,"MET13103/23/20 16:50:02 METAR KLGA 232150Z 04014KT 2SM R04/4000VP6000FT +RA BR BKN008 OVC013 06/03 A3001 RMK AO2 SLP162 P0028 T00560033 $","FM-15","7",,,,,,,,,,,,,,,,,,,,,,,,,,,,
"72503014732","2020-03-23T16:52:00","FM-16","7",,,,,,,,,,,,,,,,,,,,,,,,,,,,,,,,,,,,,,"30.01","38","42","0.01","+RA:02 BR:1 |RA |RA",,,"85",,"SCT:04 8 OVC:08 13","29.98","2.00","40","040",,"14",,,,,,,,,,,,,,,,,,,,,,,,,,,,,,,,,,,,,"MET12403/23/20 16:52:02 SPECI KLGA 232152Z 04012KT 2SM R04/4000VP6000FT +RA BR SCT008 OVC013 06/03 A3001 RMK AO2 P0001 T00560033 $","FM-16","7",,,,,,,,,,,,,,,,,,,,,,,,,,,,
"72503014732","2020-03-23T17:00:00","FM-16","7",,,,,,,,,,,,,,,,,,,,,,,,,,,,,,,,,,,,,,"30.01","38","42","0.06","RA:02 BR:1 |RA |RA",,,"85",,"BKN:07 8 OVC:08 13","29.98","2.00","40","040",,"14",,,,,,,,,,,,,,,,,,,,,,,,,,,,,,,,,,,,,"MET12303/23/20 17:00:02 SPECI KLGA 232200Z 04012KT 2SM R04/5500VP6000FT RA BR BKN008 OVC013 06/03 A3001 RMK AO2 P0006 T00560033 $","FM-16","7",,,,,,,,,,,,,,,,,,,,,,,,,,,,
"72503014732","2020-03-23T17:11:00","FM-16","7",,,,,,,,,,,,,,,,,,,,,,,,,,,,,,,,,,,,,,"30.00","39","42","0.08","RA:02 BR:1 |RA |RA",,,"89",,"BKN:07 6 BKN:07 12 OVC:08 27","29.97","2.00","41","030",,"15",,,,,,,,,,,,,,,,,,,,,,,,,,,,,,,,,,,,,"MET11303/23/20 17:11:02 SPECI KLGA 232211Z 03013KT 2SM RA BR BKN006 BKN012 OVC027 06/04 A3000 RMK AO2 P0008 T00560039 $","FM-16","7",,,,,,,,,,,,,,,,,,,,,,,,,,,,
"72503014732","2020-03-23T17:21:00","FM-16","7",,,,,,,,,,,,,,,,,,,,,,,,,,,,,,,,,,,,,,"30.00","39","42","0.11","RA:02 BR:1 |RA |RA",,,"89",,"BKN:07 7 OVC:08 26","29.97","2.00","41","020",,"14",,,,,,,,,,,,,,,,,,,,,,,,,,,,,,,,,,,,,"MET10603/23/20 17:21:02 SPECI KLGA 232221Z 02012KT 2SM RA BR BKN007 OVC026 06/04 A3000 RMK AO2 P0011 T00560039 $","FM-16","7",,,,,,,,,,,,,,,,,,,,,,,,,,,,
"72503014732","2020-03-23T17:40:00","FM-16","7",,,,,,,,,,,,,,,,,,,,,,,,,,,,,,,,,,,,,,"29.99","39","42","0.14","-RA:02 BR:1 |RA |RA",,,"89",,"BKN:07 6 OVC:08 18","29.96","3.00","41","030","25","17",,,,,,,,,,,,,,,,,,,,,,,,,,,,,,,,,,,,,"MET11003/23/20 17:40:02 SPECI KLGA 232240Z 03015G22KT 3SM -RA BR BKN006 OVC018 06/04 A2999 RMK AO2 P0014 T00560039 $","FM-16","7",,,,,,,,,,,,,,,,,,,,,,,,,,,,
"72503014732","2020-03-23T17:51:00","FM-15","7",,,,,,,,,,,,,,,,,,,,,,,,,,,,,,,,,,,,,,"30.03","39","42","0.16","RA:02 BR:1 |RA |RA",,,"89","30.03","BKN:07 6 OVC:08 18","30.00","3.00","41","330","23","14",,,,,,,,,,,,,,,,,,,,,,,,,,,,,,,,,,,,,"MET12303/23/20 17:51:02 METAR KLGA 232251Z 33012G20KT 3SM RA BR BKN006 OVC018 06/04 A3003 RMK AO2 PRESRR SLP168 P0018 T00560039 $","FM-15","7",,,,,,,,,,,,,,,,,,,,,,,,,,,,
"72503014732","2020-03-23T17:59:00","FM-16","7",,,,,,,,,,,,,,,,,,,,,,,,,,,,,,,,,,,,,,"30.04","39","42","0.04","+RA:02 BR:1 |RA |RA",,,"89",,"BKN:07 6 OVC:08 12","30.01","1.00","41","340",,"14",,,,,,,,,,,,,,,,,,,,,,,,,,,,,,,,,,,,,"MET14503/23/20 17:59:02 SPECI KLGA 232259Z 34012KT 1SM R04/5000VP6000FT +RA BR BKN006 OVC012 06/04 A3004 RMK AO2 WSHFT 2242 SFC VIS 2 P0004 T00560039 $","FM-16","7",,,,,,,,,,,,,,,,,,,,,,,,,,,,
"72503014732","2020-03-23T18:11:00","FM-16","7",,,,,,,,,,,,,,,,,,,,,,,,,,,,,,,,,,,,,,"30.05","38","41","0.15","RA:02 BR:1 |RA |RA",,,"89",,"BKN:07 8 OVC:08 18","30.02","1.00","40","350",,"14",,,,,,,,,,,,,,,,,,,,,,,,,,,,,,,,,,,,,"MET14403/23/20 18:11:02 SPECI KLGA 232311Z 35012KT 1SM R04/6000VP6000FT RA BR BKN008 OVC018 05/03 A3005 RMK AO2 WSHFT 2242 SFC VIS 2 P0015 T00500033 $","FM-16","7",,,,,,,,,,,,,,,,,,,,,,,,,,,,
"72503014732","2020-03-23T18:25:00","FM-16","7",,,,,,,,,,,,,,,,,,,,,,,,,,,,,,,,,,,,,,"30.03","37","41","0.18","RA:02 BR:1 |RA |RA",,,"86",,"SCT:04 8 BKN:07 16 OVC:08 24","30.00","1.00","39","340",,"15",,,,,,,,,,,,,,,,,,,,,,,,,,,,,,,,,,,,,"MET14603/23/20 18:25:02 SPECI KLGA 232325Z 34013KT 1SM R04/P6000FT RA BR SCT008 BKN016 OVC024 05/03 A3003 RMK AO2 WSHFT 2242 SFC VIS 2 P0018 T00500028 $","FM-16","7",,,,,,,,,,,,,,,,,,,,,,,,,,,,
"72503014732","2020-03-23T18:33:00","FM-16","7",,,,,,,,,,,,,,,,,,,,,,,,,,,,,,,,,,,,,,"30.01","37","40","0.19","-RA:02 BR:1 |RA |RA",,,"89",,"BKN:07 8 BKN:07 16 OVC:08 26","29.98","1.00","39","360",,"16",,,,,,,,,,,,,,,,,,,,,,,,,,,,,,,,,,,,,"MET15403/23/20 18:33:02 SPECI KLGA 232333Z 36014KT 1SM R04/P6000FT -RA BR BKN008 BKN016 OVC026 04/03 A3001 RMK AO2 WSHFT 2242 SFC VIS 2 PRESFR P0019 T00440028 $","FM-16","7",,,,,,,,,,,,,,,,,,,,,,,,,,,,
"72503014732","2020-03-23T18:38:00","FM-16","7",,,,,,,,,,,,,,,,,,,,,,,,,,,,,,,,,,,,,,"30.00","36","40","0.19","-RA:02 BR:1 |RA |RA",,,"86",,"SCT:04 8 BKN:07 18 OVC:08 26","29.97","5.00","38","360",,"20",,,,,,,,,,,,,,,,,,,,,,,,,,,,,,,,,,,,,"MET13203/23/20 18:38:02 SPECI KLGA 232338Z 36017KT 5SM -RA BR SCT008 BKN018 OVC026 04/02 A3000 RMK AO2 WSHFT 2242 PRESFR P0019 T00440022 $","FM-16","7",,,,,,,,,,,,,,,,,,,,,,,,,,,,
"72503014732","2020-03-23T18:51:00","FM-15","7",,,,,,,,,,,,,,,,,,,,,,,,,,,,,,,,,,,,,,"29.98","35","39","0.15","-RA:02 BR:1 |RA |RA","+0.10","6","86","29.97","SCT:04 8 BKN:07 20 OVC:08 120","29.95","5.00","37","010","24","16",,,,,,,,,,,,,,,,,,,,,,,,,,,,,,,,,,,,,"MET16603/23/20 18:51:02 METAR KLGA 232351Z 01014G21KT 5SM -RA BR SCT008 BKN020 OVC120 04/02 A2998 RMK AO2 WSHFT 2242 PRESFR SLP150 P0019 60117 T00390017 10056 20039 56033 $","FM-15","7",,,,,,,,,,,,,,,,,,,,,,,,,,,,
"72503014732","2020-03-23T19:00:00","FM-12","4",,,,,,,,,,,,,,,,,,,,,,,,,,,,,,,,,,,,,,,"35","39",,"||RA","+0.10","6","86","29.97","8","29.94","4.97","37","010",,"16",,,,,,,,,,,,,,,,,,,,,,,,,,,,,,,,,,,,,"SYN10472503 11358 80114 10039 20017 30139 40150 56033 60301 761// 92351 333 10056 20028 91021 96010 555 92400=","FM-12","4",,,,,,,,,,,,,,,,,,,,,,,,,,,,
"72503014732","2020-03-23T19:06:00","FM-16","7",,,,,,,,,,,,,,,,,,,,,,,,,,,,,,,,,,,,,,"29.95","35","38","T",,,,"89",,"FEW:02 8 SCT:04 19 BKN:07 33","29.92","10.00","37","030","26","16",,,,,,,,,,,,,,,,,,,,,,,,,,,,,,,,,,,,,"MET12403/23/20 19:06:01 SPECI KLGA 240006Z 03014G23KT 10SM FEW008 SCT019 BKN033 03/02 A2995 RMK AO2 RAE05 PRESFR P0000 T00330017 $","FM-16","7",,,,,,,,,,,,,,,,,,,,,,,,,,,,
"72503014732","2020-03-23T19:29:00","FM-16","7",,,,,,,,,,,,,,,,,,,,,,,,,,,,,,,,,,,,,,"29.98","34","39","T",,,,"82",,"FEW:02 11 BKN:07 18 OVC:08 34","29.95","10.00","37","360","22","13",,,,,,,,,,,,,,,,,,,,,,,,,,,,,,,,,,,,,"MET11703/23/20 19:29:01 SPECI KLGA 240029Z 36011G19KT 10SM FEW011 BKN018 OVC034 04/01 A2998 RMK AO2 RAE05 P0000 T00390011 $","FM-16","7",,,,,,,,,,,,,,,,,,,,,,,,,,,,
"72503014732","2020-03-23T19:51:00","FM-15","7",,,,,,,,,,,,,,,,,,,,,,,,,,,,,,,,,,,,,,"29.97","34","39","T",,,,"82","29.96","OVC:08 19","29.94","10.00","37","350",,"14",,,,,,,,,,,,,,,,,,,,,,,,,,,,,,,,,,,,,"MET10703/23/20 19:51:01 METAR KLGA 240051Z 35012KT 10SM OVC019 04/01 A2997 RMK AO2 RAE05 SLP147 P0000 T00390011 $","FM-15","7",,,,,,,,,,,,,,,,,,,,,,,,,,,,
"72503014732","2020-03-23T20:51:00","FM-15","7",,,,,,,,,,,,,,,,,,,,,,,,,,,,,,,,,,,,,,"29.96","34","39","0.00",,,,"82","29.96","OVC:08 20","29.93","10.00","37","340","21","14",,,,,,,,,,,,,,,,,,,,,,,,,,,,,,,,,,,,,"MET09803/23/20 20:51:01 METAR KLGA 240151Z 34012G18KT 10SM OVC020 04/01 A2996 RMK AO2 SLP146 T00390011 $","FM-15","7",,,,,,,,,,,,,,,,,,,,,,,,,,,,
"72503014732","2020-03-23T21:51:00","FM-15","7",,,,,,,,,,,,,,,,,,,,,,,,,,,,,,,,,,,,,,"29.97","33","39","0.00",,"+0.00","5","79","29.97","FEW:02 14 OVC:08 21","29.94","10.00","37","350",,"11",,,,,,,,,,,,,,,,,,,,,,,,,,,,,,,,,,,,,"MET11403/23/20 21:51:01 METAR KLGA 240251Z 35010KT 10SM FEW014 OVC021 04/01 A2997 RMK AO2 SLP149 60000 T00390006 55001 $","FM-15","7",,,,,,,,,,,,,,,,,,,,,,,,,,,,
"72503014732","2020-03-23T22:00:00","FM-12","4",,,,,,,,,,,,,,,,,,,,,,,,,,,,,,,,,,,,,,,"33","39",,,"+0.00","5","79","29.97","15","29.93","9.94","37","350",,"11",,,,,,,,,,,,,,,,,,,,,,,,,,,,,,,,,,,,,"SYN07072503 12466 83510 10039 20006 30135 40149 55001 69907 90251 555 92403=","FM-12","4",,,,,,,,,,,,,,,,,,,,,,,,,,,,
"72503014732","2020-03-23T22:51:00","FM-15","7",,,,,,,,,,,,,,,,,,,,,,,,,,,,,,,,,,,,,,"29.98","33","39","0.00",,,,"79","29.98","SCT:04 12 OVC:08 22","29.95","10.00","37","330",,"15",,,,,,,,,,,,,,,,,,,,,,,,,,,,,,,,,,,,,"MET10203/23/20 22:51:01 METAR KLGA 240351Z 33013KT 10SM SCT012 OVC022 04/01 A2998 RMK AO2 SLP151 T00390006 $","FM-15","7",,,,,,,,,,,,,,,,,,,,,,,,,,,,
"72503014732","2020-03-23T23:51:00","FM-15","7",,,,,,,,,,,,,,,,,,,,,,,,,,,,,,,,,,,,,,"29.99","32","39","0.00",,,,"76","29.99","SCT:04 12 OVC:08 24","29.96","10.00","36","320",,"15",,,,,,,,,,,,,,,,,,,,,,,,,,,,,,,,,,,,,"MET11203/23/20 23:51:01 METAR KLGA 240451Z 32013KT 10SM SCT012 OVC024 04/00 A2999 RMK AO2 SLP155 T00390000 400560028 $","FM-15","7",,,,,,,,,,,,,,,,,,,,,,,,,,,,
"72503014732","2020-03-23T23:59:00","SOD  ","6",,,,,,,,,,,,,,,"32","40","78","30.27","30.20","36","14.6","0","-4.3","25","42","37","030","27","1.44","0","T","100","21","RA SN PL BR",,,,,,,,,,,,,,,,,,,,,,,,,,,,,,,,,,,,,,,,,,,,,,,,,,,,,,,,"SOD78924 HR PRECIPITATION (IN): 1.44 SNOW DEPTH (IN):0     24 HR SNOWFALL (IN):T    WEATHER(CODE):148  24 HR MAX TEMP (F): 4224 HR MIN TEMP (F): 37AVERAGE STATION PRESSURE(D):30.200 MINIMUM SEA LEVEL PRESSURE:29.95 TIME OF OCCURRENCE:1908 PEAK WIND SPEED (MPH): 27 PEAK WIND DIR (DEG): 30 PEAK WIND TIME (LST):      FASTEST 2MIN SPEED (MPH): 21FASTEST 2MIN DIR (DEG):100 FASTEST 2MIN TIME (LST):     AVERAGE WIND SPEED (MPH):14.6 24 HR AVG TEMP (F): 40DEPART FROM NORMAL: -4  SKY COVER SR-SS (TENTHS): 1HEATING DEGREE DAYS: 25 COOLING DEGREE DAYS:  0 LATEST DAY MAX TEMP (0700-1900 LST): 42 LATEST NIGHT MIN TEMP(1900-0800 LST):37 HOURLY INCREMENTAL PRECIPITATION VALUES (IN):0.00 0.00 0.00 0.00T    T    T     0.01T     0.06 0.06 0.08 0.08 0.14 0.12 0.30 0.28 0.16 0.15T     0.00 0.00 0.00 0.00","SOD  ","6",,,,,,,,,,,,,,,,,,,,,,,,,"0553","1812",,
"72503014732","2020-03-24T00:27:00","FM-16","7",,,,,,,,,,,,,,,,,,,,,,,,,,,,,,,,,,,,,,"29.99","32","39",,,,,"76",,"FEW:02 12 SCT:04 23 BKN:07 30","29.96","10.00","36","330",,"15",,,,,,,,,,,,,,,,,,,,,,,,,,,,,,,,,,,,,"MET10703/24/20 00:27:02 SPECI KLGA 240527Z 33013KT 10SM FEW012 SCT023 BKN030 04/00 A2999 RMK AO2 T00390000 $ (RZ)","FM-16","7",,,,,,,,,,,,,,,,,,,,,,,,,,,,
"72503014732","2020-03-24T00:51:00","FM-15","7",,,,,,,,,,,,,,,,,,,,,,,,,,,,,,,,,,,,,,"30.00","32","39","0.00",,"-0.03","3","76","30.00","FEW:02 12 SCT:04 23 BKN:07 33","29.97","10.00","36","330",,"14",,,,,,,,,,,,,,,,,,,,,,,,,,,,,,,,,,,,,"MET13803/24/20 00:51:02 METAR KLGA 240551Z 33012KT 10SM FEW012 SCT023 BKN033 04/00 A3000 RMK AO2 SLP159 60000 T00390000 10039 20033 53010 $ (RZ)","FM-15","7",,,,,,,,,,,,,,,,,,,,,,,,,,,,
"72503014732","2020-03-24T01:00:00","FM-12","4",,,,,,,,,,,,,,,,,,,,,,,,,,,,,,,,,,,,,,,"32","39",,,"-0.03","3","76","30.00","15","29.96","9.94","36","330",,"14",,,,,,,,,,,,,,,,,,,,,,,,,,,,,,,,,,,,,"SYN08672503 12466 63312 10039 20000 30145 40159 53010 69901 90551 333 10039 20028 555 92406=","FM-12","4",,,,,,,,,,,,,,,,,,,,,,,,,,,,
"72503014732","2020-03-24T01:51:00","FM-15","7",,,,,,,,,,,,,,,,,,,,,,,,,,,,,,,,,,,,,,"29.99","32","38","0.00",,,,"79","29.99","FEW:02 15 FEW:02 21 SCT:04 70","29.96","10.00","36","320",,"16",,,,,,,,,,,,,,,,,,,,,,,,,,,,,,,,,,,,,"MET11403/24/20 01:51:02 METAR KLGA 240651Z 32014KT 10SM FEW015 FEW021 SCT070 03/00 A2999 RMK AO2 SLP156 T00330000 $ (RZ)","FM-15","7",,,,,,,,,,,,,,,,,,,,,,,,,,,,
"72503014732","2020-03-24T02:51:00","FM-15","7",,,,,,,,,,,,,,,,,,,,,,,,,,,,,,,,,,,,,,"30.00","32","37","0.00",,,,"82","30.00","FEW:02 15 FEW:02 65","29.97","10.00","35","330",,"10",,,,,,,,,,,,,,,,,,,,,,,,,,,,,,,,,,,,,"MET10703/24/20 02:51:02 METAR KLGA 240751Z 33009KT 10SM FEW015 FEW065 03/00 A3000 RMK AO2 SLP159 T00280000 $ (RZ)","FM-15","7",,,,,,,,,,,,,,,,,,,,,,,,,,,,
"72503014732","2020-03-24T03:21:00","FM-16","7",,,,,,,,,,,,,,,,,,,,,,,,,,,,,,,,,,,,,,"30.01","32","38",,,,,"79",,"BKN:07 18","29.98","10.00","36","320",,"10",,,,,,,,,,,,,,,,,,,,,,,,,,,,,,,,,,,,,"MET09303/24/20 03:21:02 SPECI KLGA 240821Z 32009KT 10SM BKN018 03/00 A3001 RMK AO2 T00330000 $ (RZ)","FM-16","7",,,,,,,,,,,,,,,,,,,,,,,,,,,,
"72503014732","2020-03-24T03:51:00","FM-15","7",,,,,,,,,,,,,,,,,,,,,,,,,,,,,,,,,,,,,,"30.03","32","38","0.00",,"-0.03","3","79","30.03","OVC:08 17","30.00","10.00","36","320",,"9",,,,,,,,,,,,,,,,,,,,,,,,,,,,,,,,,,,,,"MET10603/24/20 03:51:02 METAR KLGA 240851Z 32008KT 10SM OVC017 03/00 A3003 RMK AO2 SLP169 T00330000 53010 $ (RZ)","FM-15","7",,,,,,,,,,,,,,,,,,,,,,,,,,,,
"72503014732","2020-03-24T04:00:00","FM-12","4",,,,,,,,,,,,,,,,,,,,,,,,,,,,,,,,,,,,,,,"32","38",,,"-0.03","3","79","30.03","15","29.99","9.94","36","320",,"9",,,,,,,,,,,,,,,,,,,,,,,,,,,,,,,,,,,,,"SYN06472503 32466 83208 10033 20000 30156 40169 53010 90851 555 92409=","FM-12","4",,,,,,,,,,,,,,,,,,,,,,,,,,,,
"72503014732","2020-03-24T04:51:00","FM-15","7",,,,,,,,,,,,,,,,,,,,,,,,,,,,,,,,,,,,,,"30.05","31","38","0.00",,,,"76","30.05","BKN:07 18 BKN:07 25","30.02","10.00","35","330",,"10",,,,,,,,,,,,,,,,,,,,,,,,,,,,,,,,,,,,,"MET10803/24/20 04:51:02 METAR KLGA 240951Z 33009KT 10SM BKN018 BKN025 03/M01 A3005 RMK AO2 SLP175 T00331006 $ (RZ)","FM-15","7",,,,,,,,,,,,,,,,,,,,,,,,,,,,
"72503014732","2020-03-24T05:51:00","FM-15","7",,,,,,,,,,,,,,,,,,,,,,,,,,,,,,,,,,,,,,"30.07","31","38","0.00",,,,"76","30.07","BKN:07 26 BKN:07 250","30.04","10.00","35","340",,"8",,,,,,,,,,,,,,,,,,,,,,,,,,,,,,,,,,,,,"MET10903/24/20 05:51:02 METAR KLGA 241051Z 34007KT 10SM BKN026 BKN250 03/M01 A3007 RMK AO2 SLP183 T00331006 $ (PAS)","FM-15","7",,,,,,,,,,,,,,,,,,,,,,,,,,,,
"72503014732","2020-03-24T06:05:00","FM-16","7",,,,,,,,,,,,,,,,,,,,,,,,,,,,,,,,,,,,,,"30.09","31","38",,,,,"76",,"SCT:04 25 SCT:04 250","30.06","10.00","35","340",,"6",,,,,,,,,,,,,,,,,,,,,,,,,,,,,,,,,,,,,"MET10203/24/20 06:05:02 SPECI KLGA 241105Z 34005KT 10SM SCT025 SCT250 03/M01 A3009 RMK AO2 T00331006 $ (PAS)","FM-16","7",,,,,,,,,,,,,,,,,,,,,,,,,,,,
"72503014732","2020-03-24T06:51:00","FM-15","7",,,,,,,,,,,,,,,,,,,,,,,,,,,,,,,,,,,,,,"30.11","32","39","0.00",,"-0.08","3","76","30.11","FEW:02 25 FEW:02 250","30.08","10.00","36","340",,"11",,,,,,,,,,,,,,,,,,,,,,,,,,,,,,,,,,,,,"MET13003/24/20 06:51:02 METAR KLGA 241151Z 34010KT 10SM FEW025 FEW250 04/00 A3011 RMK AO2 SLP196 70144 T00390000 10039 20028 53026 (PAS)","FM-15","7",,,,,,,,,,,,,,,,,,,,,,,,,,,,
"72503014732","2020-03-24T07:00:00","FM-12","4",,,,,,,,,,,,,,,,,,,,,,,,,,,,,,,,,,,,,,,"32","39",,,"-0.08","3","76","30.11","26","30.07","9.94","36","340",,"11",,,,,,,,,,,,,,,,,,,,,,,,,,,,,,,,,,,,,"SYN08672503 32566 23410 10039 20000 30183 40196 53026 91151 333 10056 20028 70366 555 92412=","FM-12","4",,,,,,,,,,,,,,,,,,,,,,,,,,,,
"72503014732","2020-03-24T07:51:00","FM-15","7",,,,,,,,,,,,,,,,,,,,,,,,,,,,,,,,,,,,,,"30.14","32","41","0.00",,,,"70","30.13","FEW:02 25 FEW:02 250","30.11","10.00","37","330",,"15",,,,,,,,,,,,,,,,,,,,,,,,,,,,,,,,,,,,,"MET10603/24/20 07:51:02 METAR KLGA 241251Z 33013KT 10SM FEW025 FEW250 05/00 A3014 RMK AO2 SLP204 T00500000 (PAS)","FM-15","7",,,,,,,,,,,,,,,,,,,,,,,,,,,,
"72503014732","2020-03-24T08:51:00","FM-15","7",,,,,,,,,,,,,,,,,,,,,,,,,,,,,,,,,,,,,,"30.14","32","43","0.00",,,,"65","30.14","FEW:02 27 FEW:02 250","30.11","10.00","38","350",,"10",,,,,,,,,,,,,,,,,,,,,,,,,,,,,,,,,,,,,"MET10603/24/20 08:51:02 METAR KLGA 241351Z 35009KT 10SM FEW027 FEW250 06/00 A3014 RMK AO2 SLP206 T00610000 (PAS)","FM-15","7",,,,,,,,,,,,,,,,,,,,,,,,,,,,
"72503014732","2020-03-24T09:51:00","FM-15","7",,,,,,,,,,,,,,,,,,,,,,,,,,,,,,,,,,,,,,"30.13","31","45","0.00",,"-0.02","0","58","30.13","FEW:02 30 FEW:02 250","30.10","10.00","39","360","24","17",,,,,,,,,,,,,,,,,,,,,,,,,,,,,,,,,,,,,"MET11603/24/20 09:51:02 METAR KLGA 241451Z 36015G21KT 10SM FEW030 FEW250 07/M01 A3013 RMK AO2 SLP204 T00721006 50007 (PAS)","FM-15","7",,,,,,,,,,,,,,,,,,,,,,,,,,,,
"72503014732","2020-03-24T10:00:00","FM-12","4",,,,,,,,,,,,,,,,,,,,,,,,,,,,,,,,,,,,,,,"31","45",,,"0.02","9","58","30.13","26","30.09","9.94","39","360",,"17",,,,,,,,,,,,,,,,,,,,,,,,,,,,,,,,,,,,,"SYN07472503 32566 23615 10072 21006 30189 40204 50007 91451 333 91021 555 92415=","FM-12","4",,,,,,,,,,,,,,,,,,,,,,,,,,,,
"72503014732","2020-03-24T10:51:00","FM-15","7",,,,,,,,,,,,,,,,,,,,,,,,,,,,,,,,,,,,,,"30.14","32","46","0.00",,,,"58","30.14","FEW:02 31 FEW:02 250","30.11","10.00","40","290",,"9",,,,,,,,,,,,,,,,,,,,,,,,,,,,,,,,,,,,,"MET10603/24/20 10:51:02 METAR KLGA 241551Z 29008KT 10SM FEW031 FEW250 08/00 A3014 RMK AO2 SLP207 T00780000 (PAS)","FM-15","7",,,,,,,,,,,,,,,,,,,,,,,,,,,,
"72503014732","2020-03-24T11:51:00","FM-15","7",,,,,,,,,,,,,,,,,,,,,,,,,,,,,,,,,,,,,,"30.14","33","49","0.00",,,,"55","30.14","FEW:02 32 FEW:02 250","30.11","10.00","42","340",,"3",,,,,,,,,,,,,,,,,,,,,,,,,,,,,,,,,,,,,"MET10603/24/20 11:51:02 METAR KLGA 241651Z 34003KT 10SM FEW032 FEW250 09/01 A3014 RMK AO2 SLP205 T00940006 (PAS)","FM-15","7",,,,,,,,,,,,,,,,,,,,,,,,,,,,
"72503014732","2020-03-24T12:51:00","FM-15","7",,,,,,,,,,,,,,,,,,,,,,,,,,,,,,,,,,,,,,"30.12","32","51","0.00",,"+0.01","8","48","30.12","FEW:02 35 SCT:04 250","30.09","10.00","43","350",,"13",,,,,,,,,,,,,,,,,,,,,,,,,,,,,,,,,,,,,"MET12403/24/20 12:51:02 METAR KLGA 241751Z 35011KT 10SM FEW035 SCT250 11/00 A3012 RMK AO2 SLP199 T01060000 10106 20039 58005 (PAS)","FM-15","7",,,,,,,,,,,,,,,,,,,,,,,,,,,,
"72503014732","2020-03-24T13:00:00","FM-12","4",,,,,,,,,,,,,,,,,,,,,,,,,,,,,,,,,,,,,,,"32","51",,,"+0.01","8","48","30.12","41","30.08","9.94","43","350",,"13",,,,,,,,,,,,,,,,,,,,,,,,,,,,,,,,,,,,,"SYN08072503 32666 43511 10106 20000 30186 40199 58005 91751 333 10106 20039 555 92418=","FM-12","4",,,,,,,,,,,,,,,,,,,,,,,,,,,,
"72503014732","2020-03-24T13:51:00","FM-15","7",,,,,,,,,,,,,,,,,,,,,,,,,,,,,,,,,,,,,,"30.13","34","52","0.00",,,,"50","30.13","FEW:02 40","30.10","10.00","44","330",,"7",,,,,,,,,,,,,,,,,,,,,,,,,,,,,,,,,,,,,"MET09803/24/20 13:51:02 METAR KLGA 241851Z 33006KT 10SM FEW040 11/01 A3013 RMK AO2 SLP202 T01110011 (WL)","FM-15","7",,,,,,,,,,,,,,,,,,,,,,,,,,,,
"72503014732","2020-03-24T14:51:00","FM-15","7",,,,,,,,,,,,,,,,,,,,,,,,,,,,,,,,,,,,,,"30.11","32","52","0.00",,,,"47","30.11","FEW:02 40 SCT:04 250","30.08","10.00","43","VRB",,"3",,,,,,,,,,,,,,,,,,,,,,,,,,,,,,,,,,,,,"MET10503/24/20 14:51:02 METAR KLGA 241951Z VRB03KT 10SM FEW040 SCT250 11/00 A3011 RMK AO2 SLP197 T01110000 (WL)","FM-15","7",,,,,,,,,,,,,,,,,,,,,,,,,,,,
"72503014732","2020-03-24T15:51:00","FM-15","7",,,,,,,,,,,,,,,,,,,,,,,,,,,,,,,,,,,,,,"30.09","32","53","0.00",,"+0.03","8","45","30.09","FEW:02 40 SCT:04 250","30.06","10.00","44","360",,"8",,,,,,,,,,,,,,,,,,,,,,,,,,,,,,,,,,,,,"MET11103/24/20 15:51:02 METAR KLGA 242051Z 36007KT 10SM FEW040 SCT250 12/00 A3009 RMK AO2 SLP189 T01170000 58010 (WL)","FM-15","7",,,,,,,,,,,,,,,,,,,,,,,,,,,,
"72503014732","2020-03-24T16:00:00","FM-12","4",,,,,,,,,,,,,,,,,,,,,,,,,,,,,,,,,,,,,,,"32","53",,,"+0.03","8","45","30.09","41","30.05","9.94","44","360",,"8",,,,,,,,,,,,,,,,,,,,,,,,,,,,,,,,,,,,,"SYN06472503 32666 43607 10117 20000 30176 40189 58010 92051 555 92421=","FM-12","4",,,,,,,,,,,,,,,,,,,,,,,,,,,,
"72503014732","2020-03-24T16:51:00","FM-15","7",,,,,,,,,,,,,,,,,,,,,,,,,,,,,,,,,,,,,,"30.09","32","53","0.00",,,,"45","30.09","FEW:02 250","30.06","10.00","44","050",,"8",,,,,,,,,,,,,,,,,,,,,,,,,,,,,,,,,,,,,"MET09803/24/20 16:51:02 METAR KLGA 242151Z 05007KT 10SM FEW250 12/00 A3009 RMK AO2 SLP189 T01170000 (WL)","FM-15","7",,,,,,,,,,,,,,,,,,,,,,,,,,,,
"72503014732","2020-03-24T17:51:00","FM-15","7",,,,,,,,,,,,,,,,,,,,,,,,,,,,,,,,,,,,,,"30.12","32","51","0.00",,,,"48","30.11","FEW:02 250","30.09","10.00","43","360",,"8",,,,,,,,,,,,,,,,,,,,,,,,,,,,,,,,,,,,,"MET09803/24/20 17:51:02 METAR KLGA 242251Z 36007KT 10SM FEW250 11/00 A3012 RMK AO2 SLP198 T01060000 (WL)","FM-15","7",,,,,,,,,,,,,,,,,,,,,,,,,,,,
"72503014732","2020-03-24T18:51:00","FM-15","7",,,,,,,,,,,,,,,,,,,,,,,,,,,,,,,,,,,,,,"30.15","33","50","0.00",,"-0.06","3","52","30.14","FEW:02 45 BKN:07 250","30.12","10.00","43","070",,"7",,,,,,,,,,,,,,,,,,,,,,,,,,,,,,,,,,,,,"MET12303/24/20 18:51:02 METAR KLGA 242351Z 07006KT 10SM FEW045 BKN250 10/01 A3015 RMK AO2 SLP208 T01000006 10122 20100 53019 (WL)","FM-15","7",,,,,,,,,,,,,,,,,,,,,,,,,,,,
"72503014732","2020-03-24T19:00:00","FM-12","4",,,,,,,,,,,,,,,,,,,,,,,,,,,,,,,,,,,,,,,"33","50",,,"-0.06","3","52","30.14","41","30.11","9.94","43","070",,"7",,,,,,,,,,,,,,,,,,,,,,,,,,,,,,,,,,,,,"SYN08072503 32666 60706 10100 20006 30196 40208 53019 92351 333 10122 20028 555 92500=","FM-12","4",,,,,,,,,,,,,,,,,,,,,,,,,,,,
"72503014732","2020-03-24T19:51:00","FM-15","7",,,,,,,,,,,,,,,,,,,,,,,,,,,,,,,,,,,,,,"30.16","34","49","0.00",,,,"56","30.16","FEW:02 45 BKN:07 250","30.13","10.00","42","060",,"10",,,,,,,,,,,,,,,,,,,,,,,,,,,,,,,,,,,,,"MET10003/24/20 19:51:01 METAR KLGA 250051Z 06009KT 10SM FEW045 BKN250 09/01 A3016 RMK AO2 SLP213 T00940011","FM-15","7",,,,,,,,,,,,,,,,,,,,,,,,,,,,
"72503014732","2020-03-24T20:51:00","FM-15","7",,,,,,,,,,,,,,,,,,,,,,,,,,,,,,,,,,,,,,"30.18","33","46","0.00",,,,"61","30.17","FEW:02 45 BKN:07 250","30.15","10.00","40","060",,"14",,,,,,,,,,,,,,,,,,,,,,,,,,,,,,,,,,,,,"MET10003/24/20 20:51:01 METAR KLGA 250151Z 06012KT 10SM FEW045 BKN250 08/01 A3018 RMK AO2 SLP218 T00780006","FM-15","7",,,,,,,,,,,,,,,,,,,,,,,,,,,,
"72503014732","2020-03-24T21:51:00","FM-15","7",,,,,,,,,,,,,,,,,,,,,,,,,,,,,,,,,,,,,,"30.18","32","44","0.00",,"-0.04","1","63","30.18","FEW:02 200 SCT:04 250","30.15","10.00","39","050",,"9",,,,,,,,,,,,,,,,,,,,,,,,,,,,,,,,,,,,,"MET10603/24/20 21:51:01 METAR KLGA 250251Z 05008KT 10SM FEW200 SCT250 07/00 A3018 RMK AO2 SLP220 T00670000 51012","FM-15","7",,,,,,,,,,,,,,,,,,,,,,,,,,,,
"72503014732","2020-03-24T22:00:00","FM-12","4",,,,,,,,,,,,,,,,,,,,,,,,,,,,,,,,,,,,,,,"32","44",,,"-0.04","1","63","30.18",,"30.14","9.94","39","050",,"9",,,,,,,,,,,,,,,,,,,,,,,,,,,,,,,,,,,,,"SYN06472503 32966 40508 10067 20000 30206 40220 51012 90251 555 92503=","FM-12","4",,,,,,,,,,,,,,,,,,,,,,,,,,,,
"72503014732","2020-03-24T22:51:00","FM-15","7",,,,,,,,,,,,,,,,,,,,,,,,,,,,,,,,,,,,,,"30.19","30","43","0.00",,,,"60","30.18","FEW:02 50 FEW:02 250","30.16","10.00","38","050",,"11",,,,,,,,,,,,,,,,,,,,,,,,,,,,,,,,,,,,,"MET10103/24/20 22:51:01 METAR KLGA 250351Z 05010KT 10SM FEW050 FEW250 06/M01 A3019 RMK AO2 SLP221 T00611011","FM-15","7",,,,,,,,,,,,,,,,,,,,,,,,,,,,
"72503014732","2020-03-24T23:51:00","FM-15","7",,,,,,,,,,,,,,,,,,,,,,,,,,,,,,,,,,,,,,"30.16","30","42","0.00",,,,"62","30.16","SCT:04 250","30.13","10.00","37","050",,"11",,,,,,,,,,,,,,,,,,,,,,,,,,,,,,,,,,,,,"MET10403/24/20 23:51:01 METAR KLGA 250451Z 05010KT 10SM SCT250 06/M01 A3016 RMK AO2 SLP214 T00561011 401220028","FM-15","7",,,,,,,,,,,,,,,,,,,,,,,,,,,,
"72503014732","2020-03-24T23:59:00","SOD  ","6",,,,,,,,,,,,,,,"32","46","61","30.11","30.06","39","10.2","0","1.4","19","54","37","020","24","0.00","0","0.0","350","20",,,,,,,,,,,,,,,,,,,,,,,,,,,,,,,,,,,,,,,,,,,,,,,,,,,,,,,,,"SOD73924 HR PRECIPITATION (IN): 0.00 SNOW DEPTH (IN):0     24 HR SNOWFALL (IN):0.0  24 HR MAX TEMP (F): 5424 HR MIN TEMP (F): 37AVERAGE STATION PRESSURE:30.055 MINIMUM SEA LEVEL PRESSURE:29.99 TIME OF OCCURRENCE:0210 PEAK WIND SPEED (MPH): 24 PEAK WIND DIR (DEG): 20 PEAK WIND TIME (LST):      FASTEST 2MIN SPEED (MPH): 20FASTEST 2MIN DIR (DEG):350 FASTEST 2MIN TIME (LST):     AVERAGE WIND SPEED (MPH):10.2 24 HR AVG TEMP (F): 46DEPART FROM NORMAL:  1  HEATING DEGREE DAYS: 19 COOLING DEGREE DAYS:  0 LATEST DAY MAX TEMP (0700-1900 LST):54  LATEST NIGHT MIN TEMP(1900-0800 LST):37 HOURLY INCREMENTAL PRECIPITATION VALUES (IN):.00 0.00 0.00 0.00 0.00 0.00 0.00 0.00 0.00 0.00 0.00 0.00 0.00 0.00 0.00 0.00 0.00 0.00 0.00 0.00 0.00 0.00 0.00 0.00","SOD  ","6",,,,,,,,,,,,,,,,,,,,,,,,,"0551","1813",,
"72503014732","2020-03-25T00:51:00","FM-15","7",,,,,,,,,,,,,,,,,,,,,,,,,,,,,,,,,,,,,,"30.16","31","42","0.00",,"+0.02","8","65","30.16","BKN:07 150 OVC:08 250","30.13","10.00","37","050",,"14",,,,,,,,,,,,,,,,,,,,,,,,,,,,,,,,,,,,,"MET12403/25/20 00:51:02 METAR KLGA 250551Z 05012KT 10SM BKN150 OVC250 06/M01 A3016 RMK AO2 SLP212 T00561006 10100 20056 58008 (RZ)","FM-15","7",,,,,,,,,,,,,,,,,,,,,,,,,,,,
"72503014732","2020-03-25T01:00:00","FM-12","4",,,,,,,,,,,,,,,,,,,,,,,,,,,,,,,,,,,,,,,"31","42",,,"+0.02","8","65","30.16",,"30.12","9.94","37","050",,"14",,,,,,,,,,,,,,,,,,,,,,,,,,,,,,,,,,,,,"SYN08072503 32966 80512 10056 21006 30200 40212 58008 90551 333 10100 20028 555 92506=","FM-12","4",,,,,,,,,,,,,,,,,,,,,,,,,,,,
"72503014732","2020-03-25T01:51:00","FM-15","7",,,,,,,,,,,,,,,,,,,,,,,,,,,,,,,,,,,,,,"30.13","31","42","0.00",,,,"65","30.13","BKN:07 150 OVC:08 250","30.10","10.00","37","060",,"20",,,,,,,,,,,,,,,,,,,,,,,,,,,,,,,,,,,,,"MET10603/25/20 01:51:02 METAR KLGA 250651Z 06017KT 10SM BKN150 OVC250 06/M01 A3013 RMK AO2 SLP204 T00561006 (RZ)","FM-15","7",,,,,,,,,,,,,,,,,,,,,,,,,,,,
"72503014732","2020-03-25T02:51:00","FM-15","7",,,,,,,,,,,,,,,,,,,,,,,,,,,,,,,,,,,,,,"30.10","31","42","0.00",,,,"65","30.10","BKN:07 150 OVC:08 250","30.07","10.00","37","060",,"15",,,,,,,,,,,,,,,,,,,,,,,,,,,,,,,,,,,,,"MET10603/25/20 02:51:02 METAR KLGA 250751Z 06013KT 10SM BKN150 OVC250 06/M01 A3010 RMK AO2 SLP193 T00561006 (RZ)","FM-15","7",,,,,,,,,,,,,,,,,,,,,,,,,,,,
"72503014732","2020-03-25T03:51:00","FM-15","7",,,,,,,,,,,,,,,,,,,,,,,,,,,,,,,,,,,,,,"30.09","31","41","0.00",,"+0.06","6","67","30.09","BKN:07 150 OVC:08 250","30.06","10.00","37","070",,"13",,,,,,,,,,,,,,,,,,,,,,,,,,,,,,,,,,,,,"MET11203/25/20 03:51:02 METAR KLGA 250851Z 07011KT 10SM BKN150 OVC250 05/M01 A3009 RMK AO2 SLP190 T00501006 56022 (RZ)","FM-15","7",,,,,,,,,,,,,,,,,,,,,,,,,,,,
"72503014732","2020-03-25T04:00:00","FM-12","4",,,,,,,,,,,,,,,,,,,,,,,,,,,,,,,,,,,,,,,"31","41",,,"+0.06","6","67","30.09",,"30.05","9.94","37","070",,"13",,,,,,,,,,,,,,,,,,,,,,,,,,,,,,,,,,,,,"SYN06472503 32966 80711 10050 21006 30176 40190 56022 90851 555 92509=","FM-12","4",,,,,,,,,,,,,,,,,,,,,,,,,,,,
"72503014732","2020-03-25T04:25:00","FM-16","7",,,,,,,,,,,,,,,,,,,,,,,,,,,,,,,,,,,,,,"30.09","31","41",,,,,"67",,"BKN:07 20 BKN:07 120 OVC:08 140","30.06","10.00","37","060",,"16",,,,,,,,,,,,,,,,,,,,,,,,,,,,,,,,,,,,,"MET10603/25/20 04:25:02 SPECI KLGA 250925Z 06014KT 10SM BKN020 BKN120 OVC140 05/M01 A3009 RMK AO2 T00501006 (RZ)","FM-16","7",,,,,,,,,,,,,,,,,,,,,,,,,,,,
"72503014732","2020-03-25T04:51:00","FM-15","7",,,,,,,,,,,,,,,,,,,,,,,,,,,,,,,,,,,,,,"30.09","31","41","0.00",,,,"67","30.09","OVC:08 20","30.06","10.00","37","060",,"14",,,,,,,,,,,,,,,,,,,,,,,,,,,,,,,,,,,,,"MET09903/25/20 04:51:02 METAR KLGA 250951Z 06012KT 10SM OVC020 05/M01 A3009 RMK AO2 SLP189 T00501006 (RZ)","FM-15","7",,,,,,,,,,,,,,,,,,,,,,,,,,,,
"72503014732","2020-03-25T05:51:00","FM-15","7",,,,,,,,,,,,,,,,,,,,,,,,,,,,,,,,,,,,,,"30.12","32","42","0.00",,,,"68","30.11","OVC:08 20","30.09","10.00","38","070",,"11",,,,,,,,,,,,,,,,,,,,,,,,,,,,,,,,,,,,,"MET09903/25/20 05:51:02 METAR KLGA 251051Z 07010KT 10SM OVC020 06/00 A3012 RMK AO2 SLP198 T00560000 (PAS)","FM-15","7",,,,,,,,,,,,,,,,,,,,,,,,,,,,
"72503014732","2020-03-25T06:51:00","FM-15","7",,,,,,,,,,,,,,,,,,,,,,,,,,,,,,,,,,,,,,"30.12","32","42","0.00",,"-0.02","3","68","30.11","OVC:08 18","30.09","10.00","38","070",,"14",,,,,,,,,,,,,,,,,,,,,,,,,,,,,,,,,,,,,"MET11703/25/20 06:51:02 METAR KLGA 251151Z 07012KT 10SM OVC018 06/00 A3012 RMK AO2 SLP198 T00560000 10056 20050 53008 (PAS)","FM-15","7",,,,,,,,,,,,,,,,,,,,,,,,,,,,
"72503014732","2020-03-25T07:00:00","FM-12","4",,,,,,,,,,,,,,,,,,,,,,,,,,,,,,,,,,,,,,,"32","42",,,"-0.02","3","68","30.11","15","30.08","9.94","38","070",,"14",,,,,,,,,,,,,,,,,,,,,,,,,,,,,,,,,,,,,"SYN08072503 32466 80712 10056 20000 30186 40198 53008 91151 333 10122 20050 555 92512=","FM-12","4",,,,,,,,,,,,,,,,,,,,,,,,,,,,
"72503014732","2020-03-25T07:51:00","FM-15","7",,,,,,,,,,,,,,,,,,,,,,,,,,,,,,,,,,,,,,"30.10","34","42","0.00",,,,"73","30.10","OVC:08 18","30.07","10.00","39","060",,"14",,,,,,,,,,,,,,,,,,,,,,,,,,,,,,,,,,,,,"MET09903/25/20 07:51:02 METAR KLGA 251251Z 06012KT 10SM OVC018 06/01 A3010 RMK AO2 SLP193 T00560011 (PAS)","FM-15","7",,,,,,,,,,,,,,,,,,,,,,,,,,,,
"72503014732","2020-03-25T08:51:00","FM-15","7",,,,,,,,,,,,,,,,,,,,,,,,,,,,,,,,,,,,,,"30.11","35","43","0.00",,,,"74","30.11","OVC:08 18","30.08","10.00","40","060",,"13",,,,,,,,,,,,,,,,,,,,,,,,,,,,,,,,,,,,,"MET09903/25/20 08:51:02 METAR KLGA 251351Z 06011KT 10SM OVC018 06/02 A3011 RMK AO2 SLP195 T00610017 (PAS)","FM-15","7",,,,,,,,,,,,,,,,,,,,,,,,,,,,
"72503014732","2020-03-25T09:51:00","FM-15","7",,,,,,,,,,,,,,,,,,,,,,,,,,,,,,,,,,,,,,"30.09","35","42","0.00",,"+0.02","7","76","30.09","OVC:08 23","30.06","10.00","39","050",,"20",,,,,,,,,,,,,,,,,,,,,,,,,,,,,,,,,,,,,"MET10503/25/20 09:51:02 METAR KLGA 251451Z 05017KT 10SM OVC023 06/02 A3009 RMK AO2 SLP190 T00560017 57008 (PAS)","FM-15","7",,,,,,,,,,,,,,,,,,,,,,,,,,,,
"72503014732","2020-03-25T10:00:00","FM-12","4",,,,,,,,,,,,,,,,,,,,,,,,,,,,,,,,,,,,,,,"35","42",,,"+0.02","7","76","30.09","26","30.05","9.94","39","050",,"20",,,,,,,,,,,,,,,,,,,,,,,,,,,,,,,,,,,,,"SYN06472503 32566 80517 10056 20017 30176 40190 57008 91451 555 92515=","FM-12","4",,,,,,,,,,,,,,,,,,,,,,,,,,,,
"72503014732","2020-03-25T10:51:00","FM-15","7",,,,,,,,,,,,,,,,,,,,,,,,,,,,,,,,,,,,,,"30.07","36","43","0.00",,,,"76","30.07","OVC:08 23","30.04","10.00","40","050",,"20",,,,,,,,,,,,,,,,,,,,,,,,,,,,,,,,,,,,,"MET09903/25/20 10:51:02 METAR KLGA 251551Z 05017KT 10SM OVC023 06/02 A3007 RMK AO2 SLP183 T00610022 (PAS)","FM-15","7",,,,,,,,,,,,,,,,,,,,,,,,,,,,
"72503014732","2020-03-25T11:51:00","FM-15","7",,,,,,,,,,,,,,,,,,,,,,,,,,,,,,,,,,,,,,"30.07","36","43","0.00",,,,"76","30.07","BKN:07 24 OVC:08 36","30.04","10.00","40","050",,"22",,,,,,,,,,,,,,,,,,,,,,,,,,,,,,,,,,,,,"MET10603/25/20 11:51:02 METAR KLGA 251651Z 05019KT 10SM BKN024 OVC036 06/02 A3007 RMK AO2 SLP182 T00610022 (PAS)","FM-15","7",,,,,,,,,,,,,,,,,,,,,,,,,,,,
"72503014732","2020-03-25T12:49:00","FM-16","6",,,,,,,,,,,,,,,,,,,,,,,,,,,,,,,,,,,,,,"30.06","37","45",,"-RA:02 |RA |RA",,,"76",,"SCT:04 22 BKN:07 31 OVC:08 41","30.03","10.00","41","050",,"18",,,,,,,,,,,,,,,,,,,,,,,,,,,,,,,,,,,,,"MET11703/25/20 12:49:02 SPECI KLGA 251749Z 05016KT 10SM -RA SCT022 BKN031 OVC041 07/03 A3006 RMK AO2 RAB47 P0000 FIBI (PAS)","FM-16","6",,,,,,,,,,,,,,,,,,,,,,,,,,,,
"72503014732","2020-03-25T12:51:00","FM-15","7",,,,,,,,,,,,,,,,,,,,,,,,,,,,,,,,,,,,,,"30.06","37","44","T","-RA:02 |RA |RA","+0.04","6","76","30.05","SCT:04 22 BKN:07 35 OVC:08 41","30.03","10.00","41","040",,"21",,,,,,,,,,,,,,,,,,,,,,,,,,,,,,,,,,,,,"MET15303/25/20 12:51:02 METAR KLGA 251751Z 04018KT 10SM -RA SCT022 BKN035 OVC041 07/03 A3006 RMK AO2 RAB47 SLP177 P0000 60000 T00670028 10067 20056 56013 (PAS)","FM-15","7",,,,,,,,,,,,,,,,,,,,,,,,,,,,
"72503014732","2020-03-25T13:00:00","FM-12","4",,,,,,,,,,,,,,,,,,,,,,,,,,,,,,,,,,,,,,,"37","44",,"||RA","+0.04","6","76","30.05","26","30.02","9.94","41","040",,"21",,,,,,,,,,,,,,,,,,,,,,,,,,,,,,,,,,,,,"SYN09272503 11566 80418 10067 20028 30166 40177 56013 69901 761// 91751 333 10067 20056 555 92518=","FM-12","4",,,,,,,,,,,,,,,,,,,,,,,,,,,,
"72503014732","2020-03-25T13:51:00","FM-15","7",,,,,,,,,,,,,,,,,,,,,,,,,,,,,,,,,,,,,,"30.03","39","44","T","-RA:02 |RA |RA",,,"83","30.03","FEW:02 10 OVC:08 35","30.00","10.00","42","050",,"22",,,,,,,,,,,,,,,,,,,,,,,,,,,,,,,,,,,,,"MET11503/25/20 13:51:02 METAR KLGA 251851Z 05019KT 10SM -RA FEW010 OVC035 07/04 A3003 RMK AO2 SLP170 P0000 T00670039 (WL)","FM-15","7",,,,,,,,,,,,,,,,,,,,,,,,,,,,
"72503014732","2020-03-25T14:51:00","FM-15","7",,,,,,,,,,,,,,,,,,,,,,,,,,,,,,,,,,,,,,"30.02","39","44","0.01","-RA:02 |RA |RA",,,"83","30.01","OVC:08 36","29.99","10.00","42","050",,"21",,,,,,,,,,,,,,,,,,,,,,,,,,,,,,,,,,,,,"MET10803/25/20 14:51:02 METAR KLGA 251951Z 05018KT 10SM -RA OVC036 07/04 A3002 RMK AO2 SLP164 P0001 T00670039 (WL)","FM-15","7",,,,,,,,,,,,,,,,,,,,,,,,,,,,
"72503014732","2020-03-25T15:51:00","FM-15","7",,,,,,,,,,,,,,,,,,,,,,,,,,,,,,,,,,,,,,"30.01","36","44","T","-RA:02 |RA |RA","+0.05","6","73","30.01","SCT:04 49 OVC:08 90","29.98","10.00","41","050","30","21",,,,,,,,,,,,,,,,,,,,,,,,,,,,,,,,,,,,,"MET14803/25/20 15:51:02 METAR KLGA 252051Z 05018G26KT 10SM -RA SCT049 OVC090 07/02 A3001 RMK AO2 PK WND 05028/2035 SLP161 P0000 60001 T00670022 56016 (WL)","FM-15","7",,,,,,,,,,,,,,,,,,,,,,,,,,,,
"72503014732","2020-03-25T16:00:00","FM-12","4",,,,,,,,,,,,,,,,,,,,,,,,,,,,,,,,,,,,,,,"36","44",,"||RA","+0.05","6","73","30.01","41","29.97","9.94","41","050",,"21",,,,,,,,,,,,,,,,,,,,,,,,,,,,,,,,,,,,,"SYN08672503 11666 80518 10067 20022 30149 40161 56016 69937 761// 92051 333 91026 555 92521=","FM-12","4",,,,,,,,,,,,,,,,,,,,,,,,,,,,
"72503014732","2020-03-25T16:51:00","FM-15","7",,,,,,,,,,,,,,,,,,,,,,,,,,,,,,,,,,,,,,"30.00","34","45","T",,,,"66","30.00","FEW:02 28 OVC:08 80","29.97","10.00","40","060",,"18",,,,,,,,,,,,,,,,,,,,,,,,,,,,,,,,,,,,,"MET13503/25/20 16:51:02 METAR KLGA 252151Z 06016KT 10SM FEW028 OVC080 07/01 A3000 RMK AO2 PK WND 05029/2120 RAE48 SLP160 P0000 T00720011 (WL)","FM-15","7",,,,,,,,,,,,,,,,,,,,,,,,,,,,
"72503014732","2020-03-25T17:39:00","FM-16","7",,,,,,,,,,,,,,,,,,,,,,,,,,,,,,,,,,,,,,"30.02","34","44",,,,,"68",,"BKN:07 27 OVC:08 33","29.99","10.00","40","050","22","15",,,,,,,,,,,,,,,,,,,,,,,,,,,,,,,,,,,,,"MET10103/25/20 17:39:02 SPECI KLGA 252239Z 05013G19KT 10SM BKN027 OVC033 07/01 A3002 RMK AO2 T00670011 (WL)","FM-16","7",,,,,,,,,,,,,,,,,,,,,,,,,,,,
"72503014732","2020-03-25T17:46:00","FM-16","7",,,,,,,,,,,,,,,,,,,,,,,,,,,,,,,,,,,,,,"30.02","34","45",,,,,"66",,"OVC:08 31","29.99","10.00","40","050","22","16",,,,,,,,,,,,,,,,,,,,,,,,,,,,,,,,,,,,,"MET08403/25/20 17:46:02 SPECI KLGA 252246Z 05014G19KT 10SM OVC031 07/01 A3002 RMK AO2 (WL)","FM-16","7",,,,,,,,,,,,,,,,,,,,,,,,,,,,
"72503014732","2020-03-25T17:51:00","FM-15","7",,,,,,,,,,,,,,,,,,,,,,,,,,,,,,,,,,,,,,"30.02","34","44","0.00",,,,"68","30.02","FEW:02 26 OVC:08 31","29.99","10.00","40","050","23","17",,,,,,,,,,,,,,,,,,,,,,,,,,,,,,,,,,,,,"MET10803/25/20 17:51:02 METAR KLGA 252251Z 05015G20KT 10SM FEW026 OVC031 07/01 A3002 RMK AO2 SLP165 T00670011 (WL)","FM-15","7",,,,,,,,,,,,,,,,,,,,,,,,,,,,
"72503014732","2020-03-25T18:41:00","FM-16","7",,,,,,,,,,,,,,,,,,,,,,,,,,,,,,,,,,,,,,"30.02","35","43",,,,,"74",,"FEW:02 20 BKN:07 29 OVC:08 35","29.99","10.00","40","060",,"14",,,,,,,,,,,,,,,,,,,,,,,,,,,,,,,,,,,,,"MET10503/25/20 18:41:02 SPECI KLGA 252341Z 06012KT 10SM FEW020 BKN029 OVC035 06/02 A3002 RMK AO2 T00610017 (WL)","FM-16","7",,,,,,,,,,,,,,,,,,,,,,,,,,,,
"72503014732","2020-03-25T18:51:00","FM-15","7",,,,,,,,,,,,,,,,,,,,,,,,,,,,,,,,,,,,,,"30.02","35","43","0.00",,"-0.02","1","74","30.02","BKN:07 24 BKN:07 29 OVC:08 34","29.99","10.00","40","060",,"16",,,,,,,,,,,,,,,,,,,,,,,,,,,,,,,,,,,,,"MET13603/25/20 18:51:02 METAR KLGA 252351Z 06014KT 10SM BKN024 BKN029 OVC034 06/02 A3002 RMK AO2 SLP167 60001 T00610017 10072 20061 51007 (WL)","FM-15","7",,,,,,,,,,,,,,,,,,,,,,,,,,,,
"72503014732","2020-03-25T19:00:00","FM-12","4",,,,,,,,,,,,,,,,,,,,,,,,,,,,,,,,,,,,,,,"35","43",,,"-0.02","1","74","30.02","26","29.98","9.94","40","060",,"16",,,,,,,,,,,,,,,,,,,,,,,,,,,,,,,,,,,,,"SYN08672503 12566 80614 10061 20017 30152 40167 51007 69931 92351 333 10072 20050 555 92600=","FM-12","4",,,,,,,,,,,,,,,,,,,,,,,,,,,,
"72503014732","2020-03-25T19:49:00","FM-16","6",,,,,,,,,,,,,,,,,,,,,,,,,,,,,,,,,,,,,,"30.03","36","43",,,,,"76",,"SCT:04 25 OVC:08 33","30.00","10.00","40","040",,"9",,,,,,,,,,,,,,,,,,,,,,,,,,,,,,,,,,,,,"MET09303/25/20 19:49:03 SPECI KLGA 260049Z 04008KT 10SM SCT025 OVC033 06/02 A3003 RMK AO2 FIBI (WL)","FM-16","6",,,,,,,,,,,,,,,,,,,,,,,,,,,,
"72503014732","2020-03-25T19:51:00","FM-15","7",,,,,,,,,,,,,,,,,,,,,,,,,,,,,,,,,,,,,,"30.03","36","43","0.00",,,,"76","30.03","SCT:04 28 BKN:07 33 OVC:08 40","30.00","10.00","40","040",,"9",,,,,,,,,,,,,,,,,,,,,,,,,,,,,,,,,,,,,"MET10703/25/20 19:51:01 METAR KLGA 260051Z 04008KT 10SM SCT028 BKN033 OVC040 06/02 A3003 RMK AO2 SLP169 T00610022","FM-15","7",,,,,,,,,,,,,,,,,,,,,,,,,,,,
"72503014732","2020-03-25T20:02:00","FM-16","7",,,,,,,,,,,,,,,,,,,,,,,,,,,,,,,,,,,,,,"30.03","36","43",,,,,"76",,"BKN:07 24 BKN:07 29 OVC:08 33","30.00","10.00","40","050",,"8",,,,,,,,,,,,,,,,,,,,,,,,,,,,,,,,,,,,,"MET10003/25/20 20:02:01 SPECI KLGA 260102Z 05007KT 10SM BKN024 BKN029 OVC033 06/02 A3003 RMK AO2 T00610022","FM-16","7",,,,,,,,,,,,,,,,,,,,,,,,,,,,
"72503014732","2020-03-25T20:51:00","FM-15","7",,,,,,,,,,,,,,,,,,,,,,,,,,,,,,,,,,,,,,"30.04","35","43","0.00",,,,"74","30.04","SCT:04 20 BKN:07 25 BKN:07 30","30.01","10.00","40","020",,"11",,,,,,,,,,,,,,,,,,,,,,,,,,,,,,,,,,,,,"MET10703/25/20 20:51:01 METAR KLGA 260151Z 02010KT 10SM SCT020 BKN025 BKN030 06/02 A3004 RMK AO2 SLP172 T00610017","FM-15","7",,,,,,,,,,,,,,,,,,,,,,,,,,,,
"72503014732","2020-03-25T21:13:00","FM-16","7",,,,,,,,,,,,,,,,,,,,,,,,,,,,,,,,,,,,,,"30.05","34","43",,,,,"71",,"SCT:04 20 SCT:04 25 SCT:04 30","30.02","10.00","39","010",,"8",,,,,,,,,,,,,,,,,,,,,,,,,,,,,,,,,,,,,"MET10003/25/20 21:13:01 SPECI KLGA 260213Z 01007KT 10SM SCT020 SCT025 SCT030 06/01 A3005 RMK AO2 T00610011","FM-16","7",,,,,,,,,,,,,,,,,,,,,,,,,,,,
"72503014732","2020-03-25T21:51:00","FM-15","7",,,,,,,,,,,,,,,,,,,,,,,,,,,,,,,,,,,,,,"30.05","33","42","0.00",,"-0.02","3","71","30.05","FEW:02 22 FEW:02 30 FEW:02 95","30.02","10.00","38","010",,"11",,,,,,,,,,,,,,,,,,,,,,,,,,,,,,,,,,,,,"MET11303/25/20 21:51:01 METAR KLGA 260251Z 01010KT 10SM FEW022 FEW030 FEW095 06/01 A3005 RMK AO2 SLP175 T00560006 53008","FM-15","7",,,,,,,,,,,,,,,,,,,,,,,,,,,,
"72503014732","2020-03-25T22:00:00","FM-12","4",,,,,,,,,,,,,,,,,,,,,,,,,,,,,,,,,,,,,,,"33","42",,,"-0.02","3","71","30.05","26","30.01","9.94","38","010",,"11",,,,,,,,,,,,,,,,,,,,,,,,,,,,,,,,,,,,,"SYN06472503 32566 20110 10056 20006 30162 40175 53008 90251 555 92603=","FM-12","4",,,,,,,,,,,,,,,,,,,,,,,,,,,,
"72503014732","2020-03-25T22:51:00","FM-15","7",,,,,,,,,,,,,,,,,,,,,,,,,,,,,,,,,,,,,,"30.05","32","42","0.00",,,,"68","30.05","FEW:02 25 FEW:02 95","30.02","10.00","38","360",,"10",,,,,,,,,,,,,,,,,,,,,,,,,,,,,,,,,,,,,"MET10003/25/20 22:51:01 METAR KLGA 260351Z 36009KT 10SM FEW025 FEW095 06/00 A3005 RMK AO2 SLP175 T00560000","FM-15","7",,,,,,,,,,,,,,,,,,,,,,,,,,,,
"72503014732","2020-03-25T23:51:00","FM-15","7",,,,,,,,,,,,,,,,,,,,,,,,,,,,,,,,,,,,,,"30.05","31","41","0.00",,,,"67","30.04","FEW:02 25","30.02","10.00","37","360",,"9",,,,,,,,,,,,,,,,,,,,,,,,,,,,,,,,,,,,,"MET10403/25/20 23:51:01 METAR KLGA 260451Z 36008KT 10SM FEW025 05/M01 A3005 RMK AO2 SLP174 T00501006 400720050","FM-15","7",,,,,,,,,,,,,,,,,,,,,,,,,,,,
"72503014732","2020-03-25T23:59:00","SOD  ","6",,,,,,,,,,,,,,,"34","43","72","30.07","30.05","39","15.6","0","-1.9","22","45","41","050","33","0.01","0","0.0","050","26","RA",,,,,,,,,,,,,,,,,,,,,,,,,,,,,,,,,,,,,,,,,,,,,,,,,,,,,,,,"SOD73924 HR PRECIPITATION (IN): 0.01 SNOW DEPTH (IN):0     24 HR SNOWFALL (IN):0.0  24 HR MAX TEMP (F): 4524 HR MIN TEMP (F): 41AVERAGE STATION PRESSURE:30.050 MINIMUM SEA LEVEL PRESSURE:29.99 TIME OF OCCURRENCE:1610 PEAK WIND SPEED (MPH): 33 PEAK WIND DIR (DEG): 50 PEAK WIND TIME (LST):      FASTEST 2MIN SPEED (MPH): 26FASTEST 2MIN DIR (DEG): 50 FASTEST 2MIN TIME (LST):     AVERAGE WIND SPEED (MPH):15.6 24 HR AVG TEMP (F): 43DEPART FROM NORMAL: -2  HEATING DEGREE DAYS: 22 COOLING DEGREE DAYS:  0 LATEST DAY MAX TEMP (0700-1900 LST):45  LATEST NIGHT MIN TEMP(1900-0800 LST):41 HOURLY INCREMENTAL PRECIPITATION VALUES (IN):.00 0.00 0.00 0.00 0.00 0.00 0.00 0.00 0.00 0.00 0.00 0.00 T    T    0.01 T    T    0.00 0.00 0.00 0.00 0.00 0.00 0.00","SOD  ","6",,,,,,,,,,,,,,,,,,,,,,,,,"0549","1814",,
"72503014732","2020-03-26T00:51:00","FM-15","7",,,,,,,,,,,,,,,,,,,,,,,,,,,,,,,,,,,,,,"30.05","30","41","0.00",,"-0.00","3","65","30.05","CLR:00","30.02","10.00","37","360",,"8",,,,,,,,,,,,,,,,,,,,,,,,,,,,,,,,,,,,,"MET11403/26/20 00:51:02 METAR KLGA 260551Z 36007KT 10SM CLR 05/M01 A3005 RMK AO2 SLP176 T00501011 10067 20050 53001 (RZ)","FM-15","7",,,,,,,,,,,,,,,,,,,,,,,,,,,,
"72503014732","2020-03-26T01:00:00","FM-12","4",,,,,,,,,,,,,,,,,,,,,,,,,,,,,,,,,,,,,,,"30","41",,,"-0.00","3","65","30.05",,"30.01","9.94","37","360",,"8",,,,,,,,,,,,,,,,,,,,,,,,,,,,,,,,,,,,,"SYN08072503 32966 03607 10050 21011 30162 40176 53001 90551 333 10067 20050 555 92606=","FM-12","4",,,,,,,,,,,,,,,,,,,,,,,,,,,,
"72503014732","2020-03-26T01:51:00","FM-15","7",,,,,,,,,,,,,,,,,,,,,,,,,,,,,,,,,,,,,,"30.04","30","41","0.00",,,,"65","30.03","CLR:00","30.01","10.00","37","360",,"9",,,,,,,,,,,,,,,,,,,,,,,,,,,,,,,,,,,,,"MET09603/26/20 01:51:02 METAR KLGA 260651Z 36008KT 10SM CLR 05/M01 A3004 RMK AO2 SLP171 T00501011 (RZ)","FM-15","7",,,,,,,,,,,,,,,,,,,,,,,,,,,,
"72503014732","2020-03-26T02:51:00","FM-15","7",,,,,,,,,,,,,,,,,,,,,,,,,,,,,,,,,,,,,,"30.03","29","40","0.00",,,,"65","30.03","CLR:00","30.00","10.00","36","360",,"9",,,,,,,,,,,,,,,,,,,,,,,,,,,,,,,,,,,,,"MET09603/26/20 02:51:02 METAR KLGA 260751Z 36008KT 10SM CLR 04/M02 A3003 RMK AO2 SLP169 T00441017 (RZ)","FM-15","7",,,,,,,,,,,,,,,,,,,,,,,,,,,,
"72503014732","2020-03-26T03:51:00","FM-15","7",,,,,,,,,,,,,,,,,,,,,,,,,,,,,,,,,,,,,,"30.04","29","40","0.00",,"+0.01","5","65","30.04","CLR:00","30.01","10.00","36","350",,"9",,,,,,,,,,,,,,,,,,,,,,,,,,,,,,,,,,,,,"MET10203/26/20 03:51:02 METAR KLGA 260851Z 35008KT 10SM CLR 04/M02 A3004 RMK AO2 SLP172 T00441017 55004 (RZ)","FM-15","7",,,,,,,,,,,,,,,,,,,,,,,,,,,,
"72503014732","2020-03-26T04:00:00","FM-12","4",,,,,,,,,,,,,,,,,,,,,,,,,,,,,,,,,,,,,,,"29","40",,,"+0.01","5","65","30.04",,"30.00","9.94","36","350",,"9",,,,,,,,,,,,,,,,,,,,,,,,,,,,,,,,,,,,,"SYN06472503 32966 03508 10044 21017 30159 40172 55004 90851 555 92609=","FM-12","4",,,,,,,,,,,,,,,,,,,,,,,,,,,,
"72503014732","2020-03-26T04:51:00","FM-15","7",,,,,,,,,,,,,,,,,,,,,,,,,,,,,,,,,,,,,,"30.06","29","39","0.00",,,,"67","30.06","CLR:00","30.03","10.00","35","360",,"9",,,,,,,,,,,,,,,,,,,,,,,,,,,,,,,,,,,,,"MET09603/26/20 04:51:02 METAR KLGA 260951Z 36008KT 10SM CLR 04/M02 A3006 RMK AO2 SLP178 T00391017 (RZ)","FM-15","7",,,,,,,,,,,,,,,,,,,,,,,,,,,,
"72503014732","2020-03-26T05:51:00","FM-15","7",,,,,,,,,,,,,,,,,,,,,,,,,,,,,,,,,,,,,,"30.06","28","39","0.00",,,,"65","30.06","FEW:02 100","30.03","10.00","35","010",,"8",,,,,,,,,,,,,,,,,,,,,,,,,,,,,,,,,,,,,"MET10003/26/20 05:51:02 METAR KLGA 261051Z 01007KT 10SM FEW100 04/M02 A3006 RMK AO2 SLP179 T00391022 (PAS)","FM-15","7",,,,,,,,,,,,,,,,,,,,,,,,,,,,
"72503014732","2020-03-26T06:51:00","FM-15","7",,,,,,,,,,,,,,,,,,,,,,,,,,,,,,,,,,,,,,"30.07","28","40","0.00",,"-0.03","1","63","30.07","CLR:00","30.04","10.00","35","020",,"7",,,,,,,,,,,,,,,,,,,,,,,,,,,,,,,,,,,,,"MET12103/26/20 06:51:02 METAR KLGA 261151Z 02006KT 10SM CLR 04/M02 A3007 RMK AO2 SLP182 70001 T00441022 10050 20039 51009 (PAS)","FM-15","7",,,,,,,,,,,,,,,,,,,,,,,,,,,,
"72503014732","2020-03-26T07:00:00","FM-12","4",,,,,,,,,,,,,,,,,,,,,,,,,,,,,,,,,,,,,,,"28","40",,,"-0.03","1","63","30.07",,"30.03","9.94","35","020",,"7",,,,,,,,,,,,,,,,,,,,,,,,,,,,,,,,,,,,,"SYN08672503 32966 00206 10044 21022 30169 40182 51009 91151 333 10072 20039 70003 555 92612=","FM-12","4",,,,,,,,,,,,,,,,,,,,,,,,,,,,
"72503014732","2020-03-26T07:51:00","FM-15","7",,,,,,,,,,,,,,,,,,,,,,,,,,,,,,,,,,,,,,"30.08","27","42","0.00",,,,"55","30.08","CLR:00","30.05","10.00","36","040",,"6",,,,,,,,,,,,,,,,,,,,,,,,,,,,,,,,,,,,,"MET09703/26/20 07:51:02 METAR KLGA 261251Z 04005KT 10SM CLR 06/M03 A3008 RMK AO2 SLP185 T00561028 (PAS)","FM-15","7",,,,,,,,,,,,,,,,,,,,,,,,,,,,
"72503014732","2020-03-26T08:51:00","FM-15","7",,,,,,,,,,,,,,,,,,,,,,,,,,,,,,,,,,,,,,"30.08","26","44","0.00",,,,"49","30.07","FEW:02 250","30.05","10.00","37","080",,"6",,,,,,,,,,,,,,,,,,,,,,,,,,,,,,,,,,,,,"MET10003/26/20 08:51:02 METAR KLGA 261351Z 08005KT 10SM FEW250 07/M03 A3008 RMK AO2 SLP184 T00671033 (PAS)","FM-15","7",,,,,,,,,,,,,,,,,,,,,,,,,,,,
"72503014732","2020-03-26T09:51:00","FM-15","7",,,,,,,,,,,,,,,,,,,,,,,,,,,,,,,,,,,,,,"30.07","28","47","0.00",,"-0.00","0","48","30.07","FEW:02 250","30.04","10.00","39","000",,"0",,,,,,,,,,,,,,,,,,,,,,,,,,,,,,,,,,,,,"MET10603/26/20 09:51:02 METAR KLGA 261451Z 00000KT 10SM FEW250 08/M02 A3007 RMK AO2 SLP183 T00831022 50001 (PAS)","FM-15","7",,,,,,,,,,,,,,,,,,,,,,,,,,,,
"72503014732","2020-03-26T10:00:00","FM-12","4",,,,,,,,,,,,,,,,,,,,,,,,,,,,,,,,,,,,,,,"28","47",,,"0.00","9","48","30.07",,"30.03","9.94","39","000",,"0",,,,,,,,,,,,,,,,,,,,,,,,,,,,,,,,,,,,,"SYN06472503 32966 20000 10083 21022 30169 40183 50001 91451 555 92615=","FM-12","4",,,,,,,,,,,,,,,,,,,,,,,,,,,,
"72503014732","2020-03-26T10:51:00","FM-15","7",,,,,,,,,,,,,,,,,,,,,,,,,,,,,,,,,,,,,,"30.05","30","49","0.00",,,,"48","30.05","FEW:02 250","30.02","10.00","41","310",,"7",,,,,,,,,,,,,,,,,,,,,,,,,,,,,,,,,,,,,"MET10003/26/20 10:51:02 METAR KLGA 261551Z 31006KT 10SM FEW250 09/M01 A3005 RMK AO2 SLP176 T00941011 (PAS)","FM-15","7",,,,,,,,,,,,,,,,,,,,,,,,,,,,
"72503014732","2020-03-26T11:51:00","FM-15","7",,,,,,,,,,,,,,,,,,,,,,,,,,,,,,,,,,,,,,"30.01","30","52","0.00",,,,"43","30.01","FEW:02 250","29.98","10.00","43","330",,"3",,,,,,,,,,,,,,,,,,,,,,,,,,,,,,,,,,,,,"MET10003/26/20 11:51:02 METAR KLGA 261651Z 33003KT 10SM FEW250 11/M01 A3001 RMK AO2 SLP162 T01111011 (PAS)","FM-15","7",,,,,,,,,,,,,,,,,,,,,,,,,,,,
"72503014732","2020-03-26T12:51:00","FM-15","7",,,,,,,,,,,,,,,,,,,,,,,,,,,,,,,,,,,,,,"29.96","31","55","0.00",,"+0.11","8","40","29.96","FEW:02 250","29.93","10.00","44","250",,"6",,,,,,,,,,,,,,,,,,,,,,,,,,,,,,,,,,,,,"MET12503/26/20 12:51:02 METAR KLGA 261751Z 25005KT 10SM FEW250 13/M01 A2996 RMK AO2 PRESFR SLP146 T01281006 10128 20044 58037 (PAS)","FM-15","7",,,,,,,,,,,,,,,,,,,,,,,,,,,,
"72503014732","2020-03-26T13:00:00","FM-12","4",,,,,,,,,,,,,,,,,,,,,,,,,,,,,,,,,,,,,,,"31","55",,,"+0.11","8","40","29.96",,"29.92","9.94","44","250",,"6",,,,,,,,,,,,,,,,,,,,,,,,,,,,,,,,,,,,,"SYN08072503 32966 22505 10128 21006 30132 40146 58037 91751 333 10128 20044 555 92618=","FM-12","4",,,,,,,,,,,,,,,,,,,,,,,,,,,,
"72503014732","2020-03-26T13:51:00","FM-15","7",,,,,,,,,,,,,,,,,,,,,,,,,,,,,,,,,,,,,,"29.93","32","57","0.00",,,,"39","29.93","FEW:02 250","29.90","10.00","46","VRB",,"6",,,,,,,,,,,,,,,,,,,,,,,,,,,,,,,,,,,,,"MET09803/26/20 13:51:02 METAR KLGA 261851Z VRB05KT 10SM FEW250 14/00 A2993 RMK AO2 SLP136 T01390000 (DM)","FM-15","7",,,,,,,,,,,,,,,,,,,,,,,,,,,,
"72503014732","2020-03-26T14:51:00","FM-15","7",,,,,,,,,,,,,,,,,,,,,,,,,,,,,,,,,,,,,,"29.91","33","58","0.00",,,,"39","29.91","SCT:04 250","29.88","10.00","47","230",,"13",,,,,,,,,,,,,,,,,,,,,,,,,,,,,,,,,,,,,"MET09803/26/20 14:51:02 METAR KLGA 261951Z 23011KT 10SM SCT250 14/01 A2991 RMK AO2 SLP127 T01440006 (DM)","FM-15","7",,,,,,,,,,,,,,,,,,,,,,,,,,,,
"72503014732","2020-03-26T15:51:00","FM-15","7",,,,,,,,,,,,,,,,,,,,,,,,,,,,,,,,,,,,,,"29.90","35","57","0.00",,"+0.06","6","44","29.90","SCT:04 250","29.87","10.00","47","170",,"13",,,,,,,,,,,,,,,,,,,,,,,,,,,,,,,,,,,,,"MET10403/26/20 15:51:02 METAR KLGA 262051Z 17011KT 10SM SCT250 14/02 A2990 RMK AO2 SLP124 T01390017 56022 (DM)","FM-15","7",,,,,,,,,,,,,,,,,,,,,,,,,,,,
"72503014732","2020-03-26T16:00:00","FM-12","4",,,,,,,,,,,,,,,,,,,,,,,,,,,,,,,,,,,,,,,"35","57",,,"+0.06","6","44","29.90",,"29.86","9.94","47","170",,"13",,,,,,,,,,,,,,,,,,,,,,,,,,,,,,,,,,,,,"SYN06472503 32966 41711 10139 20017 30112 40124 56022 92051 555 92621=","FM-12","4",,,,,,,,,,,,,,,,,,,,,,,,,,,,
"72503014732","2020-03-26T16:51:00","FM-15","7",,,,,,,,,,,,,,,,,,,,,,,,,,,,,,,,,,,,,,"29.90","34","52","0.00",,,,"50","29.90","SCT:04 250","29.87","10.00","44","170",,"15",,,,,,,,,,,,,,,,,,,,,,,,,,,,,,,,,,,,,"MET09803/26/20 16:51:02 METAR KLGA 262151Z 17013KT 10SM SCT250 11/01 A2990 RMK AO2 SLP125 T01110011 (DM)","FM-15","7",,,,,,,,,,,,,,,,,,,,,,,,,,,,
"72503014732","2020-03-26T17:51:00","FM-15","7",,,,,,,,,,,,,,,,,,,,,,,,,,,,,,,,,,,,,,"29.87","35","48","0.00",,,,"61","29.87","SCT:04 250","29.84","10.00","42","170",,"14",,,,,,,,,,,,,,,,,,,,,,,,,,,,,,,,,,,,,"MET09803/26/20 17:51:02 METAR KLGA 262251Z 17012KT 10SM SCT250 09/02 A2987 RMK AO2 SLP116 T00890017 (DM)","FM-15","7",,,,,,,,,,,,,,,,,,,,,,,,,,,,
"72503014732","2020-03-26T18:51:00","FM-15","7",,,,,,,,,,,,,,,,,,,,,,,,,,,,,,,,,,,,,,"29.87","38","47","0.00",,"+0.03","8","71","29.86","FEW:02 50 FEW:02 180 BKN:07 250","29.84","10.00","43","180",,"11",,,,,,,,,,,,,,,,,,,,,,,,,,,,,,,,,,,,,"MET13003/26/20 18:51:02 METAR KLGA 262351Z 18010KT 10SM FEW050 FEW180 BKN250 08/03 A2987 RMK AO2 SLP113 T00830033 10150 20083 58011 (DM)","FM-15","7",,,,,,,,,,,,,,,,,,,,,,,,,,,,
"72503014732","2020-03-26T19:00:00","FM-12","4",,,,,,,,,,,,,,,,,,,,,,,,,,,,,,,,,,,,,,,"38","47",,,"+0.03","8","71","29.86","57","29.83","9.94","43","180",,"11",,,,,,,,,,,,,,,,,,,,,,,,,,,,,,,,,,,,,"SYN08072503 32766 61810 10083 20033 30101 40113 58011 92351 333 10150 20039 555 92700=","FM-12","4",,,,,,,,,,,,,,,,,,,,,,,,,,,,
"72503014732","2020-03-26T19:51:00","FM-15","7",,,,,,,,,,,,,,,,,,,,,,,,,,,,,,,,,,,,,,"29.86","39","48","0.00",,,,"71","29.86","FEW:02 50 SCT:04 180 BKN:07 250","29.83","10.00","44","190",,"13",,,,,,,,,,,,,,,,,,,,,,,,,,,,,,,,,,,,,"MET10703/26/20 19:51:01 METAR KLGA 270051Z 19011KT 10SM FEW050 SCT180 BKN250 09/04 A2986 RMK AO2 SLP111 T00890039","FM-15","7",,,,,,,,,,,,,,,,,,,,,,,,,,,,
"72503014732","2020-03-26T20:51:00","FM-15","7",,,,,,,,,,,,,,,,,,,,,,,,,,,,,,,,,,,,,,"29.85","40","49","0.00",,,,"71","29.85","BKN:07 150 BKN:07 180 BKN:07 250","29.82","10.00","45","190",,"8",,,,,,,,,,,,,,,,,,,,,,,,,,,,,,,,,,,,,"MET10703/26/20 20:51:01 METAR KLGA 270151Z 19007KT 10SM BKN150 BKN180 BKN250 09/04 A2985 RMK AO2 SLP107 T00940044","FM-15","7",,,,,,,,,,,,,,,,,,,,,,,,,,,,
"72503014732","2020-03-26T21:51:00","FM-15","7",,,,,,,,,,,,,,,,,,,,,,,,,,,,,,,,,,,,,,"29.82","40","50","0.00",,"+0.04","8","68","29.82","FEW:02 160 SCT:04 190 OVC:08 250","29.79","10.00","45","200",,"8",,,,,,,,,,,,,,,,,,,,,,,,,,,,,,,,,,,,,"MET11303/26/20 21:51:01 METAR KLGA 270251Z 20007KT 10SM FEW160 SCT190 OVC250 10/04 A2982 RMK AO2 SLP098 T01000044 58015","FM-15","7",,,,,,,,,,,,,,,,,,,,,,,,,,,,
"72503014732","2020-03-26T22:00:00","FM-12","4",,,,,,,,,,,,,,,,,,,,,,,,,,,,,,,,,,,,,,,"40","50",,,"+0.04","8","68","29.82",,"29.78","9.94","45","200",,"8",,,,,,,,,,,,,,,,,,,,,,,,,,,,,,,,,,,,,"SYN06472503 32966 82007 10100 20044 30085 40098 58015 90251 555 92703=","FM-12","4",,,,,,,,,,,,,,,,,,,,,,,,,,,,
"72503014732","2020-03-26T22:51:00","FM-15","7",,,,,,,,,,,,,,,,,,,,,,,,,,,,,,,,,,,,,,"29.82","40","52","0.00",,,,"64","29.82","OVC:08 150","29.79","10.00","46","210",,"8",,,,,,,,,,,,,,,,,,,,,,,,,,,,,,,,,,,,,"MET09303/26/20 22:51:02 METAR KLGA 270351Z 21007KT 10SM OVC150 11/04 A2982 RMK AO2 SLP098 T01110044","FM-15","7",,,,,,,,,,,,,,,,,,,,,,,,,,,,
"72503014732","2020-03-26T23:51:00","FM-15","7",,,,,,,,,,,,,,,,,,,,,,,,,,,,,,,,,,,,,,"29.81","40","51","0.00",,,,"66","29.81","BKN:07 130 OVC:08 180","29.78","10.00","46","200",,"8",,,,,,,,,,,,,,,,,,,,,,,,,,,,,,,,,,,,,"MET11003/26/20 23:51:02 METAR KLGA 270451Z 20007KT 10SM BKN130 OVC180 11/04 A2981 RMK AO2 SLP094 T01060044 401500039","FM-15","7",,,,,,,,,,,,,,,,,,,,,,,,,,,,
"72503014732","2020-03-26T23:59:00","SOD  ","6",,,,,,,,,,,,,,,"33","49","57","29.96","29.95","41","8.5","0","3.7","16","59","39","170","26","0.00","0","0.0","190","20",,,,,,,,,,,,,,,,,,,,,,,,,,,,,,,,,,,,,,,,,,,,,,,,,,,,,,,,,"SOD73924 HR PRECIPITATION (IN): 0.00 SNOW DEPTH (IN):0     24 HR SNOWFALL (IN):0.0  24 HR MAX TEMP (F): 5924 HR MIN TEMP (F): 39AVERAGE STATION PRESSURE:29.950 MINIMUM SEA LEVEL PRESSURE:29.81 TIME OF OCCURRENCE:2359 PEAK WIND SPEED (MPH): 26 PEAK WIND DIR (DEG):170 PEAK WIND TIME (LST):      FASTEST 2MIN SPEED (MPH): 20FASTEST 2MIN DIR (DEG):190 FASTEST 2MIN TIME (LST):     AVERAGE WIND SPEED (MPH): 8.5 24 HR AVG TEMP (F): 49DEPART FROM NORMAL:  4  HEATING DEGREE DAYS: 16 COOLING DEGREE DAYS:  0 LATEST DAY MAX TEMP (0700-1900 LST):59  LATEST NIGHT MIN TEMP(1900-0800 LST):39 HOURLY INCREMENTAL PRECIPITATION VALUES (IN):.00 0.00 0.00 0.00 0.00 0.00 0.00 0.00 0.00 0.00 0.00 0.00 0.00 0.00 0.00 0.00 0.00 0.00 0.00 0.00 0.00 0.00 0.00 0.00","SOD  ","6",,,,,,,,,,,,,,,,,,,,,,,,,"0548","1815",,
"72503014732","2020-03-27T00:51:00","FM-15","7",,,,,,,,,,,,,,,,,,,,,,,,,,,,,,,,,,,,,,"29.79","40","52","0.00",,"+0.03","8","64","29.79","SCT:04 110 BKN:07 130 OVC:08 180","29.76","10.00","46","230",,"7",,,,,,,,,,,,,,,,,,,,,,,,,,,,,,,,,,,,,"MET13003/27/20 00:51:02 METAR KLGA 270551Z 23006KT 10SM SCT110 BKN130 OVC180 11/04 A2979 RMK AO2 SLP088 T01110044 10111 20083 58009 (RZ)","FM-15","7",,,,,,,,,,,,,,,,,,,,,,,,,,,,
"72503014732","2020-03-27T01:00:00","FM-12","4",,,,,,,,,,,,,,,,,,,,,,,,,,,,,,,,,,,,,,,"40","52",,,"+0.03","8","64","29.79",,"29.75","9.94","46","230",,"7",,,,,,,,,,,,,,,,,,,,,,,,,,,,,,,,,,,,,"SYN08072503 32966 82306 10111 20044 30074 40088 58009 90551 333 10111 20039 555 92706=","FM-12","4",,,,,,,,,,,,,,,,,,,,,,,,,,,,
"72503014732","2020-03-27T01:51:00","FM-15","7",,,,,,,,,,,,,,,,,,,,,,,,,,,,,,,,,,,,,,"29.79","40","52","0.00",,,,"64","29.79","SCT:04 70 OVC:08 100","29.76","10.00","46","230",,"8",,,,,,,,,,,,,,,,,,,,,,,,,,,,,,,,,,,,,"MET10503/27/20 01:51:02 METAR KLGA 270651Z 23007KT 10SM SCT070 OVC100 11/04 A2979 RMK AO2 SLP088 T01110044 (RZ)","FM-15","7",,,,,,,,,,,,,,,,,,,,,,,,,,,,
"72503014732","2020-03-27T02:51:00","FM-15","7",,,,,,,,,,,,,,,,,,,,,,,,,,,,,,,,,,,,,,"29.76","42","52","T",,,,"69","29.76","SCT:04 85 OVC:08 110","29.73","10.00","47","240",,"8",,,,,,,,,,,,,,,,,,,,,,,,,,,,,,,,,,,,,"MET10503/27/20 02:51:02 METAR KLGA 270751Z 24007KT 10SM SCT085 OVC110 11/06 A2976 RMK AO2 SLP078 T01110056 (RZ)","FM-15","7",,,,,,,,,,,,,,,,,,,,,,,,,,,,
"72503014732","2020-03-27T03:51:00","FM-15","7",,,,,,,,,,,,,,,,,,,,,,,,,,,,,,,,,,,,,,"29.76","43","51","T",,"+0.04","8","74","29.76","BKN:07 85 OVC:08 100","29.73","10.00","47","220",,"7",,,,,,,,,,,,,,,,,,,,,,,,,,,,,,,,,,,,,"MET13403/27/20 03:51:02 METAR KLGA 270851Z 22006KT 10SM BKN085 OVC100 11/06 A2976 RMK AO2 RAB0757E47 SLP077 P0000 60000 T01060061 58012 (RZ)","FM-15","7",,,,,,,,,,,,,,,,,,,,,,,,,,,,
"72503014732","2020-03-27T04:00:00","FM-12","4",,,,,,,,,,,,,,,,,,,,,,,,,,,,,,,,,,,,,,,"43","51",,,"+0.04","8","74","29.76",,"29.72","9.94","47","220",,"7",,,,,,,,,,,,,,,,,,,,,,,,,,,,,,,,,,,,,"SYN07072503 12966 82206 10106 20061 30064 40077 58012 69907 90851 555 92709=","FM-12","4",,,,,,,,,,,,,,,,,,,,,,,,,,,,
"72503014732","2020-03-27T04:51:00","FM-15","7",,,,,,,,,,,,,,,,,,,,,,,,,,,,,,,,,,,,,,"29.76","43","51","T","-RA:02 |RA |RA",,,"74","29.76","OVC:08 80","29.73","10.00","47","230",,"7",,,,,,,,,,,,,,,,,,,,,,,,,,,,,,,,,,,,,"MET11403/27/20 04:51:02 METAR KLGA 270951Z 23006KT 10SM -RA OVC080 11/06 A2976 RMK AO2 RAB49 SLP079 P0000 T01060061 (RZ)","FM-15","7",,,,,,,,,,,,,,,,,,,,,,,,,,,,
"72503014732","2020-03-27T05:51:00","FM-15","7",,,,,,,,,,,,,,,,,,,,,,,,,,,,,,,,,,,,,,"29.77","43","51","T",,,,"74","29.77","OVC:08 75","29.74","10.00","47","230",,"7",,,,,,,,,,,,,,,,,,,,,,,,,,,,,,,,,,,,,"MET11103/27/20 05:51:02 METAR KLGA 271051Z 23006KT 10SM OVC075 11/06 A2977 RMK AO2 RAE03 SLP081 P0000 T01060061 (PAS)","FM-15","7",,,,,,,,,,,,,,,,,,,,,,,,,,,,
"72503014732","2020-03-27T06:51:00","FM-15","7",,,,,,,,,,,,,,,,,,,,,,,,,,,,,,,,,,,,,,"29.78","44","52","0.00",,"-0.02","3","75","29.78","OVC:08 70","29.75","10.00","48","230",,"5",,,,,,,,,,,,,,,,,,,,,,,,,,,,,,,,,,,,,"MET12303/27/20 06:51:02 METAR KLGA 271151Z 23004KT 10SM OVC070 11/07 A2978 RMK AO2 SLP084 60000 T01110067 10111 20106 53007 (PAS)","FM-15","7",,,,,,,,,,,,,,,,,,,,,,,,,,,,
"72503014732","2020-03-27T07:00:00","FM-12","4",,,,,,,,,,,,,,,,,,,,,,,,,,,,,,,,,,,,,,,"44","52",,,"-0.02","3","75","29.78","74","29.74","9.94","48","230",,"5",,,,,,,,,,,,,,,,,,,,,,,,,,,,,,,,,,,,,"SYN08672503 12866 82304 10111 20067 30071 40084 53007 69901 91151 333 10150 20083 555 92712=","FM-12","4",,,,,,,,,,,,,,,,,,,,,,,,,,,,
"72503014732","2020-03-27T07:51:00","FM-15","7",,,,,,,,,,,,,,,,,,,,,,,,,,,,,,,,,,,,,,"29.80","43","53","0.00",,,,"69","29.80","FEW:02 65 BKN:07 80","29.77","10.00","48","290",,"5",,,,,,,,,,,,,,,,,,,,,,,,,,,,,,,,,,,,,"MET10603/27/20 07:51:02 METAR KLGA 271251Z 29004KT 10SM FEW065 BKN080 12/06 A2980 RMK AO2 SLP092 T01170061 (PAS)","FM-15","7",,,,,,,,,,,,,,,,,,,,,,,,,,,,
"72503014732","2020-03-27T08:51:00","FM-15","7",,,,,,,,,,,,,,,,,,,,,,,,,,,,,,,,,,,,,,"29.81","42","56","0.00",,,,"60","29.81","FEW:02 80 SCT:04 250","29.78","10.00","49","310",,"6",,,,,,,,,,,,,,,,,,,,,,,,,,,,,,,,,,,,,"MET10603/27/20 08:51:02 METAR KLGA 271351Z 31005KT 10SM FEW080 SCT250 13/06 A2981 RMK AO2 SLP094 T01330056 (PAS)","FM-15","7",,,,,,,,,,,,,,,,,,,,,,,,,,,,
"72503014732","2020-03-27T09:51:00","FM-15","7",,,,,,,,,,,,,,,,,,,,,,,,,,,,,,,,,,,,,,"29.82","42","59","0.00",,"-0.04","1","54","29.82","FEW:02 80 FEW:02 250","29.79","10.00","50","360",,"10",,,,,,,,,,,,,,,,,,,,,,,,,,,,,,,,,,,,,"MET11203/27/20 09:51:02 METAR KLGA 271451Z 36009KT 10SM FEW080 FEW250 15/06 A2982 RMK AO2 SLP098 T01500056 51015 (PAS)","FM-15","7",,,,,,,,,,,,,,,,,,,,,,,,,,,,
"72503014732","2020-03-27T10:00:00","FM-12","4",,,,,,,,,,,,,,,,,,,,,,,,,,,,,,,,,,,,,,,"42","59",,,"-0.04","1","54","29.82","74","29.78","9.94","50","360",,"10",,,,,,,,,,,,,,,,,,,,,,,,,,,,,,,,,,,,,"SYN06472503 32866 23609 10150 20056 30085 40098 51015 91451 555 92715=","FM-12","4",,,,,,,,,,,,,,,,,,,,,,,,,,,,
"72503014732","2020-03-27T10:51:00","FM-15","7",,,,,,,,,,,,,,,,,,,,,,,,,,,,,,,,,,,,,,"29.83","38","61","0.00",,,,"43","29.83","FEW:02 55 SCT:04 100 BKN:07 250","29.80","10.00","50","360",,"13",,,,,,,,,,,,,,,,,,,,,,,,,,,,,,,,,,,,,"MET11303/27/20 10:51:02 METAR KLGA 271551Z 36011KT 10SM FEW055 SCT100 BKN250 16/03 A2983 RMK AO2 SLP103 T01610033 (PAS)","FM-15","7",,,,,,,,,,,,,,,,,,,,,,,,,,,,
"72503014732","2020-03-27T11:51:00","FM-15","7",,,,,,,,,,,,,,,,,,,,,,,,,,,,,,,,,,,,,,"29.84","33","62","0.00",,,,"34","29.84","FEW:02 60 FEW:02 100 FEW:02 250","29.81","10.00","48","010","21","11",,,,,,,,,,,,,,,,,,,,,,,,,,,,,,,,,,,,,"MET11603/27/20 11:51:02 METAR KLGA 271651Z 01010G18KT 10SM FEW060 FEW100 FEW250 17/01 A2984 RMK AO2 SLP104 T01670006 (PAS)","FM-15","7",,,,,,,,,,,,,,,,,,,,,,,,,,,,
"72503014732","2020-03-27T12:51:00","FM-15","7",,,,,,,,,,,,,,,,,,,,,,,,,,,,,,,,,,,,,,"29.85","28","63","0.00",,"-0.03","1","27","29.85","FEW:02 100 FEW:02 250","29.82","10.00","47","350",,"9",,,,,,,,,,,,,,,,,,,,,,,,,,,,,,,,,,,,,"MET12503/27/20 12:51:02 METAR KLGA 271751Z 35008KT 10SM FEW100 FEW250 17/M02 A2985 RMK AO2 SLP107 T01721022 10178 20111 51009 (PAS)","FM-15","7",,,,,,,,,,,,,,,,,,,,,,,,,,,,
"72503014732","2020-03-27T13:00:00","FM-12","4",,,,,,,,,,,,,,,,,,,,,,,,,,,,,,,,,,,,,,,"28","63",,,"-0.03","1","27","29.85",,"29.81","9.94","47","350",,"9",,,,,,,,,,,,,,,,,,,,,,,,,,,,,,,,,,,,,"SYN08072503 32966 23508 10172 21022 30095 40107 51009 91751 333 10178 20083 555 92718=","FM-12","4",,,,,,,,,,,,,,,,,,,,,,,,,,,,
"72503014732","2020-03-27T13:51:00","FM-15","7",,,,,,,,,,,,,,,,,,,,,,,,,,,,,,,,,,,,,,"29.84","27","65","0.00",,,,"24","29.84","FEW:02 100 FEW:02 250","29.81","10.00","48","020",,"11",,,,,,,,,,,,,,,,,,,,,,,,,,,,,,,,,,,,,"MET10603/27/20 13:51:02 METAR KLGA 271851Z 02010KT 10SM FEW100 FEW250 18/M03 A2984 RMK AO2 SLP104 T01831028 (WL)","FM-15","7",,,,,,,,,,,,,,,,,,,,,,,,,,,,
"72503014732","2020-03-27T14:51:00","FM-15","7",,,,,,,,,,,,,,,,,,,,,,,,,,,,,,,,,,,,,,"29.85","25","66","0.00",,,,"21","29.85","FEW:02 250","29.82","10.00","48","000",,"0",,,,,,,,,,,,,,,,,,,,,,,,,,,,,,,,,,,,,"MET09903/27/20 14:51:02 METAR KLGA 271951Z 00000KT 10SM FEW250 19/M04 A2985 RMK AO2 SLP107 T01891039 (WL)","FM-15","7",,,,,,,,,,,,,,,,,,,,,,,,,,,,
"72503014732","2020-03-27T15:51:00","FM-15","7",,,,,,,,,,,,,,,,,,,,,,,,,,,,,,,,,,,,,,"29.85","24","67","0.00",,"-0.00","3","20","29.85","FEW:02 250","29.82","10.00","48","070",,"5",,,,,,,,,,,,,,,,,,,,,,,,,,,,,,,,,,,,,"MET10503/27/20 15:51:02 METAR KLGA 272051Z 07004KT 10SM FEW250 19/M04 A2985 RMK AO2 SLP108 T01941044 53001 (WL)","FM-15","7",,,,,,,,,,,,,,,,,,,,,,,,,,,,
"72503014732","2020-03-27T16:00:00","FM-12","4",,,,,,,,,,,,,,,,,,,,,,,,,,,,,,,,,,,,,,,"24","67",,,"-0.00","3","20","29.85",,"29.81","9.94","48","070",,"5",,,,,,,,,,,,,,,,,,,,,,,,,,,,,,,,,,,,,"SYN06472503 32966 20704 10194 21044 30095 40108 53001 92051 555 92721=","FM-12","4",,,,,,,,,,,,,,,,,,,,,,,,,,,,
"72503014732","2020-03-27T16:51:00","FM-15","7",,,,,,,,,,,,,,,,,,,,,,,,,,,,,,,,,,,,,,"29.87","22","67","0.00",,,,"18","29.86","FEW:02 250","29.84","10.00","48","060",,"5",,,,,,,,,,,,,,,,,,,,,,,,,,,,,,,,,,,,,"MET09903/27/20 16:51:02 METAR KLGA 272151Z 06004KT 10SM FEW250 19/M06 A2987 RMK AO2 SLP113 T01941056 (WL)","FM-15","7",,,,,,,,,,,,,,,,,,,,,,,,,,,,
"72503014732","2020-03-27T17:51:00","FM-15","7",,,,,,,,,,,,,,,,,,,,,,,,,,,,,,,,,,,,,,"29.91","23","65","0.00",,,,"20","29.91","FEW:02 250","29.88","10.00","47","330",,"3",,,,,,,,,,,,,,,,,,,,,,,,,,,,,,,,,,,,,"MET09903/27/20 17:51:02 METAR KLGA 272251Z 33003KT 10SM FEW250 18/M05 A2991 RMK AO2 SLP129 T01831050 (WL)","FM-15","7",,,,,,,,,,,,,,,,,,,,,,,,,,,,
"72503014732","2020-03-27T18:51:00","FM-15","7",,,,,,,,,,,,,,,,,,,,,,,,,,,,,,,,,,,,,,"29.94","27","62","0.00",,"-0.09","3","26","29.94","FEW:02 250","29.91","10.00","47","170",,"6",,,,,,,,,,,,,,,,,,,,,,,,,,,,,,,,,,,,,"MET11703/27/20 18:51:02 METAR KLGA 272351Z 17005KT 10SM FEW250 17/M03 A2994 RMK AO2 SLP139 T01671028 10200 20167 53031 (WL)","FM-15","7",,,,,,,,,,,,,,,,,,,,,,,,,,,,
"72503014732","2020-03-27T19:00:00","FM-12","4",,,,,,,,,,,,,,,,,,,,,,,,,,,,,,,,,,,,,,,"27","62",,,"-0.09","3","26","29.94",,"29.90","9.94","47","170",,"6",,,,,,,,,,,,,,,,,,,,,,,,,,,,,,,,,,,,,"SYN08072503 32966 21705 10167 21028 30125 40139 53031 92351 333 10200 20106 555 92800=","FM-12","4",,,,,,,,,,,,,,,,,,,,,,,,,,,,
"72503014732","2020-03-27T19:51:00","FM-15","7",,,,,,,,,,,,,,,,,,,,,,,,,,,,,,,,,,,,,,"29.98","28","59","0.00",,,,"31","29.98","SCT:04 250","29.95","10.00","45","000",,"0",,,,,,,,,,,,,,,,,,,,,,,,,,,,,,,,,,,,,"MET09403/27/20 19:51:01 METAR KLGA 280051Z 00000KT 10SM SCT250 15/M02 A2998 RMK AO2 SLP152 T01501022","FM-15","7",,,,,,,,,,,,,,,,,,,,,,,,,,,,
"72503014732","2020-03-27T20:51:00","FM-15","7",,,,,,,,,,,,,,,,,,,,,,,,,,,,,,,,,,,,,,"30.01","29","58","0.00",,,,"33","30.01","SCT:04 250","29.98","10.00","45","000",,"0",,,,,,,,,,,,,,,,,,,,,,,,,,,,,,,,,,,,,"MET09403/27/20 20:51:01 METAR KLGA 280151Z 00000KT 10SM SCT250 14/M02 A3001 RMK AO2 SLP162 T01441017","FM-15","7",,,,,,,,,,,,,,,,,,,,,,,,,,,,
"72503014732","2020-03-27T21:51:00","FM-15","7",,,,,,,,,,,,,,,,,,,,,,,,,,,,,,,,,,,,,,"30.03","36","51","0.00",,"-0.09","1","56","30.03","FEW:02 250","30.00","10.00","44","050",,"6",,,,,,,,,,,,,,,,,,,,,,,,,,,,,,,,,,,,,"MET09903/27/20 21:51:01 METAR KLGA 280251Z 05005KT 10SM FEW250 11/02 A3003 RMK AO2 SLP168 T01060022 51029","FM-15","7",,,,,,,,,,,,,,,,,,,,,,,,,,,,
"72503014732","2020-03-27T22:00:00","FM-12","4",,,,,,,,,,,,,,,,,,,,,,,,,,,,,,,,,,,,,,,"36","51",,,"-0.09","1","56","30.03",,"29.99","9.94","44","050",,"6",,,,,,,,,,,,,,,,,,,,,,,,,,,,,,,,,,,,,"SYN06472503 32966 20505 10106 20022 30156 40168 51029 90251 555 92803=","FM-12","4",,,,,,,,,,,,,,,,,,,,,,,,,,,,
"72503014732","2020-03-27T22:51:00","FM-15","7",,,,,,,,,,,,,,,,,,,,,,,,,,,,,,,,,,,,,,"30.06","32","53","0.00",,,,"45","30.06","BKN:07 170 BKN:07 250","30.03","10.00","44","030",,"6",,,,,,,,,,,,,,,,,,,,,,,,,,,,,,,,,,,,,"MET10003/27/20 22:51:02 METAR KLGA 280351Z 03005KT 10SM BKN170 BKN250 12/00 A3006 RMK AO2 SLP180 T01170000","FM-15","7",,,,,,,,,,,,,,,,,,,,,,,,,,,,
"72503014732","2020-03-27T23:51:00","FM-15","7",,,,,,,,,,,,,,,,,,,,,,,,,,,,,,,,,,,,,,"30.07","35","51","0.00",,,,"54","30.07","BKN:07 170 BKN:07 250","30.04","10.00","44","060",,"8",,,,,,,,,,,,,,,,,,,,,,,,,,,,,,,,,,,,,"MET11003/27/20 23:51:02 METAR KLGA 280451Z 06007KT 10SM BKN170 BKN250 11/02 A3007 RMK AO2 SLP182 T01060017 402000100","FM-15","7",,,,,,,,,,,,,,,,,,,,,,,,,,,,
"72503014732","2020-03-27T23:59:00","SOD  ","6",,,,,,,,,,,,,,,"35","59","46","29.87","29.80","47","6.3","0","13.4","6","68","50","030","21","T","0","0.0","020","16","RA",,,,,,,,,,,,,,,,,,,,,,,,,,,,,,,,,,,,,,,,,,,,,,,,,,,,,,,,"SOD73924 HR PRECIPITATION (IN):    T SNOW DEPTH (IN):0     24 HR SNOWFALL (IN):0.0  24 HR MAX TEMP (F): 6824 HR MIN TEMP (F): 50AVERAGE STATION PRESSURE:29.805 MINIMUM SEA LEVEL PRESSURE:29.75 TIME OF OCCURRENCE:0428 PEAK WIND SPEED (MPH): 21 PEAK WIND DIR (DEG): 30 PEAK WIND TIME (LST):      FASTEST 2MIN SPEED (MPH): 16FASTEST 2MIN DIR (DEG): 20 FASTEST 2MIN TIME (LST):     AVERAGE WIND SPEED (MPH): 6.3 24 HR AVG TEMP (F): 59DEPART FROM NORMAL: 13  HEATING DEGREE DAYS:  6 COOLING DEGREE DAYS:  0 LATEST DAY MAX TEMP (0700-1900 LST):68  LATEST NIGHT MIN TEMP(1900-0800 LST):47 HOURLY INCREMENTAL PRECIPITATION VALUES (IN):.00 0.00 T    T    T    T    0.00 0.00 0.00 0.00 0.00 0.00 0.00 0.00 0.00 0.00 0.00 0.00 0.00 0.00 0.00 0.00 0.00 0.00","SOD  ","6",,,,,,,,,,,,,,,,,,,,,,,,,"0546","1816",,
"72503014732","2020-03-28T00:51:00","FM-15","7",,,,,,,,,,,,,,,,,,,,,,,,,,,,,,,,,,,,,,"30.09","32","50","0.00",,"-0.06","1","50","30.09","SCT:04 160 BKN:07 250","30.06","10.00","42","100",,"3",,,,,,,,,,,,,,,,,,,,,,,,,,,,,,,,,,,,,"MET12303/28/20 00:51:02 METAR KLGA 280551Z 10003KT 10SM SCT160 BKN250 10/00 A3009 RMK AO2 SLP188 T01000000 10167 20100 51021 (RZ)","FM-15","7",,,,,,,,,,,,,,,,,,,,,,,,,,,,
"72503014732","2020-03-28T01:00:00","FM-12","4",,,,,,,,,,,,,,,,,,,,,,,,,,,,,,,,,,,,,,,"32","50",,,"-0.06","1","50","30.09",,"30.05","9.94","42","100",,"3",,,,,,,,,,,,,,,,,,,,,,,,,,,,,,,,,,,,,"SYN08072503 32966 61003 10100 20000 30176 40188 51021 90551 333 10167 20100 555 92806=","FM-12","4",,,,,,,,,,,,,,,,,,,,,,,,,,,,
"72503014732","2020-03-28T01:51:00","FM-15","7",,,,,,,,,,,,,,,,,,,,,,,,,,,,,,,,,,,,,,"30.09","30","50","0.00",,,,"46","30.09","SCT:04 160 BKN:07 250","30.06","10.00","41","060",,"6",,,,,,,,,,,,,,,,,,,,,,,,,,,,,,,,,,,,,"MET10603/28/20 01:51:02 METAR KLGA 280651Z 06005KT 10SM SCT160 BKN250 10/M01 A3009 RMK AO2 SLP189 T01001011 (RZ)","FM-15","7",,,,,,,,,,,,,,,,,,,,,,,,,,,,
"72503014732","2020-03-28T02:51:00","FM-15","7",,,,,,,,,,,,,,,,,,,,,,,,,,,,,,,,,,,,,,"30.07","29","48","0.00",,,,"48","30.06","BKN:07 160 BKN:07 250","30.04","10.00","40","050",,"5",,,,,,,,,,,,,,,,,,,,,,,,,,,,,,,,,,,,,"MET10603/28/20 02:51:02 METAR KLGA 280751Z 05004KT 10SM BKN160 BKN250 09/M02 A3007 RMK AO2 SLP181 T00891017 (RZ)","FM-15","7",,,,,,,,,,,,,,,,,,,,,,,,,,,,
"72503014732","2020-03-28T03:51:00","FM-15","7",,,,,,,,,,,,,,,,,,,,,,,,,,,,,,,,,,,,,,"30.08","28","48","0.00",,"+0.01","5","46","30.07","SCT:04 160 BKN:07 190 OVC:08 250","30.05","10.00","40","050",,"7",,,,,,,,,,,,,,,,,,,,,,,,,,,,,,,,,,,,,"MET11903/28/20 03:51:02 METAR KLGA 280851Z 05006KT 10SM SCT160 BKN190 OVC250 09/M02 A3008 RMK AO2 SLP184 T00891022 55004 (RZ)","FM-15","7",,,,,,,,,,,,,,,,,,,,,,,,,,,,
"72503014732","2020-03-28T04:00:00","FM-12","4",,,,,,,,,,,,,,,,,,,,,,,,,,,,,,,,,,,,,,,"28","48",,,"+0.01","5","46","30.07",,"30.04","9.94","40","050",,"7",,,,,,,,,,,,,,,,,,,,,,,,,,,,,,,,,,,,,"SYN06472503 32966 80506 10089 21022 30172 40184 55004 90851 555 92809=","FM-12","4",,,,,,,,,,,,,,,,,,,,,,,,,,,,
"72503014732","2020-03-28T04:51:00","FM-15","7",,,,,,,,,,,,,,,,,,,,,,,,,,,,,,,,,,,,,,"30.10","29","48","0.00",,,,"48","30.09","BKN:07 120 BKN:07 190 OVC:08 250","30.07","10.00","40","050",,"7",,,,,,,,,,,,,,,,,,,,,,,,,,,,,,,,,,,,,"MET11303/28/20 04:51:02 METAR KLGA 280951Z 05006KT 10SM BKN120 BKN190 OVC250 09/M02 A3010 RMK AO2 SLP191 T00891017 (RZ)","FM-15","7",,,,,,,,,,,,,,,,,,,,,,,,,,,,
"72503014732","2020-03-28T05:51:00","FM-15","7",,,,,,,,,,,,,,,,,,,,,,,,,,,,,,,,,,,,,,"30.09","32","47","0.00",,,,"56","30.09","BKN:07 120 BKN:07 200","30.06","10.00","41","060",,"9",,,,,,,,,,,,,,,,,,,,,,,,,,,,,,,,,,,,,"MET10503/28/20 05:51:02 METAR KLGA 281051Z 06008KT 10SM BKN120 BKN200 08/00 A3009 RMK AO2 SLP190 T00830000 (ML)","FM-15","7",,,,,,,,,,,,,,,,,,,,,,,,,,,,
"72503014732","2020-03-28T06:51:00","FM-15","7",,,,,,,,,,,,,,,,,,,,,,,,,,,,,,,,,,,,,,"30.10","34","47","0.00",,"-0.02","1","61","30.09","FEW:02 100 BKN:07 130 BKN:07 200","30.07","10.00","41","050",,"8",,,,,,,,,,,,,,,,,,,,,,,,,,,,,,,,,,,,,"MET13003/28/20 06:51:02 METAR KLGA 281151Z 05007KT 10SM FEW100 BKN130 BKN200 08/01 A3010 RMK AO2 SLP191 T00830011 10106 20083 51007 (ML)","FM-15","7",,,,,,,,,,,,,,,,,,,,,,,,,,,,
"72503014732","2020-03-28T07:00:00","FM-12","4",,,,,,,,,,,,,,,,,,,,,,,,,,,,,,,,,,,,,,,"34","47",,,"-0.02","1","61","30.09",,"30.06","9.94","41","050",,"8",,,,,,,,,,,,,,,,,,,,,,,,,,,,,,,,,,,,,"SYN08072503 32966 60507 10083 20011 30179 40191 51007 91151 333 10200 20083 555 92812=","FM-12","4",,,,,,,,,,,,,,,,,,,,,,,,,,,,
"72503014732","2020-03-28T07:51:00","FM-15","7",,,,,,,,,,,,,,,,,,,,,,,,,,,,,,,,,,,,,,"30.12","35","48","0.00",,,,"61","30.12","BKN:07 110 BKN:07 140 BKN:07 200","30.09","10.00","42","050",,"9",,,,,,,,,,,,,,,,,,,,,,,,,,,,,,,,,,,,,"MET11203/28/20 07:51:02 METAR KLGA 281251Z 05008KT 10SM BKN110 BKN140 BKN200 09/02 A3012 RMK AO2 SLP199 T00890017 (ML)","FM-15","7",,,,,,,,,,,,,,,,,,,,,,,,,,,,
"72503014732","2020-03-28T08:51:00","FM-15","7",,,,,,,,,,,,,,,,,,,,,,,,,,,,,,,,,,,,,,"30.15","38","47","T","-RA:02 |RA |RA",,,"71","30.15","FEW:02 55 BKN:07 75 OVC:08 90","30.12","10.00","43","050",,"11",,,,,,,,,,,,,,,,,,,,,,,,,,,,,,,,,,,,,"MET12803/28/20 08:51:02 METAR KLGA 281351Z 05010KT 10SM -RA FEW055 BKN075 OVC090 08/03 A3015 RMK AO2 RAB39 SLP210 P0000 T00830033 (ML)","FM-15","7",,,,,,,,,,,,,,,,,,,,,,,,,,,,
"72503014732","2020-03-28T09:51:00","FM-15","7",,,,,,,,,,,,,,,,,,,,,,,,,,,,,,,,,,,,,,"30.12","39","47","0.01","-RA:02 |RA |RA","-0.03","0","74","30.12","FEW:02 55 BKN:07 85 OVC:08 110","30.09","10.00","43","070",,"9",,,,,,,,,,,,,,,,,,,,,,,,,,,,,,,,,,,,,"MET13403/28/20 09:51:02 METAR KLGA 281451Z 07008KT 10SM -RA FEW055 BKN085 OVC110 08/04 A3012 RMK AO2 SLP200 P0001 60001 T00830039 50009 (ML)","FM-15","7",,,,,,,,,,,,,,,,,,,,,,,,,,,,
"72503014732","2020-03-28T10:00:00","FM-12","4",,,,,,,,,,,,,,,,,,,,,,,,,,,,,,,,,,,,,,,"39","47",,"||RA","0.03","9","74","30.12","57","30.08","9.94","43","070",,"9",,,,,,,,,,,,,,,,,,,,,,,,,,,,,,,,,,,,,"SYN07672503 11766 80708 10083 20039 30186 40200 50009 69937 761// 91451 555 92815=","FM-12","4",,,,,,,,,,,,,,,,,,,,,,,,,,,,
"72503014732","2020-03-28T10:51:00","FM-15","7",,,,,,,,,,,,,,,,,,,,,,,,,,,,,,,,,,,,,,"30.14","39","46","0.02","-RA:02 |RA |RA",,,"77","30.14","FEW:02 50 BKN:07 75 OVC:08 90","30.11","10.00","43","050",,"13",,,,,,,,,,,,,,,,,,,,,,,,,,,,,,,,,,,,,"MET12203/28/20 10:51:02 METAR KLGA 281551Z 05011KT 10SM -RA FEW050 BKN075 OVC090 08/04 A3014 RMK AO2 SLP206 P0002 T00780039 (ML)","FM-15","7",,,,,,,,,,,,,,,,,,,,,,,,,,,,
"72503014732","2020-03-28T11:51:00","FM-15","7",,,,,,,,,,,,,,,,,,,,,,,,,,,,,,,,,,,,,,"30.11","41","47","0.02","-RA:02 |RA |RA",,,"80","30.11","SCT:04 80 OVC:08 95","30.08","10.00","44","050",,"10",,,,,,,,,,,,,,,,,,,,,,,,,,,,,,,,,,,,,"MET13003/28/20 11:51:02 METAR KLGA 281651Z 05009KT 10SM -RA SCT080 OVC095 08/05 A3011 RMK AO2 CIG 080 R22 SW SLP196 P0001 T00830050 (ML)","FM-15","7",,,,,,,,,,,,,,,,,,,,,,,,,,,,
"72503014732","2020-03-28T12:51:00","FM-15","7",,,,,,,,,,,,,,,,,,,,,,,,,,,,,,,,,,,,,,"30.13","40","46","0.01","-RA:02 |RA |RA","-0.00","1","79","30.12","FEW:02 40 BKN:07 70 OVC:08 95","30.10","10.00","43","030",,"10",,,,,,,,,,,,,,,,,,,,,,,,,,,,,,,,,,,,,"MET14603/28/20 12:51:02 METAR KLGA 281751Z 03009KT 10SM -RA FEW040 BKN070 OVC095 08/04 A3013 RMK AO2 SLP201 P0001 60005 T00780044 10089 20078 51001 (ML)","FM-15","7",,,,,,,,,,,,,,,,,,,,,,,,,,,,
"72503014732","2020-03-28T13:00:00","FM-12","4",,,,,,,,,,,,,,,,,,,,,,,,,,,,,,,,,,,,,,,"40","46",,"||RA","-0.00","1","79","30.12","41","30.09","9.94","43","030",,"10",,,,,,,,,,,,,,,,,,,,,,,,,,,,,,,,,,,,,"SYN09272503 11666 80309 10078 20044 30189 40201 51001 60011 761// 91751 333 10106 20078 555 92818=","FM-12","4",,,,,,,,,,,,,,,,,,,,,,,,,,,,
"72503014732","2020-03-28T13:51:00","FM-15","7",,,,,,,,,,,,,,,,,,,,,,,,,,,,,,,,,,,,,,"30.12","40","45","0.11","+RA:02 |RA |RA",,,"83","30.11","BKN:07 55 BKN:07 70 OVC:08 90","30.09","4.00","43","040",,"9",,,,,,,,,,,,,,,,,,,,,,,,,,,,,,,,,,,,,"MET12103/28/20 13:51:02 METAR KLGA 281851Z 04008KT 4SM +RA BKN055 BKN070 OVC090 07/04 A3012 RMK AO2 SLP198 P0010 T00720044 (JG)","FM-15","7",,,,,,,,,,,,,,,,,,,,,,,,,,,,
"72503014732","2020-03-28T14:51:00","FM-15","7",,,,,,,,,,,,,,,,,,,,,,,,,,,,,,,,,,,,,,"30.07","41","45","0.03",,,,"86","30.06","FEW:02 25 BKN:07 50 OVC:08 90","30.04","10.00","43","050",,"13",,,,,,,,,,,,,,,,,,,,,,,,,,,,,,,,,,,,,"MET12403/28/20 14:51:02 METAR KLGA 281951Z 05011KT 10SM FEW025 BKN050 OVC090 07/05 A3007 RMK AO2 RAE34 SLP181 P0005 T00720050 (JG)","FM-15","7",,,,,,,,,,,,,,,,,,,,,,,,,,,,
"72503014732","2020-03-28T15:51:00","FM-15","7",,,,,,,,,,,,,,,,,,,,,,,,,,,,,,,,,,,,,,"30.04","41","45","0.00",,"+0.09","8","86","30.04","FEW:02 15 OVC:08 45","30.01","10.00","43","060",,"11",,,,,,,,,,,,,,,,,,,,,,,,,,,,,,,,,,,,,"MET11703/28/20 15:51:02 METAR KLGA 282051Z 06010KT 10SM FEW015 OVC045 07/05 A3004 RMK AO2 SLP172 60015 T00720050 58029 (JG)","FM-15","7",,,,,,,,,,,,,,,,,,,,,,,,,,,,
"72503014732","2020-03-28T16:00:00","FM-12","4",,,,,,,,,,,,,,,,,,,,,,,,,,,,,,,,,,,,,,,"41","45",,,"+0.09","8","86","30.04","15","30.00","9.94","43","060",,"11",,,,,,,,,,,,,,,,,,,,,,,,,,,,,,,,,,,,,"SYN07072503 12466 80610 10072 20050 30159 40172 58029 60047 92051 555 92821=","FM-12","4",,,,,,,,,,,,,,,,,,,,,,,,,,,,
"72503014732","2020-03-28T16:20:00","FM-16","7",,,,,,,,,,,,,,,,,,,,,,,,,,,,,,,,,,,,,,"30.05","40","45",,,,,"83",,"BKN:07 19 OVC:08 42","30.02","10.00","43","060",,"14",,,,,,,,,,,,,,,,,,,,,,,,,,,,,,,,,,,,,"MET09803/28/20 16:20:02 SPECI KLGA 282120Z 06012KT 10SM BKN019 OVC042 07/04 A3005 RMK AO2 T00720044 (JG)","FM-16","7",,,,,,,,,,,,,,,,,,,,,,,,,,,,
"72503014732","2020-03-28T16:39:00","FM-16","7",,,,,,,,,,,,,,,,,,,,,,,,,,,,,,,,,,,,,,"30.06","40","45",,,,,"83",,"SCT:04 19 OVC:08 38","30.03","10.00","43","070",,"11",,,,,,,,,,,,,,,,,,,,,,,,,,,,,,,,,,,,,"MET09803/28/20 16:39:02 SPECI KLGA 282139Z 07010KT 10SM SCT019 OVC038 07/04 A3006 RMK AO2 T00720044 (JG)","FM-16","7",,,,,,,,,,,,,,,,,,,,,,,,,,,,
"72503014732","2020-03-28T16:51:00","FM-15","7",,,,,,,,,,,,,,,,,,,,,,,,,,,,,,,,,,,,,,"30.06","41","46","0.00",,,,"83","30.06","FEW:02 19 OVC:08 37","30.03","10.00","44","060",,"10",,,,,,,,,,,,,,,,,,,,,,,,,,,,,,,,,,,,,"MET10503/28/20 16:51:02 METAR KLGA 282151Z 06009KT 10SM FEW019 OVC037 08/05 A3006 RMK AO2 SLP178 T00780050 (JG)","FM-15","7",,,,,,,,,,,,,,,,,,,,,,,,,,,,
"72503014732","2020-03-28T17:15:00","FM-16","7",,,,,,,,,,,,,,,,,,,,,,,,,,,,,,,,,,,,,,"30.07","40","45","T","-RA:02 |RA |RA",,,"83",,"FEW:02 19 BKN:07 26 OVC:08 34","30.04","10.00","43","040",,"14",,,,,,,,,,,,,,,,,,,,,,,,,,,,,,,,,,,,,"MET12103/28/20 17:15:02 SPECI KLGA 282215Z 04012KT 10SM -RA FEW019 BKN026 OVC034 07/04 A3007 RMK AO2 RAB11 P0000 T00720044 (JG)","FM-16","7",,,,,,,,,,,,,,,,,,,,,,,,,,,,
"72503014732","2020-03-28T17:51:00","FM-15","7",,,,,,,,,,,,,,,,,,,,,,,,,,,,,,,,,,,,,,"30.06","40","45","0.02","-RA:02 |RA |RA",,,"83","30.06","BKN:07 18 OVC:08 23","30.03","5.00","43","050",,"16",,,,,,,,,,,,,,,,,,,,,,,,,,,,,,,,,,,,,"MET12003/28/20 17:51:02 METAR KLGA 282251Z 05014KT 5SM -RA BKN018 OVC023 07/04 A3006 RMK AO2 RAB11 SLP178 P0001 T00720044 (JG)","FM-15","7",,,,,,,,,,,,,,,,,,,,,,,,,,,,
"72503014732","2020-03-28T18:10:00","FM-16","7",,,,,,,,,,,,,,,,,,,,,,,,,,,,,,,,,,,,,,"30.07","41","45","0.09","+RA:02 BR:1 |RA |RA",,,"86",,"BKN:07 13 BKN:07 18 OVC:08 22","30.04","2.50","43","060",,"13",,,,,,,,,,,,,,,,,,,,,,,,,,,,,,,,,,,,,"MET14803/28/20 18:10:02 SPECI KLGA 282310Z 06011KT 2 1/2SM R04/3500VP6000FT +RA BR BKN013 BKN018 OVC022 07/05 A3007 RMK AO2 SFC VIS 3 P0009 T00720050 (JG)","FM-16","7",,,,,,,,,,,,,,,,,,,,,,,,,,,,
"72503014732","2020-03-28T18:27:00","FM-16","7",,,,,,,,,,,,,,,,,,,,,,,,,,,,,,,,,,,,,,"30.05","41","45","0.14","-RA:02 BR:1 |RA |RA",,,"86",,"BKN:07 13 BKN:07 20 OVC:08 43","30.02","5.00","43","070",,"14",,,,,,,,,,,,,,,,,,,,,,,,,,,,,,,,,,,,,"MET11703/28/20 18:27:02 SPECI KLGA 282327Z 07012KT 5SM -RA BR BKN013 BKN020 OVC043 07/05 A3005 RMK AO2 P0014 T00720050 (JG)","FM-16","7",,,,,,,,,,,,,,,,,,,,,,,,,,,,
"72503014732","2020-03-28T18:51:00","FM-15","7",,,,,,,,,,,,,,,,,,,,,,,,,,,,,,,,,,,,,,"30.06","42","45","0.14","-RA:02 |RA |RA","-0.02","1","90","30.06","BKN:07 4 BKN:07 13 OVC:08 18","30.03","7.00","44","040",,"13",,,,,,,,,,,,,,,,,,,,,,,,,,,,,,,,,,,,,"MET14503/28/20 18:51:02 METAR KLGA 282351Z 04011KT 7SM -RA BKN004 BKN013 OVC018 07/06 A3006 RMK AO2 SLP180 P0015 60031 T00720056 10078 20072 51007 (JG)","FM-15","7",,,,,,,,,,,,,,,,,,,,,,,,,,,,
"72503014732","2020-03-28T19:00:00","FM-12","4",,,,,,,,,,,,,,,,,,,,,,,,,,,,,,,,,,,,,,,"42","45",,"||RA","-0.02","1","90","30.06","5","30.02","6.84","44","040",,"13",,,,,,,,,,,,,,,,,,,,,,,,,,,,,,,,,,,,,"SYN09272503 11261 80411 10072 20056 30166 40180 51007 60081 761// 92351 333 10089 20072 555 92900=","FM-12","4",,,,,,,,,,,,,,,,,,,,,,,,,,,,
"72503014732","2020-03-28T19:18:00","FM-16","7",,,,,,,,,,,,,,,,,,,,,,,,,,,,,,,,,,,,,,"30.05","42","46","T","-RA:02 BR:1 |RA |RA",,,"86",,"OVC:08 7","30.02","2.00","44","050",,"14",,,,,,,,,,,,,,,,,,,,,,,,,,,,,,,,,,,,,"MET10803/28/20 19:18:01 SPECI KLGA 290018Z 05012KT 2SM -RA BR OVC007 08/06 A3005 RMK AO2 SFC VIS 3 P0000 T00780056","FM-16","7",,,,,,,,,,,,,,,,,,,,,,,,,,,,
"72503014732","2020-03-28T19:37:00","FM-16","7",,,,,,,,,,,,,,,,,,,,,,,,,,,,,,,,,,,,,,"30.06","42","45","0.02","-RA:02 BR:1 |RA |RA",,,"90",,"BKN:07 4 OVC:08 7","30.03","2.00","44","050",,"15",,,,,,,,,,,,,,,,,,,,,,,,,,,,,,,,,,,,,"MET11503/28/20 19:37:01 SPECI KLGA 290037Z 05013KT 2SM -RA BR BKN004 OVC007 07/06 A3006 RMK AO2 SFC VIS 3 P0002 T00720056","FM-16","7",,,,,,,,,,,,,,,,,,,,,,,,,,,,
"72503014732","2020-03-28T19:51:00","FM-15","7",,,,,,,,,,,,,,,,,,,,,,,,,,,,,,,,,,,,,,"30.08","42","45","0.03","-RA:02 BR:1 |RA |RA",,,"90","30.07","BKN:07 4 OVC:08 7","30.05","2.00","44","060",,"15",,,,,,,,,,,,,,,,,,,,,,,,,,,,,,,,,,,,,"MET12203/28/20 19:51:01 METAR KLGA 290051Z 06013KT 2SM -RA BR BKN004 OVC007 07/06 A3008 RMK AO2 SFC VIS 3 SLP184 P0002 T00720056","FM-15","7",,,,,,,,,,,,,,,,,,,,,,,,,,,,
"72503014732","2020-03-28T20:51:00","FM-15","7",,,,,,,,,,,,,,,,,,,,,,,,,,,,,,,,,,,,,,"30.06","43","45","0.01","-RA:02 BR:1 |RA |RA",,,"93","30.06","BKN:07 4 OVC:08 10","30.03","2.00","44","050",,"17",,,,,,,,,,,,,,,,,,,,,,,,,,,,,,,,,,,,,"MET12203/28/20 20:51:01 METAR KLGA 290151Z 05015KT 2SM -RA BR BKN004 OVC010 07/06 A3006 RMK AO2 SFC VIS 4 SLP178 P0002 T00720061","FM-15","7",,,,,,,,,,,,,,,,,,,,,,,,,,,,
"72503014732","2020-03-28T21:51:00","FM-15","7",,,,,,,,,,,,,,,,,,,,,,,,,,,,,,,,,,,,,,"30.03","43","45","T","-RA:02 BR:1 |RA |RA","+0.03","8","93","30.03","BKN:07 4 OVC:08 10","30.00","2.00","44","060",,"20",,,,,,,,,,,,,,,,,,,,,,,,,,,,,,,,,,,,,"MET13403/28/20 21:51:01 METAR KLGA 290251Z 06017KT 2SM -RA BR BKN004 OVC010 07/06 A3003 RMK AO2 SFC VIS 4 SLP169 P0000 60004 T00720061 58011","FM-15","7",,,,,,,,,,,,,,,,,,,,,,,,,,,,
"72503014732","2020-03-28T22:00:00","FM-12","4",,,,,,,,,,,,,,,,,,,,,,,,,,,,,,,,,,,,,,,"43","45",,"||RA","+0.03","8","93","30.03","5","29.99","1.99","44","060",,"20",,,,,,,,,,,,,,,,,,,,,,,,,,,,,,,,,,,,,"SYN08672503 11232 80617 10072 20061 30156 40169 58011 60017 761// 90251 333 96010 555 92903=","FM-12","4",,,,,,,,,,,,,,,,,,,,,,,,,,,,
"72503014732","2020-03-28T22:51:00","FM-15","7",,,,,,,,,,,,,,,,,,,,,,,,,,,,,,,,,,,,,,"30.02","43","45","0.01","-RA:02 BR:1 |RA |RA",,,"93","30.02","OVC:08 4","29.99","2.00","44","040",,"18",,,,,,,,,,,,,,,,,,,,,,,,,,,,,,,,,,,,,"MET11503/28/20 22:51:02 METAR KLGA 290351Z 04016KT 2SM -RA BR OVC004 07/06 A3002 RMK AO2 SFC VIS 3 SLP166 P0001 T00720061","FM-15","7",,,,,,,,,,,,,,,,,,,,,,,,,,,,
"72503014732","2020-03-28T23:51:00","FM-15","7",,,,,,,,,,,,,,,,,,,,,,,,,,,,,,,,,,,,,,"30.04","43","45","0.01","-RA:02 BR:1 |RA |RA",,,"93","30.04","OVC:08 4","30.01","2.00","44","050",,"17",,,,,,,,,,,,,,,,,,,,,,,,,,,,,,,,,,,,,"MET12503/28/20 23:51:02 METAR KLGA 290451Z 05015KT 2SM -RA BR OVC004 07/06 A3004 RMK AO2 SFC VIS 3 SLP172 P0001 T00720061 401060072","FM-15","7",,,,,,,,,,,,,,,,,,,,,,,,,,,,
"72503014732","2020-03-28T23:59:00","SOD  ","6",,,,,,,,,,,,,,,"38","48","75","30.08","30.06","43","11.2","0","2.0","17","51","45","060","28","0.42","0","0.0","050","23","RA BR",,,,,,,,,,,,,,,,,,,,,,,,,,,,,,,,,,,,,,,,,,,,,,,,,,,,,,,,"SOD75624 HR PRECIPITATION (IN): 0.42 SNOW DEPTH (IN):0     24 HR SNOWFALL (IN):0.0  WEATHER(CODE):1  24 HR MAX TEMP (F): 5124 HR MIN TEMP (F): 45AVERAGE STATION PRESSURE:30.055 MINIMUM SEA LEVEL PRESSURE:30.01 TIME OF OCCURRENCE:2247 PEAK WIND SPEED (MPH): 28 PEAK WIND DIR (DEG): 60 PEAK WIND TIME (LST):      FASTEST 2MIN SPEED (MPH): 23FASTEST 2MIN DIR (DEG): 50 FASTEST 2MIN TIME (LST):     AVERAGE WIND SPEED (MPH):11.2 24 HR AVG TEMP (F): 48DEPART FROM NORMAL:  2  HEATING DEGREE DAYS: 17 COOLING DEGREE DAYS:  0 LATEST DAY MAX TEMP (0700-1900 LST):48  LATEST NIGHT MIN TEMP(1900-0800 LST):47 HOURLY INCREMENTAL PRECIPITATION VALUES (IN):.00 0.00 0.00 0.00 0.00 0.00 0.00 0.00 T    0.01 0.02 0.02 0.01 0.11 0.03 0.00 0.00 0.02 0.14 0.03 0.01 T    0.01 0.01","SOD  ","6",,,,,,,,,,,,,,,,,,,,,,,,,"0544","1817",,
"72503014732","2020-03-29T00:51:00","FM-15","7",,,,,,,,,,,,,,,,,,,,,,,,,,,,,,,,,,,,,,"30.02","43","45","T","-RA:02 BR:1 |RA |RA","+0.01","8","93","30.01","OVC:08 4","29.99","2.00","44","050",,"17",,,,,,,,,,,,,,,,,,,,,,,,,,,,,,,,,,,,,"MET14403/29/20 00:51:02 METAR KLGA 290551Z 05015KT 2SM -RA BR OVC004 07/06 A3002 RMK AO2 SFC VIS 4 SLP164 P0000 60006 T00720061 10078 20072 58005 (WL)","FM-15","7",,,,,,,,,,,,,,,,,,,,,,,,,,,,
"72503014732","2020-03-29T01:00:00","FM-12","4",,,,,,,,,,,,,,,,,,,,,,,,,,,,,,,,,,,,,,,"43","45",,"||RA","+0.01","8","93","30.01","5","29.98","1.99","44","050",,"17",,,,,,,,,,,,,,,,,,,,,,,,,,,,,,,,,,,,,"SYN09872503 11232 80515 10072 20061 30152 40164 58005 60021 761// 90551 333 10106 20072 96010 555 92906=","FM-12","4",,,,,,,,,,,,,,,,,,,,,,,,,,,,
"72503014732","2020-03-29T01:51:00","FM-15","7",,,,,,,,,,,,,,,,,,,,,,,,,,,,,,,,,,,,,,"30.01","42","45","T","-RA:02 BR:1 |RA |RA",,,"90","30.01","OVC:08 4","29.98","2.00","44","050",,"21",,,,,,,,,,,,,,,,,,,,,,,,,,,,,,,,,,,,,"MET13103/29/20 01:51:02 METAR KLGA 290651Z 05018KT 2SM -RA BR OVC004 07/06 A3001 RMK AO2 SFC VIS 2 1/2 PRESFR SLP161 P0000 T00720056 (WL)","FM-15","7",,,,,,,,,,,,,,,,,,,,,,,,,,,,
"72503014732","2020-03-29T02:51:00","FM-15","7",,,,,,,,,,,,,,,,,,,,,,,,,,,,,,,,,,,,,,"30.01","42","45","T","-RA:02 BR:1 |RA |RA",,,"90","30.00","OVC:08 4","29.98","2.00","44","050",,"22",,,,,,,,,,,,,,,,,,,,,,,,,,,,,,,,,,,,,"MET12003/29/20 02:51:02 METAR KLGA 290751Z 05019KT 2SM -RA BR OVC004 07/06 A3001 RMK AO2 SFC VIS 3 SLP160 P0000 T00720056 (WL)","FM-15","7",,,,,,,,,,,,,,,,,,,,,,,,,,,,
"72503014732","2020-03-29T03:51:00","FM-15","7",,,,,,,,,,,,,,,,,,,,,,,,,,,,,,,,,,,,,,"29.99","42","45","T","-RA:02 BR:1 |RA |RA","+0.02","8","90","29.99","OVC:08 4","29.96","2.00","44","050","31","23",,,,,,,,,,,,,,,,,,,,,,,,,,,,,,,,,,,,,"MET15303/29/20 03:51:02 METAR KLGA 290851Z 05020G27KT 2SM -RA BR OVC004 07/06 A2999 RMK AO2 PK WND 05027/0848 SFC VIS 4 SLP155 P0000 60000 T00720056 58008 (WL)","FM-15","7",,,,,,,,,,,,,,,,,,,,,,,,,,,,
"72503014732","2020-03-29T04:00:00","FM-12","4",,,,,,,,,,,,,,,,,,,,,,,,,,,,,,,,,,,,,,,"42","45",,"||RA","+0.02","8","90","29.99","5","29.95","1.99","44","050",,"23",,,,,,,,,,,,,,,,,,,,,,,,,,,,,,,,,,,,,"SYN09272503 11232 80520 10072 20056 30142 40155 58008 69907 761// 90851 333 91027 96010 555 92909=","FM-12","4",,,,,,,,,,,,,,,,,,,,,,,,,,,,
"72503014732","2020-03-29T04:36:00","FM-16","7",,,,,,,,,,,,,,,,,,,,,,,,,,,,,,,,,,,,,,"29.99","42","45","T","-DZ:01 BR:1 |DZ |DZ",,,"90",,"OVC:08 4","29.96","3.00","44","050",,"22",,,,,,,,,,,,,,,,,,,,,,,,,,,,,,,,,,,,,"MET14203/29/20 04:36:02 SPECI KLGA 290936Z 05019KT 3SM -DZ BR OVC004 07/06 A2999 RMK AO2 PK WND 05027/0918 SFC VIS 4 RAE31DZB31 P0000 T00720056 (WL)","FM-16","7",,,,,,,,,,,,,,,,,,,,,,,,,,,,
"72503014732","2020-03-29T04:51:00","FM-15","7",,,,,,,,,,,,,,,,,,,,,,,,,,,,,,,,,,,,,,"30.00","42","45","T","-DZ:01 BR:1 |DZ |DZ",,,"90","30.00","OVC:08 4","29.97","3.00","44","050",,"22",,,,,,,,,,,,,,,,,,,,,,,,,,,,,,,,,,,,,"MET14903/29/20 04:51:02 METAR KLGA 290951Z 05019KT 3SM -DZ BR OVC004 07/06 A3000 RMK AO2 PK WND 05027/0918 SFC VIS 4 RAE31DZB31 SLP158 P0000 T00720056 (WL)","FM-15","7",,,,,,,,,,,,,,,,,,,,,,,,,,,,
"72503014732","2020-03-29T05:38:00","FM-16","7",,,,,,,,,,,,,,,,,,,,,,,,,,,,,,,,,,,,,,"30.01","43","45","T","-DZ:01 BR:1 |DZ |DZ",,,"93",,"OVC:08 5","29.98","1.25","44","060",,"16",,,,,,,,,,,,,,,,,,,,,,,,,,,,,,,,,,,,,"MET11803/29/20 05:38:02 SPECI KLGA 291038Z 06014KT 1 1/4SM -DZ BR OVC005 07/06 A3001 RMK AO2 SFC VIS 3 P0000 T00720061 (ATK)","FM-16","7",,,,,,,,,,,,,,,,,,,,,,,,,,,,
"72503014732","2020-03-29T05:51:00","FM-15","7",,,,,,,,,,,,,,,,,,,,,,,,,,,,,,,,,,,,,,"30.00","43","45","T","-DZ:01 BR:1 |DZ |DZ",,,"93","30.00","OVC:08 5","29.97","1.25","44","060",,"16",,,,,,,,,,,,,,,,,,,,,,,,,,,,,,,,,,,,,"MET12503/29/20 05:51:02 METAR KLGA 291051Z 06014KT 1 1/4SM -DZ BR OVC005 07/06 A3000 RMK AO2 SFC VIS 2 SLP158 P0000 T00720061 (ATK)","FM-15","7",,,,,,,,,,,,,,,,,,,,,,,,,,,,
"72503014732","2020-03-29T06:26:00","FM-16","7",,,,,,,,,,,,,,,,,,,,,,,,,,,,,,,,,,,,,,"30.02","43","45","T","-DZ:01 BR:1 |DZ |DZ",,,"93",,"OVC:08 4","29.99","1.25","44","050",,"17",,,,,,,,,,,,,,,,,,,,,,,,,,,,,,,,,,,,,"MET13903/29/20 06:26:02 SPECI KLGA 291126Z 05015KT 1 1/4SM -DZ BR OVC004 07/06 A3002 RMK AO2 SFC VIS 1 1/2 DZE05B25RAB05E25 P0000 T00720061 (ATK)","FM-16","7",,,,,,,,,,,,,,,,,,,,,,,,,,,,
"72503014732","2020-03-29T06:51:00","FM-15","7",,,,,,,,,,,,,,,,,,,,,,,,,,,,,,,,,,,,,,"30.01","43","45","T","-DZ:01 BR:1 |DZ |DZ","-0.02","3","93","30.01","OVC:08 4","29.98","1.25","44","050",,"16",,,,,,,,,,,,,,,,,,,,,,,,,,,,,,,,,,,,,"MET17603/29/20 06:51:02 METAR KLGA 291151Z 05014KT 1 1/4SM -DZ BR OVC004 07/06 A3001 RMK AO2 SFC VIS 1 1/2 DZE05B25RAB05E25 SLP163 P0000 60000 70042 T00720061 10072 20072 53008 (ATK)","FM-15","7",,,,,,,,,,,,,,,,,,,,,,,,,,,,
"72503014732","2020-03-29T07:00:00","FM-12","4",,,,,,,,,,,,,,,,,,,,,,,,,,,,,,,,,,,,,,,"43","45",,"||DZ","-0.02","3","93","30.01","5","29.97","1.24","44","050",,"16",,,,,,,,,,,,,,,,,,,,,,,,,,,,,,,,,,,,,"SYN10472503 11220 80514 10072 20061 30149 40163 53008 69901 751// 91151 333 10106 20072 70107 96010 555 92912=","FM-12","4",,,,,,,,,,,,,,,,,,,,,,,,,,,,
"72503014732","2020-03-29T07:51:00","FM-15","7",,,,,,,,,,,,,,,,,,,,,,,,,,,,,,,,,,,,,,"30.04","43","46","T","-DZ:01 BR:1 |DZ |DZ",,,"89","30.03","OVC:08 4","30.01","1.25","45","050",,"16",,,,,,,,,,,,,,,,,,,,,,,,,,,,,,,,,,,,,"MET14603/29/20 07:51:02 METAR KLGA 291251Z 05014KT 1 1/4SM R04/6000VP6000FT -DZ BR OVC004 08/06 A3004 RMK AO2 SFC VIS 1 1/2 SLP171 P0000 T00780061 (ATK)","FM-15","7",,,,,,,,,,,,,,,,,,,,,,,,,,,,
"72503014732","2020-03-29T08:51:00","FM-15","7",,,,,,,,,,,,,,,,,,,,,,,,,,,,,,,,,,,,,,"30.01","44","46","T","-DZ:01 BR:1 |DZ |DZ",,,"93","30.01","OVC:08 4","29.98","1.25","45","050",,"21",,,,,,,,,,,,,,,,,,,,,,,,,,,,,,,,,,,,,"MET14403/29/20 08:51:02 METAR KLGA 291351Z 05018KT 1 1/4SM R04/6000VP6000FT -DZ BR OVC004 08/07 A3001 RMK AO2 LTG DSNT NW SLP161 P0000 T00780067 (ATK)","FM-15","7",,,,,,,,,,,,,,,,,,,,,,,,,,,,
"72503014732","2020-03-29T09:20:00","FM-16","7",,,,,,,,,,,,,,,,,,,,,,,,,,,,,,,,,,,,,,"30.02","43","46","T","-DZ:01 BR:1 |DZ |DZ",,,"89",,"OVC:08 3","29.99","1.00","45","040","28","21",,,,,,,,,,,,,,,,,,,,,,,,,,,,,,,,,,,,,"MET15003/29/20 09:20:02 SPECI KLGA 291420Z 04018G24KT 1SM R04/6000VP6000FT -DZ BR OVC003 08/06 A3002 RMK AO2 SFC VIS 1 1/4 LTG DSNT NW P0000 T00780061 (ATK)","FM-16","7",,,,,,,,,,,,,,,,,,,,,,,,,,,,
"72503014732","2020-03-29T09:47:00","FM-16","7",,,,,,,,,,,,,,,,,,,,,,,,,,,,,,,,,,,,,,"30.01","45","46","T","-DZ:01 BR:1 |DZ |DZ",,,"93",,"BKN:07 3 OVC:08 4","29.98","1.25","46","050",,"22",,,,,,,,,,,,,,,,,,,,,,,,,,,,,,,,,,,,,"MET13903/29/20 09:47:02 SPECI KLGA 291447Z 05019KT 1 1/4SM R04/5000V5500FT -DZ BR BKN003 OVC004 08/07 A3001 RMK AO2 LTG DSNT N AND NW P0000 (ATK)","FM-16","7",,,,,,,,,,,,,,,,,,,,,,,,,,,,
"72503014732","2020-03-29T09:51:00","FM-15","7",,,,,,,,,,,,,,,,,,,,,,,,,,,,,,,,,,,,,,"30.03","44","46","T","-DZ:01 BR:1 |DZ |DZ","-0.01","1","93","30.02","BKN:07 3 OVC:08 4","30.00","1.25","45","050",,"20",,,,,,,,,,,,,,,,,,,,,,,,,,,,,,,,,,,,,"MET16803/29/20 09:51:02 METAR KLGA 291451Z 05017KT 1 1/4SM R04/5000V6000FT -DZ BR BKN003 OVC004 08/07 A3003 RMK AO2 LTG DSNT N AND NW SLP167 P0000 60000 T00780067 51004 (ATK)","FM-15","7",,,,,,,,,,,,,,,,,,,,,,,,,,,,
"72503014732","2020-03-29T10:00:00","FM-12","4",,,,,,,,,,,,,,,,,,,,,,,,,,,,,,,,,,,,,,,"44","46",,"||DZ","-0.01","1","93","30.02","2","29.99","1.24","45","050",,"20",,,,,,,,,,,,,,,,,,,,,,,,,,,,,,,,,,,,,"SYN08672503 11120 80517 10078 20067 30156 40167 51004 69907 751// 91451 333 96010 555 92915=","FM-12","4",,,,,,,,,,,,,,,,,,,,,,,,,,,,
"72503014732","2020-03-29T10:51:00","FM-15","7",,,,,,,,,,,,,,,,,,,,,,,,,,,,,,,,,,,,,,"29.98","44","46","0.01","-DZ:01 BR:1 |DZ |DZ",,,"93","29.98","BKN:07 3 OVC:08 4","29.95","1.25","45","070",,"23",,,,,,,,,,,,,,,,,,,,,,,,,,,,,,,,,,,,,"MET15903/29/20 10:51:02 METAR KLGA 291551Z 07020KT 1 1/4SM -DZ BR BKN003 OVC004 08/07 A2998 RMK AO2 PK WND 06027/1527 LTG DSNT NE PRESFR SLP151 P0001 T00780067 (ATK)","FM-15","7",,,,,,,,,,,,,,,,,,,,,,,,,,,,
"72503014732","2020-03-29T11:46:00","FM-16","7",,,,,,,,,,,,,,,,,,,,,,,,,,,,,,,,,,,,,,"29.95","45","46","T","-DZ:01 BR:1 |DZ |DZ",,,"93",,"BKN:07 3 OVC:08 4","29.92","1.50","46","060",,"17",,,,,,,,,,,,,,,,,,,,,,,,,,,,,,,,,,,,,"MET11203/29/20 11:46:02 SPECI KLGA 291646Z 06015KT 1 1/2SM -DZ BR BKN003 OVC004 08/07 A2995 RMK AO2 PRESFR P0000 (ATK)","FM-16","7",,,,,,,,,,,,,,,,,,,,,,,,,,,,
"72503014732","2020-03-29T11:51:00","FM-15","7",,,,,,,,,,,,,,,,,,,,,,,,,,,,,,,,,,,,,,"29.93","44","47","T","-DZ:01 BR:1 |DZ |DZ",,,"90","29.93","BKN:07 3 OVC:08 4","29.90","1.50","46","060",,"16",,,,,,,,,,,,,,,,,,,,,,,,,,,,,,,,,,,,,"MET12903/29/20 11:51:02 METAR KLGA 291651Z 06014KT 1 1/2SM -DZ BR BKN003 OVC004 08/07 A2993 RMK AO2 PRESFR SLP135 P0000 T00830067 (ATK)","FM-15","7",,,,,,,,,,,,,,,,,,,,,,,,,,,,
"72503014732","2020-03-29T12:44:00","FM-16","7",,,,,,,,,,,,,,,,,,,,,,,,,,,,,,,,,,,,,,"29.95","43","46","T","-DZ:01 BR:1 |DZ |DZ",,,"89",,"OVC:08 4","29.92","1.50","45","050",,"20",,,,,,,,,,,,,,,,,,,,,,,,,,,,,,,,,,,,,"MET10803/29/20 12:44:02 SPECI KLGA 291744Z 05017KT 1 1/2SM -DZ BR OVC004 08/06 A2995 RMK AO2 P0000 T00780061 (ATK)","FM-16","7",,,,,,,,,,,,,,,,,,,,,,,,,,,,
"72503014732","2020-03-29T12:51:00","FM-15","7",,,,,,,,,,,,,,,,,,,,,,,,,,,,,,,,,,,,,,"29.93","43","45","T","-DZ:01 BR:1 |DZ |DZ","+0.09","5","93","29.93","OVC:08 4","29.90","1.50","44","050",,"22",,,,,,,,,,,,,,,,,,,,,,,,,,,,,,,,,,,,,"MET13903/29/20 12:51:02 METAR KLGA 291751Z 05019KT 1 1/2SM -DZ BR OVC004 07/06 A2993 RMK AO2 SLP136 P0000 60001 T00720061 10083 20072 55031 (ATK)","FM-15","7",,,,,,,,,,,,,,,,,,,,,,,,,,,,
"72503014732","2020-03-29T13:00:00","FM-12","4",,,,,,,,,,,,,,,,,,,,,,,,,,,,,,,,,,,,,,,"43","45",,"||DZ","+0.09","5","93","29.93","5","29.89","1.49","44","050",,"22",,,,,,,,,,,,,,,,,,,,,,,,,,,,,,,,,,,,,"SYN09872503 11224 80519 10072 20061 30122 40136 55031 69931 751// 91751 333 10083 20072 96010 555 92918=","FM-12","4",,,,,,,,,,,,,,,,,,,,,,,,,,,,
"72503014732","2020-03-29T13:46:00","FM-16","7",,,,,,,,,,,,,,,,,,,,,,,,,,,,,,,,,,,,,,"29.88","43","45","T","-DZ:01 BR:1 |DZ |DZ",,,"93",,"OVC:08 3","29.85","1.00","44","050",,"17",,,,,,,,,,,,,,,,,,,,,,,,,,,,,,,,,,,,,"MET11503/29/20 13:46:02 SPECI KLGA 291846Z 05015KT 1SM R04/P6000FT -DZ BR OVC003 07/06 A2988 RMK AO2 SFC VIS 2 P0000 (JT)","FM-16","7",,,,,,,,,,,,,,,,,,,,,,,,,,,,
"72503014732","2020-03-29T13:51:00","FM-15","7",,,,,,,,,,,,,,,,,,,,,,,,,,,,,,,,,,,,,,"29.87","43","45","T","-DZ:01 BR:1 |DZ |DZ",,,"93","29.87","OVC:08 3","29.84","1.00","44","050",,"16",,,,,,,,,,,,,,,,,,,,,,,,,,,,,,,,,,,,,"MET13203/29/20 13:51:02 METAR KLGA 291851Z 05014KT 1SM R04/P6000FT -DZ BR OVC003 07/06 A2987 RMK AO2 SFC VIS 2 SLP115 P0000 T00720061 (JT)","FM-15","7",,,,,,,,,,,,,,,,,,,,,,,,,,,,
"72503014732","2020-03-29T14:00:00","FM-16","7",,,,,,,,,,,,,,,,,,,,,,,,,,,,,,,,,,,,,,"29.86","43","45","T","-DZ:01 BR:1 |s DZ s |DZ s",,,"93",,"OVC:08 3","29.83","0.50","44","050",,"17",,,,,,,,,,,,,,,,,,,,,,,,,,,,,,,,,,,,,"MET12703/29/20 14:00:02 SPECI KLGA 291900Z 05015KT 1/2SM R04/P6000FT -DZ BR OVC003 07/06 A2986 RMK AO2 SFC VIS 2 P0000 T00720061 (JT)","FM-16","7",,,,,,,,,,,,,,,,,,,,,,,,,,,,
"72503014732","2020-03-29T14:51:00","FM-15","7",,,,,,,,,,,,,,,,,,,,,,,,,,,,,,,,,,,,,,"29.82","43","45","T","-DZ:01 BR:1 |s DZ s |DZ s",,,"93","29.82","OVC:08 3","29.79","0.50","44","050",,"25",,,,,,,,,,,,,,,,,,,,,,,,,,,,,,,,,,,,,"MET15603/29/20 14:51:02 METAR KLGA 291951Z 05022KT 1/2SM R04/P6000FT -DZ BR OVC003 07/06 A2982 RMK AO2 PK WND 05028/1946 SFC VIS 1 1/2 SLP098 P0000 T00720061 (JT)","FM-15","7",,,,,,,,,,,,,,,,,,,,,,,,,,,,
"72503014732","2020-03-29T15:51:00","FM-15","7",,,,,,,,,,,,,,,,,,,,,,,,,,,,,,,,,,,,,,"29.84","43","45","T","-DZ:01 BR:1 |s DZ s |DZ s","+0.09","5","93","29.83","OVC:08 3","29.81","0.50","44","050",,"21",,,,,,,,,,,,,,,,,,,,,,,,,,,,,,,,,,,,,"MET16803/29/20 15:51:02 METAR KLGA 292051Z 05018KT 1/2SM R04/P6000FT -DZ BR OVC003 07/06 A2984 RMK AO2 PK WND 06027/2000 SFC VIS 2 1/2 SLP103 P0000 60000 T00720061 55032 (JT)","FM-15","7",,,,,,,,,,,,,,,,,,,,,,,,,,,,
"72503014732","2020-03-29T16:00:00","FM-12","4",,,,,,,,,,,,,,,,,,,,,,,,,,,,,,,,,,,,,,,"43","45",,"||DZ","+0.09","5","93","29.83","2","29.80","0.50","44","050",,"21",,,,,,,,,,,,,,,,,,,,,,,,,,,,,,,,,,,,,"SYN08672503 11108 80518 10072 20061 30091 40103 55032 69907 751// 92051 333 96010 555 92921=","FM-12","4",,,,,,,,,,,,,,,,,,,,,,,,,,,,
"72503014732","2020-03-29T16:49:00","FM-16","6",,,,,,,,,,,,,,,,,,,,,,,,,,,,,,,,,,,,,,"29.88","43","45",,"-DZ:01 BR:1 |s DZ s |DZ s",,,"93",,"OVC:08 4","29.85","0.50","44","040",,"20",,,,,,,,,,,,,,,,,,,,,,,,,,,,,,,,,,,,,"MET12603/29/20 16:49:02 SPECI KLGA 292149Z 04017KT 1/2SM R04/P6000FT -DZ BR OVC004 07/06 A2988 RMK AO2 SFC VIS 1 1/4 P0000 FIBI (JT)","FM-16","6",,,,,,,,,,,,,,,,,,,,,,,,,,,,
"72503014732","2020-03-29T16:51:00","FM-15","7",,,,,,,,,,,,,,,,,,,,,,,,,,,,,,,,,,,,,,"29.88","43","45","T","-DZ:01 BR:1 |s DZ s |DZ s",,,"93","29.88","OVC:08 4","29.85","0.50","44","040",,"17",,,,,,,,,,,,,,,,,,,,,,,,,,,,,,,,,,,,,"MET13803/29/20 16:51:02 METAR KLGA 292151Z 04015KT 1/2SM R04/P6000FT -DZ BR OVC004 07/06 A2988 RMK AO2 SFC VIS 1 1/4 SLP119 P0000 T00720061 (JT)","FM-15","7",,,,,,,,,,,,,,,,,,,,,,,,,,,,
"72503014732","2020-03-29T17:51:00","FM-15","7",,,,,,,,,,,,,,,,,,,,,,,,,,,,,,,,,,,,,,"29.87","43","45","T","-DZ:01 BR:1 |s DZ s |DZ s",,,"93","29.87","OVC:08 4","29.84","0.50","44","060",,"21",,,,,,,,,,,,,,,,,,,,,,,,,,,,,,,,,,,,,"MET13803/29/20 17:51:02 METAR KLGA 292251Z 06018KT 1/2SM R04/P6000FT -DZ BR OVC004 07/06 A2987 RMK AO2 SFC VIS 1 3/4 SLP115 P0000 T00720061 (JT)","FM-15","7",,,,,,,,,,,,,,,,,,,,,,,,,,,,
"72503014732","2020-03-29T18:38:00","FM-16","7",,,,,,,,,,,,,,,,,,,,,,,,,,,,,,,,,,,,,,"29.85","43","45","T","BR:1 ||",,,"93",,"OVC:08 4","29.82","1.50","44","050",,"22",,,,,,,,,,,,,,,,,,,,,,,,,,,,,,,,,,,,,"MET13703/29/20 18:38:02 SPECI KLGA 292338Z 05019KT 1 1/2SM BR OVC004 07/06 A2985 RMK AO2 PK WND 06027/2307 SFC VIS 5 DZE38 P0000 T00720061 (JT)","FM-16","7",,,,,,,,,,,,,,,,,,,,,,,,,,,,
"72503014732","2020-03-29T18:51:00","FM-15","7",,,,,,,,,,,,,,,,,,,,,,,,,,,,,,,,,,,,,,"29.85","43","45","T","BR:1 ||","-0.02","0","93","29.85","OVC:08 4","29.82","1.50","44","050",,"20",,,,,,,,,,,,,,,,,,,,,,,,,,,,,,,,,,,,,"MET16803/29/20 18:51:02 METAR KLGA 292351Z 05017KT 1 1/2SM BR OVC004 07/06 A2985 RMK AO2 PK WND 06027/2307 SFC VIS 6 DZE38 SLP109 P0000 60000 T00720061 10078 20072 50006 (JT)","FM-15","7",,,,,,,,,,,,,,,,,,,,,,,,,,,,
"72503014732","2020-03-29T19:00:00","FM-12","4",,,,,,,,,,,,,,,,,,,,,,,,,,,,,,,,,,,,,,,"43","45",,,"0.02","9","93","29.85","5","29.81","1.49","44","050",,"20",,,,,,,,,,,,,,,,,,,,,,,,,,,,,,,,,,,,,"SYN09272503 11224 80517 10072 20061 30095 40109 50006 69901 710// 92351 333 10083 20072 555 93000=","FM-12","4",,,,,,,,,,,,,,,,,,,,,,,,,,,,
"72503014732","2020-03-29T19:49:00","FM-16","6",,,,,,,,,,,,,,,,,,,,,,,,,,,,,,,,,,,,,,"29.89","43","45",,"BR:1 ||",,,"93",,"OVC:08 5","29.86","1.50","44","040",,"15",,,,,,,,,,,,,,,,,,,,,,,,,,,,,,,,,,,,,"MET10203/29/20 19:49:03 SPECI KLGA 300049Z 04013KT 1 1/2SM BR OVC005 07/06 A2989 RMK AO2 SFC VIS 5 FIBI (JT)","FM-16","6",,,,,,,,,,,,,,,,,,,,,,,,,,,,
"72503014732","2020-03-29T19:51:00","FM-15","7",,,,,,,,,,,,,,,,,,,,,,,,,,,,,,,,,,,,,,"29.89","43","45","0.00","BR:1 ||",,,"93","29.88","OVC:08 5","29.86","1.50","44","040",,"14",,,,,,,,,,,,,,,,,,,,,,,,,,,,,,,,,,,,,"MET10903/29/20 19:51:01 METAR KLGA 300051Z 04012KT 1 1/2SM BR OVC005 07/06 A2989 RMK AO2 SFC VIS 5 SLP120 T00720061","FM-15","7",,,,,,,,,,,,,,,,,,,,,,,,,,,,
"72503014732","2020-03-29T20:19:00","FM-16","7",,,,,,,,,,,,,,,,,,,,,,,,,,,,,,,,,,,,,,"29.88","43","45",,"BR:1 ||",,,"93",,"OVC:08 6","29.85","2.50","44","050",,"16",,,,,,,,,,,,,,,,,,,,,,,,,,,,,,,,,,,,,"MET10203/29/20 20:19:01 SPECI KLGA 300119Z 05014KT 2 1/2SM BR OVC006 07/06 A2988 RMK AO2 SFC VIS 6 T00720061","FM-16","7",,,,,,,,,,,,,,,,,,,,,,,,,,,,
"72503014732","2020-03-29T20:51:00","FM-15","7",,,,,,,,,,,,,,,,,,,,,,,,,,,,,,,,,,,,,,"29.89","43","46","0.00","BR:1 ||",,,"89","29.88","OVC:08 6","29.86","2.50","45","050",,"17",,,,,,,,,,,,,,,,,,,,,,,,,,,,,,,,,,,,,"MET12103/29/20 20:51:01 METAR KLGA 300151Z 05015KT 2 1/2SM BR OVC006 08/06 A2989 RMK AO2 SFC VIS 5 LTG DSNT SE SLP120 T00780061","FM-15","7",,,,,,,,,,,,,,,,,,,,,,,,,,,,
"72503014732","2020-03-29T21:00:00","FM-16","7",,,,,,,,,,,,,,,,,,,,,,,,,,,,,,,,,,,,,,"29.88","43","46",,"BR:1 ||",,,"89",,"OVC:08 5","29.85","2.50","45","050",,"18",,,,,,,,,,,,,,,,,,,,,,,,,,,,,,,,,,,,,"MET11403/29/20 21:00:01 SPECI KLGA 300200Z 05016KT 2 1/2SM BR OVC005 08/06 A2988 RMK AO2 SFC VIS 5 LTG DSNT SE T00780061","FM-16","7",,,,,,,,,,,,,,,,,,,,,,,,,,,,
"72503014732","2020-03-29T21:51:00","FM-15","7",,,,,,,,,,,,,,,,,,,,,,,,,,,,,,,,,,,,,,"29.87","44","46","T","-DZ:01 BR:1 |DZ |DZ","-0.02","0","93","29.87","OVC:08 5","29.84","2.50","45","060",,"14",,,,,,,,,,,,,,,,,,,,,,,,,,,,,,,,,,,,,"MET13703/29/20 21:51:01 METAR KLGA 300251Z 06012KT 2 1/2SM -DZ BR OVC005 08/07 A2987 RMK AO2 SFC VIS 4 DZB09 SLP116 P0000 60000 T00780067 50006","FM-15","7",,,,,,,,,,,,,,,,,,,,,,,,,,,,
"72503014732","2020-03-29T22:00:00","FM-12","4",,,,,,,,,,,,,,,,,,,,,,,,,,,,,,,,,,,,,,,"44","46",,"||DZ","0.02","9","93","29.87","5","29.83","2.49","45","060",,"14",,,,,,,,,,,,,,,,,,,,,,,,,,,,,,,,,,,,,"SYN08672503 11240 80612 10078 20067 30101 40116 50006 69907 751// 90251 333 96010 555 93003=","FM-12","4",,,,,,,,,,,,,,,,,,,,,,,,,,,,
"72503014732","2020-03-29T22:40:00","FM-16","7",,,,,,,,,,,,,,,,,,,,,,,,,,,,,,,,,,,,,,"29.88","44","47","T",,,,"90",,"OVC:08 5","29.85","8.00","46","060",,"9",,,,,,,,,,,,,,,,,,,,,,,,,,,,,,,,,,,,,"MET09703/29/20 22:40:02 SPECI KLGA 300340Z 06008KT 8SM OVC005 08/07 A2988 RMK AO2 DZE40 P0000 T00830067","FM-16","7",,,,,,,,,,,,,,,,,,,,,,,,,,,,
"72503014732","2020-03-29T22:51:00","FM-15","7",,,,,,,,,,,,,,,,,,,,,,,,,,,,,,,,,,,,,,"29.88","44","47","T","-DZ:01 BR:1 |DZ |DZ",,,"90","29.88","OVC:08 5","29.85","3.00","46","050",,"10",,,,,,,,,,,,,,,,,,,,,,,,,,,,,,,,,,,,,"MET11403/29/20 22:51:02 METAR KLGA 300351Z 05009KT 3SM -DZ BR OVC005 08/07 A2988 RMK AO2 DZE40B49 SLP119 P0000 T00830067","FM-15","7",,,,,,,,,,,,,,,,,,,,,,,,,,,,
"72503014732","2020-03-29T23:49:00","FM-16","6",,,,,,,,,,,,,,,,,,,,,,,,,,,,,,,,,,,,,,"29.90","45","46",,"-DZ:01 BR:1 |DZ |DZ",,,"93",,"OVC:08 7","29.87","6.00","46","020",,"9",,,,,,,,,,,,,,,,,,,,,,,,,,,,,,,,,,,,,"MET09803/29/20 23:49:03 SPECI KLGA 300449Z 02008KT 6SM -DZ BR OVC007 08/07 A2990 RMK AO2 P0000 FIBI (DM)","FM-16","6",,,,,,,,,,,,,,,,,,,,,,,,,,,,
"72503014732","2020-03-29T23:51:00","FM-15","7",,,,,,,,,,,,,,,,,,,,,,,,,,,,,,,,,,,,,,"29.90","45","47","T","-DZ:01 BR:1 |DZ |DZ",,,"93","29.90","OVC:08 7","29.87","6.00","46","020",,"10",,,,,,,,,,,,,,,,,,,,,,,,,,,,,,,,,,,,,"MET11503/29/20 23:51:02 METAR KLGA 300451Z 02009KT 6SM -DZ BR OVC007 08/07 A2990 RMK AO2 SLP124 P0000 T00830072 400830072","FM-15","7",,,,,,,,,,,,,,,,,,,,,,,,,,,,
"72503014732","2020-03-29T23:59:00","SOD  ","6",,,,,,,,,,,,,,,"43","47","92","29.94","29.91","45","18.3","0","0.7","18","48","45","050","32","0.01","0","0.0","050","26","RA DZ BR",,,,,,,,,,,,,,,,,,,,,,,,,,,,,,,,,,,,,,,,,,,,,,,,,,,,,,,,"SOD78024 HR PRECIPITATION (IN): 0.01 SNOW DEPTH (IN):0     24 HR SNOWFALL (IN):0.0  WEATHER(CODE):1  24 HR MAX TEMP (F): 4824 HR MIN TEMP (F): 45AVERAGE STATION PRESSURE:29.915 MINIMUM SEA LEVEL PRESSURE:29.82 TIME OF OCCURRENCE:1510 PEAK WIND SPEED (MPH): 32 PEAK WIND DIR (DEG): 50 PEAK WIND TIME (LST):      FASTEST 2MIN SPEED (MPH): 26FASTEST 2MIN DIR (DEG): 50 FASTEST 2MIN TIME (LST):     AVERAGE WIND SPEED (MPH):18.3 24 HR AVG TEMP (F): 47DEPART FROM NORMAL:  1  SKY COVER SR-SS (TENTHS): 1HEATING DEGREE DAYS: 18 COOLING DEGREE DAYS:  0 LATEST DAY MAX TEMP (0700-1900 LST):47  LATEST NIGHT MIN TEMP(1900-0800 LST):45 HOURLY INCREMENTAL PRECIPITATION VALUES (IN):    T    T    T    T    T    T    T    T    T    0.01 T    T    T    T    T    T    T    T    0.00 0.00 T    T    T","SOD  ","6",,,,,,,,,,,,,,,,,,,,,,,,,"0543","1818",,
"72503014732","2020-03-30T00:51:00","FM-15","7",,,,,,,,,,,,,,,,,,,,,,,,,,,,,,,,,,,,,,"29.91","45","48","T","-DZ:01 BR:1 |DZ |DZ","-0.03","1","89","29.91","OVC:08 7","29.88","6.00","47","030",,"6",,,,,,,,,,,,,,,,,,,,,,,,,,,,,,,,,,,,,"MET13403/30/20 00:51:02 METAR KLGA 300551Z 03005KT 6SM -DZ BR OVC007 09/07 A2991 RMK AO2 SLP127 P0000 60000 T00890072 10089 20072 51011 (DM)","FM-15","7",,,,,,,,,,,,,,,,,,,,,,,,,,,,
"72503014732","2020-03-30T01:00:00","FM-12","4",,,,,,,,,,,,,,,,,,,,,,,,,,,,,,,,,,,,,,,"45","48",,"||DZ","-0.03","1","89","29.91","8","29.87","5.59","47","030",,"6",,,,,,,,,,,,,,,,,,,,,,,,,,,,,,,,,,,,,"SYN09872503 11359 80305 10089 20072 30115 40127 51011 69901 751// 90551 333 10089 20072 96010 555 93006=","FM-12","4",,,,,,,,,,,,,,,,,,,,,,,,,,,,
"72503014732","2020-03-30T01:51:00","FM-15","7",,,,,,,,,,,,,,,,,,,,,,,,,,,,,,,,,,,,,,"29.92","43","47","T",,,,"86","29.91","OVC:08 8","29.89","10.00","45","030",,"10",,,,,,,,,,,,,,,,,,,,,,,,,,,,,,,,,,,,,"MET11003/30/20 01:51:02 METAR KLGA 300651Z 03009KT 10SM OVC008 08/06 A2992 RMK AO2 DZE41 SLP130 P0000 T00830061 (DM)","FM-15","7",,,,,,,,,,,,,,,,,,,,,,,,,,,,
"72503014732","2020-03-30T02:51:00","FM-15","7",,,,,,,,,,,,,,,,,,,,,,,,,,,,,,,,,,,,,,"29.95","41","46","0.00",,,,"83","29.95","OVC:08 9","29.92","10.00","44","060",,"9",,,,,,,,,,,,,,,,,,,,,,,,,,,,,,,,,,,,,"MET09803/30/20 02:51:02 METAR KLGA 300751Z 06008KT 10SM OVC009 08/05 A2995 RMK AO2 SLP141 T00780050 (DM)","FM-15","7",,,,,,,,,,,,,,,,,,,,,,,,,,,,
"72503014732","2020-03-30T03:51:00","FM-15","7",,,,,,,,,,,,,,,,,,,,,,,,,,,,,,,,,,,,,,"29.95","40","45","0.00",,"-0.05","1","83","29.95","OVC:08 9","29.92","10.00","43","080",,"10",,,,,,,,,,,,,,,,,,,,,,,,,,,,,,,,,,,,,"MET11003/30/20 03:51:02 METAR KLGA 300851Z 08009KT 10SM OVC009 07/04 A2995 RMK AO2 SLP142 60000 T00720044 51016 (DM)","FM-15","7",,,,,,,,,,,,,,,,,,,,,,,,,,,,
"72503014732","2020-03-30T04:00:00","FM-12","4",,,,,,,,,,,,,,,,,,,,,,,,,,,,,,,,,,,,,,,"40","45",,,"-0.05","1","83","29.95","8","29.91","9.94","43","080",,"10",,,,,,,,,,,,,,,,,,,,,,,,,,,,,,,,,,,,,"SYN07072503 12366 80809 10072 20044 30129 40142 51016 69907 90851 555 93009=","FM-12","4",,,,,,,,,,,,,,,,,,,,,,,,,,,,
"72503014732","2020-03-30T04:45:00","FM-16","7",,,,,,,,,,,,,,,,,,,,,,,,,,,,,,,,,,,,,,"29.95","39","45",,,,,"81",,"SCT:04 9","29.92","10.00","42","050",,"6",,,,,,,,,,,,,,,,,,,,,,,,,,,,,,,,,,,,,"MET08103/30/20 04:45:02 SPECI KLGA 300945Z 05005KT 10SM SCT009 07/04 A2995 RMK AO2 (DM)","FM-16","7",,,,,,,,,,,,,,,,,,,,,,,,,,,,
"72503014732","2020-03-30T04:51:00","FM-15","7",,,,,,,,,,,,,,,,,,,,,,,,,,,,,,,,,,,,,,"29.95","39","44","0.00",,,,"83","29.95","SCT:04 11","29.92","10.00","42","060",,"6",,,,,,,,,,,,,,,,,,,,,,,,,,,,,,,,,,,,,"MET09803/30/20 04:51:02 METAR KLGA 300951Z 06005KT 10SM SCT011 07/04 A2995 RMK AO2 SLP141 T00670039 (DM)","FM-15","7",,,,,,,,,,,,,,,,,,,,,,,,,,,,
"72503014732","2020-03-30T05:21:00","FM-16","7",,,,,,,,,,,,,,,,,,,,,,,,,,,,,,,,,,,,,,"29.95","38","43",,,,,"82",,"BKN:07 11","29.92","10.00","41","060",,"8",,,,,,,,,,,,,,,,,,,,,,,,,,,,,,,,,,,,,"MET09103/30/20 05:21:02 SPECI KLGA 301021Z 06007KT 10SM BKN011 06/03 A2995 RMK AO2 T00610033 (PS)","FM-16","7",,,,,,,,,,,,,,,,,,,,,,,,,,,,
"72503014732","2020-03-30T05:51:00","FM-15","7",,,,,,,,,,,,,,,,,,,,,,,,,,,,,,,,,,,,,,"29.97","38","43","0.00",,,,"82","29.97","OVC:08 12","29.94","10.00","41","050",,"8",,,,,,,,,,,,,,,,,,,,,,,,,,,,,,,,,,,,,"MET09803/30/20 05:51:02 METAR KLGA 301051Z 05007KT 10SM OVC012 06/03 A2997 RMK AO2 SLP148 T00610033 (PS)","FM-15","7",,,,,,,,,,,,,,,,,,,,,,,,,,,,
"72503014732","2020-03-30T06:35:00","FM-16","7",,,,,,,,,,,,,,,,,,,,,,,,,,,,,,,,,,,,,,"29.99","38","42",,,,,"85",,"OVC:08 9","29.96","10.00","40","040",,"11",,,,,,,,,,,,,,,,,,,,,,,,,,,,,,,,,,,,,"MET09103/30/20 06:35:02 SPECI KLGA 301135Z 04010KT 10SM OVC009 06/03 A2999 RMK AO2 T00560033 (PS)","FM-16","7",,,,,,,,,,,,,,,,,,,,,,,,,,,,
"72503014732","2020-03-30T06:51:00","FM-15","7",,,,,,,,,,,,,,,,,,,,,,,,,,,,,,,,,,,,,,"29.98","38","42","0.00",,"-0.03","3","85","29.98","OVC:08 9","29.95","10.00","40","040",,"14",,,,,,,,,,,,,,,,,,,,,,,,,,,,,,,,,,,,,"MET12803/30/20 06:51:02 METAR KLGA 301151Z 04012KT 10SM OVC009 06/03 A2998 RMK AO2 SLP153 60000 70001 T00560033 10089 20056 53010 (PS)","FM-15","7",,,,,,,,,,,,,,,,,,,,,,,,,,,,
"72503014732","2020-03-30T07:00:00","FM-12","4",,,,,,,,,,,,,,,,,,,,,,,,,,,,,,,,,,,,,,,"38","42",,,"-0.03","3","85","29.98","8","29.94","9.94","40","040",,"14",,,,,,,,,,,,,,,,,,,,,,,,,,,,,,,,,,,,,"SYN09272503 12366 80412 10056 20033 30139 40153 53010 69901 91151 333 10083 20056 70003 555 93012=","FM-12","4",,,,,,,,,,,,,,,,,,,,,,,,,,,,
"72503014732","2020-03-30T07:51:00","FM-15","7",,,,,,,,,,,,,,,,,,,,,,,,,,,,,,,,,,,,,,"29.98","38","43","0.00",,,,"82","29.97","OVC:08 9","29.95","10.00","41","060",,"10",,,,,,,,,,,,,,,,,,,,,,,,,,,,,,,,,,,,,"MET09803/30/20 07:51:02 METAR KLGA 301251Z 06009KT 10SM OVC009 06/03 A2998 RMK AO2 SLP150 T00610033 (PS)","FM-15","7",,,,,,,,,,,,,,,,,,,,,,,,,,,,
"72503014732","2020-03-30T08:51:00","FM-15","7",,,,,,,,,,,,,,,,,,,,,,,,,,,,,,,,,,,,,,"29.99","38","43","0.00",,,,"82","29.98","OVC:08 9","29.96","10.00","41","090",,"6",,,,,,,,,,,,,,,,,,,,,,,,,,,,,,,,,,,,,"MET09803/30/20 08:51:02 METAR KLGA 301351Z 09005KT 10SM OVC009 06/03 A2999 RMK AO2 SLP154 T00610033 (PS)","FM-15","7",,,,,,,,,,,,,,,,,,,,,,,,,,,,
"72503014732","2020-03-30T09:19:00","FM-16","7",,,,,,,,,,,,,,,,,,,,,,,,,,,,,,,,,,,,,,"29.99","38","44",,,,,"79",,"FEW:02 9 OVC:08 10","29.96","10.00","41","090",,"3",,,,,,,,,,,,,,,,,,,,,,,,,,,,,,,,,,,,,"MET09803/30/20 09:19:02 SPECI KLGA 301419Z 09003KT 10SM FEW009 OVC010 07/03 A2999 RMK AO2 T00670033 (PS)","FM-16","7",,,,,,,,,,,,,,,,,,,,,,,,,,,,
"72503014732","2020-03-30T09:51:00","FM-15","7",,,,,,,,,,,,,,,,,,,,,,,,,,,,,,,,,,,,,,"29.97","38","44","0.00",,"+0.01","8","79","29.97","FEW:02 9 OVC:08 10","29.94","10.00","41","080",,"5",,,,,,,,,,,,,,,,,,,,,,,,,,,,,,,,,,,,,"MET11103/30/20 09:51:02 METAR KLGA 301451Z 08004KT 10SM FEW009 OVC010 07/03 A2997 RMK AO2 SLP149 T00670033 58004 (PS)","FM-15","7",,,,,,,,,,,,,,,,,,,,,,,,,,,,
"72503014732","2020-03-30T10:00:00","FM-12","4",,,,,,,,,,,,,,,,,,,,,,,,,,,,,,,,,,,,,,,"38","44",,,"+0.01","8","79","29.97","8","29.93","9.94","41","080",,"5",,,,,,,,,,,,,,,,,,,,,,,,,,,,,,,,,,,,,"SYN06472503 32366 80804 10067 20033 30135 40149 58004 91451 555 93015=","FM-12","4",,,,,,,,,,,,,,,,,,,,,,,,,,,,
"72503014732","2020-03-30T10:51:00","FM-15","7",,,,,,,,,,,,,,,,,,,,,,,,,,,,,,,,,,,,,,"29.94","39","45","0.00",,,,"80","29.94","OVC:08 12","29.91","10.00","42","080",,"6",,,,,,,,,,,,,,,,,,,,,,,,,,,,,,,,,,,,,"MET09803/30/20 10:51:02 METAR KLGA 301551Z 08005KT 10SM OVC012 07/04 A2994 RMK AO2 SLP138 T00720039 (PS)","FM-15","7",,,,,,,,,,,,,,,,,,,,,,,,,,,,
"72503014732","2020-03-30T11:51:00","FM-15","7",,,,,,,,,,,,,,,,,,,,,,,,,,,,,,,,,,,,,,"29.92","39","46","0.00",,,,"77","29.92","OVC:08 14","29.89","10.00","43","050",,"8",,,,,,,,,,,,,,,,,,,,,,,,,,,,,,,,,,,,,"MET09803/30/20 11:51:02 METAR KLGA 301651Z 05007KT 10SM OVC014 08/04 A2992 RMK AO2 SLP132 T00780039 (PS)","FM-15","7",,,,,,,,,,,,,,,,,,,,,,,,,,,,
"72503014732","2020-03-30T12:01:00","FM-16","7",,,,,,,,,,,,,,,,,,,,,,,,,,,,,,,,,,,,,,"29.92","40","47",,,,,"77",,"OVC:08 15","29.89","10.00","44","040",,"7",,,,,,,,,,,,,,,,,,,,,,,,,,,,,,,,,,,,,"MET09103/30/20 12:01:02 SPECI KLGA 301701Z 04006KT 10SM OVC015 08/04 A2992 RMK AO2 T00830044 (PS)","FM-16","7",,,,,,,,,,,,,,,,,,,,,,,,,,,,
"72503014732","2020-03-30T12:51:00","FM-15","7",,,,,,,,,,,,,,,,,,,,,,,,,,,,,,,,,,,,,,"29.90","41","49","0.00",,"+0.07","6","74","29.90","BKN:07 18 BKN:07 100","29.87","10.00","45","050",,"7",,,,,,,,,,,,,,,,,,,,,,,,,,,,,,,,,,,,,"MET12303/30/20 12:51:02 METAR KLGA 301751Z 05006KT 10SM BKN018 BKN100 09/05 A2990 RMK AO2 SLP124 T00940050 10094 20056 56025 (PS)","FM-15","7",,,,,,,,,,,,,,,,,,,,,,,,,,,,
"72503014732","2020-03-30T13:00:00","FM-12","4",,,,,,,,,,,,,,,,,,,,,,,,,,,,,,,,,,,,,,,"41","49",,,"+0.07","6","74","29.90","15","29.86","9.94","45","050",,"7",,,,,,,,,,,,,,,,,,,,,,,,,,,,,,,,,,,,,"SYN08072503 32466 60506 10094 20050 30112 40124 56025 91751 333 10094 20056 555 93018=","FM-12","4",,,,,,,,,,,,,,,,,,,,,,,,,,,,
"72503014732","2020-03-30T13:51:00","FM-15","7",,,,,,,,,,,,,,,,,,,,,,,,,,,,,,,,,,,,,,"29.90","40","48","0.00",,,,"74","29.90","OVC:08 18","29.87","10.00","44","060",,"9",,,,,,,,,,,,,,,,,,,,,,,,,,,,,,,,,,,,,"MET09803/30/20 13:51:02 METAR KLGA 301851Z 06008KT 10SM OVC018 09/04 A2990 RMK AO2 SLP124 T00890044 (WL)","FM-15","7",,,,,,,,,,,,,,,,,,,,,,,,,,,,
"72503014732","2020-03-30T14:51:00","FM-15","7",,,,,,,,,,,,,,,,,,,,,,,,,,,,,,,,,,,,,,"29.90","39","47","0.00",,,,"74","29.90","OVC:08 18","29.87","10.00","43","050",,"9",,,,,,,,,,,,,,,,,,,,,,,,,,,,,,,,,,,,,"MET09803/30/20 14:51:02 METAR KLGA 301951Z 05008KT 10SM OVC018 08/04 A2990 RMK AO2 SLP124 T00830039 (WL)","FM-15","7",,,,,,,,,,,,,,,,,,,,,,,,,,,,
"72503014732","2020-03-30T15:51:00","FM-15","7",,,,,,,,,,,,,,,,,,,,,,,,,,,,,,,,,,,,,,"29.90","40","47","0.00",,"+0.00","8","77","29.89","OVC:08 17","29.87","10.00","44","060",,"8",,,,,,,,,,,,,,,,,,,,,,,,,,,,,,,,,,,,,"MET10403/30/20 15:51:02 METAR KLGA 302051Z 06007KT 10SM OVC017 08/04 A2990 RMK AO2 SLP123 T00830044 58001 (WL)","FM-15","7",,,,,,,,,,,,,,,,,,,,,,,,,,,,
"72503014732","2020-03-30T16:00:00","FM-12","4",,,,,,,,,,,,,,,,,,,,,,,,,,,,,,,,,,,,,,,"40","47",,,"+0.00","8","77","29.89","15","29.86","9.94","44","060",,"8",,,,,,,,,,,,,,,,,,,,,,,,,,,,,,,,,,,,,"SYN06472503 32466 80607 10083 20044 30112 40123 58001 92051 555 93021=","FM-12","4",,,,,,,,,,,,,,,,,,,,,,,,,,,,
"72503014732","2020-03-30T16:51:00","FM-15","7",,,,,,,,,,,,,,,,,,,,,,,,,,,,,,,,,,,,,,"29.91","40","48","0.00",,,,"74","29.91","OVC:08 20","29.88","10.00","44","050",,"9",,,,,,,,,,,,,,,,,,,,,,,,,,,,,,,,,,,,,"MET09803/30/20 16:51:02 METAR KLGA 302151Z 05008KT 10SM OVC020 09/04 A2991 RMK AO2 SLP128 T00890044 (WL)","FM-15","7",,,,,,,,,,,,,,,,,,,,,,,,,,,,
"72503014732","2020-03-30T17:51:00","FM-15","7",,,,,,,,,,,,,,,,,,,,,,,,,,,,,,,,,,,,,,"29.92","40","47","0.00",,,,"77","29.92","BKN:07 22 OVC:08 110","29.89","10.00","44","050",,"6",,,,,,,,,,,,,,,,,,,,,,,,,,,,,,,,,,,,,"MET10503/30/20 17:51:02 METAR KLGA 302251Z 05005KT 10SM BKN022 OVC110 08/04 A2992 RMK AO2 SLP132 T00830044 (WL)","FM-15","7",,,,,,,,,,,,,,,,,,,,,,,,,,,,
"72503014732","2020-03-30T18:04:00","FM-16","7",,,,,,,,,,,,,,,,,,,,,,,,,,,,,,,,,,,,,,"29.93","40","47",,,,,"77",,"SCT:04 22 BKN:07 110","29.90","10.00","44","050",,"8",,,,,,,,,,,,,,,,,,,,,,,,,,,,,,,,,,,,,"MET09803/30/20 18:04:02 SPECI KLGA 302304Z 05007KT 10SM SCT022 BKN110 08/04 A2993 RMK AO2 T00830044 (WL)","FM-16","7",,,,,,,,,,,,,,,,,,,,,,,,,,,,
"72503014732","2020-03-30T18:17:00","FM-16","7",,,,,,,,,,,,,,,,,,,,,,,,,,,,,,,,,,,,,,"29.93","40","47",,,,,"77",,"BKN:07 22 BKN:07 110","29.90","10.00","44","050",,"7",,,,,,,,,,,,,,,,,,,,,,,,,,,,,,,,,,,,,"MET09803/30/20 18:17:02 SPECI KLGA 302317Z 05006KT 10SM BKN022 BKN110 08/04 A2993 RMK AO2 T00830044 (WL)","FM-16","7",,,,,,,,,,,,,,,,,,,,,,,,,,,,
"72503014732","2020-03-30T18:51:00","FM-15","7",,,,,,,,,,,,,,,,,,,,,,,,,,,,,,,,,,,,,,"29.94","40","47","0.00",,"-0.03","3","77","29.94","OVC:08 22","29.91","10.00","44","050",,"10",,,,,,,,,,,,,,,,,,,,,,,,,,,,,,,,,,,,,"MET11603/30/20 18:51:02 METAR KLGA 302351Z 05009KT 10SM OVC022 08/04 A2994 RMK AO2 SLP139 T00830044 10100 20083 53011 (WL)","FM-15","7",,,,,,,,,,,,,,,,,,,,,,,,,,,,
"72503014732","2020-03-30T19:00:00","FM-12","4",,,,,,,,,,,,,,,,,,,,,,,,,,,,,,,,,,,,,,,"40","47",,,"-0.03","3","77","29.94","26","29.90","9.94","44","050",,"10",,,,,,,,,,,,,,,,,,,,,,,,,,,,,,,,,,,,,"SYN08072503 32566 80509 10083 20044 30125 40139 53011 92351 333 10100 20056 555 93100=","FM-12","4",,,,,,,,,,,,,,,,,,,,,,,,,,,,
"72503014732","2020-03-30T19:51:00","FM-15","7",,,,,,,,,,,,,,,,,,,,,,,,,,,,,,,,,,,,,,"29.97","41","47","0.00",,,,"80","29.96","BKN:07 17 OVC:08 23","29.94","10.00","44","000",,"0",,,,,,,,,,,,,,,,,,,,,,,,,,,,,,,,,,,,,"MET10503/30/20 19:51:03 METAR KLGA 310051Z 00000KT 10SM BKN017 OVC023 08/05 A2997 RMK AO2 SLP147 T00830050 (WL)","FM-15","7",,,,,,,,,,,,,,,,,,,,,,,,,,,,
"72503014732","2020-03-30T20:03:00","FM-16","7",,,,,,,,,,,,,,,,,,,,,,,,,,,,,,,,,,,,,,"29.98","41","47",,,,,"80",,"BKN:07 11 OVC:08 17","29.95","10.00","44","260",,"7",,,,,,,,,,,,,,,,,,,,,,,,,,,,,,,,,,,,,"MET09803/30/20 20:03:03 SPECI KLGA 310103Z 26006KT 10SM BKN011 OVC017 08/05 A2998 RMK AO2 T00830050 (WL)","FM-16","7",,,,,,,,,,,,,,,,,,,,,,,,,,,,
"72503014732","2020-03-30T20:51:00","FM-15","7",,,,,,,,,,,,,,,,,,,,,,,,,,,,,,,,,,,,,,"29.98","41","46","0.07","-RA:02 |RA |RA",,,"83","29.98","SCT:04 17 BKN:07 46 OVC:08 55","29.95","9.00","44","070",,"8",,,,,,,,,,,,,,,,,,,,,,,,,,,,,,,,,,,,,"MET12903/30/20 20:51:03 METAR KLGA 310151Z 07007KT 9SM -RA SCT017 BKN046 OVC055 08/05 A2998 RMK AO2 RAB10 SLP153 P0007 T00780050 $ (WL)","FM-15","7",,,,,,,,,,,,,,,,,,,,,,,,,,,,
"72503014732","2020-03-30T21:19:00","FM-16","7",,,,,,,,,,,,,,,,,,,,,,,,,,,,,,,,,,,,,,"29.98","41","46","T",,,,"83",,"BKN:07 12 OVC:08 55","29.95","8.00","44","090",,"6",,,,,,,,,,,,,,,,,,,,,,,,,,,,,,,,,,,,,"MET11103/30/20 21:19:03 SPECI KLGA 310219Z 09005KT 8SM BKN012 OVC055 08/05 A2998 RMK AO2 RAE13 P0000 T00780050 $ (RZ)","FM-16","7",,,,,,,,,,,,,,,,,,,,,,,,,,,,
"72503014732","2020-03-30T21:29:00","FM-16","7",,,,,,,,,,,,,,,,,,,,,,,,,,,,,,,,,,,,,,"29.98","41","46","T",,,,"83",,"SCT:04 8 BKN:07 11 OVC:08 50","29.95","9.00","44","080",,"7",,,,,,,,,,,,,,,,,,,,,,,,,,,,,,,,,,,,,"MET11803/30/20 21:29:03 SPECI KLGA 310229Z 08006KT 9SM SCT008 BKN011 OVC050 08/05 A2998 RMK AO2 RAE13 P0000 T00780050 $ (RZ)","FM-16","7",,,,,,,,,,,,,,,,,,,,,,,,,,,,
"72503014732","2020-03-30T21:46:00","FM-16","7",,,,,,,,,,,,,,,,,,,,,,,,,,,,,,,,,,,,,,"29.98","41","46","T",,,,"82",,"BKN:07 8 OVC:08 11","29.95","10.00","44","050",,"6",,,,,,,,,,,,,,,,,,,,,,,,,,,,,,,,,,,,,"MET10203/30/20 21:46:03 SPECI KLGA 310246Z 05005KT 10SM BKN008 OVC011 08/05 A2998 RMK AO2 RAE13 P0000 $ (RZ)","FM-16","7",,,,,,,,,,,,,,,,,,,,,,,,,,,,
"72503014732","2020-03-30T21:51:00","FM-15","7",,,,,,,,,,,,,,,,,,,,,,,,,,,,,,,,,,,,,,"29.99","41","46","T","-RA:02 |RA |RA","-0.04","1","83","29.98","BKN:07 8 OVC:08 11","29.96","10.00","44","050",,"6",,,,,,,,,,,,,,,,,,,,,,,,,,,,,,,,,,,,,"MET13803/30/20 21:51:03 METAR KLGA 310251Z 05005KT 10SM -RA BKN008 OVC011 08/05 A2999 RMK AO2 RAE13B51 SLP153 P0000 60007 T00780050 51014 $ (RZ)","FM-15","7",,,,,,,,,,,,,,,,,,,,,,,,,,,,
"72503014732","2020-03-30T22:00:00","FM-12","4",,,,,,,,,,,,,,,,,,,,,,,,,,,,,,,,,,,,,,,"41","46",,"||RA","-0.04","1","83","29.98","8","29.95","9.94","44","050",,"6",,,,,,,,,,,,,,,,,,,,,,,,,,,,,,,,,,,,,"SYN07672503 11366 80505 10078 20050 30142 40153 51014 60027 761// 90251 555 93103=","FM-12","4",,,,,,,,,,,,,,,,,,,,,,,,,,,,
"72503014732","2020-03-30T22:51:00","FM-15","7",,,,,,,,,,,,,,,,,,,,,,,,,,,,,,,,,,,,,,"29.98","42","46","T",,,,"86","29.98","OVC:08 9","29.95","10.00","44","110",,"5",,,,,,,,,,,,,,,,,,,,,,,,,,,,,,,,,,,,,"MET11203/30/20 22:51:03 METAR KLGA 310351Z 11004KT 10SM OVC009 08/06 A2998 RMK AO2 RAE00 SLP152 P0000 T00780056 $ (RZ)","FM-15","7",,,,,,,,,,,,,,,,,,,,,,,,,,,,
"72503014732","2020-03-30T23:20:00","FM-16","7",,,,,,,,,,,,,,,,,,,,,,,,,,,,,,,,,,,,,,"29.99","42","46",,,,,"86",,"OVC:08 10","29.96","10.00","44","140",,"3",,,,,,,,,,,,,,,,,,,,,,,,,,,,,,,,,,,,,"MET09303/30/20 23:20:03 SPECI KLGA 310420Z 14003KT 10SM OVC010 08/06 A2999 RMK AO2 T00780056 $ (RZ)","FM-16","7",,,,,,,,,,,,,,,,,,,,,,,,,,,,
"72503014732","2020-03-30T23:51:00","FM-15","7",,,,,,,,,,,,,,,,,,,,,,,,,,,,,,,,,,,,,,"29.99","42","46","T",,,,"86","29.99","OVC:08 10","29.96","10.00","44","170",,"5",,,,,,,,,,,,,,,,,,,,,,,,,,,,,,,,,,,,,"MET11003/30/20 23:51:03 METAR KLGA 310451Z 17004KT 10SM OVC010 08/06 A2999 RMK AO2 SLP155 T00780056 401000056 $ (RZ)","FM-15","7",,,,,,,,,,,,,,,,,,,,,,,,,,,,
"72503014732","2020-03-30T23:59:00","SOD  ","6",,,,,,,,,,,,,,,,"46",,,"29.90",,"7.5","0","-0.7","19","50","42","070","21","0.07","0","0.0","070","15","RA DZ BR",,,,,,,,,,,,,,,,,,,,,,,,,,,,,,,,,,,,,,,,,,,,,,,,,,,,,,,,"SOD78024 HR PRECIPITATION (IN): 0.07 SNOW DEPTH (IN):0     24 HR SNOWFALL (IN):0.0  WEATHER(CODE):1  24 HR MAX TEMP (F): 5024 HR MIN TEMP (F): 42AVERAGE STATION PRESSURE:29.895 MINIMUM SEA LEVEL PRESSURE:29.89 TIME OF OCCURRENCE:1621 PEAK WIND SPEED (MPH): 21 PEAK WIND DIR (DEG): 70 PEAK WIND TIME (LST):      FASTEST 2MIN SPEED (MPH): 15FASTEST 2MIN DIR (DEG): 70 FASTEST 2MIN TIME (LST):     AVERAGE WIND SPEED (MPH): 7.5 24 HR AVG TEMP (F): 46DEPART FROM NORMAL: -1  SKY COVER SR-SS (TENTHS): 1HEATING DEGREE DAYS: 19 COOLING DEGREE DAYS:  0 LATEST DAY MAX TEMP (0700-1900 LST):50  LATEST NIGHT MIN TEMP(1900-0800 LST):42 HOURLY INCREMENTAL PRECIPITATION VALUES (IN):    T    0.00 0.00 0.00 0.00 0.00 0.00 0.00 0.00 0.00 0.00 0.00 0.00 0.00 0.00 0.00 0.00 0.00 0.00 0.07 T    T    T","SOD  ","6",,,,,,,,,,,,,,,,,,,,,,,,,"0541","1819",,
"72503014732","2020-03-31T00:41:00","FM-16","7",,,,,,,,,,,,,,,,,,,,,,,,,,,,,,,,,,,,,,"29.99","41","45","0.03","-RA:02 BR:1 |RA |RA",,,"86",,"FEW:02 5 SCT:04 8 OVC:08 13","29.96","3.00","43","050",,"5",,,,,,,,,,,,,,,,,,,,,,,,,,,,,,,,,,,,,"MET12703/31/20 00:41:02 SPECI KLGA 310541Z 05004KT 3SM -RA BR FEW005 SCT008 OVC013 07/05 A2999 RMK AO2 RAB0452 P0003 T00720050 $ (RZ)","FM-16","7",,,,,,,,,,,,,,,,,,,,,,,,,,,,
"72503014732","2020-03-31T00:51:00","FM-15","7",,,,,,,,,,,,,,,,,,,,,,,,,,,,,,,,,,,,,,"29.99","40","44","0.05","-RA:02 BR:1 |RA |RA","-0.00","2","85","29.98","FEW:02 5 SCT:04 8 OVC:08 13","29.96","3.00","42","070",,"7",,,,,,,,,,,,,,,,,,,,,,,,,,,,,,,,,,,,,"MET15803/31/20 00:51:02 METAR KLGA 310551Z 07006KT 3SM -RA BR FEW005 SCT008 OVC013 07/04 A2999 RMK AO2 RAB0452 SLP154 P0003 60010 T00670044 10083 20067 52001 $ (RZ)","FM-15","7",,,,,,,,,,,,,,,,,,,,,,,,,,,,
"72503014732","2020-03-31T01:00:00","FM-12","4",,,,,,,,,,,,,,,,,,,,,,,,,,,,,,,,,,,,,,,"40","44",,"||RA","-0.00","2","85","29.98","5","29.95","2.98","42","070",,"7",,,,,,,,,,,,,,,,,,,,,,,,,,,,,,,,,,,,,"SYN09872503 11248 80706 10067 20044 30142 40154 52001 60031 761// 90551 333 10089 20056 96010 555 93106=","FM-12","4",,,,,,,,,,,,,,,,,,,,,,,,,,,,
"72503014732","2020-03-31T01:35:00","FM-16","7",,,,,,,,,,,,,,,,,,,,,,,,,,,,,,,,,,,,,,"29.98","40","44","0.04","-RA:02 BR:1 |RA |RA",,,"85",,"SCT:04 5 OVC:08 16","29.95","4.00","42","070",,"11",,,,,,,,,,,,,,,,,,,,,,,,,,,,,,,,,,,,,"MET11203/31/20 01:35:02 SPECI KLGA 310635Z 07010KT 4SM -RA BR SCT005 OVC016 07/04 A2998 RMK AO2 P0004 T00670044 $ (RZ)","FM-16","7",,,,,,,,,,,,,,,,,,,,,,,,,,,,
"72503014732","2020-03-31T01:51:00","FM-15","7",,,,,,,,,,,,,,,,,,,,,,,,,,,,,,,,,,,,,,"29.98","40","43","0.02",,,,"89","29.98","SCT:04 5 BKN:07 16 OVC:08 19","29.95","7.00","42","060",,"14",,,,,,,,,,,,,,,,,,,,,,,,,,,,,,,,,,,,,"MET12503/31/20 01:51:02 METAR KLGA 310651Z 06012KT 7SM SCT005 BKN016 OVC019 06/04 A2998 RMK AO2 RAE40 SLP151 P0004 T00610044 $ (RZ)","FM-15","7",,,,,,,,,,,,,,,,,,,,,,,,,,,,
"72503014732","2020-03-31T02:51:00","FM-15","7",,,,,,,,,,,,,,,,,,,,,,,,,,,,,,,,,,,,,,"29.99","38","43","0.00",,,,"82","29.98","FEW:02 14 OVC:08 21","29.96","10.00","41","070",,"11",,,,,,,,,,,,,,,,,,,,,,,,,,,,,,,,,,,,,"MET10703/31/20 02:51:02 METAR KLGA 310751Z 07010KT 10SM FEW014 OVC021 06/03 A2999 RMK AO2 SLP154 T00610033 $ (RZ)","FM-15","7",,,,,,,,,,,,,,,,,,,,,,,,,,,,
"72503014732","2020-03-31T03:16:00","FM-16","7",,,,,,,,,,,,,,,,,,,,,,,,,,,,,,,,,,,,,,"29.99","38","43",,,,,"82",,"BKN:07 12 OVC:08 20","29.96","10.00","41","080",,"9",,,,,,,,,,,,,,,,,,,,,,,,,,,,,,,,,,,,,"MET10003/31/20 03:16:02 SPECI KLGA 310816Z 08008KT 10SM BKN012 OVC020 06/03 A2999 RMK AO2 T00610033 $ (RZ)","FM-16","7",,,,,,,,,,,,,,,,,,,,,,,,,,,,
"72503014732","2020-03-31T03:47:00","FM-16","7",,,,,,,,,,,,,,,,,,,,,,,,,,,,,,,,,,,,,,"29.99","37","43",,,,,"81",,"FEW:02 12 OVC:08 19","29.96","10.00","40","070",,"13",,,,,,,,,,,,,,,,,,,,,,,,,,,,,,,,,,,,,"MET09003/31/20 03:47:02 SPECI KLGA 310847Z 07011KT 10SM FEW012 OVC019 06/03 A2999 RMK AO2 $ (RZ)","FM-16","7",,,,,,,,,,,,,,,,,,,,,,,,,,,,
"72503014732","2020-03-31T03:51:00","FM-15","7",,,,,,,,,,,,,,,,,,,,,,,,,,,,,,,,,,,,,,"29.99","38","43","0.00",,"-0.00","3","82","29.98","SCT:04 12 OVC:08 19","29.96","10.00","41","070",,"11",,,,,,,,,,,,,,,,,,,,,,,,,,,,,,,,,,,,,"MET11903/31/20 03:51:02 METAR KLGA 310851Z 07010KT 10SM SCT012 OVC019 06/03 A2999 RMK AO2 SLP154 60004 T00610033 53000 $ (RZ)","FM-15","7",,,,,,,,,,,,,,,,,,,,,,,,,,,,
"72503014732","2020-03-31T04:00:00","FM-12","4",,,,,,,,,,,,,,,,,,,,,,,,,,,,,,,,,,,,,,,"38","43",,,"0.00","4","82","29.98","15","29.95","9.94","41","070",,"11",,,,,,,,,,,,,,,,,,,,,,,,,,,,,,,,,,,,,"SYN07072503 12466 80710 10061 20033 30142 40154 53000 60017 90851 555 93109=","FM-12","4",,,,,,,,,,,,,,,,,,,,,,,,,,,,
"72503014732","2020-03-31T04:51:00","FM-15","7",,,,,,,,,,,,,,,,,,,,,,,,,,,,,,,,,,,,,,"30.01","37","42","0.00",,,,"82","30.01","BKN:07 15 OVC:08 22","29.98","10.00","40","080",,"11",,,,,,,,,,,,,,,,,,,,,,,,,,,,,,,,,,,,,"MET10703/31/20 04:51:02 METAR KLGA 310951Z 08010KT 10SM BKN015 OVC022 06/03 A3001 RMK AO2 SLP163 T00560028 $ (RZ)","FM-15","7",,,,,,,,,,,,,,,,,,,,,,,,,,,,
"72503014732","2020-03-31T05:51:00","FM-15","7",,,,,,,,,,,,,,,,,,,,,,,,,,,,,,,,,,,,,,"30.04","36","42","0.00",,,,"79","30.04","OVC:08 15","30.01","10.00","39","070",,"14",,,,,,,,,,,,,,,,,,,,,,,,,,,,,,,,,,,,,"MET10103/31/20 05:51:02 METAR KLGA 311051Z 07012KT 10SM OVC015 06/02 A3004 RMK AO2 SLP173 T00560022 $ (PAS)","FM-15","7",,,,,,,,,,,,,,,,,,,,,,,,,,,,
"72503014732","2020-03-31T06:51:00","FM-15","7",,,,,,,,,,,,,,,,,,,,,,,,,,,,,,,,,,,,,,"30.06","35","41","T","-DZ:01 |DZ |DZ","-0.07","1","79","30.06","OVC:08 18","30.03","10.00","38","060",,"14",,,,,,,,,,,,,,,,,,,,,,,,,,,,,,,,,,,,,"MET14503/31/20 06:51:02 METAR KLGA 311151Z 06012KT 10SM -DZ OVC018 05/02 A3006 RMK AO2 DZB37 SLP178 P0000 60004 70014 T00500017 10067 20050 51024 (PAS)","FM-15","7",,,,,,,,,,,,,,,,,,,,,,,,,,,,
"72503014732","2020-03-31T07:00:00","FM-12","4",,,,,,,,,,,,,,,,,,,,,,,,,,,,,,,,,,,,,,,"35","41",,"||DZ","-0.07","1","79","30.06","15","30.02","9.94","38","060",,"14",,,,,,,,,,,,,,,,,,,,,,,,,,,,,,,,,,,,,"SYN09872503 11466 80612 10050 20017 30166 40178 51024 60011 751// 91151 333 10100 20050 70036 555 93112=","FM-12","4",,,,,,,,,,,,,,,,,,,,,,,,,,,,
"72503014732","2020-03-31T07:51:00","FM-15","7",,,,,,,,,,,,,,,,,,,,,,,,,,,,,,,,,,,,,,"30.06","34","42","T",,,,"73","30.06","OVC:08 20","30.03","10.00","39","060",,"14",,,,,,,,,,,,,,,,,,,,,,,,,,,,,,,,,,,,,"MET11103/31/20 07:51:02 METAR KLGA 311251Z 06012KT 10SM OVC020 06/01 A3006 RMK AO2 DZE06 SLP178 P0000 T00560011 (PAS)","FM-15","7",,,,,,,,,,,,,,,,,,,,,,,,,,,,
"72503014732","2020-03-31T08:51:00","FM-15","7",,,,,,,,,,,,,,,,,,,,,,,,,,,,,,,,,,,,,,"30.07","34","42","0.00",,,,"73","30.07","OVC:08 20","30.04","10.00","39","060",,"10",,,,,,,,,,,,,,,,,,,,,,,,,,,,,,,,,,,,,"MET09903/31/20 08:51:02 METAR KLGA 311351Z 06009KT 10SM OVC020 06/01 A3007 RMK AO2 SLP182 T00560011 (PAS)","FM-15","7",,,,,,,,,,,,,,,,,,,,,,,,,,,,
"72503014732","2020-03-31T09:51:00","FM-15","7",,,,,,,,,,,,,,,,,,,,,,,,,,,,,,,,,,,,,,"30.06","34","43","0.00",,"-0.00","0","71","30.06","OVC:08 21","30.03","10.00","39","050",,"11",,,,,,,,,,,,,,,,,,,,,,,,,,,,,,,,,,,,,"MET11103/31/20 09:51:02 METAR KLGA 311451Z 05010KT 10SM OVC021 06/01 A3006 RMK AO2 SLP179 60000 T00610011 50001 (PAS)","FM-15","7",,,,,,,,,,,,,,,,,,,,,,,,,,,,
"72503014732","2020-03-31T10:00:00","FM-12","4",,,,,,,,,,,,,,,,,,,,,,,,,,,,,,,,,,,,,,,"34","43",,,"0.00","9","71","30.06","26","30.02","9.94","39","050",,"11",,,,,,,,,,,,,,,,,,,,,,,,,,,,,,,,,,,,,"SYN07072503 12566 80510 10061 20011 30166 40179 50001 69907 91451 555 93115=","FM-12","4",,,,,,,,,,,,,,,,,,,,,,,,,,,,
"72503014732","2020-03-31T10:51:00","FM-15","7",,,,,,,,,,,,,,,,,,,,,,,,,,,,,,,,,,,,,,"30.04","34","44","0.00",,,,"68","30.03","OVC:08 22","30.01","10.00","40","050",,"9",,,,,,,,,,,,,,,,,,,,,,,,,,,,,,,,,,,,,"MET09903/31/20 10:51:02 METAR KLGA 311551Z 05008KT 10SM OVC022 07/01 A3004 RMK AO2 SLP171 T00670011 (PAS)","FM-15","7",,,,,,,,,,,,,,,,,,,,,,,,,,,,
"72503014732","2020-03-31T11:51:00","FM-15","7",,,,,,,,,,,,,,,,,,,,,,,,,,,,,,,,,,,,,,"30.04","34","44","0.00",,,,"68","30.04","OVC:08 26","30.01","10.00","40","040",,"5",,,,,,,,,,,,,,,,,,,,,,,,,,,,,,,,,,,,,"MET09903/31/20 11:51:02 METAR KLGA 311651Z 04004KT 10SM OVC026 07/01 A3004 RMK AO2 SLP173 T00670011 (PAS)","FM-15","7",,,,,,,,,,,,,,,,,,,,,,,,,,,,
"72503014732","2020-03-31T12:24:00","FM-16","7",,,,,,,,,,,,,,,,,,,,,,,,,,,,,,,,,,,,,,"30.03","34","46",,,,,"63",,"SCT:04 24 BKN:07 50 OVC:08 80","30.00","10.00","41","030",,"3",,,,,,,,,,,,,,,,,,,,,,,,,,,,,,,,,,,,,"MET10603/31/20 12:24:02 SPECI KLGA 311724Z 03003KT 10SM SCT024 BKN050 OVC080 08/01 A3003 RMK AO2 T00780011 (PAS)","FM-16","7",,,,,,,,,,,,,,,,,,,,,,,,,,,,
"72503014732","2020-03-31T12:51:00","FM-15","7",,,,,,,,,,,,,,,,,,,,,,,,,,,,,,,,,,,,,,"30.01","34","46","0.00",,"+0.05","8","63","30.01","FEW:02 32 SCT:04 50 BKN:07 75","29.98","10.00","41","040",,"6",,,,,,,,,,,,,,,,,,,,,,,,,,,,,,,,,,,,,"MET13703/31/20 12:51:02 METAR KLGA 311751Z 04005KT 10SM FEW032 SCT050 BKN075 08/01 A3001 RMK AO2 SLP162 60000 T00780011 10083 20050 58017 (PAS)","FM-15","7",,,,,,,,,,,,,,,,,,,,,,,,,,,,
"72503014732","2020-03-31T13:00:00","FM-12","4",,,,,,,,,,,,,,,,,,,,,,,,,,,,,,,,,,,,,,,"34","46",,,"+0.05","8","63","30.01","26","29.97","9.94","41","040",,"6",,,,,,,,,,,,,,,,,,,,,,,,,,,,,,,,,,,,,"SYN08672503 12566 60405 10078 20011 30149 40162 58017 69901 91751 333 10083 20050 555 93118=","FM-12","4",,,,,,,,,,,,,,,,,,,,,,,,,,,,
"72503014732","2020-03-31T13:51:00","FM-15","7",,,,,,,,,,,,,,,,,,,,,,,,,,,,,,,,,,,,,,"29.99","34","48","0.00",,,,"58","29.99","BKN:07 75","29.96","10.00","42","080",,"6",,,,,,,,,,,,,,,,,,,,,,,,,,,,,,,,,,,,,"MET09803/31/20 13:51:02 METAR KLGA 311851Z 08005KT 10SM BKN075 09/01 A2999 RMK AO2 SLP156 T00890011 (WL)","FM-15","7",,,,,,,,,,,,,,,,,,,,,,,,,,,,
"72503014732","2020-03-31T14:51:00","FM-15","7",,,,,,,,,,,,,,,,,,,,,,,,,,,,,,,,,,,,,,"29.98","32","48","0.00",,,,"54","29.97","SCT:04 25 BKN:07 75","29.95","10.00","41","130",,"5",,,,,,,,,,,,,,,,,,,,,,,,,,,,,,,,,,,,,"MET10503/31/20 14:51:02 METAR KLGA 311951Z 13004KT 10SM SCT025 BKN075 09/00 A2998 RMK AO2 SLP150 T00890000 (WL)","FM-15","7",,,,,,,,,,,,,,,,,,,,,,,,,,,,
"72503014732","2020-03-31T15:51:00","FM-15","7",,,,,,,,,,,,,,,,,,,,,,,,,,,,,,,,,,,,,,"29.96","32","48","0.00",,"+0.05","6","54","29.96","BKN:07 35 OVC:08 75","29.93","10.00","41","050",,"9",,,,,,,,,,,,,,,,,,,,,,,,,,,,,,,,,,,,,"MET11103/31/20 15:51:02 METAR KLGA 312051Z 05008KT 10SM BKN035 OVC075 09/00 A2996 RMK AO2 SLP145 T00890000 56017 (WL)","FM-15","7",,,,,,,,,,,,,,,,,,,,,,,,,,,,
"72503014732","2020-03-31T16:00:00","FM-12","4",,,,,,,,,,,,,,,,,,,,,,,,,,,,,,,,,,,,,,,"32","48",,,"+0.05","6","54","29.96","41","29.92","9.94","41","050",,"9",,,,,,,,,,,,,,,,,,,,,,,,,,,,,,,,,,,,,"SYN06472503 32666 80508 10089 20000 30132 40145 56017 92051 555 93121=","FM-12","4",,,,,,,,,,,,,,,,,,,,,,,,,,,,
"72503014732","2020-03-31T16:51:00","FM-15","7",,,,,,,,,,,,,,,,,,,,,,,,,,,,,,,,,,,,,,"29.96","33","46","0.00",,,,"61","29.95","FEW:02 28 OVC:08 35","29.93","10.00","40","200",,"8",,,,,,,,,,,,,,,,,,,,,,,,,,,,,,,,,,,,,"MET10503/31/20 16:51:02 METAR KLGA 312151Z 20007KT 10SM FEW028 OVC035 08/01 A2996 RMK AO2 SLP143 T00780006 (WL)","FM-15","7",,,,,,,,,,,,,,,,,,,,,,,,,,,,
"72503014732","2020-03-31T17:51:00","FM-15","7",,,,,,,,,,,,,,,,,,,,,,,,,,,,,,,,,,,,,,"29.95","33","45","0.00",,,,"63","29.95","OVC:08 38","29.92","10.00","40","190",,"9",,,,,,,,,,,,,,,,,,,,,,,,,,,,,,,,,,,,,"MET09803/31/20 17:51:02 METAR KLGA 312251Z 19008KT 10SM OVC038 07/01 A2995 RMK AO2 SLP142 T00720006 (WL)","FM-15","7",,,,,,,,,,,,,,,,,,,,,,,,,,,,
"72503014732","2020-03-31T18:51:00","FM-15","7",,,,,,,,,,,,,,,,,,,,,,,,,,,,,,,,,,,,,,"29.96","33","44","0.00",,"+0.00","5","65","29.96","OVC:08 43","29.93","10.00","39","190",,"10",,,,,,,,,,,,,,,,,,,,,,,,,,,,,,,,,,,,,"MET11603/31/20 18:51:02 METAR KLGA 312351Z 19009KT 10SM OVC043 07/01 A2996 RMK AO2 SLP144 T00670006 10094 20067 55001 (WL)","FM-15","7",,,,,,,,,,,,,,,,,,,,,,,,,,,,
"72503014732","2020-03-31T19:00:00","FM-12","4",,,,,,,,,,,,,,,,,,,,,,,,,,,,,,,,,,,,,,,"33","44",,,"+0.00","5","65","29.96","41","29.92","9.94","39","190",,"10",,,,,,,,,,,,,,,,,,,,,,,,,,,,,,,,,,,,,"SYN08072503 32666 81909 10067 20006 30132 40144 55001 92351 333 10094 20050 555 90100=","FM-12","4",,,,,,,,,,,,,,,,,,,,,,,,,,,,
"72503014732","2020-03-31T19:51:00","FM-15","7",,,,,,,,,,,,,,,,,,,,,,,,,,,,,,,,,,,,,,"29.96","34","44","0.00",,,,"68","29.96","OVC:08 43","29.93","10.00","40","150",,"7",,,,,,,,,,,,,,,,,,,,,,,,,,,,,,,,,,,,,"MET09803/31/20 19:51:03 METAR KLGA 010051Z 15006KT 10SM OVC043 07/01 A2996 RMK AO2 SLP144 T00670011 (WL)","FM-15","7",,,,,,,,,,,,,,,,,,,,,,,,,,,,
"72503014732","2020-03-31T20:51:00","FM-15","7",,,,,,,,,,,,,,,,,,,,,,,,,,,,,,,,,,,,,,"29.97","34","43","0.00",,,,"71","29.96","OVC:08 45","29.94","10.00","39","150",,"7",,,,,,,,,,,,,,,,,,,,,,,,,,,,,,,,,,,,,"MET09803/31/20 20:51:03 METAR KLGA 010151Z 15006KT 10SM OVC045 06/01 A2997 RMK AO2 SLP147 T00610011 (WL)","FM-15","7",,,,,,,,,,,,,,,,,,,,,,,,,,,,
"72503014732","2020-03-31T21:23:00","FM-16","7",,,,,,,,,,,,,,,,,,,,,,,,,,,,,,,,,,,,,,"29.96","33","43",,,,,"68",,"SCT:04 21 BKN:07 26 OVC:08 47","29.93","10.00","39","150",,"7",,,,,,,,,,,,,,,,,,,,,,,,,,,,,,,,,,,,,"MET10503/31/20 21:23:03 SPECI KLGA 010223Z 15006KT 10SM SCT021 BKN026 OVC047 06/01 A2996 RMK AO2 T00610006 (RZ)","FM-16","7",,,,,,,,,,,,,,,,,,,,,,,,,,,,
"72503014732","2020-03-31T21:51:00","FM-15","7",,,,,,,,,,,,,,,,,,,,,,,,,,,,,,,,,,,,,,"29.95","33","43","0.00",,"+0.01","8","68","29.95","SCT:04 21 OVC:08 27","29.92","10.00","39","120",,"8",,,,,,,,,,,,,,,,,,,,,,,,,,,,,,,,,,,,,"MET11103/31/20 21:51:03 METAR KLGA 010251Z 12007KT 10SM SCT021 OVC027 06/01 A2995 RMK AO2 SLP141 T00610006 58003 (RZ)","FM-15","7",,,,,,,,,,,,,,,,,,,,,,,,,,,,
"72503014732","2020-03-31T22:00:00","FM-12","4",,,,,,,,,,,,,,,,,,,,,,,,,,,,,,,,,,,,,,,"33","43",,,"+0.01","8","68","29.95","26","29.91","9.94","39","120",,"8",,,,,,,,,,,,,,,,,,,,,,,,,,,,,,,,,,,,,"SYN06472503 32566 81207 10061 20006 30129 40141 58003 90251 555 90103=","FM-12","4",,,,,,,,,,,,,,,,,,,,,,,,,,,,
"72503014732","2020-03-31T22:51:00","FM-15","7",,,,,,,,,,,,,,,,,,,,,,,,,,,,,,,,,,,,,,"29.93","33","42","0.00",,,,"71","29.93","BKN:07 22 OVC:08 27","29.90","10.00","38","140",,"7",,,,,,,,,,,,,,,,,,,,,,,,,,,,,,,,,,,,,"MET10503/31/20 22:51:03 METAR KLGA 010351Z 14006KT 10SM BKN022 OVC027 06/01 A2993 RMK AO2 SLP134 T00560006 (RZ)","FM-15","7",,,,,,,,,,,,,,,,,,,,,,,,,,,,
"72503014732","2020-03-31T23:51:00","FM-15","7",,,,,,,,,,,,,,,,,,,,,,,,,,,,,,,,,,,,,,"29.91","31","42","0.00",,,,"65","29.91","OVC:08 27","29.88","10.00","37","100",,"8",,,,,,,,,,,,,,,,,,,,,,,,,,,,,,,,,,,,,"MET10903/31/20 23:51:03 METAR KLGA 010451Z 10007KT 10SM OVC027 06/M01 A2991 RMK AO2 SLP128 T00561006 400940050 (RZ)","FM-15","7",,,,,,,,,,,,,,,,,,,,,,,,,,,,
"72503014732","2020-03-31T23:59:00","SOD  ","6",,,,,,,,,,,,,,,,"45",,,"29.96",,"9.2","0","-2.1","20","49","41","070","19","0.07","0","0.0","060","16","RA DZ BR",,,,,,,,,,,,,,,,,,,,,,,,,,,,,,,,,,,,,,,,,,,,,,,,,,,,,,,,"SOD78324 HR PRECIPITATION (IN): 0.07 SNOW DEPTH (IN):0     24 HR SNOWFALL (IN):0.0  WEATHER(CODE):1  24 HR MAX TEMP (F): 4924 HR MIN TEMP (F): 41AVERAGE STATION PRESSURE:29.965 MINIMUM SEA LEVEL PRESSURE:29.90 TIME OF OCCURRENCE:2359 PEAK WIND SPEED (MPH): 19 PEAK WIND DIR (DEG): 70 PEAK WIND TIME (LST):      FASTEST 2MIN SPEED (MPH): 16FASTEST 2MIN DIR (DEG): 60 FASTEST 2MIN TIME (LST):     AVERAGE WIND SPEED (MPH): 9.2 24 HR AVG TEMP (F): 45DEPART FROM NORMAL: -2  SKY COVER SR-SS (TENTHS): 1HEATING DEGREE DAYS: 20 COOLING DEGREE DAYS:  0 LATEST DAY MAX TEMP (0700-1900 LST):49  LATEST NIGHT MIN TEMP(1900-0800 LST):41 HOURLY INCREMENTAL PRECIPITATION VALUES (IN):.05 0.02 0.00 0.00 0.00 0.00 T    T    0.00 0.00 0.00 0.00 0.00 0.00 0.00 0.00 0.00 0.00 0.00 0.00 0.00 0.00 0.00 0.00","SOD  ","6",,,,,,,,,,,,,,,,,,,,,,,,,"0540","1820",,
"72503014732","2020-03-31T23:59:00","SOM  ","6","11.9",,,,,,,,,,,"0","0","0",,,,,,,,,,,,,,,,,,,,,"3639","523",,,,,,,,,,,,,,,,,,,"12","7","1","0","0","0","5.9","0","-184","5.0","6.8","-0.06",,"1.44","23-23","0",,"T","23-23","30.70","22","1200","54.8","48.1","29.44","03","2307","41.4","30.12","30.08","3.91","T",,"-7777","707","SOM874PCP MTOT:3.91 DEPNRM:-0.06 PCP GT 24HRS:1.44 DATE(S):23 DAYS W/PCP >=.01:12 DAYS W/PCP >=.10:7  DAYS W/ PCP >=.50:2 DAYS W/PCP >=1.00:2 MSDP AMTS W/DATE-TIME TAGS:MIN:5 0.07  28/1812 MIN:10 0.11  23/1807 MIN:15 0.14  23/1810 MIN:20 0.15  23/1815 MIN:30 0.19  23/1810 MIN:45 0.28  19/0452 MIN:60 0.35  19/0503 MIN:80 0.43  19/0521 MIN:100 0.51  19/0524 MIN:120 0.58  23/1659 MIN:150 0.67  23/1722 MIN:180 0.81  23/1808 SN GT DP ON GRND:0 SN GT IN 24HRS:T DATE(S): 23SN MTOT:T AVG DLY MIN:41.4  AVG DLY MAX:54.8  AVG MLY TMP:48.1  DEP NORM:5.9   MIN TMP:26 DATE(S):01 MAX TMP:78  DATE(S):20 DAYS MAX <=32:0 DAYS MAX >=90:0  DAYS MIN <=32:1  DAYS MIN  <=0:0  AVG STP:30.080 LWST SLP:29.44 DATE/TIME:032307 HGST SLP:30.70 DATE/TIME:221200 HDD MTH TOT:516 DEP NORM:-2553 SEASON(JUL 1-JUN 30):988 DEP NORM:-25536 CDD MTH TOT:0 DEP NORM:-2553 SEASON(JAN 1-DEC 31):0 DEP NORM:-25536","SOM  ","6","2020-03-28 18:12","2020-03-23 18:07","2020-03-23 18:10","2020-03-23 18:15","2020-03-23 18:10","2020-03-19 04:52","2020-03-19 05:03","2020-03-19 05:21","2020-03-19 05:24","2020-03-23 16:59","2020-03-23 17:22","2020-03-23 18:08","0.07","0.11","0.14","0.15","0.19","0.28","0.35","0.43","0.51","0.58","0.67","0.81",,,,
"72503014732","2020-04-01T00:28:00","FM-16","7",,,,,,,,,,,,,,,,,,,,,,,,,,,,,,,,,,,,,,"29.89","31","42",,,,,"65",,"FEW:02 22 OVC:08 30","29.86","10.00","37","070",,"9",,,,,,,,,,,,,,,,,,,,,,,,,,,,,,,,,,,,,"MET09904/01/20 00:28:02 SPECI KLGA 010528Z 07008KT 10SM FEW022 OVC030 06/M01 A2989 RMK AO2 T00561006 (RZ)","FM-16","7",,,,,,,,,,,,,,,,,,,,,,,,,,,,
"72503014732","2020-04-01T00:51:00","FM-15","7",,,,,,,,,,,,,,,,,,,,,,,,,,,,,,,,,,,,,,"29.88","32","42","0.00",,"+0.07","8","68","29.88","FEW:02 22 OVC:08 30","29.85","10.00","38","060",,"11",,,,,,,,,,,,,,,,,,,,,,,,,,,,,,,,,,,,,"MET12304/01/20 00:51:02 METAR KLGA 010551Z 06010KT 10SM FEW022 OVC030 06/00 A2988 RMK AO2 SLP118 T00560000 10067 20056 58023 (RZ)","FM-15","7",,,,,,,,,,,,,,,,,,,,,,,,,,,,
"72503014732","2020-04-01T01:00:00","FM-12","4",,,,,,,,,,,,,,,,,,,,,,,,,,,,,,,,,,,,,,,"32","42",,,"+0.07","8","68","29.88","26","29.84","9.94","38","060",,"11",,,,,,,,,,,,,,,,,,,,,,,,,,,,,,,,,,,,,"SYN08072503 32566 80610 10056 20000 30105 40118 58023 90551 333 10083 20050 555 90106=","FM-12","4",,,,,,,,,,,,,,,,,,,,,,,,,,,,
"72503014732","2020-04-01T01:23:00","FM-16","7",,,,,,,,,,,,,,,,,,,,,,,,,,,,,,,,,,,,,,"29.88","31","41",,,,,"67",,"OVC:08 26","29.85","10.00","37","100",,"9",,,,,,,,,,,,,,,,,,,,,,,,,,,,,,,,,,,,,"MET09204/01/20 01:23:02 SPECI KLGA 010623Z 10008KT 10SM OVC026 05/M01 A2988 RMK AO2 T00501006 (RZ)","FM-16","7",,,,,,,,,,,,,,,,,,,,,,,,,,,,
"72503014732","2020-04-01T01:51:00","FM-15","7",,,,,,,,,,,,,,,,,,,,,,,,,,,,,,,,,,,,,,"29.87","32","41","0.00",,,,"70","29.87","OVC:08 26","29.84","10.00","37","080",,"10",,,,,,,,,,,,,,,,,,,,,,,,,,,,,,,,,,,,,"MET09804/01/20 01:51:02 METAR KLGA 010651Z 08009KT 10SM OVC026 05/00 A2987 RMK AO2 SLP115 T00500000 (RZ)","FM-15","7",,,,,,,,,,,,,,,,,,,,,,,,,,,,
"72503014732","2020-04-01T02:51:00","FM-15","7",,,,,,,,,,,,,,,,,,,,,,,,,,,,,,,,,,,,,,"29.84","30","40","0.00",,,,"68","29.84","BKN:07 25","29.81","10.00","36","050",,"10",,,,,,,,,,,,,,,,,,,,,,,,,,,,,,,,,,,,,"MET09904/01/20 02:51:02 METAR KLGA 010751Z 05009KT 10SM BKN025 04/M01 A2984 RMK AO2 SLP105 T00441011 (RZ)","FM-15","7",,,,,,,,,,,,,,,,,,,,,,,,,,,,
"72503014732","2020-04-01T03:07:00","FM-16","7",,,,,,,,,,,,,,,,,,,,,,,,,,,,,,,,,,,,,,"29.84","31","40",,,,,"70",,"SCT:04 25 OVC:08 170","29.81","10.00","36","040",,"9",,,,,,,,,,,,,,,,,,,,,,,,,,,,,,,,,,,,,"MET09904/01/20 03:07:02 SPECI KLGA 010807Z 04008KT 10SM SCT025 OVC170 04/M01 A2984 RMK AO2 T00441006 (RZ)","FM-16","7",,,,,,,,,,,,,,,,,,,,,,,,,,,,
"72503014732","2020-04-01T03:51:00","FM-15","7",,,,,,,,,,,,,,,,,,,,,,,,,,,,,,,,,,,,,,"29.83","31","41","0.00",,"+0.05","8","67","29.83","SCT:04 23 BKN:07 32 OVC:08 170","29.80","10.00","37","030",,"11",,,,,,,,,,,,,,,,,,,,,,,,,,,,,,,,,,,,,"MET11904/01/20 03:51:02 METAR KLGA 010851Z 03010KT 10SM SCT023 BKN032 OVC170 05/M01 A2983 RMK AO2 SLP102 T00501006 58016 (RZ)","FM-15","7",,,,,,,,,,,,,,,,,,,,,,,,,,,,
"72503014732","2020-04-01T04:00:00","FM-12","4",,,,,,,,,,,,,,,,,,,,,,,,,,,,,,,,,,,,,,,"31","41",,,"+0.05","8","67","29.83","26","29.79","9.94","37","030",,"11",,,,,,,,,,,,,,,,,,,,,,,,,,,,,,,,,,,,,"SYN06472503 32566 80310 10050 21006 30088 40102 58016 90851 555 90109=","FM-12","4",,,,,,,,,,,,,,,,,,,,,,,,,,,,
"72503014732","2020-04-01T04:45:00","FM-16","7",,,,,,,,,,,,,,,,,,,,,,,,,,,,,,,,,,,,,,"29.81","30","39",,,,,"70",,"BKN:07 26 BKN:07 32 OVC:08 170","29.78","10.00","35","030",,"13",,,,,,,,,,,,,,,,,,,,,,,,,,,,,,,,,,,,,"MET09604/01/20 04:45:02 SPECI KLGA 010945Z 03011KT 10SM BKN026 BKN032 OVC170 04/M01 A2981 RMK AO2 (RZ)","FM-16","7",,,,,,,,,,,,,,,,,,,,,,,,,,,,
"72503014732","2020-04-01T04:51:00","FM-15","7",,,,,,,,,,,,,,,,,,,,,,,,,,,,,,,,,,,,,,"29.82","31","40","0.00",,,,"70","29.82","BKN:07 26 BKN:07 32 OVC:08 170","29.79","10.00","36","030",,"13",,,,,,,,,,,,,,,,,,,,,,,,,,,,,,,,,,,,,"MET11304/01/20 04:51:02 METAR KLGA 010951Z 03011KT 10SM BKN026 BKN032 OVC170 04/M01 A2982 RMK AO2 SLP097 T00441006 (RZ)","FM-15","7",,,,,,,,,,,,,,,,,,,,,,,,,,,,
"72503014732","2020-04-01T05:36:00","FM-16","7",,,,,,,,,,,,,,,,,,,,,,,,,,,,,,,,,,,,,,"29.81","29","40",,,,,"65",,"SCT:04 25 BKN:07 170","29.78","10.00","36","040","23","13",,,,,,,,,,,,,,,,,,,,,,,,,,,,,,,,,,,,,"MET10304/01/20 05:36:02 SPECI KLGA 011036Z 04011G20KT 10SM SCT025 BKN170 04/M02 A2981 RMK AO2 T00441017 (PAS)","FM-16","7",,,,,,,,,,,,,,,,,,,,,,,,,,,,
"72503014732","2020-04-01T05:51:00","FM-15","7",,,,,,,,,,,,,,,,,,,,,,,,,,,,,,,,,,,,,,"29.82","29","39","0.00",,,,"67","29.82","SCT:04 25 BKN:07 170","29.79","10.00","35","040",,"14",,,,,,,,,,,,,,,,,,,,,,,,,,,,,,,,,,,,,"MET10704/01/20 05:51:02 METAR KLGA 011051Z 04012KT 10SM SCT025 BKN170 04/M02 A2982 RMK AO2 SLP097 T00391017 (PAS)","FM-15","7",,,,,,,,,,,,,,,,,,,,,,,,,,,,
"72503014732","2020-04-01T06:51:00","FM-15","7",,,,,,,,,,,,,,,,,,,,,,,,,,,,,,,,,,,,,,"29.85","29","40","0.00",,"-0.01","3","65","29.85","FEW:02 26 FEW:02 170 BKN:07 250","29.82","10.00","36","030","20","11",,,,,,,,,,,,,,,,,,,,,,,,,,,,,,,,,,,,,"MET13504/01/20 06:51:02 METAR KLGA 011151Z 03010G17KT 10SM FEW026 FEW170 BKN250 04/M02 A2985 RMK AO2 SLP107 T00441017 10056 20039 53005 (PAS)","FM-15","7",,,,,,,,,,,,,,,,,,,,,,,,,,,,
"72503014732","2020-04-01T07:00:00","FM-12","4",,,,,,,,,,,,,,,,,,,,,,,,,,,,,,,,,,,,,,,"29","40",,,"-0.01","3","65","29.85","26","29.81","9.94","36","030",,"11",,,,,,,,,,,,,,,,,,,,,,,,,,,,,,,,,,,,,"SYN08672503 32566 60310 10044 21017 30095 40107 53005 91151 333 10094 20039 91017 555 90112=","FM-12","4",,,,,,,,,,,,,,,,,,,,,,,,,,,,
"72503014732","2020-04-01T07:51:00","FM-15","7",,,,,,,,,,,,,,,,,,,,,,,,,,,,,,,,,,,,,,"29.85","29","41","0.00",,,,"62","29.85","FEW:02 24 FEW:02 170 SCT:04 250","29.82","10.00","36","060",,"17",,,,,,,,,,,,,,,,,,,,,,,,,,,,,,,,,,,,,"MET11404/01/20 07:51:02 METAR KLGA 011251Z 06015KT 10SM FEW024 FEW170 SCT250 05/M02 A2985 RMK AO2 SLP107 T00501017 (PAS)","FM-15","7",,,,,,,,,,,,,,,,,,,,,,,,,,,,
"72503014732","2020-04-01T08:51:00","FM-15","7",,,,,,,,,,,,,,,,,,,,,,,,,,,,,,,,,,,,,,"29.85","29","43","0.00",,,,"58","29.85","FEW:02 25 FEW:02 180 FEW:02 250","29.82","10.00","37","050",,"14",,,,,,,,,,,,,,,,,,,,,,,,,,,,,,,,,,,,,"MET11404/01/20 08:51:02 METAR KLGA 011351Z 05012KT 10SM FEW025 FEW180 FEW250 06/M02 A2985 RMK AO2 SLP107 T00611017 (PAS)","FM-15","7",,,,,,,,,,,,,,,,,,,,,,,,,,,,
"72503014732","2020-04-01T09:51:00","FM-15","7",,,,,,,,,,,,,,,,,,,,,,,,,,,,,,,,,,,,,,"29.82","30","45","0.00",,"+0.03","8","56","29.82","FEW:02 25 SCT:04 250","29.79","10.00","39","070",,"13",,,,,,,,,,,,,,,,,,,,,,,,,,,,,,,,,,,,,"MET11304/01/20 09:51:02 METAR KLGA 011451Z 07011KT 10SM FEW025 SCT250 07/M01 A2982 RMK AO2 SLP098 T00721011 58009 (PAS)","FM-15","7",,,,,,,,,,,,,,,,,,,,,,,,,,,,
"72503014732","2020-04-01T10:00:00","FM-12","4",,,,,,,,,,,,,,,,,,,,,,,,,,,,,,,,,,,,,,,"30","45",,,"+0.03","8","56","29.82","26","29.78","9.94","39","070",,"13",,,,,,,,,,,,,,,,,,,,,,,,,,,,,,,,,,,,,"SYN06472503 32566 40711 10072 21011 30085 40098 58009 91451 555 90115=","FM-12","4",,,,,,,,,,,,,,,,,,,,,,,,,,,,
"72503014732","2020-04-01T10:51:00","FM-15","7",,,,,,,,,,,,,,,,,,,,,,,,,,,,,,,,,,,,,,"29.80","27","46","0.00",,,,"47","29.80","FEW:02 28 SCT:04 250","29.77","10.00","38","060",,"13",,,,,,,,,,,,,,,,,,,,,,,,,,,,,,,,,,,,,"MET10704/01/20 10:51:02 METAR KLGA 011551Z 06011KT 10SM FEW028 SCT250 08/M03 A2980 RMK AO2 SLP091 T00781028 (PAS)","FM-15","7",,,,,,,,,,,,,,,,,,,,,,,,,,,,
"72503014732","2020-04-01T11:51:00","FM-15","7",,,,,,,,,,,,,,,,,,,,,,,,,,,,,,,,,,,,,,"29.78","27","48","0.00",,,,"44","29.78","FEW:02 43 BKN:07 250","29.75","10.00","39","060",,"6",,,,,,,,,,,,,,,,,,,,,,,,,,,,,,,,,,,,,"MET10704/01/20 11:51:02 METAR KLGA 011651Z 06005KT 10SM FEW043 BKN250 09/M03 A2978 RMK AO2 SLP084 T00891028 (PAS)","FM-15","7",,,,,,,,,,,,,,,,,,,,,,,,,,,,
"72503014732","2020-04-01T12:51:00","FM-15","7",,,,,,,,,,,,,,,,,,,,,,,,,,,,,,,,,,,,,,"29.76","27","50","0.00",,"+0.06","6","41","29.76","SCT:04 50 BKN:07 250","29.73","10.00","40","360",,"7",,,,,,,,,,,,,,,,,,,,,,,,,,,,,,,,,,,,,"MET12504/01/20 12:51:02 METAR KLGA 011751Z 36006KT 10SM SCT050 BKN250 10/M03 A2976 RMK AO2 SLP077 T01001028 10106 20033 56021 (PAS)","FM-15","7",,,,,,,,,,,,,,,,,,,,,,,,,,,,
"72503014732","2020-04-01T13:00:00","FM-12","4",,,,,,,,,,,,,,,,,,,,,,,,,,,,,,,,,,,,,,,"27","50",,,"+0.06","6","41","29.76","57","29.72","9.94","40","360",,"7",,,,,,,,,,,,,,,,,,,,,,,,,,,,,,,,,,,,,"SYN08072503 32766 63606 10100 21028 30064 40077 56021 91751 333 10106 20033 555 90118=","FM-12","4",,,,,,,,,,,,,,,,,,,,,,,,,,,,
"72503014732","2020-04-01T13:51:00","FM-15","7",,,,,,,,,,,,,,,,,,,,,,,,,,,,,,,,,,,,,,"29.75","26","53","0.00",,,,"35","29.75","SCT:04 55 BKN:07 250","29.72","10.00","42","320","22","16",,,,,,,,,,,,,,,,,,,,,,,,,,,,,,,,,,,,,"MET10904/01/20 13:51:02 METAR KLGA 011851Z 32014G19KT 10SM SCT055 BKN250 12/M03 A2975 RMK AO2 SLP073 T01171033 (WL)","FM-15","7",,,,,,,,,,,,,,,,,,,,,,,,,,,,
"72503014732","2020-04-01T14:51:00","FM-15","7",,,,,,,,,,,,,,,,,,,,,,,,,,,,,,,,,,,,,,"29.73","24","54","0.00",,,,"31","29.72","FEW:02 50 SCT:04 250","29.70","10.00","42","010","28","15",,,,,,,,,,,,,,,,,,,,,,,,,,,,,,,,,,,,,"MET10904/01/20 14:51:02 METAR KLGA 011951Z 01013G24KT 10SM FEW050 SCT250 12/M04 A2973 RMK AO2 SLP066 T01221044 (WL)","FM-15","7",,,,,,,,,,,,,,,,,,,,,,,,,,,,
"72503014732","2020-04-01T15:51:00","FM-15","7",,,,,,,,,,,,,,,,,,,,,,,,,,,,,,,,,,,,,,"29.71","24","54","0.00",,"+0.05","8","31","29.71","SCT:04 60 SCT:04 250","29.68","10.00","42","360","25","18",,,,,,,,,,,,,,,,,,,,,,,,,,,,,,,,,,,,,"MET11504/01/20 15:51:02 METAR KLGA 012051Z 36016G22KT 10SM SCT060 SCT250 12/M04 A2971 RMK AO2 SLP061 T01221044 58016 (WL)","FM-15","7",,,,,,,,,,,,,,,,,,,,,,,,,,,,
"72503014732","2020-04-01T16:00:00","FM-12","4",,,,,,,,,,,,,,,,,,,,,,,,,,,,,,,,,,,,,,,"24","54",,,"+0.05","8","31","29.71","57","29.67","9.94","42","360",,"18",,,,,,,,,,,,,,,,,,,,,,,,,,,,,,,,,,,,,"SYN07472503 32766 43616 10122 21044 30047 40061 58016 92051 333 91022 555 90121=","FM-12","4",,,,,,,,,,,,,,,,,,,,,,,,,,,,
"72503014732","2020-04-01T16:51:00","FM-15","7",,,,,,,,,,,,,,,,,,,,,,,,,,,,,,,,,,,,,,"29.72","26","55","0.00",,,,"33","29.72","SCT:04 60 SCT:04 250","29.69","10.00","43","320",,"8",,,,,,,,,,,,,,,,,,,,,,,,,,,,,,,,,,,,,"MET10604/01/20 16:51:02 METAR KLGA 012151Z 32007KT 10SM SCT060 SCT250 13/M03 A2972 RMK AO2 SLP063 T01281033 (WL)","FM-15","7",,,,,,,,,,,,,,,,,,,,,,,,,,,,
"72503014732","2020-04-01T17:51:00","FM-15","7",,,,,,,,,,,,,,,,,,,,,,,,,,,,,,,,,,,,,,"29.72","25","53","0.00",,,,"34","29.72","SCT:04 65 SCT:04 250","29.69","10.00","41","350",,"17",,,,,,,,,,,,,,,,,,,,,,,,,,,,,,,,,,,,,"MET10604/01/20 17:51:02 METAR KLGA 012251Z 35015KT 10SM SCT065 SCT250 12/M04 A2972 RMK AO2 SLP064 T01171039 (WL)","FM-15","7",,,,,,,,,,,,,,,,,,,,,,,,,,,,
"72503014732","2020-04-01T18:51:00","FM-15","7",,,,,,,,,,,,,,,,,,,,,,,,,,,,,,,,,,,,,,"29.73","26","52","0.00",,"-0.02","3","37","29.73","FEW:02 60 SCT:04 250","29.70","10.00","41","360",,"11",,,,,,,,,,,,,,,,,,,,,,,,,,,,,,,,,,,,,"MET12404/01/20 18:51:02 METAR KLGA 012351Z 36010KT 10SM FEW060 SCT250 11/M03 A2973 RMK AO2 SLP068 T01111033 10128 20106 53007 (WL)","FM-15","7",,,,,,,,,,,,,,,,,,,,,,,,,,,,
"72503014732","2020-04-01T19:00:00","FM-12","4",,,,,,,,,,,,,,,,,,,,,,,,,,,,,,,,,,,,,,,"26","52",,,"-0.02","3","37","29.73","57","29.69","9.94","41","360",,"11",,,,,,,,,,,,,,,,,,,,,,,,,,,,,,,,,,,,,"SYN08072503 32766 43610 10111 21033 30054 40068 53007 92351 333 10128 20039 555 90200=","FM-12","4",,,,,,,,,,,,,,,,,,,,,,,,,,,,
"72503014732","2020-04-01T19:51:00","FM-15","7",,,,,,,,,,,,,,,,,,,,,,,,,,,,,,,,,,,,,,"29.75","25","51","0.00",,,,"36","29.75","FEW:02 70 FEW:02 250","29.72","10.00","40","350",,"13",,,,,,,,,,,,,,,,,,,,,,,,,,,,,,,,,,,,,"MET10104/01/20 19:51:01 METAR KLGA 020051Z 35011KT 10SM FEW070 FEW250 11/M04 A2975 RMK AO2 SLP074 T01061039","FM-15","7",,,,,,,,,,,,,,,,,,,,,,,,,,,,
"72503014732","2020-04-01T20:51:00","FM-15","7",,,,,,,,,,,,,,,,,,,,,,,,,,,,,,,,,,,,,,"29.75","26","51","0.00",,,,"38","29.75","FEW:02 70 FEW:02 250","29.72","10.00","41","340",,"13",,,,,,,,,,,,,,,,,,,,,,,,,,,,,,,,,,,,,"MET10104/01/20 20:51:01 METAR KLGA 020151Z 34011KT 10SM FEW070 FEW250 11/M03 A2975 RMK AO2 SLP073 T01061033","FM-15","7",,,,,,,,,,,,,,,,,,,,,,,,,,,,
"72503014732","2020-04-01T21:51:00","FM-15","7",,,,,,,,,,,,,,,,,,,,,,,,,,,,,,,,,,,,,,"29.74","27","50","0.00",,"-0.01","0","41","29.74","FEW:02 250","29.71","10.00","40","340",,"8",,,,,,,,,,,,,,,,,,,,,,,,,,,,,,,,,,,,,"MET10004/01/20 21:51:01 METAR KLGA 020251Z 34007KT 10SM FEW250 10/M03 A2974 RMK AO2 SLP072 T01001028 50004","FM-15","7",,,,,,,,,,,,,,,,,,,,,,,,,,,,
"72503014732","2020-04-01T22:00:00","FM-12","4",,,,,,,,,,,,,,,,,,,,,,,,,,,,,,,,,,,,,,,"27","50",,,"0.01","9","41","29.74",,"29.70","9.94","40","340",,"8",,,,,,,,,,,,,,,,,,,,,,,,,,,,,,,,,,,,,"SYN06472503 32966 23407 10100 21028 30057 40072 50004 90251 555 90203=","FM-12","4",,,,,,,,,,,,,,,,,,,,,,,,,,,,
"72503014732","2020-04-01T22:51:00","FM-15","7",,,,,,,,,,,,,,,,,,,,,,,,,,,,,,,,,,,,,,"29.75","26","48","0.00",,,,"42","29.75","FEW:02 250","29.72","10.00","39","320",,"15",,,,,,,,,,,,,,,,,,,,,,,,,,,,,,,,,,,,,"MET09404/01/20 22:51:02 METAR KLGA 020351Z 32013KT 10SM FEW250 09/M03 A2975 RMK AO2 SLP075 T00891033","FM-15","7",,,,,,,,,,,,,,,,,,,,,,,,,,,,
"72503014732","2020-04-01T23:51:00","FM-15","7",,,,,,,,,,,,,,,,,,,,,,,,,,,,,,,,,,,,,,"29.75","26","47","0.00",,,,"44","29.75","FEW:02 250","29.72","10.00","39","330",,"15",,,,,,,,,,,,,,,,,,,,,,,,,,,,,,,,,,,,,"MET10404/01/20 23:51:02 METAR KLGA 020451Z 33013KT 10SM FEW250 08/M03 A2975 RMK AO2 SLP075 T00831033 401280033","FM-15","7",,,,,,,,,,,,,,,,,,,,,,,,,,,,
"72503014732","2020-04-01T23:59:00","SOD  ","6",,,,,,,,,,,,,,,,"47",,,"29.77",,"12.5","0","-0.4","18","55","38","360","28","0.00","0","0.0","040","22",,,,,,,,,,,,,,,,,,,,,,,,,,,,,,,,,,,,,,,,,,,,,,,,,,,,,,,,,"SOD73924 HR PRECIPITATION (IN): 0.00 SNOW DEPTH (IN):0     24 HR SNOWFALL (IN):0.0  24 HR MAX TEMP (F): 5524 HR MIN TEMP (F): 38AVERAGE STATION PRESSURE:29.765 MINIMUM SEA LEVEL PRESSURE:29.71 TIME OF OCCURRENCE:1725 PEAK WIND SPEED (MPH): 28 PEAK WIND DIR (DEG):360 PEAK WIND TIME (LST):      FASTEST 2MIN SPEED (MPH): 22FASTEST 2MIN DIR (DEG): 40 FASTEST 2MIN TIME (LST):     AVERAGE WIND SPEED (MPH):12.5 24 HR AVG TEMP (F): 47DEPART FROM NORMAL:  0  HEATING DEGREE DAYS: 18 COOLING DEGREE DAYS:  0 LATEST DAY MAX TEMP (0700-1900 LST):55  LATEST NIGHT MIN TEMP(1900-0800 LST):39 HOURLY INCREMENTAL PRECIPITATION VALUES (IN):.00 0.00 0.00 0.00 0.00 0.00 0.00 0.00 0.00 0.00 0.00 0.00 0.00 0.00 0.00 0.00 0.00 0.00 0.00 0.00 0.00 0.00 0.00 0.00","SOD  ","6",,,,,,,,,,,,,,,,,,,,,,,,,"0538","1821",,
"72503014732","2020-04-02T00:51:00","FM-15","7",,,,,,,,,,,,,,,,,,,,,,,,,,,,,,,,,,,,,,"29.76","26","45","0.00",,"-0.01","1","48","29.76","FEW:02 250","29.73","10.00","37","320",,"14",,,,,,,,,,,,,,,,,,,,,,,,,,,,,,,,,,,,,"MET11704/02/20 00:51:02 METAR KLGA 020551Z 32012KT 10SM FEW250 07/M03 A2976 RMK AO2 SLP077 T00721033 10111 20072 51005 (RZ)","FM-15","7",,,,,,,,,,,,,,,,,,,,,,,,,,,,
"72503014732","2020-04-02T01:00:00","FM-12","4",,,,,,,,,,,,,,,,,,,,,,,,,,,,,,,,,,,,,,,"26","45",,,"-0.01","1","48","29.76",,"29.72","9.94","37","320",,"14",,,,,,,,,,,,,,,,,,,,,,,,,,,,,,,,,,,,,"SYN08072503 32966 23212 10072 21033 30064 40077 51005 90551 333 10111 20039 555 90206=","FM-12","4",,,,,,,,,,,,,,,,,,,,,,,,,,,,
"72503014732","2020-04-02T01:51:00","FM-15","7",,,,,,,,,,,,,,,,,,,,,,,,,,,,,,,,,,,,,,"29.75","27","44","0.00",,,,"51","29.75","FEW:02 250","29.72","10.00","37","350","23","15",,,,,,,,,,,,,,,,,,,,,,,,,,,,,,,,,,,,,"MET10204/02/20 01:51:02 METAR KLGA 020651Z 35013G20KT 10SM FEW250 07/M03 A2975 RMK AO2 SLP075 T00671028 (RZ)","FM-15","7",,,,,,,,,,,,,,,,,,,,,,,,,,,,
"72503014732","2020-04-02T02:51:00","FM-15","7",,,,,,,,,,,,,,,,,,,,,,,,,,,,,,,,,,,,,,"29.74","28","43","0.00",,,,"56","29.74","CLR:00","29.71","10.00","37","330",,"14",,,,,,,,,,,,,,,,,,,,,,,,,,,,,,,,,,,,,"MET09604/02/20 02:51:02 METAR KLGA 020751Z 33012KT 10SM CLR 06/M02 A2974 RMK AO2 SLP072 T00611022 (RZ)","FM-15","7",,,,,,,,,,,,,,,,,,,,,,,,,,,,
"72503014732","2020-04-02T03:51:00","FM-15","7",,,,,,,,,,,,,,,,,,,,,,,,,,,,,,,,,,,,,,"29.74","27","42","0.00",,"+0.02","6","55","29.74","CLR:00","29.71","10.00","36","320",,"20",,,,,,,,,,,,,,,,,,,,,,,,,,,,,,,,,,,,,"MET10204/02/20 03:51:02 METAR KLGA 020851Z 32017KT 10SM CLR 06/M03 A2974 RMK AO2 SLP070 T00561028 56006 (RZ)","FM-15","7",,,,,,,,,,,,,,,,,,,,,,,,,,,,
"72503014732","2020-04-02T04:00:00","FM-12","4",,,,,,,,,,,,,,,,,,,,,,,,,,,,,,,,,,,,,,,"27","42",,,"+0.02","6","55","29.74",,"29.70","9.94","36","320",,"20",,,,,,,,,,,,,,,,,,,,,,,,,,,,,,,,,,,,,"SYN06472503 32966 03217 10056 21028 30057 40070 56006 90851 555 90209=","FM-12","4",,,,,,,,,,,,,,,,,,,,,,,,,,,,
"72503014732","2020-04-02T04:51:00","FM-15","7",,,,,,,,,,,,,,,,,,,,,,,,,,,,,,,,,,,,,,"29.74","26","41","0.00",,,,"55","29.74","FEW:02 250","29.71","10.00","35","310","24","15",,,,,,,,,,,,,,,,,,,,,,,,,,,,,,,,,,,,,"MET10204/02/20 04:51:02 METAR KLGA 020951Z 31013G21KT 10SM FEW250 05/M03 A2974 RMK AO2 SLP072 T00501033 (RZ)","FM-15","7",,,,,,,,,,,,,,,,,,,,,,,,,,,,
"72503014732","2020-04-02T05:51:00","FM-15","7",,,,,,,,,,,,,,,,,,,,,,,,,,,,,,,,,,,,,,"29.75","27","40","0.00",,,,"60","29.75","FEW:02 35 FEW:02 200 FEW:02 250","29.72","10.00","35","320",,"16",,,,,,,,,,,,,,,,,,,,,,,,,,,,,,,,,,,,,"MET11304/02/20 05:51:02 METAR KLGA 021051Z 32014KT 10SM FEW035 FEW200 FEW250 04/M03 A2975 RMK AO2 SLP073 T00441028 (DM)","FM-15","7",,,,,,,,,,,,,,,,,,,,,,,,,,,,
"72503014732","2020-04-02T06:51:00","FM-15","7",,,,,,,,,,,,,,,,,,,,,,,,,,,,,,,,,,,,,,"29.75","27","41","0.00",,"-0.01","2","57","29.75","SCT:04 37 SCT:04 200 SCT:04 250","29.72","10.00","35","310","23","16",,,,,,,,,,,,,,,,,,,,,,,,,,,,,,,,,,,,,"MET13404/02/20 06:51:02 METAR KLGA 021151Z 31014G20KT 10SM SCT037 SCT200 SCT250 05/M03 A2975 RMK AO2 SLP074 T00501028 10072 20044 52004 (DM)","FM-15","7",,,,,,,,,,,,,,,,,,,,,,,,,,,,
"72503014732","2020-04-02T07:00:00","FM-12","4",,,,,,,,,,,,,,,,,,,,,,,,,,,,,,,,,,,,,,,"27","41",,,"-0.01","2","57","29.75","41","29.71","9.94","35","310",,"16",,,,,,,,,,,,,,,,,,,,,,,,,,,,,,,,,,,,,"SYN08672503 32666 43114 10050 21028 30061 40074 52004 91151 333 10128 20044 91020 555 90212=","FM-12","4",,,,,,,,,,,,,,,,,,,,,,,,,,,,
"72503014732","2020-04-02T07:51:00","FM-15","7",,,,,,,,,,,,,,,,,,,,,,,,,,,,,,,,,,,,,,"29.74","27","43","0.00",,,,"53","29.73","BKN:07 40","29.71","10.00","37","320",,"13",,,,,,,,,,,,,,,,,,,,,,,,,,,,,,,,,,,,,"MET09904/02/20 07:51:02 METAR KLGA 021251Z 32011KT 10SM BKN040 06/M03 A2974 RMK AO2 SLP069 T00611028 (DM)","FM-15","7",,,,,,,,,,,,,,,,,,,,,,,,,,,,
"72503014732","2020-04-02T08:51:00","FM-15","7",,,,,,,,,,,,,,,,,,,,,,,,,,,,,,,,,,,,,,"29.73","28","45","0.00",,,,"52","29.73","BKN:07 39","29.70","10.00","38","330","29","21",,,,,,,,,,,,,,,,,,,,,,,,,,,,,,,,,,,,,"MET10204/02/20 08:51:02 METAR KLGA 021351Z 33018G25KT 10SM BKN039 07/M02 A2973 RMK AO2 SLP067 T00721022 (DM)","FM-15","7",,,,,,,,,,,,,,,,,,,,,,,,,,,,
"72503014732","2020-04-02T09:51:00","FM-15","7",,,,,,,,,,,,,,,,,,,,,,,,,,,,,,,,,,,,,,"29.71","28","48","0.00",,"+0.04","8","46","29.70","BKN:07 40","29.68","10.00","40","350","32","17",,,,,,,,,,,,,,,,,,,,,,,,,,,,,,,,,,,,,"MET12604/02/20 09:51:02 METAR KLGA 021451Z 35015G28KT 10SM BKN040 09/M02 A2971 RMK AO2 PK WND 32030/1423 SLP059 T00891022 58015 (DM)","FM-15","7",,,,,,,,,,,,,,,,,,,,,,,,,,,,
"72503014732","2020-04-02T10:00:00","FM-12","4",,,,,,,,,,,,,,,,,,,,,,,,,,,,,,,,,,,,,,,"28","48",,,"+0.04","8","46","29.70","41","29.67","9.94","40","350",,"17",,,,,,,,,,,,,,,,,,,,,,,,,,,,,,,,,,,,,"SYN07472503 32666 63515 10089 21022 30047 40059 58015 91451 333 91028 555 90215=","FM-12","4",,,,,,,,,,,,,,,,,,,,,,,,,,,,
"72503014732","2020-04-02T10:51:00","FM-15","7",,,,,,,,,,,,,,,,,,,,,,,,,,,,,,,,,,,,,,"29.68","28","50","0.00",,,,"43","29.68","SCT:04 45 SCT:04 200 SCT:04 250","29.65","10.00","41","330","28","22",,,,,,,,,,,,,,,,,,,,,,,,,,,,,,,,,,,,,"MET11604/02/20 10:51:02 METAR KLGA 021551Z 33019G24KT 10SM SCT045 SCT200 SCT250 10/M02 A2968 RMK AO2 SLP052 T01001022 (DM)","FM-15","7",,,,,,,,,,,,,,,,,,,,,,,,,,,,
"72503014732","2020-04-02T11:51:00","FM-15","7",,,,,,,,,,,,,,,,,,,,,,,,,,,,,,,,,,,,,,"29.66","28","53","0.00",,,,"38","29.65","SCT:04 50 SCT:04 120 SCT:04 250","29.63","10.00","42","320","33","17",,,,,,,,,,,,,,,,,,,,,,,,,,,,,,,,,,,,,"MET13404/02/20 11:51:02 METAR KLGA 021651Z 32015G29KT 10SM SCT050 SCT120 SCT250 12/M02 A2966 RMK AO2 PK WND 33029/1643 SLP042 T01171022 (DM)","FM-15","7",,,,,,,,,,,,,,,,,,,,,,,,,,,,
"72503014732","2020-04-02T12:51:00","FM-15","7",,,,,,,,,,,,,,,,,,,,,,,,,,,,,,,,,,,,,,"29.63","29","55","0.00",,"+0.08","8","37","29.63","SCT:04 55 SCT:04 120 SCT:04 250","29.60","10.00","44","320",,"21",,,,,,,,,,,,,,,,,,,,,,,,,,,,,,,,,,,,,"MET14904/02/20 12:51:02 METAR KLGA 021751Z 32018KT 10SM SCT055 SCT120 SCT250 13/M02 A2963 RMK AO2 PK WND 33030/1721 SLP033 T01281017 10128 20050 58026 (DM)","FM-15","7",,,,,,,,,,,,,,,,,,,,,,,,,,,,
"72503014732","2020-04-02T13:00:00","FM-12","4",,,,,,,,,,,,,,,,,,,,,,,,,,,,,,,,,,,,,,,"29","55",,,"+0.08","8","37","29.63","57","29.59","9.94","44","320",,"21",,,,,,,,,,,,,,,,,,,,,,,,,,,,,,,,,,,,,"SYN08072503 32766 43218 10128 21017 30020 40033 58026 91751 333 10128 20050 555 90218=","FM-12","4",,,,,,,,,,,,,,,,,,,,,,,,,,,,
"72503014732","2020-04-02T13:51:00","FM-15","7",,,,,,,,,,,,,,,,,,,,,,,,,,,,,,,,,,,,,,"29.61","29","56","0.00",,,,"36","29.61","SCT:04 65 BKN:07 120 BKN:07 250","29.58","10.00","44","320","30","22",,,,,,,,,,,,,,,,,,,,,,,,,,,,,,,,,,,,,"MET13504/02/20 13:51:02 METAR KLGA 021851Z 32019G26KT 10SM SCT065 BKN120 BKN250 13/M02 A2961 RMK AO2 PK WND 31033/1757 SLP026 T01331017 (AGW)","FM-15","7",,,,,,,,,,,,,,,,,,,,,,,,,,,,
"72503014732","2020-04-02T14:51:00","FM-15","7",,,,,,,,,,,,,,,,,,,,,,,,,,,,,,,,,,,,,,"29.59","29","58","0.00",,,,"33","29.59","SCT:04 60 BKN:07 90 BKN:07 250","29.56","10.00","45","320","36","18",,,,,,,,,,,,,,,,,,,,,,,,,,,,,,,,,,,,,"MET13504/02/20 14:51:02 METAR KLGA 021951Z 32016G31KT 10SM SCT060 BKN090 BKN250 14/M02 A2959 RMK AO2 PK WND 31031/1941 SLP020 T01441017 (AGW)","FM-15","7",,,,,,,,,,,,,,,,,,,,,,,,,,,,
"72503014732","2020-04-02T15:51:00","FM-15","7",,,,,,,,,,,,,,,,,,,,,,,,,,,,,,,,,,,,,,"29.59","29","56","0.00",,"+0.04","6","36","29.59","BKN:07 60 BKN:07 95 BKN:07 250","29.56","10.00","44","320","34","23",,,,,,,,,,,,,,,,,,,,,,,,,,,,,,,,,,,,,"MET14104/02/20 15:51:02 METAR KLGA 022051Z 32020G30KT 10SM BKN060 BKN095 BKN250 13/M02 A2959 RMK AO2 PK WND 32034/2029 SLP020 T01331017 56014 (AGW)","FM-15","7",,,,,,,,,,,,,,,,,,,,,,,,,,,,
"72503014732","2020-04-02T16:00:00","FM-12","4",,,,,,,,,,,,,,,,,,,,,,,,,,,,,,,,,,,,,,,"29","56",,,"+0.04","6","36","29.59","57","29.55","9.94","44","320",,"23",,,,,,,,,,,,,,,,,,,,,,,,,,,,,,,,,,,,,"SYN07472503 32766 63220 10133 21017 30007 40020 56014 92051 333 91030 555 90221=","FM-12","4",,,,,,,,,,,,,,,,,,,,,,,,,,,,
"72503014732","2020-04-02T16:51:00","FM-15","7",,,,,,,,,,,,,,,,,,,,,,,,,,,,,,,,,,,,,,"29.60","28","56","0.00",,,,"34","29.59","SCT:04 60 BKN:07 110 BKN:07 250","29.57","10.00","44","330","39","29",,,,,,,,,,,,,,,,,,,,,,,,,,,,,,,,,,,,,"MET13504/02/20 16:51:02 METAR KLGA 022151Z 33025G34KT 10SM SCT060 BKN110 BKN250 13/M02 A2960 RMK AO2 PK WND 35034/2151 SLP022 T01331022 (AGW)","FM-15","7",,,,,,,,,,,,,,,,,,,,,,,,,,,,
"72503014732","2020-04-02T17:51:00","FM-15","7",,,,,,,,,,,,,,,,,,,,,,,,,,,,,,,,,,,,,,"29.61","30","55","0.00",,,,"38","29.61","FEW:02 60 BKN:07 110 BKN:07 220","29.58","10.00","44","320","32","21",,,,,,,,,,,,,,,,,,,,,,,,,,,,,,,,,,,,,"MET13504/02/20 17:51:02 METAR KLGA 022251Z 32018G28KT 10SM FEW060 BKN110 BKN220 13/M01 A2961 RMK AO2 PK WND 32036/2222 SLP026 T01281011 (AGW)","FM-15","7",,,,,,,,,,,,,,,,,,,,,,,,,,,,
"72503014732","2020-04-02T18:51:00","FM-15","7",,,,,,,,,,,,,,,,,,,,,,,,,,,,,,,,,,,,,,"29.62","29","54","0.00",,"-0.04","3","38","29.62","FEW:02 60 BKN:07 100 OVC:08 200","29.59","10.00","43","330","40","30",,,,,,,,,,,,,,,,,,,,,,,,,,,,,,,,,,,,,"MET15304/02/20 18:51:02 METAR KLGA 022351Z 33026G35KT 10SM FEW060 BKN100 OVC200 12/M02 A2962 RMK AO2 PK WND 34035/2351 SLP031 T01221017 10144 20122 53012 (AGW)","FM-15","7",,,,,,,,,,,,,,,,,,,,,,,,,,,,
"72503014732","2020-04-02T19:00:00","FM-12","4",,,,,,,,,,,,,,,,,,,,,,,,,,,,,,,,,,,,,,,"29","54",,,"-0.04","3","38","29.62","57","29.58","9.94","43","330",,"30",,,,,,,,,,,,,,,,,,,,,,,,,,,,,,,,,,,,,"SYN08672503 32766 83326 10122 21017 30017 40031 53012 92351 333 10144 20044 91035 555 90300=","FM-12","4",,,,,,,,,,,,,,,,,,,,,,,,,,,,
"72503014732","2020-04-02T19:51:00","FM-15","7",,,,,,,,,,,,,,,,,,,,,,,,,,,,,,,,,,,,,,"29.65","29","53","0.00",,,,"40","29.65","FEW:02 60 BKN:07 100 OVC:08 200","29.62","10.00","43","330","38","24",,,,,,,,,,,,,,,,,,,,,,,,,,,,,,,,,,,,,"MET12904/02/20 19:51:01 METAR KLGA 030051Z 33021G33KT 10SM FEW060 BKN100 OVC200 12/M02 A2965 RMK AO2 PK WND 34033/0045 SLP039 T01171017","FM-15","7",,,,,,,,,,,,,,,,,,,,,,,,,,,,
"72503014732","2020-04-02T20:51:00","FM-15","7",,,,,,,,,,,,,,,,,,,,,,,,,,,,,,,,,,,,,,"29.64","28","52","0.00",,,,"40","29.64","FEW:02 60 BKN:07 110 OVC:08 170","29.61","10.00","42","330","36","23",,,,,,,,,,,,,,,,,,,,,,,,,,,,,,,,,,,,,"MET12904/02/20 20:51:01 METAR KLGA 030151Z 33020G31KT 10SM FEW060 BKN110 OVC170 11/M02 A2964 RMK AO2 PK WND 33033/0135 SLP036 T01111022","FM-15","7",,,,,,,,,,,,,,,,,,,,,,,,,,,,
"72503014732","2020-04-02T21:51:00","FM-15","7",,,,,,,,,,,,,,,,,,,,,,,,,,,,,,,,,,,,,,"29.62","28","52","0.00",,"-0.00","0","40","29.62","OVC:08 90","29.59","10.00","42","340","31","21",,,,,,,,,,,,,,,,,,,,,,,,,,,,,,,,,,,,,"MET12104/02/20 21:51:01 METAR KLGA 030251Z 34018G27KT 10SM OVC090 11/M02 A2962 RMK AO2 PK WND 32033/0227 SLP031 T01111022 50000","FM-15","7",,,,,,,,,,,,,,,,,,,,,,,,,,,,
"72503014732","2020-04-02T22:00:00","FM-12","4",,,,,,,,,,,,,,,,,,,,,,,,,,,,,,,,,,,,,,,"28","52",,,"0.00","9","40","29.62",,"29.58","9.94","42","340",,"21",,,,,,,,,,,,,,,,,,,,,,,,,,,,,,,,,,,,,"SYN07472503 32966 83418 10111 21022 30017 40031 50000 90251 333 91027 555 90303=","FM-12","4",,,,,,,,,,,,,,,,,,,,,,,,,,,,
"72503014732","2020-04-02T22:51:00","FM-15","7",,,,,,,,,,,,,,,,,,,,,,,,,,,,,,,,,,,,,,"29.62","30","51","0.00",,,,"44","29.62","BKN:07 80 OVC:08 90","29.59","10.00","42","330","31","22",,,,,,,,,,,,,,,,,,,,,,,,,,,,,,,,,,,,,"MET12204/02/20 22:51:02 METAR KLGA 030351Z 33019G27KT 10SM BKN080 OVC090 11/M01 A2962 RMK AO2 PK WND 33028/0302 SLP029 T01061011","FM-15","7",,,,,,,,,,,,,,,,,,,,,,,,,,,,
"72503014732","2020-04-02T23:51:00","FM-15","7",,,,,,,,,,,,,,,,,,,,,,,,,,,,,,,,,,,,,,"29.60","31","50","0.00",,,,"48","29.60","OVC:08 70","29.57","10.00","42","340","25","17",,,,,,,,,,,,,,,,,,,,,,,,,,,,,,,,,,,,,"MET12504/02/20 23:51:02 METAR KLGA 030451Z 34015G22KT 10SM OVC070 10/M01 A2960 RMK AO2 PK WND 33026/0356 SLP024 T01001006 401440044","FM-15","7",,,,,,,,,,,,,,,,,,,,,,,,,,,,
"72503014732","2020-04-02T23:59:00","SOD  ","6",,,,,,,,,,,,,,,,"49",,,"29.65",,"19.6","0","1.2","16","58","40","320","42","0.00","0","0.0","330","32",,,,,,,,,,,,,,,,,,,,,,,,,,,,,,,,,,,,,,,,,,,,,,,,,,,,,,,,,"SOD73924 HR PRECIPITATION (IN): 0.00 SNOW DEPTH (IN):0     24 HR SNOWFALL (IN):0.0  24 HR MAX TEMP (F): 5824 HR MIN TEMP (F): 40AVERAGE STATION PRESSURE:29.655 MINIMUM SEA LEVEL PRESSURE:29.58 TIME OF OCCURRENCE:1526 PEAK WIND SPEED (MPH): 42 PEAK WIND DIR (DEG):320 PEAK WIND TIME (LST):      FASTEST 2MIN SPEED (MPH): 32FASTEST 2MIN DIR (DEG):330 FASTEST 2MIN TIME (LST):     AVERAGE WIND SPEED (MPH):19.6 24 HR AVG TEMP (F): 49DEPART FROM NORMAL:  1  HEATING DEGREE DAYS: 16 COOLING DEGREE DAYS:  0 LATEST DAY MAX TEMP (0700-1900 LST):58  LATEST NIGHT MIN TEMP(1900-0800 LST):40 HOURLY INCREMENTAL PRECIPITATION VALUES (IN):.00 0.00 0.00 0.00 0.00 0.00 0.00 0.00 0.00 0.00 0.00 0.00 0.00 0.00 0.00 0.00 0.00 0.00 0.00 0.00 0.00 0.00 0.00 0.00","SOD  ","6",,,,,,,,,,,,,,,,,,,,,,,,,"0536","1822",,
"72503014732","2020-04-03T00:51:00","FM-15","7",,,,,,,,,,,,,,,,,,,,,,,,,,,,,,,,,,,,,,"29.59","31","49","T","-RA:02 |RA |RA","+0.03","8","50","29.59","OVC:08 55","29.56","10.00","41","330","31","23",,,,,,,,,,,,,,,,,,,,,,,,,,,,,,,,,,,,,"MET16004/03/20 00:51:02 METAR KLGA 030551Z 33020G27KT 10SM -RA OVC055 09/M01 A2959 RMK AO2 PK WND 32027/0550 RAB35 SLP020 P0000 60000 T00941006 10122 20094 58011 (RZ)","FM-15","7",,,,,,,,,,,,,,,,,,,,,,,,,,,,
"72503014732","2020-04-03T01:00:00","FM-12","4",,,,,,,,,,,,,,,,,,,,,,,,,,,,,,,,,,,,,,,"31","49",,"||RA","+0.03","8","50","29.59","57","29.55","9.94","41","330",,"23",,,,,,,,,,,,,,,,,,,,,,,,,,,,,,,,,,,,,"SYN09872503 11766 83320 10094 21006 30007 40020 58011 69901 761// 90551 333 10122 20044 91027 555 90306=","FM-12","4",,,,,,,,,,,,,,,,,,,,,,,,,,,,
"72503014732","2020-04-03T01:51:00","FM-15","7",,,,,,,,,,,,,,,,,,,,,,,,,,,,,,,,,,,,,,"29.58","33","48","T","-RA:02 |RA |RA",,,"56","29.58","FEW:02 44 OVC:08 70","29.55","10.00","41","330","32","17",,,,,,,,,,,,,,,,,,,,,,,,,,,,,,,,,,,,,"MET13604/03/20 01:51:02 METAR KLGA 030651Z 33015G28KT 10SM -RA FEW044 OVC070 09/01 A2958 RMK AO2 PK WND 34028/0600 SLP018 P0000 T00890006 (RZ)","FM-15","7",,,,,,,,,,,,,,,,,,,,,,,,,,,,
"72503014732","2020-04-03T02:51:00","FM-15","7",,,,,,,,,,,,,,,,,,,,,,,,,,,,,,,,,,,,,,"29.57","31","49","T",,,,"50","29.57","OVC:08 70","29.54","10.00","41","340","26","13",,,,,,,,,,,,,,,,,,,,,,,,,,,,,,,,,,,,,"MET13204/03/20 02:51:02 METAR KLGA 030751Z 34011G23KT 10SM OVC070 09/M01 A2957 RMK AO2 PK WND 31026/0714 RAE32 SLP014 P0000 T00941006 (RZ)","FM-15","7",,,,,,,,,,,,,,,,,,,,,,,,,,,,
"72503014732","2020-04-03T03:51:00","FM-15","7",,,,,,,,,,,,,,,,,,,,,,,,,,,,,,,,,,,,,,"29.58","33","48","T",,"+0.01","5","56","29.58","OVC:08 65","29.55","10.00","41","330","25","17",,,,,,,,,,,,,,,,,,,,,,,,,,,,,,,,,,,,,"MET12804/03/20 03:51:02 METAR KLGA 030851Z 33015G22KT 10SM OVC065 09/01 A2958 RMK AO2 RAB13E32 SLP016 P0000 60000 T00890006 55004 (RZ)","FM-15","7",,,,,,,,,,,,,,,,,,,,,,,,,,,,
"72503014732","2020-04-03T04:00:00","FM-12","4",,,,,,,,,,,,,,,,,,,,,,,,,,,,,,,,,,,,,,,"33","48",,,"+0.01","5","56","29.58","57","29.54","9.94","41","330",,"17",,,,,,,,,,,,,,,,,,,,,,,,,,,,,,,,,,,,,"SYN08072503 12766 83315 10089 20006 30003 40016 55004 69907 90851 333 91022 555 90309=","FM-12","4",,,,,,,,,,,,,,,,,,,,,,,,,,,,
"72503014732","2020-04-03T04:51:00","FM-15","7",,,,,,,,,,,,,,,,,,,,,,,,,,,,,,,,,,,,,,"29.59","34","48","T",,,,"58","29.59","BKN:07 50 OVC:08 70","29.56","10.00","42","330",,"20",,,,,,,,,,,,,,,,,,,,,,,,,,,,,,,,,,,,,"MET14004/03/20 04:51:02 METAR KLGA 030951Z 33017KT 10SM BKN050 OVC070 09/01 A2959 RMK AO2 PK WND 31026/0934 RAB0852E51 SLP020 P0000 T00890011 (RZ)","FM-15","7",,,,,,,,,,,,,,,,,,,,,,,,,,,,
"72503014732","2020-04-03T05:51:00","FM-15","7",,,,,,,,,,,,,,,,,,,,,,,,,,,,,,,,,,,,,,"29.61","35","47","T",,,,"63","29.61","SCT:04 47 OVC:08 70","29.58","10.00","42","330","24","20",,,,,,,,,,,,,,,,,,,,,,,,,,,,,,,,,,,,,"MET12604/03/20 05:51:02 METAR KLGA 031051Z 33017G21KT 10SM SCT047 OVC070 08/02 A2961 RMK AO2 RAB0957E50 SLP028 P0000 T00830017 (PAS)","FM-15","7",,,,,,,,,,,,,,,,,,,,,,,,,,,,
"72503014732","2020-04-03T06:51:00","FM-15","7",,,,,,,,,,,,,,,,,,,,,,,,,,,,,,,,,,,,,,"29.63","36","46","T","-RA:02 |RA |RA","-0.05","1","68","29.62","FEW:02 45 OVC:08 55","29.60","10.00","42","330","30","20",,,,,,,,,,,,,,,,,,,,,,,,,,,,,,,,,,,,,"MET16904/03/20 06:51:02 METAR KLGA 031151Z 33017G26KT 10SM -RA FEW045 OVC055 08/02 A2963 RMK AO2 PK WND 33027/1112 RAB1059 SLP032 P0000 60000 T00780022 10100 20078 51017 (PAS)","FM-15","7",,,,,,,,,,,,,,,,,,,,,,,,,,,,
"72503014732","2020-04-03T07:00:00","FM-12","4",,,,,,,,,,,,,,,,,,,,,,,,,,,,,,,,,,,,,,,"36","46",,"||RA","-0.05","1","68","29.62","41","29.59","9.94","42","330",,"20",,,,,,,,,,,,,,,,,,,,,,,,,,,,,,,,,,,,,"SYN09872503 11666 83317 10078 20022 30020 40032 51017 69901 761// 91151 333 10144 20078 91026 555 90312=","FM-12","4",,,,,,,,,,,,,,,,,,,,,,,,,,,,
"72503014732","2020-04-03T07:51:00","FM-15","7",,,,,,,,,,,,,,,,,,,,,,,,,,,,,,,,,,,,,,"29.63","36","47","T",,,,"66","29.63","FEW:02 40 BKN:07 50 OVC:08 60","29.60","10.00","42","330","30","23",,,,,,,,,,,,,,,,,,,,,,,,,,,,,,,,,,,,,"MET14604/03/20 07:51:02 METAR KLGA 031251Z 33020G26KT 10SM FEW040 BKN050 OVC060 08/02 A2963 RMK AO2 PK WND 32029/1237 RAE18 SLP033 P0000 T00830022 (PAS)","FM-15","7",,,,,,,,,,,,,,,,,,,,,,,,,,,,
"72503014732","2020-04-03T08:51:00","FM-15","7",,,,,,,,,,,,,,,,,,,,,,,,,,,,,,,,,,,,,,"29.64","36","48","T",,,,"63","29.64","FEW:02 25 BKN:07 45 OVC:08 55","29.61","10.00","43","330","38","20",,,,,,,,,,,,,,,,,,,,,,,,,,,,,,,,,,,,,"MET15104/03/20 08:51:02 METAR KLGA 031351Z 33017G33KT 10SM FEW025 BKN045 OVC055 09/02 A2964 RMK AO2 PK WND 32033/1345 RAB1253E30 SLP036 P0000 T00890022 (PAS)","FM-15","7",,,,,,,,,,,,,,,,,,,,,,,,,,,,
"72503014732","2020-04-03T09:51:00","FM-15","7",,,,,,,,,,,,,,,,,,,,,,,,,,,,,,,,,,,,,,"29.65","36","49","T",,"-0.02","3","61","29.65","FEW:02 28 OVC:08 48","29.62","10.00","43","330","33","25",,,,,,,,,,,,,,,,,,,,,,,,,,,,,,,,,,,,,"MET15604/03/20 09:51:02 METAR KLGA 031451Z 33022G29KT 10SM FEW028 OVC048 09/02 A2965 RMK AO2 PK WND 34030/1426 RAB1353E24 SLP040 P0000 60000 T00940022 53007 (PAS)","FM-15","7",,,,,,,,,,,,,,,,,,,,,,,,,,,,
"72503014732","2020-04-03T10:00:00","FM-12","4",,,,,,,,,,,,,,,,,,,,,,,,,,,,,,,,,,,,,,,"36","49",,,"-0.02","3","61","29.65","26","29.61","9.94","43","330",,"25",,,,,,,,,,,,,,,,,,,,,,,,,,,,,,,,,,,,,"SYN08072503 12566 83322 10094 20022 30027 40040 53007 69907 91451 333 91029 555 90315=","FM-12","4",,,,,,,,,,,,,,,,,,,,,,,,,,,,
"72503014732","2020-04-03T10:51:00","FM-15","7",,,,,,,,,,,,,,,,,,,,,,,,,,,,,,,,,,,,,,"29.65","40","49","0.03","-RA:02 |RA |RA",,,"71","29.65","FEW:02 35 OVC:08 49","29.62","10.00","45","330","26","18",,,,,,,,,,,,,,,,,,,,,,,,,,,,,,,,,,,,,"MET14304/03/20 10:51:02 METAR KLGA 031551Z 33016G23KT 10SM -RA FEW035 OVC049 09/04 A2965 RMK AO2 PK WND 32028/1452 RAB10 SLP041 P0003 T00940044 (PAS)","FM-15","7",,,,,,,,,,,,,,,,,,,,,,,,,,,,
"72503014732","2020-04-03T11:51:00","FM-15","7",,,,,,,,,,,,,,,,,,,,,,,,,,,,,,,,,,,,,,"29.66","42","50","0.01","-RA:02 |RA |RA",,,"74","29.66","FEW:02 21 OVC:08 60","29.63","10.00","46","340","31","22",,,,,,,,,,,,,,,,,,,,,,,,,,,,,,,,,,,,,"MET13704/03/20 11:51:02 METAR KLGA 031651Z 34019G27KT 10SM -RA FEW021 OVC060 10/06 A2966 RMK AO2 PK WND 32027/1645 SLP043 P0001 T01000056 (PAS)","FM-15","7",,,,,,,,,,,,,,,,,,,,,,,,,,,,
"72503014732","2020-04-03T12:51:00","FM-15","7",,,,,,,,,,,,,,,,,,,,,,,,,,,,,,,,,,,,,,"29.67","42","50","0.01","-RA:02 |RA |RA","-0.02","3","74","29.67","FEW:02 25 OVC:08 60","29.64","10.00","46","340","28","20",,,,,,,,,,,,,,,,,,,,,,,,,,,,,,,,,,,,,"MET16104/03/20 12:51:02 METAR KLGA 031751Z 34017G24KT 10SM -RA FEW025 OVC060 10/06 A2967 RMK AO2 PK WND 33030/1707 SLP047 P0001 60005 T01000056 10100 20078 53007 (PAS)","FM-15","7",,,,,,,,,,,,,,,,,,,,,,,,,,,,
"72503014732","2020-04-03T13:00:00","FM-12","4",,,,,,,,,,,,,,,,,,,,,,,,,,,,,,,,,,,,,,,"42","50",,"||RA","-0.02","3","74","29.67","26","29.63","9.94","46","340",,"20",,,,,,,,,,,,,,,,,,,,,,,,,,,,,,,,,,,,,"SYN09872503 11566 83417 10100 20056 30034 40047 53007 60011 761// 91751 333 10100 20078 91024 555 90318=","FM-12","4",,,,,,,,,,,,,,,,,,,,,,,,,,,,
"72503014732","2020-04-03T13:51:00","FM-15","7",,,,,,,,,,,,,,,,,,,,,,,,,,,,,,,,,,,,,,"29.68","42","51","T","-RA:02 |RA |RA",,,"71","29.68","FEW:02 41 SCT:04 48 OVC:08 60","29.65","10.00","47","350","28","21",,,,,,,,,,,,,,,,,,,,,,,,,,,,,,,,,,,,,"MET15804/03/20 13:51:02 METAR KLGA 031851Z 35018G24KT 10SM -RA FEW041 SCT048 OVC060 11/06 A2968 RMK AO2 PK WND 33026/1822 CIG 048 R22 SW SLP050 P0000 T01060056 (WL)","FM-15","7",,,,,,,,,,,,,,,,,,,,,,,,,,,,
"72503014732","2020-04-03T14:51:00","FM-15","7",,,,,,,,,,,,,,,,,,,,,,,,,,,,,,,,,,,,,,"29.69","42","51","0.01","-RA:02 |RA |RA",,,"71","29.69","OVC:08 37","29.66","10.00","47","350","28","22",,,,,,,,,,,,,,,,,,,,,,,,,,,,,,,,,,,,,"MET12904/03/20 14:51:02 METAR KLGA 031951Z 35019G24KT 10SM -RA OVC037 11/06 A2969 RMK AO2 PK WND 36028/1929 SLP054 P0001 T01060056 (WL)","FM-15","7",,,,,,,,,,,,,,,,,,,,,,,,,,,,
"72503014732","2020-04-03T15:51:00","FM-15","7",,,,,,,,,,,,,,,,,,,,,,,,,,,,,,,,,,,,,,"29.71","42","51","0.02","-RA:02 |RA |RA","-0.04","3","71","29.71","OVC:08 34","29.68","10.00","47","350","25","18",,,,,,,,,,,,,,,,,,,,,,,,,,,,,,,,,,,,,"MET14104/03/20 15:51:02 METAR KLGA 032051Z 35016G22KT 10SM -RA OVC034 11/06 A2971 RMK AO2 PK WND 36026/2039 SLP060 P0002 60003 T01060056 53013 (WL)","FM-15","7",,,,,,,,,,,,,,,,,,,,,,,,,,,,
"72503014732","2020-04-03T16:00:00","FM-12","4",,,,,,,,,,,,,,,,,,,,,,,,,,,,,,,,,,,,,,,"42","51",,"||RA","-0.04","3","71","29.71","41","29.67","9.94","47","350",,"18",,,,,,,,,,,,,,,,,,,,,,,,,,,,,,,,,,,,,"SYN08672503 11666 83516 10106 20056 30047 40060 53013 69987 761// 92051 333 91022 555 90321=","FM-12","4",,,,,,,,,,,,,,,,,,,,,,,,,,,,
"72503014732","2020-04-03T16:51:00","FM-15","7",,,,,,,,,,,,,,,,,,,,,,,,,,,,,,,,,,,,,,"29.74","42","52","T",,,,"69","29.74","BKN:07 34 OVC:08 49","29.71","10.00","47","340","30","23",,,,,,,,,,,,,,,,,,,,,,,,,,,,,,,,,,,,,"MET13804/03/20 16:51:02 METAR KLGA 032151Z 34020G26KT 10SM BKN034 OVC049 11/06 A2974 RMK AO2 PK WND 34028/2135 RAE24 SLP070 P0000 T01110056 (WL)","FM-15","7",,,,,,,,,,,,,,,,,,,,,,,,,,,,
"72503014732","2020-04-03T17:51:00","FM-15","7",,,,,,,,,,,,,,,,,,,,,,,,,,,,,,,,,,,,,,"29.77","43","51","0.00",,,,"74","29.77","FEW:02 20 OVC:08 31","29.74","10.00","47","350",,"18",,,,,,,,,,,,,,,,,,,,,,,,,,,,,,,,,,,,,"MET12304/03/20 17:51:02 METAR KLGA 032251Z 35016KT 10SM FEW020 OVC031 11/06 A2977 RMK AO2 PK WND 35027/2216 SLP081 T01060061 (WL)","FM-15","7",,,,,,,,,,,,,,,,,,,,,,,,,,,,
"72503014732","2020-04-03T18:51:00","FM-15","7",,,,,,,,,,,,,,,,,,,,,,,,,,,,,,,,,,,,,,"29.80","42","52","T",,"-0.09","1","69","29.80","FEW:02 30 OVC:08 41","29.77","10.00","47","360","28","17",,,,,,,,,,,,,,,,,,,,,,,,,,,,,,,,,,,,,"MET16504/03/20 18:51:02 METAR KLGA 032351Z 36015G24KT 10SM FEW030 OVC041 11/06 A2980 RMK AO2 PK WND 35027/2330 RAB22E31 SLP091 P0000 60003 T01110056 10111 20100 51031 (WL)","FM-15","7",,,,,,,,,,,,,,,,,,,,,,,,,,,,
"72503014732","2020-04-03T19:00:00","FM-12","4",,,,,,,,,,,,,,,,,,,,,,,,,,,,,,,,,,,,,,,"42","52",,,"-0.09","1","69","29.80","26","29.76","9.94","47","360",,"17",,,,,,,,,,,,,,,,,,,,,,,,,,,,,,,,,,,,,"SYN09272503 12566 83615 10111 20056 30078 40091 51031 69981 92351 333 10111 20078 91024 555 90400=","FM-12","4",,,,,,,,,,,,,,,,,,,,,,,,,,,,
"72503014732","2020-04-03T19:51:00","FM-15","7",,,,,,,,,,,,,,,,,,,,,,,,,,,,,,,,,,,,,,"29.82","43","51","0.00",,,,"74","29.82","BKN:07 40 BKN:07 50 OVC:08 70","29.79","10.00","47","360","23","15",,,,,,,,,,,,,,,,,,,,,,,,,,,,,,,,,,,,,"MET11004/03/20 19:51:01 METAR KLGA 040051Z 36013G20KT 10SM BKN040 BKN050 OVC070 11/06 A2982 RMK AO2 SLP098 T01060061","FM-15","7",,,,,,,,,,,,,,,,,,,,,,,,,,,,
"72503014732","2020-04-03T20:51:00","FM-15","7",,,,,,,,,,,,,,,,,,,,,,,,,,,,,,,,,,,,,,"29.84","42","51","0.00",,,,"71","29.84","SCT:04 45 OVC:08 75","29.81","10.00","47","010","23","17",,,,,,,,,,,,,,,,,,,,,,,,,,,,,,,,,,,,,"MET10304/03/20 20:51:01 METAR KLGA 040151Z 01015G20KT 10SM SCT045 OVC075 11/06 A2984 RMK AO2 SLP105 T01060056","FM-15","7",,,,,,,,,,,,,,,,,,,,,,,,,,,,
"72503014732","2020-04-03T21:51:00","FM-15","7",,,,,,,,,,,,,,,,,,,,,,,,,,,,,,,,,,,,,,"29.85","41","51","0.00",,"-0.05","1","69","29.85","FEW:02 30 BKN:07 38 OVC:08 80","29.82","10.00","46","010",,"17",,,,,,,,,,,,,,,,,,,,,,,,,,,,,,,,,,,,,"MET11304/03/20 21:51:01 METAR KLGA 040251Z 01015KT 10SM FEW030 BKN038 OVC080 11/05 A2985 RMK AO2 SLP107 T01060050 51016","FM-15","7",,,,,,,,,,,,,,,,,,,,,,,,,,,,
"72503014732","2020-04-03T22:00:00","FM-12","4",,,,,,,,,,,,,,,,,,,,,,,,,,,,,,,,,,,,,,,"41","51",,,"-0.05","1","69","29.85","26","29.81","9.94","46","010",,"17",,,,,,,,,,,,,,,,,,,,,,,,,,,,,,,,,,,,,"SYN06472503 32566 80115 10106 20050 30095 40107 51016 90251 555 90403=","FM-12","4",,,,,,,,,,,,,,,,,,,,,,,,,,,,
"72503014732","2020-04-03T22:51:00","FM-15","7",,,,,,,,,,,,,,,,,,,,,,,,,,,,,,,,,,,,,,"29.86","41","51","0.00",,,,"69","29.85","FEW:02 29 OVC:08 35","29.83","10.00","46","010","21","10",,,,,,,,,,,,,,,,,,,,,,,,,,,,,,,,,,,,,"MET10304/03/20 22:51:02 METAR KLGA 040351Z 01009G18KT 10SM FEW029 OVC035 11/05 A2986 RMK AO2 SLP109 T01060050","FM-15","7",,,,,,,,,,,,,,,,,,,,,,,,,,,,
"72503014732","2020-04-03T23:51:00","FM-15","7",,,,,,,,,,,,,,,,,,,,,,,,,,,,,,,,,,,,,,"29.87","40","51","0.00",,,,"66","29.86","OVC:08 32","29.84","10.00","46","020",,"9",,,,,,,,,,,,,,,,,,,,,,,,,,,,,,,,,,,,,"MET10304/03/20 23:51:02 METAR KLGA 040451Z 02008KT 10SM OVC032 11/04 A2987 RMK AO2 SLP113 T01060044 401110078","FM-15","7",,,,,,,,,,,,,,,,,,,,,,,,,,,,
"72503014732","2020-04-03T23:59:00","SOD  ","6",,,,,,,,,,,,,,,,"49",,,"29.64",,"18.5","0","0.8","16","52","46","320","38","0.08","0","0.0","330","28","RA",,,,,,,,,,,,,,,,,,,,,,,,,,,,,,,,,,,,,,,,,,,,,,,,,,,,,,,,"SOD76624 HR PRECIPITATION (IN): 0.08 SNOW DEPTH (IN):0     24 HR SNOWFALL (IN):0.0  24 HR MAX TEMP (F): 5224 HR MIN TEMP (F): 46AVERAGE STATION PRESSURE:29.635 MINIMUM SEA LEVEL PRESSURE:29.57 TIME OF OCCURRENCE:0352 PEAK WIND SPEED (MPH): 38 PEAK WIND DIR (DEG):320 PEAK WIND TIME (LST):      FASTEST 2MIN SPEED (MPH): 28FASTEST 2MIN DIR (DEG):330 FASTEST 2MIN TIME (LST):     AVERAGE WIND SPEED (MPH):18.5 24 HR AVG TEMP (F): 49DEPART FROM NORMAL:  1  SKY COVER SR-SS (TENTHS): 1HEATING DEGREE DAYS: 16 COOLING DEGREE DAYS:  0 LATEST DAY MAX TEMP (0700-1900 LST):52  LATEST NIGHT MIN TEMP(1900-0800 LST):46 HOURLY INCREMENTAL PRECIPITATION VALUES (IN):    T    T    T    T    T    T    T    T    T    0.03 0.01 0.01 T    0.01 0.02 T    0.00 T    0.00 0.00 0.00 0.00 0.00","SOD  ","6",,,,,,,,,,,,,,,,,,,,,,,,,"0535","1823",,
"72503014732","2020-04-04T00:51:00","FM-15","7",,,,,,,,,,,,,,,,,,,,,,,,,,,,,,,,,,,,,,"29.87","40","51","0.00",,"-0.02","1","66","29.86","SCT:04 25 OVC:08 30","29.84","10.00","46","020",,"13",,,,,,,,,,,,,,,,,,,,,,,,,,,,,,,,,,,,,"MET12304/04/20 00:51:02 METAR KLGA 040551Z 02011KT 10SM SCT025 OVC030 11/04 A2987 RMK AO2 SLP113 T01060044 10111 20106 51006 (RZ)","FM-15","7",,,,,,,,,,,,,,,,,,,,,,,,,,,,
"72503014732","2020-04-04T01:00:00","FM-12","4",,,,,,,,,,,,,,,,,,,,,,,,,,,,,,,,,,,,,,,"40","51",,,"-0.02","1","66","29.86","26","29.83","9.94","46","020",,"13",,,,,,,,,,,,,,,,,,,,,,,,,,,,,,,,,,,,,"SYN08072503 32566 80211 10106 20044 30101 40113 51006 90551 333 10111 20078 555 90406=","FM-12","4",,,,,,,,,,,,,,,,,,,,,,,,,,,,
"72503014732","2020-04-04T01:51:00","FM-15","7",,,,,,,,,,,,,,,,,,,,,,,,,,,,,,,,,,,,,,"29.87","40","50","0.00",,,,"68","29.87","SCT:04 28 OVC:08 33","29.84","10.00","45","020",,"9",,,,,,,,,,,,,,,,,,,,,,,,,,,,,,,,,,,,,"MET10504/04/20 01:51:02 METAR KLGA 040651Z 02008KT 10SM SCT028 OVC033 10/04 A2987 RMK AO2 SLP114 T01000044 (RZ)","FM-15","7",,,,,,,,,,,,,,,,,,,,,,,,,,,,
"72503014732","2020-04-04T02:04:00","FM-16","7",,,,,,,,,,,,,,,,,,,,,,,,,,,,,,,,,,,,,,"29.87","40","50",,,,,"68",,"BKN:07 28 OVC:08 33","29.84","10.00","45","020",,"11",,,,,,,,,,,,,,,,,,,,,,,,,,,,,,,,,,,,,"MET09804/04/20 02:04:02 SPECI KLGA 040704Z 02010KT 10SM BKN028 OVC033 10/04 A2987 RMK AO2 T01000044 (RZ)","FM-16","7",,,,,,,,,,,,,,,,,,,,,,,,,,,,
"72503014732","2020-04-04T02:51:00","FM-15","7",,,,,,,,,,,,,,,,,,,,,,,,,,,,,,,,,,,,,,"29.88","40","50","0.00",,,,"68","29.88","OVC:08 26","29.85","10.00","45","020",,"9",,,,,,,,,,,,,,,,,,,,,,,,,,,,,,,,,,,,,"MET09804/04/20 02:51:02 METAR KLGA 040751Z 02008KT 10SM OVC026 10/04 A2988 RMK AO2 SLP117 T01000044 (RZ)","FM-15","7",,,,,,,,,,,,,,,,,,,,,,,,,,,,
"72503014732","2020-04-04T03:51:00","FM-15","7",,,,,,,,,,,,,,,,,,,,,,,,,,,,,,,,,,,,,,"29.90","40","50","0.00",,"-0.03","3","68","29.90","OVC:08 24","29.87","10.00","45","040","20","15",,,,,,,,,,,,,,,,,,,,,,,,,,,,,,,,,,,,,"MET10704/04/20 03:51:02 METAR KLGA 040851Z 04013G17KT 10SM OVC024 10/04 A2990 RMK AO2 SLP124 T01000044 53010 (RZ)","FM-15","7",,,,,,,,,,,,,,,,,,,,,,,,,,,,
"72503014732","2020-04-04T04:00:00","FM-12","4",,,,,,,,,,,,,,,,,,,,,,,,,,,,,,,,,,,,,,,"40","50",,,"-0.03","3","68","29.90","26","29.86","9.94","45","040",,"15",,,,,,,,,,,,,,,,,,,,,,,,,,,,,,,,,,,,,"SYN07472503 32566 80413 10100 20044 30112 40124 53010 90851 333 91017 555 90409=","FM-12","4",,,,,,,,,,,,,,,,,,,,,,,,,,,,
"72503014732","2020-04-04T04:51:00","FM-15","7",,,,,,,,,,,,,,,,,,,,,,,,,,,,,,,,,,,,,,"29.92","41","48","T","-RA:02 |RA |RA",,,"77","29.92","BKN:07 21 OVC:08 29","29.89","10.00","45","060",,"17",,,,,,,,,,,,,,,,,,,,,,,,,,,,,,,,,,,,,"MET12104/04/20 04:51:02 METAR KLGA 040951Z 06015KT 10SM -RA BKN021 OVC029 09/05 A2992 RMK AO2 RAB46 SLP133 P0000 T00890050 (RZ)","FM-15","7",,,,,,,,,,,,,,,,,,,,,,,,,,,,
"72503014732","2020-04-04T05:51:00","FM-15","7",,,,,,,,,,,,,,,,,,,,,,,,,,,,,,,,,,,,,,"29.96","41","47","T","-RA:02 |RA |RA",,,"80","29.95","SCT:04 17 BKN:07 25 OVC:08 31","29.93","9.00","44","030",,"10",,,,,,,,,,,,,,,,,,,,,,,,,,,,,,,,,,,,,"MET14704/04/20 05:51:02 METAR KLGA 041051Z 03009KT 9SM -RA SCT017 BKN025 OVC031 08/05 A2996 RMK AO2 RAE0957B37 CIG 018 R22 SW SLP143 P0000 T00830050 (ML)","FM-15","7",,,,,,,,,,,,,,,,,,,,,,,,,,,,
"72503014732","2020-04-04T06:51:00","FM-15","7",,,,,,,,,,,,,,,,,,,,,,,,,,,,,,,,,,,,,,"29.98","42","46","T","-RA:02 BR:1 |RA |RA","-0.08","1","86","29.98","BKN:07 10 BKN:07 15 OVC:08 21","29.95","2.50","44","050",,"11",,,,,,,,,,,,,,,,,,,,,,,,,,,,,,,,,,,,,"MET16904/04/20 06:51:02 METAR KLGA 041151Z 05010KT 2 1/2SM -RA BR BKN010 BKN015 OVC021 08/06 A2998 RMK AO2 RAE1053B47 SLP151 P0000 60000 70008 T00780056 10106 20078 51027 (ML)","FM-15","7",,,,,,,,,,,,,,,,,,,,,,,,,,,,
"72503014732","2020-04-04T07:00:00","FM-12","4",,,,,,,,,,,,,,,,,,,,,,,,,,,,,,,,,,,,,,,"42","46",,"||RA","-0.08","1","86","29.98","15","29.94","2.49","44","050",,"11",,,,,,,,,,,,,,,,,,,,,,,,,,,,,,,,,,,,,"SYN10472503 11440 80510 10078 20056 30139 40151 51027 69901 761// 91151 333 10111 20078 70020 96010 555 90412=","FM-12","4",,,,,,,,,,,,,,,,,,,,,,,,,,,,
"72503014732","2020-04-04T07:18:00","FM-16","7",,,,,,,,,,,,,,,,,,,,,,,,,,,,,,,,,,,,,,"29.99","42","47","T",,,,"83",,"FEW:02 10 FEW:02 13 OVC:08 23","29.96","10.00","45","040",,"8",,,,,,,,,,,,,,,,,,,,,,,,,,,,,,,,,,,,,"MET11704/04/20 07:18:02 SPECI KLGA 041218Z 04007KT 10SM FEW010 FEW013 OVC023 08/06 A2999 RMK AO2 RAE06 P0000 T00830056 (ML)","FM-16","7",,,,,,,,,,,,,,,,,,,,,,,,,,,,
"72503014732","2020-04-04T07:51:00","FM-15","7",,,,,,,,,,,,,,,,,,,,,,,,,,,,,,,,,,,,,,"30.00","41","47","T",,,,"80","29.99","FEW:02 10 FEW:02 16 OVC:08 23","29.97","10.00","44","040",,"13",,,,,,,,,,,,,,,,,,,,,,,,,,,,,,,,,,,,,"MET12404/04/20 07:51:02 METAR KLGA 041251Z 04011KT 10SM FEW010 FEW016 OVC023 08/05 A3000 RMK AO2 RAE06 SLP157 P0000 T00830050 (ML)","FM-15","7",,,,,,,,,,,,,,,,,,,,,,,,,,,,
"72503014732","2020-04-04T08:51:00","FM-15","7",,,,,,,,,,,,,,,,,,,,,,,,,,,,,,,,,,,,,,"30.02","40","48","0.00",,,,"74","30.01","FEW:02 19 BKN:07 24 OVC:08 30","29.99","10.00","44","060",,"10",,,,,,,,,,,,,,,,,,,,,,,,,,,,,,,,,,,,,"MET11204/04/20 08:51:02 METAR KLGA 041351Z 06009KT 10SM FEW019 BKN024 OVC030 09/04 A3002 RMK AO2 SLP164 T00890044 (ML)","FM-15","7",,,,,,,,,,,,,,,,,,,,,,,,,,,,
"72503014732","2020-04-04T09:51:00","FM-15","7",,,,,,,,,,,,,,,,,,,,,,,,,,,,,,,,,,,,,,"30.02","41","49","0.00",,"-0.04","1","74","30.02","FEW:02 15 BKN:07 25 BKN:07 33","29.99","10.00","45","060",,"13",,,,,,,,,,,,,,,,,,,,,,,,,,,,,,,,,,,,,"MET12404/04/20 09:51:02 METAR KLGA 041451Z 06011KT 10SM FEW015 BKN025 BKN033 09/05 A3002 RMK AO2 SLP166 60000 T00940050 51015 (ML)","FM-15","7",,,,,,,,,,,,,,,,,,,,,,,,,,,,
"72503014732","2020-04-04T10:00:00","FM-12","4",,,,,,,,,,,,,,,,,,,,,,,,,,,,,,,,,,,,,,,"41","49",,,"-0.04","1","74","30.02","15","29.98","9.94","45","060",,"13",,,,,,,,,,,,,,,,,,,,,,,,,,,,,,,,,,,,,"SYN07072503 12466 60611 10094 20050 30152 40166 51015 69907 91451 555 90415=","FM-12","4",,,,,,,,,,,,,,,,,,,,,,,,,,,,
"72503014732","2020-04-04T10:21:00","FM-16","7",,,,,,,,,,,,,,,,,,,,,,,,,,,,,,,,,,,,,,"30.02","39","50",,,,,"66",,"FEW:02 15 SCT:04 25 BKN:07 30","29.99","10.00","45","050",,"8",,,,,,,,,,,,,,,,,,,,,,,,,,,,,,,,,,,,,"MET10504/04/20 10:21:02 SPECI KLGA 041521Z 05007KT 10SM FEW015 SCT025 BKN030 10/04 A3002 RMK AO2 T01000039 (ML)","FM-16","7",,,,,,,,,,,,,,,,,,,,,,,,,,,,
"72503014732","2020-04-04T10:51:00","FM-15","7",,,,,,,,,,,,,,,,,,,,,,,,,,,,,,,,,,,,,,"30.02","38","50","0.00",,,,"63","30.02","FEW:02 15 BKN:07 28","29.99","10.00","44","060",,"9",,,,,,,,,,,,,,,,,,,,,,,,,,,,,,,,,,,,,"MET10504/04/20 10:51:02 METAR KLGA 041551Z 06008KT 10SM FEW015 BKN028 10/03 A3002 RMK AO2 SLP165 T01000033 (ML)","FM-15","7",,,,,,,,,,,,,,,,,,,,,,,,,,,,
"72503014732","2020-04-04T11:31:00","FM-16","7",,,,,,,,,,,,,,,,,,,,,,,,,,,,,,,,,,,,,,"30.01","40","53",,,,,"61",,"SCT:04 26 BKN:07 70","29.98","10.00","47","080",,"3",,,,,,,,,,,,,,,,,,,,,,,,,,,,,,,,,,,,,"MET09804/04/20 11:31:02 SPECI KLGA 041631Z 08003KT 10SM SCT026 BKN070 12/04 A3001 RMK AO2 T01170044 (ML)","FM-16","7",,,,,,,,,,,,,,,,,,,,,,,,,,,,
"72503014732","2020-04-04T11:51:00","FM-15","7",,,,,,,,,,,,,,,,,,,,,,,,,,,,,,,,,,,,,,"30.01","41","53","0.00",,,,"64","30.01","FEW:02 27 BKN:07 70","29.98","10.00","47","090",,"5",,,,,,,,,,,,,,,,,,,,,,,,,,,,,,,,,,,,,"MET10504/04/20 11:51:02 METAR KLGA 041651Z 09004KT 10SM FEW027 BKN070 12/05 A3001 RMK AO2 SLP162 T01170050 (ML)","FM-15","7",,,,,,,,,,,,,,,,,,,,,,,,,,,,
"72503014732","2020-04-04T12:51:00","FM-15","7",,,,,,,,,,,,,,,,,,,,,,,,,,,,,,,,,,,,,,"30.01","40","56","0.00",,"+0.02","8","55","30.00","SCT:04 30 BKN:07 75 BKN:07 140","29.98","10.00","48","000",,"0",,,,,,,,,,,,,,,,,,,,,,,,,,,,,,,,,,,,,"MET13604/04/20 12:51:02 METAR KLGA 041751Z 00000KT 10SM SCT030 BKN075 BKN140 13/04 A3001 RMK AO2 SLP160 60000 T01330044 10133 20083 58006 (ML)","FM-15","7",,,,,,,,,,,,,,,,,,,,,,,,,,,,
"72503014732","2020-04-04T13:00:00","FM-12","4",,,,,,,,,,,,,,,,,,,,,,,,,,,,,,,,,,,,,,,"40","56",,,"+0.02","8","55","30.00","26","29.97","9.94","48","000",,"0",,,,,,,,,,,,,,,,,,,,,,,,,,,,,,,,,,,,,"SYN08672503 12566 60000 10133 20044 30149 40160 58006 69901 91751 333 10133 20083 555 90418=","FM-12","4",,,,,,,,,,,,,,,,,,,,,,,,,,,,
"72503014732","2020-04-04T13:51:00","FM-15","7",,,,,,,,,,,,,,,,,,,,,,,,,,,,,,,,,,,,,,"29.99","40","58","0.00",,,,"51","29.99","SCT:04 32 SCT:04 75","29.96","10.00","49","000",,"0",,,,,,,,,,,,,,,,,,,,,,,,,,,,,,,,,,,,,"MET10504/04/20 13:51:02 METAR KLGA 041851Z 00000KT 10SM SCT032 SCT075 14/04 A2999 RMK AO2 SLP155 T01440044 (JG)","FM-15","7",,,,,,,,,,,,,,,,,,,,,,,,,,,,
"72503014732","2020-04-04T14:51:00","FM-15","7",,,,,,,,,,,,,,,,,,,,,,,,,,,,,,,,,,,,,,"29.97","38","58","0.00",,,,"48","29.97","FEW:02 35 SCT:04 75","29.94","10.00","48","110",,"7",,,,,,,,,,,,,,,,,,,,,,,,,,,,,,,,,,,,,"MET10504/04/20 14:51:02 METAR KLGA 041951Z 11006KT 10SM FEW035 SCT075 14/03 A2997 RMK AO2 SLP148 T01440033 (JG)","FM-15","7",,,,,,,,,,,,,,,,,,,,,,,,,,,,
"72503014732","2020-04-04T15:51:00","FM-15","7",,,,,,,,,,,,,,,,,,,,,,,,,,,,,,,,,,,,,,"29.96","37","60","0.00",,"+0.04","6","42","29.96","FEW:02 40 BKN:07 60","29.93","10.00","49","110",,"6",,,,,,,,,,,,,,,,,,,,,,,,,,,,,,,,,,,,,"MET11104/04/20 15:51:02 METAR KLGA 042051Z 11005KT 10SM FEW040 BKN060 16/03 A2996 RMK AO2 SLP146 T01560028 56014 (JG)","FM-15","7",,,,,,,,,,,,,,,,,,,,,,,,,,,,
"72503014732","2020-04-04T16:00:00","FM-12","4",,,,,,,,,,,,,,,,,,,,,,,,,,,,,,,,,,,,,,,"37","60",,,"+0.04","6","42","29.96","41","29.92","9.94","49","110",,"6",,,,,,,,,,,,,,,,,,,,,,,,,,,,,,,,,,,,,"SYN06472503 32666 61105 10156 20028 30132 40146 56014 92051 555 90421=","FM-12","4",,,,,,,,,,,,,,,,,,,,,,,,,,,,
"72503014732","2020-04-04T16:51:00","FM-15","7",,,,,,,,,,,,,,,,,,,,,,,,,,,,,,,,,,,,,,"29.97","40","59","0.00",,,,"49","29.97","FEW:02 40 BKN:07 60","29.94","10.00","50","140",,"9",,,,,,,,,,,,,,,,,,,,,,,,,,,,,,,,,,,,,"MET10504/04/20 16:51:02 METAR KLGA 042151Z 14008KT 10SM FEW040 BKN060 15/04 A2997 RMK AO2 SLP149 T01500044 (JG)","FM-15","7",,,,,,,,,,,,,,,,,,,,,,,,,,,,
"72503014732","2020-04-04T17:51:00","FM-15","7",,,,,,,,,,,,,,,,,,,,,,,,,,,,,,,,,,,,,,"29.99","40","52","0.00",,,,"64","29.99","BKN:07 65","29.96","10.00","46","150",,"11",,,,,,,,,,,,,,,,,,,,,,,,,,,,,,,,,,,,,"MET09804/04/20 17:51:02 METAR KLGA 042251Z 15010KT 10SM BKN065 11/04 A2999 RMK AO2 SLP155 T01110044 (JG)","FM-15","7",,,,,,,,,,,,,,,,,,,,,,,,,,,,
"72503014732","2020-04-04T18:51:00","FM-15","7",,,,,,,,,,,,,,,,,,,,,,,,,,,,,,,,,,,,,,"30.00","40","50","0.00",,"-0.04","3","68","30.00","BKN:07 65","29.97","10.00","45","180",,"7",,,,,,,,,,,,,,,,,,,,,,,,,,,,,,,,,,,,,"MET11604/04/20 18:51:02 METAR KLGA 042351Z 18006KT 10SM BKN065 10/04 A3000 RMK AO2 SLP160 T01000044 10156 20100 53014 (JG)","FM-15","7",,,,,,,,,,,,,,,,,,,,,,,,,,,,
"72503014732","2020-04-04T19:00:00","FM-12","4",,,,,,,,,,,,,,,,,,,,,,,,,,,,,,,,,,,,,,,"40","50",,,"-0.04","3","68","30.00","57","29.96","9.94","45","180",,"7",,,,,,,,,,,,,,,,,,,,,,,,,,,,,,,,,,,,,"SYN08072503 32766 61806 10100 20044 30145 40160 53014 92351 333 10156 20078 555 90500=","FM-12","4",,,,,,,,,,,,,,,,,,,,,,,,,,,,
"72503014732","2020-04-04T19:51:00","FM-15","7",,,,,,,,,,,,,,,,,,,,,,,,,,,,,,,,,,,,,,"30.02","40","48","0.00",,,,"74","30.02","SCT:04 55 BKN:07 70","29.99","10.00","44","180",,"9",,,,,,,,,,,,,,,,,,,,,,,,,,,,,,,,,,,,,"MET10004/04/20 19:51:01 METAR KLGA 050051Z 18008KT 10SM SCT055 BKN070 09/04 A3002 RMK AO2 SLP166 T00890044","FM-15","7",,,,,,,,,,,,,,,,,,,,,,,,,,,,
"72503014732","2020-04-04T20:51:00","FM-15","7",,,,,,,,,,,,,,,,,,,,,,,,,,,,,,,,,,,,,,"30.03","40","48","0.00",,,,"74","30.03","BKN:07 55 BKN:07 70","30.00","10.00","44","180",,"10",,,,,,,,,,,,,,,,,,,,,,,,,,,,,,,,,,,,,"MET10004/04/20 20:51:01 METAR KLGA 050151Z 18009KT 10SM BKN055 BKN070 09/04 A3003 RMK AO2 SLP168 T00890044","FM-15","7",,,,,,,,,,,,,,,,,,,,,,,,,,,,
"72503014732","2020-04-04T21:51:00","FM-15","7",,,,,,,,,,,,,,,,,,,,,,,,,,,,,,,,,,,,,,"30.04","41","48","0.00",,"-0.04","1","77","30.04","OVC:08 50","30.01","10.00","45","190",,"9",,,,,,,,,,,,,,,,,,,,,,,,,,,,,,,,,,,,,"MET09904/04/20 21:51:01 METAR KLGA 050251Z 19008KT 10SM OVC050 09/05 A3004 RMK AO2 SLP172 T00890050 51012","FM-15","7",,,,,,,,,,,,,,,,,,,,,,,,,,,,
"72503014732","2020-04-04T22:00:00","FM-12","4",,,,,,,,,,,,,,,,,,,,,,,,,,,,,,,,,,,,,,,"41","48",,,"-0.04","1","77","30.04","57","30.00","9.94","45","190",,"9",,,,,,,,,,,,,,,,,,,,,,,,,,,,,,,,,,,,,"SYN06472503 32766 81908 10089 20050 30159 40172 51012 90251 555 90503=","FM-12","4",,,,,,,,,,,,,,,,,,,,,,,,,,,,
"72503014732","2020-04-04T22:51:00","FM-15","7",,,,,,,,,,,,,,,,,,,,,,,,,,,,,,,,,,,,,,"30.03","41","48","0.00",,,,"77","30.03","OVC:08 70","30.00","10.00","45","170",,"9",,,,,,,,,,,,,,,,,,,,,,,,,,,,,,,,,,,,,"MET09304/04/20 22:51:02 METAR KLGA 050351Z 17008KT 10SM OVC070 09/05 A3003 RMK AO2 SLP170 T00890050","FM-15","7",,,,,,,,,,,,,,,,,,,,,,,,,,,,
"72503014732","2020-04-04T23:51:00","FM-15","7",,,,,,,,,,,,,,,,,,,,,,,,,,,,,,,,,,,,,,"30.03","42","48","0.00",,,,"80","30.03","FEW:02 50 OVC:08 75","30.00","10.00","45","180",,"5",,,,,,,,,,,,,,,,,,,,,,,,,,,,,,,,,,,,,"MET11004/04/20 23:51:02 METAR KLGA 050451Z 18004KT 10SM FEW050 OVC075 09/06 A3003 RMK AO2 SLP170 T00890056 401560078","FM-15","7",,,,,,,,,,,,,,,,,,,,,,,,,,,,
"72503014732","2020-04-04T23:59:00","SOD  ","6",,,,,,,,,,,,,,,,"53",,,"29.93",,"8.9","0","4.5","12","60","46","050","22","T","0","0.0","050","17","RA BR",,,,,,,,,,,,,,,,,,,,,,,,,,,,,,,,,,,,,,,,,,,,,,,,,,,,,,,,"SOD75724 HR PRECIPITATION (IN):    T SNOW DEPTH (IN):0     24 HR SNOWFALL (IN):0.0  WEATHER(CODE):18  24 HR MAX TEMP (F): 6024 HR MIN TEMP (F): 46AVERAGE STATION PRESSURE:29.925 MINIMUM SEA LEVEL PRESSURE:29.86 TIME OF OCCURRENCE:0143 PEAK WIND SPEED (MPH): 22 PEAK WIND DIR (DEG): 50 PEAK WIND TIME (LST):      FASTEST 2MIN SPEED (MPH): 17FASTEST 2MIN DIR (DEG): 50 FASTEST 2MIN TIME (LST):     AVERAGE WIND SPEED (MPH): 8.9 24 HR AVG TEMP (F): 53DEPART FROM NORMAL:  5  HEATING DEGREE DAYS: 12 COOLING DEGREE DAYS:  0 LATEST DAY MAX TEMP (0700-1900 LST):60  LATEST NIGHT MIN TEMP(1900-0800 LST):46 HOURLY INCREMENTAL PRECIPITATION VALUES (IN):.00 0.00 0.00 0.00 T    T    T    T    0.00 0.00 0.00 0.00 0.00 0.00 0.00 0.00 0.00 0.00 0.00 0.00 0.00 0.00 0.00 0.00","SOD  ","6",,,,,,,,,,,,,,,,,,,,,,,,,"0533","1824",,
"72503014732","2020-04-05T00:51:00","FM-15","7",,,,,,,,,,,,,,,,,,,,,,,,,,,,,,,,,,,,,,"30.03","42","49","0.00",,"+0.01","7","77","30.03","OVC:08 70","30.00","10.00","46","160",,"9",,,,,,,,,,,,,,,,,,,,,,,,,,,,,,,,,,,,,"MET11604/05/20 00:51:02 METAR KLGA 050551Z 16008KT 10SM OVC070 09/06 A3003 RMK AO2 SLP168 T00940056 10106 20083 57003 (WL)","FM-15","7",,,,,,,,,,,,,,,,,,,,,,,,,,,,
"72503014732","2020-04-05T01:00:00","FM-12","4",,,,,,,,,,,,,,,,,,,,,,,,,,,,,,,,,,,,,,,"42","49",,,"+0.01","7","77","30.03","74","29.99","9.94","46","160",,"9",,,,,,,,,,,,,,,,,,,,,,,,,,,,,,,,,,,,,"SYN08072503 32866 81608 10094 20056 30156 40168 57003 90551 333 10106 20078 555 90506=","FM-12","4",,,,,,,,,,,,,,,,,,,,,,,,,,,,
"72503014732","2020-04-05T01:51:00","FM-15","7",,,,,,,,,,,,,,,,,,,,,,,,,,,,,,,,,,,,,,"30.02","42","48","0.00",,,,"80","30.02","OVC:08 70","29.99","10.00","45","170",,"7",,,,,,,,,,,,,,,,,,,,,,,,,,,,,,,,,,,,,"MET09804/05/20 01:51:02 METAR KLGA 050651Z 17006KT 10SM OVC070 09/06 A3002 RMK AO2 SLP165 T00890056 (WL)","FM-15","7",,,,,,,,,,,,,,,,,,,,,,,,,,,,
"72503014732","2020-04-05T02:51:00","FM-15","7",,,,,,,,,,,,,,,,,,,,,,,,,,,,,,,,,,,,,,"30.02","41","48","0.00",,,,"77","30.02","SCT:04 45 SCT:04 100","29.99","10.00","45","180",,"3",,,,,,,,,,,,,,,,,,,,,,,,,,,,,,,,,,,,,"MET10504/05/20 02:51:02 METAR KLGA 050751Z 18003KT 10SM SCT045 SCT100 09/05 A3002 RMK AO2 SLP166 T00890050 (WL)","FM-15","7",,,,,,,,,,,,,,,,,,,,,,,,,,,,
"72503014732","2020-04-05T03:51:00","FM-15","7",,,,,,,,,,,,,,,,,,,,,,,,,,,,,,,,,,,,,,"30.02","41","47","0.00",,"+0.01","6","80","30.02","SCT:04 45 SCT:04 100","29.99","10.00","44","000",,"0",,,,,,,,,,,,,,,,,,,,,,,,,,,,,,,,,,,,,"MET11104/05/20 03:51:02 METAR KLGA 050851Z 00000KT 10SM SCT045 SCT100 08/05 A3002 RMK AO2 SLP165 T00830050 56004 (WL)","FM-15","7",,,,,,,,,,,,,,,,,,,,,,,,,,,,
"72503014732","2020-04-05T04:00:00","FM-12","4",,,,,,,,,,,,,,,,,,,,,,,,,,,,,,,,,,,,,,,"41","47",,,"+0.01","6","80","30.02","41","29.98","9.94","44","000",,"0",,,,,,,,,,,,,,,,,,,,,,,,,,,,,,,,,,,,,"SYN06472503 32666 40000 10083 20050 30152 40165 56004 90851 555 90509=","FM-12","4",,,,,,,,,,,,,,,,,,,,,,,,,,,,
"72503014732","2020-04-05T04:51:00","FM-15","7",,,,,,,,,,,,,,,,,,,,,,,,,,,,,,,,,,,,,,"30.02","41","47","0.00",,,,"80","30.02","BKN:07 70","29.99","10.00","44","130",,"5",,,,,,,,,,,,,,,,,,,,,,,,,,,,,,,,,,,,,"MET09804/05/20 04:51:02 METAR KLGA 050951Z 13004KT 10SM BKN070 08/05 A3002 RMK AO2 SLP165 T00830050 (WL)","FM-15","7",,,,,,,,,,,,,,,,,,,,,,,,,,,,
"72503014732","2020-04-05T05:51:00","FM-15","7",,,,,,,,,,,,,,,,,,,,,,,,,,,,,,,,,,,,,,"30.04","42","47","0.00",,,,"83","30.03","FEW:02 11 SCT:04 45 BKN:07 65","30.01","10.00","45","120",,"5",,,,,,,,,,,,,,,,,,,,,,,,,,,,,,,,,,,,,"MET11304/05/20 05:51:02 METAR KLGA 051051Z 12004KT 10SM FEW011 SCT045 BKN065 08/06 A3004 RMK AO2 SLP171 T00830056 (ATK)","FM-15","7",,,,,,,,,,,,,,,,,,,,,,,,,,,,
"72503014732","2020-04-05T06:51:00","FM-15","7",,,,,,,,,,,,,,,,,,,,,,,,,,,,,,,,,,,,,,"30.06","43","48","0.00",,"-0.04","3","83","30.06","FEW:02 11 SCT:04 45 BKN:07 65","30.03","10.00","46","120",,"6",,,,,,,,,,,,,,,,,,,,,,,,,,,,,,,,,,,,,"MET13104/05/20 06:51:02 METAR KLGA 051151Z 12005KT 10SM FEW011 SCT045 BKN065 09/06 A3006 RMK AO2 SLP178 T00890061 10094 20083 53013 (ATK)","FM-15","7",,,,,,,,,,,,,,,,,,,,,,,,,,,,
"72503014732","2020-04-05T07:00:00","FM-12","4",,,,,,,,,,,,,,,,,,,,,,,,,,,,,,,,,,,,,,,"43","48",,,"-0.04","3","83","30.06","15","30.02","9.94","46","120",,"6",,,,,,,,,,,,,,,,,,,,,,,,,,,,,,,,,,,,,"SYN08072503 32466 61205 10089 20061 30166 40178 53013 91151 333 10156 20083 555 90512=","FM-12","4",,,,,,,,,,,,,,,,,,,,,,,,,,,,
"72503014732","2020-04-05T07:51:00","FM-15","7",,,,,,,,,,,,,,,,,,,,,,,,,,,,,,,,,,,,,,"30.06","44","49","0.00",,,,"83","30.06","FEW:02 11 SCT:04 45 BKN:07 70","30.03","8.00","47","120",,"6",,,,,,,,,,,,,,,,,,,,,,,,,,,,,,,,,,,,,"MET11204/05/20 07:51:02 METAR KLGA 051251Z 12005KT 8SM FEW011 SCT045 BKN070 09/07 A3006 RMK AO2 SLP179 T00940067 (ATK)","FM-15","7",,,,,,,,,,,,,,,,,,,,,,,,,,,,
"72503014732","2020-04-05T08:51:00","FM-15","7",,,,,,,,,,,,,,,,,,,,,,,,,,,,,,,,,,,,,,"30.06","44","51","0.00",,,,"77","30.06","FEW:02 16 SCT:04 45 BKN:07 60","30.03","8.00","48","050",,"6",,,,,,,,,,,,,,,,,,,,,,,,,,,,,,,,,,,,,"MET11204/05/20 08:51:02 METAR KLGA 051351Z 05005KT 8SM FEW016 SCT045 BKN060 11/07 A3006 RMK AO2 SLP180 T01060067 (ATK)","FM-15","7",,,,,,,,,,,,,,,,,,,,,,,,,,,,
"72503014732","2020-04-05T09:51:00","FM-15","7",,,,,,,,,,,,,,,,,,,,,,,,,,,,,,,,,,,,,,"30.06","44","53","0.00",,"-0.00","1","72","30.06","FEW:02 18 SCT:04 45 BKN:07 65","30.03","8.00","49","050",,"6",,,,,,,,,,,,,,,,,,,,,,,,,,,,,,,,,,,,,"MET11804/05/20 09:51:02 METAR KLGA 051451Z 05005KT 8SM FEW018 SCT045 BKN065 12/07 A3006 RMK AO2 SLP179 T01170067 51001 (ATK)","FM-15","7",,,,,,,,,,,,,,,,,,,,,,,,,,,,
"72503014732","2020-04-05T10:00:00","FM-12","4",,,,,,,,,,,,,,,,,,,,,,,,,,,,,,,,,,,,,,,"44","53",,,"-0.00","1","72","30.06","15","30.02","7.46","49","050",,"6",,,,,,,,,,,,,,,,,,,,,,,,,,,,,,,,,,,,,"SYN06472503 32462 60505 10117 20067 30166 40179 51001 91451 555 90515=","FM-12","4",,,,,,,,,,,,,,,,,,,,,,,,,,,,
"72503014732","2020-04-05T10:51:00","FM-15","7",,,,,,,,,,,,,,,,,,,,,,,,,,,,,,,,,,,,,,"30.05","44","54","0.00",,,,"69","30.05","FEW:02 22 SCT:04 48 BKN:07 65","30.02","10.00","49","040",,"6",,,,,,,,,,,,,,,,,,,,,,,,,,,,,,,,,,,,,"MET11304/05/20 10:51:02 METAR KLGA 051551Z 04005KT 10SM FEW022 SCT048 BKN065 12/07 A3005 RMK AO2 SLP176 T01220067 (ATK)","FM-15","7",,,,,,,,,,,,,,,,,,,,,,,,,,,,
"72503014732","2020-04-05T11:51:00","FM-15","7",,,,,,,,,,,,,,,,,,,,,,,,,,,,,,,,,,,,,,"30.03","46","57","0.00",,,,"67","30.03","FEW:02 24 SCT:04 45 BKN:07 70","30.00","10.00","51","180",,"5",,,,,,,,,,,,,,,,,,,,,,,,,,,,,,,,,,,,,"MET11304/05/20 11:51:02 METAR KLGA 051651Z 18004KT 10SM FEW024 SCT045 BKN070 14/08 A3003 RMK AO2 SLP170 T01390078 (ATK)","FM-15","7",,,,,,,,,,,,,,,,,,,,,,,,,,,,
"72503014732","2020-04-05T12:51:00","FM-15","7",,,,,,,,,,,,,,,,,,,,,,,,,,,,,,,,,,,,,,"30.01","45","60","0.00",,"+0.05","8","58","30.01","FEW:02 34 FEW:02 45 BKN:07 70","29.98","10.00","52","110",,"9",,,,,,,,,,,,,,,,,,,,,,,,,,,,,,,,,,,,,"MET13104/05/20 12:51:02 METAR KLGA 051751Z 11008KT 10SM FEW034 FEW045 BKN070 16/07 A3001 RMK AO2 SLP163 T01560072 10156 20089 58016 (ATK)","FM-15","7",,,,,,,,,,,,,,,,,,,,,,,,,,,,
"72503014732","2020-04-05T13:00:00","FM-12","4",,,,,,,,,,,,,,,,,,,,,,,,,,,,,,,,,,,,,,,"45","60",,,"+0.05","8","58","30.01","41","29.97","9.94","52","110",,"9",,,,,,,,,,,,,,,,,,,,,,,,,,,,,,,,,,,,,"SYN08072503 32666 61108 10156 20072 30149 40163 58016 91751 333 10156 20089 555 90518=","FM-12","4",,,,,,,,,,,,,,,,,,,,,,,,,,,,
"72503014732","2020-04-05T13:51:00","FM-15","7",,,,,,,,,,,,,,,,,,,,,,,,,,,,,,,,,,,,,,"29.99","44","62","0.00",,,,"52","29.99","FEW:02 45 BKN:07 75 BKN:07 130","29.96","10.00","53","170",,"7",,,,,,,,,,,,,,,,,,,,,,,,,,,,,,,,,,,,,"MET11204/05/20 13:51:02 METAR KLGA 051851Z 17006KT 10SM FEW045 BKN075 BKN130 17/07 A2999 RMK AO2 SLP155 T01670067 (JT)","FM-15","7",,,,,,,,,,,,,,,,,,,,,,,,,,,,
"72503014732","2020-04-05T14:51:00","FM-15","7",,,,,,,,,,,,,,,,,,,,,,,,,,,,,,,,,,,,,,"29.98","44","62","0.00",,,,"52","29.97","FEW:02 50 BKN:07 65 BKN:07 80","29.95","10.00","53","170",,"8",,,,,,,,,,,,,,,,,,,,,,,,,,,,,,,,,,,,,"MET11204/05/20 14:51:02 METAR KLGA 051951Z 17007KT 10SM FEW050 BKN065 BKN080 17/07 A2998 RMK AO2 SLP150 T01670067 (JT)","FM-15","7",,,,,,,,,,,,,,,,,,,,,,,,,,,,
"72503014732","2020-04-05T15:51:00","FM-15","7",,,,,,,,,,,,,,,,,,,,,,,,,,,,,,,,,,,,,,"29.97","44","60","0.00",,"+0.04","6","56","29.97","BKN:07 60 BKN:07 110 OVC:08 250","29.94","10.00","52","180",,"11",,,,,,,,,,,,,,,,,,,,,,,,,,,,,,,,,,,,,"MET11804/05/20 15:51:02 METAR KLGA 052051Z 18010KT 10SM BKN060 BKN110 OVC250 16/07 A2997 RMK AO2 SLP150 T01560067 56014 (JT)","FM-15","7",,,,,,,,,,,,,,,,,,,,,,,,,,,,
"72503014732","2020-04-05T16:00:00","FM-12","4",,,,,,,,,,,,,,,,,,,,,,,,,,,,,,,,,,,,,,,"44","60",,,"+0.04","6","56","29.97","57","29.93","9.94","52","180",,"11",,,,,,,,,,,,,,,,,,,,,,,,,,,,,,,,,,,,,"SYN06472503 32766 81810 10156 20067 30135 40150 56014 92051 555 90521=","FM-12","4",,,,,,,,,,,,,,,,,,,,,,,,,,,,
"72503014732","2020-04-05T16:51:00","FM-15","7",,,,,,,,,,,,,,,,,,,,,,,,,,,,,,,,,,,,,,"29.98","43","55","0.00",,,,"64","29.98","BKN:07 55 BKN:07 80 BKN:07 110","29.95","10.00","49","170",,"10",,,,,,,,,,,,,,,,,,,,,,,,,,,,,,,,,,,,,"MET11204/05/20 16:51:02 METAR KLGA 052151Z 17009KT 10SM BKN055 BKN080 BKN110 13/06 A2998 RMK AO2 SLP153 T01280061 (JT)","FM-15","7",,,,,,,,,,,,,,,,,,,,,,,,,,,,
"72503014732","2020-04-05T17:51:00","FM-15","7",,,,,,,,,,,,,,,,,,,,,,,,,,,,,,,,,,,,,,"29.97","44","58","0.00",,,,"60","29.97","BKN:07 55 BKN:07 80 BKN:07 250","29.94","10.00","51","160",,"10",,,,,,,,,,,,,,,,,,,,,,,,,,,,,,,,,,,,,"MET11204/05/20 17:51:02 METAR KLGA 052251Z 16009KT 10SM BKN055 BKN080 BKN250 14/07 A2997 RMK AO2 SLP149 T01440067 (JT)","FM-15","7",,,,,,,,,,,,,,,,,,,,,,,,,,,,
"72503014732","2020-04-05T18:51:00","FM-15","7",,,,,,,,,,,,,,,,,,,,,,,,,,,,,,,,,,,,,,"29.97","44","56","0.00",,"+0.00","8","65","29.97","FEW:02 55 FEW:02 80 SCT:04 250","29.94","10.00","50","170",,"7",,,,,,,,,,,,,,,,,,,,,,,,,,,,,,,,,,,,,"MET13004/05/20 18:51:02 METAR KLGA 052351Z 17006KT 10SM FEW055 FEW080 SCT250 13/07 A2997 RMK AO2 SLP148 T01330067 10178 20128 58001 (JT)","FM-15","7",,,,,,,,,,,,,,,,,,,,,,,,,,,,
"72503014732","2020-04-05T19:00:00","FM-12","4",,,,,,,,,,,,,,,,,,,,,,,,,,,,,,,,,,,,,,,"44","56",,,"+0.00","8","65","29.97","57","29.93","9.94","50","170",,"7",,,,,,,,,,,,,,,,,,,,,,,,,,,,,,,,,,,,,"SYN08072503 32766 41706 10133 20067 30135 40148 58001 92351 333 10178 20083 555 90600=","FM-12","4",,,,,,,,,,,,,,,,,,,,,,,,,,,,
"72503014732","2020-04-05T19:51:00","FM-15","7",,,,,,,,,,,,,,,,,,,,,,,,,,,,,,,,,,,,,,"29.98","44","55","0.00",,,,"67","29.98","FEW:02 65 SCT:04 80 SCT:04 130","29.95","10.00","50","190",,"5",,,,,,,,,,,,,,,,,,,,,,,,,,,,,,,,,,,,,"MET10704/05/20 19:51:01 METAR KLGA 060051Z 19004KT 10SM FEW065 SCT080 SCT130 13/07 A2998 RMK AO2 SLP152 T01280067","FM-15","7",,,,,,,,,,,,,,,,,,,,,,,,,,,,
"72503014732","2020-04-05T20:51:00","FM-15","7",,,,,,,,,,,,,,,,,,,,,,,,,,,,,,,,,,,,,,"29.98","44","53","0.00",,,,"72","29.98","SCT:04 80 BKN:07 130 BKN:07 250","29.95","10.00","49","000",,"0",,,,,,,,,,,,,,,,,,,,,,,,,,,,,,,,,,,,,"MET10704/05/20 20:51:01 METAR KLGA 060151Z 00000KT 10SM SCT080 BKN130 BKN250 12/07 A2998 RMK AO2 SLP152 T01170067","FM-15","7",,,,,,,,,,,,,,,,,,,,,,,,,,,,
"72503014732","2020-04-05T21:51:00","FM-15","7",,,,,,,,,,,,,,,,,,,,,,,,,,,,,,,,,,,,,,"29.98","44","51","0.00",,"-0.01","1","77","29.98","FEW:02 80 BKN:07 250","29.95","10.00","48","050",,"3",,,,,,,,,,,,,,,,,,,,,,,,,,,,,,,,,,,,,"MET10604/05/20 21:51:01 METAR KLGA 060251Z 05003KT 10SM FEW080 BKN250 11/07 A2998 RMK AO2 SLP152 T01060067 51004","FM-15","7",,,,,,,,,,,,,,,,,,,,,,,,,,,,
"72503014732","2020-04-05T22:00:00","FM-12","4",,,,,,,,,,,,,,,,,,,,,,,,,,,,,,,,,,,,,,,"44","51",,,"-0.01","1","77","29.98","74","29.94","9.94","48","050",,"3",,,,,,,,,,,,,,,,,,,,,,,,,,,,,,,,,,,,,"SYN06472503 32866 60503 10106 20067 30139 40152 51004 90251 555 90603=","FM-12","4",,,,,,,,,,,,,,,,,,,,,,,,,,,,
"72503014732","2020-04-05T22:51:00","FM-15","7",,,,,,,,,,,,,,,,,,,,,,,,,,,,,,,,,,,,,,"29.98","44","50","0.00",,,,"80","29.98","FEW:02 80 BKN:07 250","29.95","10.00","47","050",,"7",,,,,,,,,,,,,,,,,,,,,,,,,,,,,,,,,,,,,"MET10004/05/20 22:51:02 METAR KLGA 060351Z 05006KT 10SM FEW080 BKN250 10/07 A2998 RMK AO2 SLP153 T01000067","FM-15","7",,,,,,,,,,,,,,,,,,,,,,,,,,,,
"72503014732","2020-04-05T23:51:00","FM-15","7",,,,,,,,,,,,,,,,,,,,,,,,,,,,,,,,,,,,,,"29.98","44","49","0.00",,,,"83","29.98","SCT:04 70 BKN:07 250","29.95","10.00","47","050",,"8",,,,,,,,,,,,,,,,,,,,,,,,,,,,,,,,,,,,,"MET11004/05/20 23:51:02 METAR KLGA 060451Z 05007KT 10SM SCT070 BKN250 09/07 A2998 RMK AO2 SLP152 T00940067 401780083","FM-15","7",,,,,,,,,,,,,,,,,,,,,,,,,,,,
"72503014732","2020-04-05T23:59:00","SOD  ","6",,,,,,,,,,,,,,,,"56",,,"29.98",,"6.2","0","7.1","9","64","47","180","19","0.00","0","0.0","170","15",,,,,,,,,,,,,,,,,,,,,,,,,,,,,,,,,,,,,,,,,,,,,,,,,,,,,,,,,"SOD73924 HR PRECIPITATION (IN): 0.00 SNOW DEPTH (IN):0     24 HR SNOWFALL (IN):0.0  24 HR MAX TEMP (F): 6424 HR MIN TEMP (F): 47AVERAGE STATION PRESSURE:29.980 MINIMUM SEA LEVEL PRESSURE:29.97 TIME OF OCCURRENCE:1931 PEAK WIND SPEED (MPH): 19 PEAK WIND DIR (DEG):180 PEAK WIND TIME (LST):      FASTEST 2MIN SPEED (MPH): 15FASTEST 2MIN DIR (DEG):170 FASTEST 2MIN TIME (LST):     AVERAGE WIND SPEED (MPH): 6.2 24 HR AVG TEMP (F): 56DEPART FROM NORMAL:  7  HEATING DEGREE DAYS:  9 COOLING DEGREE DAYS:  0 LATEST DAY MAX TEMP (0700-1900 LST):64  LATEST NIGHT MIN TEMP(1900-0800 LST):47 HOURLY INCREMENTAL PRECIPITATION VALUES (IN):.00 0.00 0.00 0.00 0.00 0.00 0.00 0.00 0.00 0.00 0.00 0.00 0.00 0.00 0.00 0.00 0.00 0.00 0.00 0.00 0.00 0.00 0.00 0.00","SOD  ","6",,,,,,,,,,,,,,,,,,,,,,,,,"0531","1825",,
"72503014732","2020-04-06T00:51:00","FM-15","7",,,,,,,,,,,,,,,,,,,,,,,,,,,,,,,,,,,,,,"29.98","44","48","0.00",,"+0.00","8","86","29.98","SCT:04 85 BKN:07 250","29.95","10.00","46","040",,"8",,,,,,,,,,,,,,,,,,,,,,,,,,,,,,,,,,,,,"MET12304/06/20 00:51:02 METAR KLGA 060551Z 04007KT 10SM SCT085 BKN250 09/07 A2998 RMK AO2 SLP151 T00890067 10133 20089 58001 (WL)","FM-15","7",,,,,,,,,,,,,,,,,,,,,,,,,,,,
"72503014732","2020-04-06T01:00:00","FM-12","4",,,,,,,,,,,,,,,,,,,,,,,,,,,,,,,,,,,,,,,"44","48",,,"+0.00","8","86","29.98",,"29.94","9.94","46","040",,"8",,,,,,,,,,,,,,,,,,,,,,,,,,,,,,,,,,,,,"SYN08072503 32966 60407 10089 20067 30139 40151 58001 90551 333 10133 20083 555 90606=","FM-12","4",,,,,,,,,,,,,,,,,,,,,,,,,,,,
"72503014732","2020-04-06T01:51:00","FM-15","7",,,,,,,,,,,,,,,,,,,,,,,,,,,,,,,,,,,,,,"29.98","45","49","0.01","-RA:02 |RA |RA",,,"86","29.98","SCT:04 80 BKN:07 250","29.95","7.00","47","050",,"6",,,,,,,,,,,,,,,,,,,,,,,,,,,,,,,,,,,,,"MET12504/06/20 01:51:02 METAR KLGA 060651Z 05005KT 7SM -RA SCT080 BKN250 09/07 A2998 RMK AO2 RAB44 SLP153 P0000 T00940072 FIBI (WL)","FM-15","7",,,,,,,,,,,,,,,,,,,,,,,,,,,,
"72503014732","2020-04-06T02:51:00","FM-15","7",,,,,,,,,,,,,,,,,,,,,,,,,,,,,,,,,,,,,,"29.98","45","49","0.05","-RA:02 BR:1 |RA |RA",,,"86","29.97","BKN:07 60 OVC:08 70","29.95","6.00","47","080",,"7",,,,,,,,,,,,,,,,,,,,,,,,,,,,,,,,,,,,,"MET12204/06/20 02:51:02 METAR KLGA 060751Z 08006KT 6SM -RA BR BKN060 OVC070 09/07 A2998 RMK AO2 SLP150 P0006 T00940072 FIBI (WL)","FM-15","7",,,,,,,,,,,,,,,,,,,,,,,,,,,,
"72503014732","2020-04-06T03:51:00","FM-15","7",,,,,,,,,,,,,,,,,,,,,,,,,,,,,,,,,,,,,,"29.98","45","49","T",,"-0.00","1","86","29.98","BKN:07 50 BKN:07 80 OVC:08 100","29.95","8.00","47","050",,"5",,,,,,,,,,,,,,,,,,,,,,,,,,,,,,,,,,,,,"MET13504/06/20 03:51:02 METAR KLGA 060851Z 05004KT 8SM BKN050 BKN080 OVC100 09/07 A2998 RMK AO2 RAE36 SLP152 P0000 60006 T00940072 51000 (WL)","FM-15","7",,,,,,,,,,,,,,,,,,,,,,,,,,,,
"72503014732","2020-04-06T04:00:00","FM-12","4",,,,,,,,,,,,,,,,,,,,,,,,,,,,,,,,,,,,,,,"45","49",,,"-0.00","2","86","29.98","57","29.94","7.46","47","050",,"5",,,,,,,,,,,,,,,,,,,,,,,,,,,,,,,,,,,,,"SYN07072503 12762 80504 10094 20072 30139 40152 51000 60027 90851 555 90609=","FM-12","4",,,,,,,,,,,,,,,,,,,,,,,,,,,,
"72503014732","2020-04-06T04:51:00","FM-15","7",,,,,,,,,,,,,,,,,,,,,,,,,,,,,,,,,,,,,,"30.00","40","50","0.00",,,,"68","30.00","FEW:02 47 BKN:07 55","29.97","10.00","45","360",,"6",,,,,,,,,,,,,,,,,,,,,,,,,,,,,,,,,,,,,"MET10504/06/20 04:51:02 METAR KLGA 060951Z 36005KT 10SM FEW047 BKN055 10/04 A3000 RMK AO2 SLP159 T01000044 (WL)","FM-15","7",,,,,,,,,,,,,,,,,,,,,,,,,,,,
"72503014732","2020-04-06T05:51:00","FM-15","7",,,,,,,,,,,,,,,,,,,,,,,,,,,,,,,,,,,,,,"30.03","39","50","0.00",,,,"66","30.03","FEW:02 38 SCT:04 70","30.00","10.00","45","010",,"7",,,,,,,,,,,,,,,,,,,,,,,,,,,,,,,,,,,,,"MET10604/06/20 05:51:02 METAR KLGA 061051Z 01006KT 10SM FEW038 SCT070 10/04 A3003 RMK AO2 SLP169 T01000039 (PAS)","FM-15","7",,,,,,,,,,,,,,,,,,,,,,,,,,,,
"72503014732","2020-04-06T06:51:00","FM-15","7",,,,,,,,,,,,,,,,,,,,,,,,,,,,,,,,,,,,,,"30.06","38","50","0.00",,"-0.07","3","63","30.05","FEW:02 38 SCT:04 48 BKN:07 70","30.03","10.00","44","020",,"6",,,,,,,,,,,,,,,,,,,,,,,,,,,,,,,,,,,,,"MET14304/06/20 06:51:02 METAR KLGA 061151Z 02005KT 10SM FEW038 SCT048 BKN070 10/03 A3006 RMK AO2 SLP177 60006 70006 T01000033 10106 20089 53025 (PAS)","FM-15","7",,,,,,,,,,,,,,,,,,,,,,,,,,,,
"72503014732","2020-04-06T07:00:00","FM-12","4",,,,,,,,,,,,,,,,,,,,,,,,,,,,,,,,,,,,,,,"38","50",,,"-0.07","3","63","30.05","41","30.02","9.94","44","020",,"6",,,,,,,,,,,,,,,,,,,,,,,,,,,,,,,,,,,,,"SYN09272503 12666 60205 10100 20033 30166 40177 53025 60021 91151 333 10178 20089 70015 555 90612=","FM-12","4",,,,,,,,,,,,,,,,,,,,,,,,,,,,
"72503014732","2020-04-06T07:51:00","FM-15","7",,,,,,,,,,,,,,,,,,,,,,,,,,,,,,,,,,,,,,"30.07","36","51","0.00",,,,"56","30.07","SCT:04 38","30.04","10.00","44","350",,"11",,,,,,,,,,,,,,,,,,,,,,,,,,,,,,,,,,,,,"MET09904/06/20 07:51:02 METAR KLGA 061251Z 35010KT 10SM SCT038 11/02 A3007 RMK AO2 SLP182 T01060022 (PAS)","FM-15","7",,,,,,,,,,,,,,,,,,,,,,,,,,,,
"72503014732","2020-04-06T08:51:00","FM-15","7",,,,,,,,,,,,,,,,,,,,,,,,,,,,,,,,,,,,,,"30.06","34","53","0.00",,,,"48","30.06","FEW:02 40 FEW:02 250","30.03","10.00","44","350",,"9",,,,,,,,,,,,,,,,,,,,,,,,,,,,,,,,,,,,,"MET10604/06/20 08:51:02 METAR KLGA 061351Z 35008KT 10SM FEW040 FEW250 12/01 A3006 RMK AO2 SLP178 T01170011 (PAS)","FM-15","7",,,,,,,,,,,,,,,,,,,,,,,,,,,,
"72503014732","2020-04-06T09:51:00","FM-15","7",,,,,,,,,,,,,,,,,,,,,,,,,,,,,,,,,,,,,,"30.05","30","55","0.00",,"+0.00","8","38","30.05","FEW:02 42","30.02","10.00","44","340",,"16",,,,,,,,,,,,,,,,,,,,,,,,,,,,,,,,,,,,,"MET10604/06/20 09:51:02 METAR KLGA 061451Z 34014KT 10SM FEW042 13/M01 A3005 RMK AO2 SLP177 T01281011 58001 (PAS)","FM-15","7",,,,,,,,,,,,,,,,,,,,,,,,,,,,
"72503014732","2020-04-06T10:00:00","FM-12","4",,,,,,,,,,,,,,,,,,,,,,,,,,,,,,,,,,,,,,,"30","55",,,"+0.00","8","38","30.05","41","30.01","9.94","44","340",,"16",,,,,,,,,,,,,,,,,,,,,,,,,,,,,,,,,,,,,"SYN06472503 32666 23414 10128 21011 30162 40177 58001 91451 555 90615=","FM-12","4",,,,,,,,,,,,,,,,,,,,,,,,,,,,
"72503014732","2020-04-06T10:51:00","FM-15","7",,,,,,,,,,,,,,,,,,,,,,,,,,,,,,,,,,,,,,"30.04","32","57","0.00",,,,"39","30.04","FEW:02 45","30.01","10.00","46","330",,"8",,,,,,,,,,,,,,,,,,,,,,,,,,,,,,,,,,,,,"MET09904/06/20 10:51:02 METAR KLGA 061551Z 33007KT 10SM FEW045 14/00 A3004 RMK AO2 SLP173 T01390000 (PAS)","FM-15","7",,,,,,,,,,,,,,,,,,,,,,,,,,,,
"72503014732","2020-04-06T11:51:00","FM-15","7",,,,,,,,,,,,,,,,,,,,,,,,,,,,,,,,,,,,,,"30.03","32","58","0.00",,,,"38","30.03","FEW:02 47","30.00","10.00","46","300",,"6",,,,,,,,,,,,,,,,,,,,,,,,,,,,,,,,,,,,,"MET09904/06/20 11:51:02 METAR KLGA 061651Z 30005KT 10SM FEW047 14/00 A3003 RMK AO2 SLP168 T01440000 (PAS)","FM-15","7",,,,,,,,,,,,,,,,,,,,,,,,,,,,
"72503014732","2020-04-06T12:51:00","FM-15","7",,,,,,,,,,,,,,,,,,,,,,,,,,,,,,,,,,,,,,"30.00","31","60","0.00",,"+0.05","8","33","30.00","FEW:02 50","29.97","10.00","47","340",,"5",,,,,,,,,,,,,,,,,,,,,,,,,,,,,,,,,,,,,"MET11804/06/20 12:51:02 METAR KLGA 061751Z 34004KT 10SM FEW050 16/M01 A3000 RMK AO2 SLP158 T01561006 10161 20100 58018 (PAS)","FM-15","7",,,,,,,,,,,,,,,,,,,,,,,,,,,,
"72503014732","2020-04-06T13:00:00","FM-12","4",,,,,,,,,,,,,,,,,,,,,,,,,,,,,,,,,,,,,,,"31","60",,,"+0.05","8","33","30.00","57","29.96","9.94","47","340",,"5",,,,,,,,,,,,,,,,,,,,,,,,,,,,,,,,,,,,,"SYN08072503 32766 23404 10156 21006 30145 40158 58018 91751 333 10161 20100 555 90618=","FM-12","4",,,,,,,,,,,,,,,,,,,,,,,,,,,,
"72503014732","2020-04-06T13:51:00","FM-15","7",,,,,,,,,,,,,,,,,,,,,,,,,,,,,,,,,,,,,,"29.97","33","62","0.00",,,,"34","29.97","FEW:02 50 FEW:02 250","29.94","10.00","48","320",,"7",,,,,,,,,,,,,,,,,,,,,,,,,,,,,,,,,,,,,"MET10504/06/20 13:51:02 METAR KLGA 061851Z 32006KT 10SM FEW050 FEW250 17/01 A2997 RMK AO2 SLP148 T01670006 (ML)","FM-15","7",,,,,,,,,,,,,,,,,,,,,,,,,,,,
"72503014732","2020-04-06T14:51:00","FM-15","7",,,,,,,,,,,,,,,,,,,,,,,,,,,,,,,,,,,,,,"29.94","26","64","0.00",,,,"24","29.94","FEW:02 60 FEW:02 250","29.91","10.00","47","310",,"10",,,,,,,,,,,,,,,,,,,,,,,,,,,,,,,,,,,,,"MET10604/06/20 14:51:02 METAR KLGA 061951Z 31009KT 10SM FEW060 FEW250 18/M03 A2994 RMK AO2 SLP138 T01781033 (ML)","FM-15","7",,,,,,,,,,,,,,,,,,,,,,,,,,,,
"72503014732","2020-04-06T15:51:00","FM-15","7",,,,,,,,,,,,,,,,,,,,,,,,,,,,,,,,,,,,,,"29.93","25","66","0.00",,"+0.07","6","21","29.92","FEW:02 60 SCT:04 250","29.90","10.00","48","300","17","13",,,,,,,,,,,,,,,,,,,,,,,,,,,,,,,,,,,,,"MET11504/06/20 15:51:02 METAR KLGA 062051Z 30011G15KT 10SM FEW060 SCT250 19/M04 A2993 RMK AO2 SLP133 T01891039 56025 (ML)","FM-15","7",,,,,,,,,,,,,,,,,,,,,,,,,,,,
"72503014732","2020-04-06T16:51:00","FM-15","7",,,,,,,,,,,,,,,,,,,,,,,,,,,,,,,,,,,,,,"29.92","23","64","0.00",,,,"21","29.92","FEW:02 60 FEW:02 250","29.89","10.00","46","310",,"13",,,,,,,,,,,,,,,,,,,,,,,,,,,,,,,,,,,,,"MET10604/06/20 16:51:02 METAR KLGA 062151Z 31011KT 10SM FEW060 FEW250 18/M05 A2992 RMK AO2 SLP132 T01781050 (ML)","FM-15","7",,,,,,,,,,,,,,,,,,,,,,,,,,,,
"72503014732","2020-04-06T17:51:00","FM-15","7",,,,,,,,,,,,,,,,,,,,,,,,,,,,,,,,,,,,,,"29.93","25","62","0.00",,,,"24","29.92","FEW:02 250","29.90","10.00","46","320",,"16",,,,,,,,,,,,,,,,,,,,,,,,,,,,,,,,,,,,,"MET09904/06/20 17:51:02 METAR KLGA 062251Z 32014KT 10SM FEW250 17/M04 A2993 RMK AO2 SLP133 T01671039 (ML)","FM-15","7",,,,,,,,,,,,,,,,,,,,,,,,,,,,
"72503014732","2020-04-06T18:51:00","FM-15","7",,,,,,,,,,,,,,,,,,,,,,,,,,,,,,,,,,,,,,"29.93","25","61","0.00",,"-0.00","3","25","29.93","FEW:02 250","29.90","10.00","45","330",,"9",,,,,,,,,,,,,,,,,,,,,,,,,,,,,,,,,,,,,"MET11704/06/20 18:51:02 METAR KLGA 062351Z 33008KT 10SM FEW250 16/M04 A2993 RMK AO2 SLP134 T01611039 10189 20161 53001 (ML)","FM-15","7",,,,,,,,,,,,,,,,,,,,,,,,,,,,
"72503014732","2020-04-06T19:00:00","FM-12","4",,,,,,,,,,,,,,,,,,,,,,,,,,,,,,,,,,,,,,,"25","61",,,"-0.00","3","25","29.93",,"29.89","9.94","45","330",,"9",,,,,,,,,,,,,,,,,,,,,,,,,,,,,,,,,,,,,"SYN08072503 32966 23308 10161 21039 30122 40134 53001 92351 333 10189 20089 555 90700=","FM-12","4",,,,,,,,,,,,,,,,,,,,,,,,,,,,
"72503014732","2020-04-06T19:51:00","FM-15","7",,,,,,,,,,,,,,,,,,,,,,,,,,,,,,,,,,,,,,"29.95","22","60","0.00",,,,"23","29.95","FEW:02 250","29.92","10.00","44","320",,"11",,,,,,,,,,,,,,,,,,,,,,,,,,,,,,,,,,,,,"MET09404/06/20 19:51:01 METAR KLGA 070051Z 32010KT 10SM FEW250 16/M06 A2995 RMK AO2 SLP143 T01561056","FM-15","7",,,,,,,,,,,,,,,,,,,,,,,,,,,,
"72503014732","2020-04-06T20:51:00","FM-15","7",,,,,,,,,,,,,,,,,,,,,,,,,,,,,,,,,,,,,,"29.96","28","57","0.00",,,,"33","29.96","SCT:04 250","29.93","10.00","44","320",,"10",,,,,,,,,,,,,,,,,,,,,,,,,,,,,,,,,,,,,"MET09404/06/20 20:51:01 METAR KLGA 070151Z 32009KT 10SM SCT250 14/M02 A2996 RMK AO2 SLP146 T01391022","FM-15","7",,,,,,,,,,,,,,,,,,,,,,,,,,,,
"72503014732","2020-04-06T21:51:00","FM-15","7",,,,,,,,,,,,,,,,,,,,,,,,,,,,,,,,,,,,,,"29.96","26","57","0.00",,"-0.03","0","30","29.96","FEW:02 250","29.93","10.00","44","320",,"10",,,,,,,,,,,,,,,,,,,,,,,,,,,,,,,,,,,,,"MET10004/06/20 21:51:01 METAR KLGA 070251Z 32009KT 10SM FEW250 14/M03 A2996 RMK AO2 SLP145 T01391033 50011","FM-15","7",,,,,,,,,,,,,,,,,,,,,,,,,,,,
"72503014732","2020-04-06T22:00:00","FM-12","4",,,,,,,,,,,,,,,,,,,,,,,,,,,,,,,,,,,,,,,"26","57",,,"0.03","9","30","29.96",,"29.92","9.94","44","320",,"10",,,,,,,,,,,,,,,,,,,,,,,,,,,,,,,,,,,,,"SYN06472503 32966 23209 10139 21033 30132 40145 50011 90251 555 90703=","FM-12","4",,,,,,,,,,,,,,,,,,,,,,,,,,,,
"72503014732","2020-04-06T22:51:00","FM-15","7",,,,,,,,,,,,,,,,,,,,,,,,,,,,,,,,,,,,,,"29.96","23","57","0.00",,,,"27","29.96","BKN:07 210","29.93","10.00","43","340",,"8",,,,,,,,,,,,,,,,,,,,,,,,,,,,,,,,,,,,,"MET09404/06/20 22:51:02 METAR KLGA 070351Z 34007KT 10SM BKN210 14/M05 A2996 RMK AO2 SLP145 T01391050","FM-15","7",,,,,,,,,,,,,,,,,,,,,,,,,,,,
"72503014732","2020-04-06T23:51:00","FM-15","7",,,,,,,,,,,,,,,,,,,,,,,,,,,,,,,,,,,,,,"29.97","21","56","0.00",,,,"26","29.97","BKN:07 160","29.94","10.00","42","320",,"9",,,,,,,,,,,,,,,,,,,,,,,,,,,,,,,,,,,,,"MET10404/06/20 23:51:02 METAR KLGA 070451Z 32008KT 10SM BKN160 13/M06 A2997 RMK AO2 SLP148 T01331061 401890089","FM-15","7",,,,,,,,,,,,,,,,,,,,,,,,,,,,
"72503014732","2020-04-06T23:59:00","SOD  ","6",,,,,,,,,,,,,,,,"57",,,"29.95",,"9.0","0","7.7","8","66","48","300","25","0.06","0","0.0","310","17","RA BR",,,,,,,,,,,,,,,,,,,,,,,,,,,,,,,,,,,,,,,,,,,,,,,,,,,,,,,,"SOD75624 HR PRECIPITATION (IN): 0.06 SNOW DEPTH (IN):0     24 HR SNOWFALL (IN):0.0  WEATHER(CODE):1  24 HR MAX TEMP (F): 6624 HR MIN TEMP (F): 48AVERAGE STATION PRESSURE:29.950 MINIMUM SEA LEVEL PRESSURE:29.92 TIME OF OCCURRENCE:1847 PEAK WIND SPEED (MPH): 25 PEAK WIND DIR (DEG):300 PEAK WIND TIME (LST):      FASTEST 2MIN SPEED (MPH): 17FASTEST 2MIN DIR (DEG):310 FASTEST 2MIN TIME (LST):     AVERAGE WIND SPEED (MPH): 9.0 24 HR AVG TEMP (F): 57DEPART FROM NORMAL:  8  HEATING DEGREE DAYS:  8 COOLING DEGREE DAYS:  0 LATEST DAY MAX TEMP (0700-1900 LST):66  LATEST NIGHT MIN TEMP(1900-0800 LST):48 HOURLY INCREMENTAL PRECIPITATION VALUES (IN):.00 0.01 0.05 T    0.00 0.00 0.00 0.00 0.00 0.00 0.00 0.00 0.00 0.00 0.00 0.00 0.00 0.00 0.00 0.00 0.00 0.00 0.00 0.00","SOD  ","6",,,,,,,,,,,,,,,,,,,,,,,,,"0530","1826",,
"72503014732","2020-04-07T00:51:00","FM-15","7",,,,,,,,,,,,,,,,,,,,,,,,,,,,,,,,,,,,,,"29.97","24","55","0.00",,"-0.01","0","30","29.96","BKN:07 150","29.94","10.00","42","310",,"7",,,,,,,,,,,,,,,,,,,,,,,,,,,,,,,,,,,,,"MET11704/07/20 00:51:02 METAR KLGA 070551Z 31006KT 10SM BKN150 13/M04 A2997 RMK AO2 SLP147 T01281044 10161 20128 50002 (RZ)","FM-15","7",,,,,,,,,,,,,,,,,,,,,,,,,,,,
"72503014732","2020-04-07T01:00:00","FM-12","4",,,,,,,,,,,,,,,,,,,,,,,,,,,,,,,,,,,,,,,"24","55",,,"0.01","9","30","29.96",,"29.93","9.94","42","310",,"7",,,,,,,,,,,,,,,,,,,,,,,,,,,,,,,,,,,,,"SYN08072503 32966 63106 10128 21044 30135 40147 50002 90551 333 10161 20089 555 90706=","FM-12","4",,,,,,,,,,,,,,,,,,,,,,,,,,,,
"72503014732","2020-04-07T01:51:00","FM-15","7",,,,,,,,,,,,,,,,,,,,,,,,,,,,,,,,,,,,,,"29.97","21","55","0.00",,,,"26","29.97","BKN:07 120 BKN:07 250","29.94","10.00","41","300",,"10",,,,,,,,,,,,,,,,,,,,,,,,,,,,,,,,,,,,,"MET10604/07/20 01:51:02 METAR KLGA 070651Z 30009KT 10SM BKN120 BKN250 13/M06 A2997 RMK AO2 SLP148 T01281061 (RZ)","FM-15","7",,,,,,,,,,,,,,,,,,,,,,,,,,,,
"72503014732","2020-04-07T02:51:00","FM-15","7",,,,,,,,,,,,,,,,,,,,,,,,,,,,,,,,,,,,,,"29.96","26","54","0.00",,,,"34","29.96","BKN:07 120 BKN:07 250","29.93","10.00","42","320",,"8",,,,,,,,,,,,,,,,,,,,,,,,,,,,,,,,,,,,,"MET10604/07/20 02:51:02 METAR KLGA 070751Z 32007KT 10SM BKN120 BKN250 12/M03 A2996 RMK AO2 SLP146 T01221033 (RZ)","FM-15","7",,,,,,,,,,,,,,,,,,,,,,,,,,,,
"72503014732","2020-04-07T03:51:00","FM-15","7",,,,,,,,,,,,,,,,,,,,,,,,,,,,,,,,,,,,,,"29.96","26","54","0.00",,"+0.01","8","34","29.96","OVC:08 110","29.93","10.00","42","310",,"7",,,,,,,,,,,,,,,,,,,,,,,,,,,,,,,,,,,,,"MET10504/07/20 03:51:02 METAR KLGA 070851Z 31006KT 10SM OVC110 12/M03 A2996 RMK AO2 SLP146 T01221033 58002 (RZ)","FM-15","7",,,,,,,,,,,,,,,,,,,,,,,,,,,,
"72503014732","2020-04-07T04:00:00","FM-12","4",,,,,,,,,,,,,,,,,,,,,,,,,,,,,,,,,,,,,,,"26","54",,,"+0.01","8","34","29.96",,"29.92","9.94","42","310",,"7",,,,,,,,,,,,,,,,,,,,,,,,,,,,,,,,,,,,,"SYN06472503 32966 83106 10122 21033 30132 40146 58002 90851 555 90709=","FM-12","4",,,,,,,,,,,,,,,,,,,,,,,,,,,,
"72503014732","2020-04-07T04:51:00","FM-15","7",,,,,,,,,,,,,,,,,,,,,,,,,,,,,,,,,,,,,,"29.95","22","54","0.00",,,,"29","29.95","BKN:07 120","29.92","10.00","41","290",,"7",,,,,,,,,,,,,,,,,,,,,,,,,,,,,,,,,,,,,"MET09904/07/20 04:51:02 METAR KLGA 070951Z 29006KT 10SM BKN120 12/M06 A2995 RMK AO2 SLP143 T01221056 (RZ)","FM-15","7",,,,,,,,,,,,,,,,,,,,,,,,,,,,
"72503014732","2020-04-07T05:51:00","FM-15","7",,,,,,,,,,,,,,,,,,,,,,,,,,,,,,,,,,,,,,"29.97","26","54","0.00",,,,"34","29.97","BKN:07 140","29.94","10.00","42","290",,"9",,,,,,,,,,,,,,,,,,,,,,,,,,,,,,,,,,,,,"MET10004/07/20 05:51:02 METAR KLGA 071051Z 29008KT 10SM BKN140 12/M03 A2997 RMK AO2 SLP149 T01221033 (PAS)","FM-15","7",,,,,,,,,,,,,,,,,,,,,,,,,,,,
"72503014732","2020-04-07T06:51:00","FM-15","7",,,,,,,,,,,,,,,,,,,,,,,,,,,,,,,,,,,,,,"29.98","29","54","0.00",,"-0.02","3","38","29.98","BKN:07 140","29.95","10.00","43","290",,"8",,,,,,,,,,,,,,,,,,,,,,,,,,,,,,,,,,,,,"MET11804/07/20 06:51:02 METAR KLGA 071151Z 29007KT 10SM BKN140 12/M02 A2998 RMK AO2 SLP153 T01221017 10133 20117 53007 (PAS)","FM-15","7",,,,,,,,,,,,,,,,,,,,,,,,,,,,
"72503014732","2020-04-07T07:00:00","FM-12","4",,,,,,,,,,,,,,,,,,,,,,,,,,,,,,,,,,,,,,,"29","54",,,"-0.02","3","38","29.98",,"29.94","9.94","43","290",,"8",,,,,,,,,,,,,,,,,,,,,,,,,,,,,,,,,,,,,"SYN08072503 32966 62907 10122 21017 30139 40153 53007 91151 333 10189 20117 555 90712=","FM-12","4",,,,,,,,,,,,,,,,,,,,,,,,,,,,
"72503014732","2020-04-07T07:51:00","FM-15","7",,,,,,,,,,,,,,,,,,,,,,,,,,,,,,,,,,,,,,"29.98","33","54","0.00",,,,"45","29.98","BKN:07 120","29.95","10.00","45","310",,"8",,,,,,,,,,,,,,,,,,,,,,,,,,,,,,,,,,,,,"MET09904/07/20 07:51:02 METAR KLGA 071251Z 31007KT 10SM BKN120 12/01 A2998 RMK AO2 SLP152 T01220006 (PAS)","FM-15","7",,,,,,,,,,,,,,,,,,,,,,,,,,,,
"72503014732","2020-04-07T08:51:00","FM-15","7",,,,,,,,,,,,,,,,,,,,,,,,,,,,,,,,,,,,,,"29.97","33","56","0.00",,,,"42","29.97","BKN:07 130","29.94","10.00","46","310",,"5",,,,,,,,,,,,,,,,,,,,,,,,,,,,,,,,,,,,,"MET09904/07/20 08:51:02 METAR KLGA 071351Z 31004KT 10SM BKN130 13/01 A2997 RMK AO2 SLP149 T01330006 (PAS)","FM-15","7",,,,,,,,,,,,,,,,,,,,,,,,,,,,
"72503014732","2020-04-07T09:51:00","FM-15","7",,,,,,,,,,,,,,,,,,,,,,,,,,,,,,,,,,,,,,"29.96","29","58","0.00",,"+0.02","8","33","29.96","BKN:07 130","29.93","10.00","45","330",,"7",,,,,,,,,,,,,,,,,,,,,,,,,,,,,,,,,,,,,"MET10604/07/20 09:51:02 METAR KLGA 071451Z 33006KT 10SM BKN130 14/M02 A2996 RMK AO2 SLP145 T01441017 58007 (PAS)","FM-15","7",,,,,,,,,,,,,,,,,,,,,,,,,,,,
"72503014732","2020-04-07T10:00:00","FM-12","4",,,,,,,,,,,,,,,,,,,,,,,,,,,,,,,,,,,,,,,"29","58",,,"+0.02","8","33","29.96",,"29.92","9.94","45","330",,"7",,,,,,,,,,,,,,,,,,,,,,,,,,,,,,,,,,,,,"SYN06472503 32966 63306 10144 21017 30132 40145 58007 91451 555 90715=","FM-12","4",,,,,,,,,,,,,,,,,,,,,,,,,,,,
"72503014732","2020-04-07T10:51:00","FM-15","7",,,,,,,,,,,,,,,,,,,,,,,,,,,,,,,,,,,,,,"29.93","30","60","0.00",,,,"32","29.93","FEW:02 90 FEW:02 120 SCT:04 250","29.90","10.00","47","320",,"7",,,,,,,,,,,,,,,,,,,,,,,,,,,,,,,,,,,,,"MET11404/07/20 10:51:02 METAR KLGA 071551Z 32006KT 10SM FEW090 FEW120 SCT250 16/M01 A2993 RMK AO2 SLP136 T01561011 (PAS)","FM-15","7",,,,,,,,,,,,,,,,,,,,,,,,,,,,
"72503014732","2020-04-07T11:51:00","FM-15","7",,,,,,,,,,,,,,,,,,,,,,,,,,,,,,,,,,,,,,"29.90","29","62","0.00",,,,"29","29.89","FEW:02 100 BKN:07 250","29.87","10.00","47","000",,"0",,,,,,,,,,,,,,,,,,,,,,,,,,,,,,,,,,,,,"MET10704/07/20 11:51:02 METAR KLGA 071651Z 00000KT 10SM FEW100 BKN250 17/M02 A2990 RMK AO2 SLP123 T01671017 (PAS)","FM-15","7",,,,,,,,,,,,,,,,,,,,,,,,,,,,
"72503014732","2020-04-07T12:51:00","FM-15","7",,,,,,,,,,,,,,,,,,,,,,,,,,,,,,,,,,,,,,"29.86","28","64","0.00",,"+0.10","8","26","29.86","FEW:02 50 FEW:02 100 BKN:07 250","29.83","10.00","48","210",,"6",,,,,,,,,,,,,,,,,,,,,,,,,,,,,,,,,,,,,"MET13204/07/20 12:51:02 METAR KLGA 071751Z 21005KT 10SM FEW050 FEW100 BKN250 18/M02 A2986 RMK AO2 SLP112 T01781022 10183 20122 58033 (PAS)","FM-15","7",,,,,,,,,,,,,,,,,,,,,,,,,,,,
"72503014732","2020-04-07T13:00:00","FM-12","4",,,,,,,,,,,,,,,,,,,,,,,,,,,,,,,,,,,,,,,"28","64",,,"+0.10","8","26","29.86","57","29.82","9.94","48","210",,"6",,,,,,,,,,,,,,,,,,,,,,,,,,,,,,,,,,,,,"SYN08072503 32766 62105 10178 21022 30098 40112 58033 91751 333 10183 20122 555 90718=","FM-12","4",,,,,,,,,,,,,,,,,,,,,,,,,,,,
"72503014732","2020-04-07T13:51:00","FM-15","7",,,,,,,,,,,,,,,,,,,,,,,,,,,,,,,,,,,,,,"29.83","27","65","0.00",,,,"24","29.83","FEW:02 50 SCT:04 100 BKN:07 250","29.80","10.00","48","230",,"13",,,,,,,,,,,,,,,,,,,,,,,,,,,,,,,,,,,,,"MET11404/07/20 13:51:02 METAR KLGA 071851Z 23011KT 10SM FEW050 SCT100 BKN250 18/M03 A2983 RMK AO2 SLP100 T01831028 (PAS)","FM-15","7",,,,,,,,,,,,,,,,,,,,,,,,,,,,
"72503014732","2020-04-07T14:37:00","FM-16","7",,,,,,,,,,,,,,,,,,,,,,,,,,,,,,,,,,,,,,"29.80","29","64",,,,,"27",,"FEW:02 50 SCT:04 120 BKN:07 250","29.77","10.00","48","190",,"17",,,,,,,,,,,,,,,,,,,,,,,,,,,,,,,,,,,,,"MET11704/07/20 14:37:02 SPECI KLGA 071937Z 19015KT 10SM FEW050 SCT120 BKN250 18/M02 A2980 RMK AO2 WSHFT 1917 T01781017 (WL)","FM-16","7",,,,,,,,,,,,,,,,,,,,,,,,,,,,
"72503014732","2020-04-07T14:51:00","FM-15","7",,,,,,,,,,,,,,,,,,,,,,,,,,,,,,,,,,,,,,"29.79","28","63","0.00",,,,"27","29.79","FEW:02 50 SCT:04 120 BKN:07 250","29.76","10.00","47","180",,"20",,,,,,,,,,,,,,,,,,,,,,,,,,,,,,,,,,,,,"MET12404/07/20 14:51:02 METAR KLGA 071951Z 18017KT 10SM FEW050 SCT120 BKN250 17/M02 A2979 RMK AO2 WSHFT 1917 SLP088 T01721022 (WL)","FM-15","7",,,,,,,,,,,,,,,,,,,,,,,,,,,,
"72503014732","2020-04-07T15:51:00","FM-15","7",,,,,,,,,,,,,,,,,,,,,,,,,,,,,,,,,,,,,,"29.78","27","62","0.00",,"+0.08","6","26","29.78","FEW:02 50 SCT:04 120 BKN:07 250","29.75","10.00","47","170","25","17",,,,,,,,,,,,,,,,,,,,,,,,,,,,,,,,,,,,,"MET12204/07/20 15:51:02 METAR KLGA 072051Z 17015G22KT 10SM FEW050 SCT120 BKN250 17/M03 A2978 RMK AO2 SLP083 T01671028 56028 (WL)","FM-15","7",,,,,,,,,,,,,,,,,,,,,,,,,,,,
"72503014732","2020-04-07T16:00:00","FM-12","4",,,,,,,,,,,,,,,,,,,,,,,,,,,,,,,,,,,,,,,"27","62",,,"+0.08","6","26","29.78","57","29.74","9.94","47","170",,"17",,,,,,,,,,,,,,,,,,,,,,,,,,,,,,,,,,,,,"SYN07472503 32766 61715 10167 21028 30071 40083 56028 92051 333 91022 555 90721=","FM-12","4",,,,,,,,,,,,,,,,,,,,,,,,,,,,
"72503014732","2020-04-07T16:51:00","FM-15","7",,,,,,,,,,,,,,,,,,,,,,,,,,,,,,,,,,,,,,"29.75","24","59","0.00",,,,"26","29.75","FEW:02 55 SCT:04 120 BKN:07 250","29.72","10.00","44","170","26","18",,,,,,,,,,,,,,,,,,,,,,,,,,,,,,,,,,,,,"MET11604/07/20 16:51:02 METAR KLGA 072151Z 17016G23KT 10SM FEW055 SCT120 BKN250 15/M04 A2975 RMK AO2 SLP075 T01501044 (WL)","FM-15","7",,,,,,,,,,,,,,,,,,,,,,,,,,,,
"72503014732","2020-04-07T17:51:00","FM-15","7",,,,,,,,,,,,,,,,,,,,,,,,,,,,,,,,,,,,,,"29.74","30","57","0.00",,,,"36","29.74","FEW:02 55 FEW:02 180 BKN:07 250","29.71","10.00","45","180",,"14",,,,,,,,,,,,,,,,,,,,,,,,,,,,,,,,,,,,,"MET11304/07/20 17:51:02 METAR KLGA 072251Z 18012KT 10SM FEW055 FEW180 BKN250 14/M01 A2974 RMK AO2 SLP072 T01391011 (WL)","FM-15","7",,,,,,,,,,,,,,,,,,,,,,,,,,,,
"72503014732","2020-04-07T18:51:00","FM-15","7",,,,,,,,,,,,,,,,,,,,,,,,,,,,,,,,,,,,,,"29.74","37","54","0.00",,"+0.04","6","53","29.74","FEW:02 60 FEW:02 130 BKN:07 250","29.71","10.00","46","180",,"13",,,,,,,,,,,,,,,,,,,,,,,,,,,,,,,,,,,,,"MET13004/07/20 18:51:02 METAR KLGA 072351Z 18011KT 10SM FEW060 FEW130 BKN250 12/03 A2974 RMK AO2 SLP070 T01220028 10189 20122 56014 (WL)","FM-15","7",,,,,,,,,,,,,,,,,,,,,,,,,,,,
"72503014732","2020-04-07T19:00:00","FM-12","4",,,,,,,,,,,,,,,,,,,,,,,,,,,,,,,,,,,,,,,"37","54",,,"+0.04","6","53","29.74","57","29.70","9.94","46","180",,"13",,,,,,,,,,,,,,,,,,,,,,,,,,,,,,,,,,,,,"SYN08072503 32766 61811 10122 20028 30057 40070 56014 92351 333 10189 20117 555 90800=","FM-12","4",,,,,,,,,,,,,,,,,,,,,,,,,,,,
"72503014732","2020-04-07T19:51:00","FM-15","7",,,,,,,,,,,,,,,,,,,,,,,,,,,,,,,,,,,,,,"29.73","41","54","0.00",,,,"62","29.73","FEW:02 60 SCT:04 150 BKN:07 250","29.70","10.00","48","170",,"9",,,,,,,,,,,,,,,,,,,,,,,,,,,,,,,,,,,,,"MET10704/07/20 19:51:01 METAR KLGA 080051Z 17008KT 10SM FEW060 SCT150 BKN250 12/05 A2973 RMK AO2 SLP067 T01220050","FM-15","7",,,,,,,,,,,,,,,,,,,,,,,,,,,,
"72503014732","2020-04-07T20:51:00","FM-15","7",,,,,,,,,,,,,,,,,,,,,,,,,,,,,,,,,,,,,,"29.71","42","55","0.00",,,,"62","29.71","OVC:08 110","29.68","10.00","49","180",,"8",,,,,,,,,,,,,,,,,,,,,,,,,,,,,,,,,,,,,"MET09304/07/20 20:51:01 METAR KLGA 080151Z 18007KT 10SM OVC110 13/06 A2971 RMK AO2 SLP062 T01280056","FM-15","7",,,,,,,,,,,,,,,,,,,,,,,,,,,,
"72503014732","2020-04-07T21:51:00","FM-15","7",,,,,,,,,,,,,,,,,,,,,,,,,,,,,,,,,,,,,,"29.68","43","56","0.00",,"+0.06","8","62","29.68","BKN:07 80 OVC:08 100","29.65","10.00","50","180",,"6",,,,,,,,,,,,,,,,,,,,,,,,,,,,,,,,,,,,,"MET10604/07/20 21:51:01 METAR KLGA 080251Z 18005KT 10SM BKN080 OVC100 13/06 A2968 RMK AO2 SLP050 T01330061 58020","FM-15","7",,,,,,,,,,,,,,,,,,,,,,,,,,,,
"72503014732","2020-04-07T22:00:00","FM-12","4",,,,,,,,,,,,,,,,,,,,,,,,,,,,,,,,,,,,,,,"43","56",,,"+0.06","8","62","29.68","74","29.64","9.94","50","180",,"6",,,,,,,,,,,,,,,,,,,,,,,,,,,,,,,,,,,,,"SYN06472503 32866 81805 10133 20061 30037 40050 58020 90251 555 90803=","FM-12","4",,,,,,,,,,,,,,,,,,,,,,,,,,,,
"72503014732","2020-04-07T22:51:00","FM-15","7",,,,,,,,,,,,,,,,,,,,,,,,,,,,,,,,,,,,,,"29.65","43","57","0.00",,,,"60","29.65","SCT:04 75 BKN:07 90 OVC:08 110","29.62","10.00","50","170",,"6",,,,,,,,,,,,,,,,,,,,,,,,,,,,,,,,,,,,,"MET10704/07/20 22:51:02 METAR KLGA 080351Z 17005KT 10SM SCT075 BKN090 OVC110 14/06 A2965 RMK AO2 SLP040 T01390061","FM-15","7",,,,,,,,,,,,,,,,,,,,,,,,,,,,
"72503014732","2020-04-07T23:51:00","FM-15","7",,,,,,,,,,,,,,,,,,,,,,,,,,,,,,,,,,,,,,"29.62","44","57","0.00",,,,"62","29.62","SCT:04 70 BKN:07 85 OVC:08 110","29.59","10.00","50","180",,"5",,,,,,,,,,,,,,,,,,,,,,,,,,,,,,,,,,,,,"MET11704/07/20 23:51:02 METAR KLGA 080451Z 18004KT 10SM SCT070 BKN085 OVC110 14/07 A2962 RMK AO2 SLP029 T01390067 401890117","FM-15","7",,,,,,,,,,,,,,,,,,,,,,,,,,,,
"72503014732","2020-04-07T23:59:00","SOD  ","6",,,,,,,,,,,,,,,,"60",,,"29.85",,"9.0","0","10.4","5","66","53","170","27","0.00","0","0.0","170","22",,,,,,,,,,,,,,,,,,,,,,,,,,,,,,,,,,,,,,,,,,,,,,,,,,,,,,,,,"SOD73924 HR PRECIPITATION (IN): 0.00 SNOW DEPTH (IN):0     24 HR SNOWFALL (IN):0.0  24 HR MAX TEMP (F): 6624 HR MIN TEMP (F): 53AVERAGE STATION PRESSURE:29.850 MINIMUM SEA LEVEL PRESSURE:29.61 TIME OF OCCURRENCE:2359 PEAK WIND SPEED (MPH): 27 PEAK WIND DIR (DEG):170 PEAK WIND TIME (LST):      FASTEST 2MIN SPEED (MPH): 22FASTEST 2MIN DIR (DEG):170 FASTEST 2MIN TIME (LST):     AVERAGE WIND SPEED (MPH): 9.0 24 HR AVG TEMP (F): 60DEPART FROM NORMAL: 10  HEATING DEGREE DAYS:  5 COOLING DEGREE DAYS:  0 LATEST DAY MAX TEMP (0700-1900 LST):66  LATEST NIGHT MIN TEMP(1900-0800 LST):53 HOURLY INCREMENTAL PRECIPITATION VALUES (IN):.00 0.00 0.00 0.00 0.00 0.00 0.00 0.00 0.00 0.00 0.00 0.00 0.00 0.00 0.00 0.00 0.00 0.00 0.00 0.00 0.00 0.00 0.00 0.00","SOD  ","6",,,,,,,,,,,,,,,,,,,,,,,,,"0528","1827",,
"72503014732","2020-04-08T00:51:00","FM-15","7",,,,,,,,,,,,,,,,,,,,,,,,,,,,,,,,,,,,,,"29.58","45","56","0.00",,"+0.10","8","67","29.58","BKN:07 70 OVC:08 90","29.55","10.00","50","160",,"5",,,,,,,,,,,,,,,,,,,,,,,,,,,,,,,,,,,,,"MET12304/08/20 00:51:02 METAR KLGA 080551Z 16004KT 10SM BKN070 OVC090 13/07 A2958 RMK AO2 SLP017 T01330072 10139 20122 58033 (RZ)","FM-15","7",,,,,,,,,,,,,,,,,,,,,,,,,,,,
"72503014732","2020-04-08T01:00:00","FM-12","4",,,,,,,,,,,,,,,,,,,,,,,,,,,,,,,,,,,,,,,"45","56",,,"+0.10","8","67","29.58","74","29.54","9.94","50","160",,"5",,,,,,,,,,,,,,,,,,,,,,,,,,,,,,,,,,,,,"SYN08072503 32866 81604 10133 20072 30003 40017 58033 90551 333 10139 20117 555 90806=","FM-12","4",,,,,,,,,,,,,,,,,,,,,,,,,,,,
"72503014732","2020-04-08T01:51:00","FM-15","7",,,,,,,,,,,,,,,,,,,,,,,,,,,,,,,,,,,,,,"29.53","46","54","T","-RA:02 |RA |RA",,,"75","29.53","BKN:07 60 BKN:07 90 OVC:08 110","29.50","10.00","50","070",,"7",,,,,,,,,,,,,,,,,,,,,,,,,,,,,,,,,,,,,"MET13504/08/20 01:51:02 METAR KLGA 080651Z 07006KT 10SM -RA BKN060 BKN090 OVC110 12/08 A2953 RMK AO2 RAB51 PRESFR SLP999 P0000 T01220078 (RZ)","FM-15","7",,,,,,,,,,,,,,,,,,,,,,,,,,,,
"72503014732","2020-04-08T02:51:00","FM-15","7",,,,,,,,,,,,,,,,,,,,,,,,,,,,,,,,,,,,,,"29.53","47","53","0.02","-RA:02 |RA |RA",,,"80","29.53","SCT:04 48 OVC:08 80","29.50","7.00","50","000",,"0",,,,,,,,,,,,,,,,,,,,,,,,,,,,,,,,,,,,,"MET12804/08/20 02:51:02 METAR KLGA 080751Z 00000KT 7SM -RA SCT048 OVC080 12/08 A2953 RMK AO2 RAE09B30 SLP000 P0001 T01170083 FIBI (RZ)","FM-15","7",,,,,,,,,,,,,,,,,,,,,,,,,,,,
"72503014732","2020-04-08T03:51:00","FM-15","7",,,,,,,,,,,,,,,,,,,,,,,,,,,,,,,,,,,,,,"29.51","49","54","0.11","RA:02 |RA |RA","+0.07","6","83","29.51","BKN:07 70 OVC:08 80","29.48","4.00","51","000",,"0",,,,,,,,,,,,,,,,,,,,,,,,,,,,,,,,,,,,,"MET12504/08/20 03:51:02 METAR KLGA 080851Z 00000KT 4SM RA BKN070 OVC080 12/09 A2951 RMK AO2 SLP992 P0010 60011 T01220094 56025 (RZ)","FM-15","7",,,,,,,,,,,,,,,,,,,,,,,,,,,,
"72503014732","2020-04-08T04:00:00","FM-12","4",,,,,,,,,,,,,,,,,,,,,,,,,,,,,,,,,,,,,,,"49","54",,"||RA","+0.07","6","83","29.51","74","29.47","3.73","51","000",,"0",,,,,,,,,,,,,,,,,,,,,,,,,,,,,,,,,,,,,"SYN07672503 11856 80000 10122 20094 39980 49992 56025 60037 763// 90851 555 90809=","FM-12","4",,,,,,,,,,,,,,,,,,,,,,,,,,,,
"72503014732","2020-04-08T04:51:00","FM-15","7",,,,,,,,,,,,,,,,,,,,,,,,,,,,,,,,,,,,,,"29.45","48","52","0.10","-RA:02 BR:1 |RA |RA",,,"86","29.44","SCT:04 70 OVC:08 90","29.42","6.00","50","080",,"8",,,,,,,,,,,,,,,,,,,,,,,,,,,,,,,,,,,,,"MET12404/08/20 04:51:02 METAR KLGA 080951Z 08007KT 6SM -RA BR SCT070 OVC090 11/09 A2945 RMK AO2 PRESFR SLP971 P0012 T01110089 (RZ)","FM-15","7",,,,,,,,,,,,,,,,,,,,,,,,,,,,
"72503014732","2020-04-08T05:21:00","FM-16","7",,,,,,,,,,,,,,,,,,,,,,,,,,,,,,,,,,,,,,"29.47","47","50","T","BR:1 ||",,,"89",,"FEW:02 7 BKN:07 85 OVC:08 100","29.44","4.00","48","010",,"11",,,,,,,,,,,,,,,,,,,,,,,,,,,,,,,,,,,,,"MET12704/08/20 05:21:02 SPECI KLGA 081021Z 01010KT 4SM BR FEW007 BKN085 OVC100 10/08 A2947 RMK AO2 RAE07 PRESRR P0000 T01000083 (PAS)","FM-16","7",,,,,,,,,,,,,,,,,,,,,,,,,,,,
"72503014732","2020-04-08T05:51:00","FM-15","7",,,,,,,,,,,,,,,,,,,,,,,,,,,,,,,,,,,,,,"29.49","46","50","T","BR:1 ||",,,"86","29.49","FEW:02 7 BKN:07 85 OVC:08 100","29.46","4.00","48","040",,"10",,,,,,,,,,,,,,,,,,,,,,,,,,,,,,,,,,,,,"MET12704/08/20 05:51:02 METAR KLGA 081051Z 04009KT 4SM BR FEW007 BKN085 OVC100 10/08 A2949 RMK AO2 RAE07 SLP987 P0000 T01000078 (PAS)","FM-15","7",,,,,,,,,,,,,,,,,,,,,,,,,,,,
"72503014732","2020-04-08T05:59:00","FM-16","7",,,,,,,,,,,,,,,,,,,,,,,,,,,,,,,,,,,,,,"29.49","46","49",,"BR:1 ||",,,"90",,"BKN:07 7 BKN:07 12 OVC:08 85","29.46","5.00","48","050",,"9",,,,,,,,,,,,,,,,,,,,,,,,,,,,,,,,,,,,,"MET10804/08/20 05:59:02 SPECI KLGA 081059Z 05008KT 5SM BR BKN007 BKN012 OVC085 09/08 A2949 RMK AO2 T00940078 (PAS)","FM-16","7",,,,,,,,,,,,,,,,,,,,,,,,,,,,
"72503014732","2020-04-08T06:49:00","FM-16","6",,,,,,,,,,,,,,,,,,,,,,,,,,,,,,,,,,,,,,"29.51","45","48",,"BR:1 ||",,,"87",,"BKN:07 8 OVC:08 12","29.48","6.00","47","030",,"8",,,,,,,,,,,,,,,,,,,,,,,,,,,,,,,,,,,,,"MET09604/08/20 06:49:02 SPECI KLGA 081149Z 03007KT 6SM BR BKN008 OVC012 09/07 A2951 RMK AO2 FIBI (PAS)","FM-16","6",,,,,,,,,,,,,,,,,,,,,,,,,,,,
"72503014732","2020-04-08T06:51:00","FM-15","7",,,,,,,,,,,,,,,,,,,,,,,,,,,,,,,,,,,,,,"29.51","45","49","0.00","BR:1 ||","-0.00","3","86","29.51","BKN:07 8 OVC:08 12","29.48","6.00","47","040",,"8",,,,,,,,,,,,,,,,,,,,,,,,,,,,,,,,,,,,,"MET13804/08/20 06:51:02 METAR KLGA 081151Z 04007KT 6SM BR BKN008 OVC012 09/07 A2951 RMK AO2 SLP993 60023 70023 T00940072 10133 20094 53001 (PAS)","FM-15","7",,,,,,,,,,,,,,,,,,,,,,,,,,,,
"72503014732","2020-04-08T07:00:00","FM-12","4",,,,,,,,,,,,,,,,,,,,,,,,,,,,,,,,,,,,,,,"45","49",,,"-0.00","3","86","29.51","8","29.47","5.59","47","040",,"8",,,,,,,,,,,,,,,,,,,,,,,,,,,,,,,,,,,,,"SYN09872503 11359 80407 10094 20072 39980 49993 53001 60061 710// 91151 333 10189 20094 70058 555 90812=","FM-12","4",,,,,,,,,,,,,,,,,,,,,,,,,,,,
"72503014732","2020-04-08T07:34:00","FM-16","7",,,,,,,,,,,,,,,,,,,,,,,,,,,,,,,,,,,,,,"29.52","46","50",,"BR:1 ||",,,"86",,"OVC:08 7","29.49","5.00","48","050",,"8",,,,,,,,,,,,,,,,,,,,,,,,,,,,,,,,,,,,,"MET09404/08/20 07:34:02 SPECI KLGA 081234Z 05007KT 5SM BR OVC007 10/08 A2952 RMK AO2 T01000078 (PAS)","FM-16","7",,,,,,,,,,,,,,,,,,,,,,,,,,,,
"72503014732","2020-04-08T07:49:00","FM-16","6",,,,,,,,,,,,,,,,,,,,,,,,,,,,,,,,,,,,,,"29.52","46","50",,"BR:1 ||",,,"88",,"OVC:08 6","29.49","5.00","48","040",,"10",,,,,,,,,,,,,,,,,,,,,,,,,,,,,,,,,,,,,"MET08904/08/20 07:49:02 SPECI KLGA 081249Z 04009KT 5SM BR OVC006 10/08 A2952 RMK AO2 FIBI (PAS)","FM-16","6",,,,,,,,,,,,,,,,,,,,,,,,,,,,
"72503014732","2020-04-08T07:51:00","FM-15","7",,,,,,,,,,,,,,,,,,,,,,,,,,,,,,,,,,,,,,"29.52","47","50","0.00","BR:1 ||",,,"89","29.52","OVC:08 6","29.49","5.00","48","040",,"10",,,,,,,,,,,,,,,,,,,,,,,,,,,,,,,,,,,,,"MET10104/08/20 07:51:02 METAR KLGA 081251Z 04009KT 5SM BR OVC006 10/08 A2952 RMK AO2 SLP995 T01000083 (PAS)","FM-15","7",,,,,,,,,,,,,,,,,,,,,,,,,,,,
"72503014732","2020-04-08T08:13:00","FM-16","7",,,,,,,,,,,,,,,,,,,,,,,,,,,,,,,,,,,,,,"29.53","46","50",,,,,"86",,"OVC:08 8","29.50","7.00","48","040",,"10",,,,,,,,,,,,,,,,,,,,,,,,,,,,,,,,,,,,,"MET09104/08/20 08:13:02 SPECI KLGA 081313Z 04009KT 7SM OVC008 10/08 A2953 RMK AO2 T01000078 (PAS)","FM-16","7",,,,,,,,,,,,,,,,,,,,,,,,,,,,
"72503014732","2020-04-08T08:51:00","FM-15","7",,,,,,,,,,,,,,,,,,,,,,,,,,,,,,,,,,,,,,"29.54","47","51","0.00","BR:1 ||",,,"86","29.54","OVC:08 9","29.51","6.00","49","060",,"9",,,,,,,,,,,,,,,,,,,,,,,,,,,,,,,,,,,,,"MET10104/08/20 08:51:02 METAR KLGA 081351Z 06008KT 6SM BR OVC009 11/08 A2954 RMK AO2 SLP003 T01060083 (PAS)","FM-15","7",,,,,,,,,,,,,,,,,,,,,,,,,,,,
"72503014732","2020-04-08T09:27:00","FM-16","7",,,,,,,,,,,,,,,,,,,,,,,,,,,,,,,,,,,,,,"29.55","48","52",,,,,"86",,"OVC:08 11","29.52","9.00","50","070",,"7",,,,,,,,,,,,,,,,,,,,,,,,,,,,,,,,,,,,,"MET09104/08/20 09:27:02 SPECI KLGA 081427Z 07006KT 9SM OVC011 11/09 A2955 RMK AO2 T01110089 (PAS)","FM-16","7",,,,,,,,,,,,,,,,,,,,,,,,,,,,
"72503014732","2020-04-08T09:51:00","FM-15","7",,,,,,,,,,,,,,,,,,,,,,,,,,,,,,,,,,,,,,"29.56","47","52","0.00",,"-0.05","3","83","29.56","BKN:07 14 OVC:08 47","29.53","10.00","49","070",,"9",,,,,,,,,,,,,,,,,,,,,,,,,,,,,,,,,,,,,"MET11204/08/20 09:51:02 METAR KLGA 081451Z 07008KT 10SM BKN014 OVC047 11/08 A2956 RMK AO2 SLP010 T01110083 53017 (PAS)","FM-15","7",,,,,,,,,,,,,,,,,,,,,,,,,,,,
"72503014732","2020-04-08T10:00:00","FM-12","4",,,,,,,,,,,,,,,,,,,,,,,,,,,,,,,,,,,,,,,"47","52",,,"-0.05","3","83","29.56","15","29.52","9.94","49","070",,"9",,,,,,,,,,,,,,,,,,,,,,,,,,,,,,,,,,,,,"SYN06472503 32466 80708 10111 20083 39997 40010 53017 91451 555 90815=","FM-12","4",,,,,,,,,,,,,,,,,,,,,,,,,,,,
"72503014732","2020-04-08T10:08:00","FM-16","7",,,,,,,,,,,,,,,,,,,,,,,,,,,,,,,,,,,,,,"29.56","46","52",,,,,"80",,"BKN:07 15 OVC:08 47","29.53","10.00","49","070",,"9",,,,,,,,,,,,,,,,,,,,,,,,,,,,,,,,,,,,,"MET09904/08/20 10:08:02 SPECI KLGA 081508Z 07008KT 10SM BKN015 OVC047 11/08 A2956 RMK AO2 T01110078 (PAS)","FM-16","7",,,,,,,,,,,,,,,,,,,,,,,,,,,,
"72503014732","2020-04-08T10:51:00","FM-15","7",,,,,,,,,,,,,,,,,,,,,,,,,,,,,,,,,,,,,,"29.56","47","53","0.00",,,,"80","29.56","BKN:07 18 BKN:07 25 BKN:07 48","29.53","10.00","50","080",,"7",,,,,,,,,,,,,,,,,,,,,,,,,,,,,,,,,,,,,"MET11304/08/20 10:51:02 METAR KLGA 081551Z 08006KT 10SM BKN018 BKN025 BKN048 12/08 A2956 RMK AO2 SLP011 T01170083 (PAS)","FM-15","7",,,,,,,,,,,,,,,,,,,,,,,,,,,,
"72503014732","2020-04-08T11:19:00","FM-16","7",,,,,,,,,,,,,,,,,,,,,,,,,,,,,,,,,,,,,,"29.56","45","54",,,,,"72",,"SCT:04 22 BKN:07 31","29.53","10.00","49","040",,"6",,,,,,,,,,,,,,,,,,,,,,,,,,,,,,,,,,,,,"MET09904/08/20 11:19:02 SPECI KLGA 081619Z 04005KT 10SM SCT022 BKN031 12/07 A2956 RMK AO2 T01220072 (PAS)","FM-16","7",,,,,,,,,,,,,,,,,,,,,,,,,,,,
"72503014732","2020-04-08T11:51:00","FM-15","7",,,,,,,,,,,,,,,,,,,,,,,,,,,,,,,,,,,,,,"29.56","47","56","0.00",,,,"72","29.56","SCT:04 25 SCT:04 33 BKN:07 46","29.53","10.00","51","000",,"0",,,,,,,,,,,,,,,,,,,,,,,,,,,,,,,,,,,,,"MET11304/08/20 11:51:02 METAR KLGA 081651Z 00000KT 10SM SCT025 SCT033 BKN046 13/08 A2956 RMK AO2 SLP011 T01330083 (PAS)","FM-15","7",,,,,,,,,,,,,,,,,,,,,,,,,,,,
"72503014732","2020-04-08T12:51:00","SY-MT","7",,,,,,,,,,,,,,,,,,,,,,,,,,,,,,,,,,,,,,"29.56","46","57","0.00",,"+0.00","8","67","29.56","SCT:04 25 BKN:07 48","29.53","10.00","51","050",,"7",,,,,,,,,,,,,,,,,,,,,,,,,,,,,,,,,,,,,"SYN08072503 32566 60506 10139 20078 39997 40009 58001 91751 333 10144 20094 555 90818=MET12404/08/20 12:51:02 METAR KLGA 081751Z 05006KT 10SM SCT025 BKN048 14/08 A2956 RMK AO2 SLP009 T01390078 10144 20094 58001 (PAS)","SY-MT","7",,,,,,,,,,,,,,,,,,,,,,,,,,,,
"72503014732","2020-04-08T13:51:00","FM-15","7",,,,,,,,,,,,,,,,,,,,,,,,,,,,,,,,,,,,,,"29.57","46","60","0.00",,,,"60","29.57","SCT:04 42 OVC:08 55","29.54","10.00","53","VRB",,"6",,,,,,,,,,,,,,,,,,,,,,,,,,,,,,,,,,,,,"MET10504/08/20 13:51:02 METAR KLGA 081851Z VRB05KT 10SM SCT042 OVC055 16/08 A2957 RMK AO2 SLP012 T01560078 (WL)","FM-15","7",,,,,,,,,,,,,,,,,,,,,,,,,,,,
"72503014732","2020-04-08T14:51:00","FM-15","7",,,,,,,,,,,,,,,,,,,,,,,,,,,,,,,,,,,,,,"29.56","46","61","0.00",,,,"58","29.56","FEW:02 38 SCT:04 55","29.53","10.00","53","VRB",,"6",,,,,,,,,,,,,,,,,,,,,,,,,,,,,,,,,,,,,"MET10504/08/20 14:51:02 METAR KLGA 081951Z VRB05KT 10SM FEW038 SCT055 16/08 A2956 RMK AO2 SLP011 T01610078 (WL)","FM-15","7",,,,,,,,,,,,,,,,,,,,,,,,,,,,
"72503014732","2020-04-08T15:51:00","FM-15","7",,,,,,,,,,,,,,,,,,,,,,,,,,,,,,,,,,,,,,"29.57","45","62","0.00",,"-0.01","1","54","29.57","FEW:02 38 SCT:04 55","29.54","10.00","53","360",,"10",,,,,,,,,,,,,,,,,,,,,,,,,,,,,,,,,,,,,"MET11104/08/20 15:51:02 METAR KLGA 082051Z 36009KT 10SM FEW038 SCT055 17/07 A2957 RMK AO2 SLP013 T01670072 51003 (WL)","FM-15","7",,,,,,,,,,,,,,,,,,,,,,,,,,,,
"72503014732","2020-04-08T16:00:00","FM-12","4",,,,,,,,,,,,,,,,,,,,,,,,,,,,,,,,,,,,,,,"45","62",,,"-0.01","1","54","29.57","41","29.53","9.94","53","360",,"10",,,,,,,,,,,,,,,,,,,,,,,,,,,,,,,,,,,,,"SYN06472503 32666 43609 10167 20072 30000 40013 51003 92051 555 90821=","FM-12","4",,,,,,,,,,,,,,,,,,,,,,,,,,,,
"72503014732","2020-04-08T16:51:00","FM-15","7",,,,,,,,,,,,,,,,,,,,,,,,,,,,,,,,,,,,,,"29.57","43","62","0.00",,,,"50","29.57","FEW:02 55 SCT:04 85","29.54","10.00","52","040",,"8",,,,,,,,,,,,,,,,,,,,,,,,,,,,,,,,,,,,,"MET10504/08/20 16:51:02 METAR KLGA 082151Z 04007KT 10SM FEW055 SCT085 17/06 A2957 RMK AO2 SLP013 T01670061 (WL)","FM-15","7",,,,,,,,,,,,,,,,,,,,,,,,,,,,
"72503014732","2020-04-08T17:51:00","FM-15","7",,,,,,,,,,,,,,,,,,,,,,,,,,,,,,,,,,,,,,"29.59","44","60","0.00",,,,"56","29.59","FEW:02 55","29.56","10.00","52","080",,"7",,,,,,,,,,,,,,,,,,,,,,,,,,,,,,,,,,,,,"MET09804/08/20 17:51:02 METAR KLGA 082251Z 08006KT 10SM FEW055 16/07 A2959 RMK AO2 SLP021 T01560067 (WL)","FM-15","7",,,,,,,,,,,,,,,,,,,,,,,,,,,,
"72503014732","2020-04-08T18:51:00","FM-15","7",,,,,,,,,,,,,,,,,,,,,,,,,,,,,,,,,,,,,,"29.61","44","57","0.00",,"-0.04","3","62","29.61","FEW:02 55","29.58","10.00","50","070",,"3",,,,,,,,,,,,,,,,,,,,,,,,,,,,,,,,,,,,,"MET11604/08/20 18:51:02 METAR KLGA 082351Z 07003KT 10SM FEW055 14/07 A2961 RMK AO2 SLP028 T01390067 10172 20139 53015 (WL)","FM-15","7",,,,,,,,,,,,,,,,,,,,,,,,,,,,
"72503014732","2020-04-08T19:00:00","FM-12","4",,,,,,,,,,,,,,,,,,,,,,,,,,,,,,,,,,,,,,,"44","57",,,"-0.04","3","62","29.61","57","29.57","9.94","50","070",,"3",,,,,,,,,,,,,,,,,,,,,,,,,,,,,,,,,,,,,"SYN08072503 32766 20703 10139 20067 30013 40028 53015 92351 333 10172 20094 555 90900=","FM-12","4",,,,,,,,,,,,,,,,,,,,,,,,,,,,
"72503014732","2020-04-08T19:29:00","FM-16","7",,,,,,,,,,,,,,,,,,,,,,,,,,,,,,,,,,,,,,"29.65","43","52",,,,,"72",,"FEW:02 50","29.62","10.00","48","180",,"15",,,,,,,,,,,,,,,,,,,,,,,,,,,,,,,,,,,,,"MET09704/08/20 19:29:01 SPECI KLGA 090029Z 18013KT 10SM FEW050 11/06 A2965 RMK AO2 WSHFT 0009 T01110061","FM-16","7",,,,,,,,,,,,,,,,,,,,,,,,,,,,
"72503014732","2020-04-08T19:51:00","FM-15","7",,,,,,,,,,,,,,,,,,,,,,,,,,,,,,,,,,,,,,"29.66","43","52","0.00",,,,"72","29.66","FEW:02 50","29.63","10.00","48","180",,"10",,,,,,,,,,,,,,,,,,,,,,,,,,,,,,,,,,,,,"MET10404/08/20 19:51:01 METAR KLGA 090051Z 18009KT 10SM FEW050 11/06 A2966 RMK AO2 WSHFT 0009 SLP044 T01110061","FM-15","7",,,,,,,,,,,,,,,,,,,,,,,,,,,,
"72503014732","2020-04-08T20:51:00","FM-15","7",,,,,,,,,,,,,,,,,,,,,,,,,,,,,,,,,,,,,,"29.69","43","51","0.00",,,,"74","29.68","FEW:02 50","29.66","10.00","47","170",,"10",,,,,,,,,,,,,,,,,,,,,,,,,,,,,,,,,,,,,"MET09304/08/20 20:51:01 METAR KLGA 090151Z 17009KT 10SM FEW050 11/06 A2969 RMK AO2 SLP052 T01060061","FM-15","7",,,,,,,,,,,,,,,,,,,,,,,,,,,,
"72503014732","2020-04-08T21:51:00","FM-15","7",,,,,,,,,,,,,,,,,,,,,,,,,,,,,,,,,,,,,,"29.67","43","50","0.00",,"-0.06","0","77","29.67","CLR:00","29.64","10.00","47","170",,"7",,,,,,,,,,,,,,,,,,,,,,,,,,,,,,,,,,,,,"MET09604/08/20 21:51:01 METAR KLGA 090251Z 17006KT 10SM CLR 10/06 A2967 RMK AO2 SLP047 T01000061 50020","FM-15","7",,,,,,,,,,,,,,,,,,,,,,,,,,,,
"72503014732","2020-04-08T22:00:00","FM-12","4",,,,,,,,,,,,,,,,,,,,,,,,,,,,,,,,,,,,,,,"43","50",,,"0.06","9","77","29.67",,"29.63","9.94","47","170",,"7",,,,,,,,,,,,,,,,,,,,,,,,,,,,,,,,,,,,,"SYN06472503 32966 01706 10100 20061 30034 40047 50020 90251 555 90903=","FM-12","4",,,,,,,,,,,,,,,,,,,,,,,,,,,,
"72503014732","2020-04-08T22:51:00","FM-15","7",,,,,,,,,,,,,,,,,,,,,,,,,,,,,,,,,,,,,,"29.66","42","50","0.00",,,,"74","29.66","CLR:00","29.63","10.00","46","180",,"7",,,,,,,,,,,,,,,,,,,,,,,,,,,,,,,,,,,,,"MET09004/08/20 22:51:02 METAR KLGA 090351Z 18006KT 10SM CLR 10/06 A2966 RMK AO2 SLP044 T01000056","FM-15","7",,,,,,,,,,,,,,,,,,,,,,,,,,,,
"72503014732","2020-04-08T23:51:00","FM-15","7",,,,,,,,,,,,,,,,,,,,,,,,,,,,,,,,,,,,,,"29.62","42","49","0.00",,,,"77","29.62","CLR:00","29.59","10.00","46","180",,"11",,,,,,,,,,,,,,,,,,,,,,,,,,,,,,,,,,,,,"MET10704/08/20 23:51:02 METAR KLGA 090451Z 18010KT 10SM CLR 09/06 A2962 RMK AO2 PRESFR SLP031 T00940056 401720094","FM-15","7",,,,,,,,,,,,,,,,,,,,,,,,,,,,
"72503014732","2020-04-08T23:59:00","SOD  ","6",,,,,,,,,,,,,,,,"56",,,"29.53",,"6.9","0","6.0","9","63","49","180","21","0.23","0","0.0","180","18","RA BR",,,,,,,,,,,,,,,,,,,,,,,,,,,,,,,,,,,,,,,,,,,,,,,,,,,,,,,,"SOD75624 HR PRECIPITATION (IN): 0.23 SNOW DEPTH (IN):0     24 HR SNOWFALL (IN):0.0  WEATHER(CODE):1  24 HR MAX TEMP (F): 6324 HR MIN TEMP (F): 49AVERAGE STATION PRESSURE:29.530 MINIMUM SEA LEVEL PRESSURE:29.42 TIME OF OCCURRENCE:0514 PEAK WIND SPEED (MPH): 21 PEAK WIND DIR (DEG):180 PEAK WIND TIME (LST):      FASTEST 2MIN SPEED (MPH): 18FASTEST 2MIN DIR (DEG):180 FASTEST 2MIN TIME (LST):     AVERAGE WIND SPEED (MPH): 6.9 24 HR AVG TEMP (F): 56DEPART FROM NORMAL:  6  HEATING DEGREE DAYS:  9 COOLING DEGREE DAYS:  0 LATEST DAY MAX TEMP (0700-1900 LST):63  LATEST NIGHT MIN TEMP(1900-0800 LST):49 HOURLY INCREMENTAL PRECIPITATION VALUES (IN):.00 T    0.02 0.11 0.10 T    0.00 0.00 0.00 0.00 0.00 0.00 0.00 0.00 0.00 0.00 0.00 0.00 0.00 0.00 0.00 0.00 0.00 0.00","SOD  ","6",,,,,,,,,,,,,,,,,,,,,,,,,"0527","1828",,
"72503014732","2020-04-09T00:51:00","FM-15","7",,,,,,,,,,,,,,,,,,,,,,,,,,,,,,,,,,,,,,"29.62","43","49","0.00",,"+0.05","6","80","29.62","FEW:02 250","29.59","10.00","46","200",,"8",,,,,,,,,,,,,,,,,,,,,,,,,,,,,,,,,,,,,"MET11604/09/20 00:51:02 METAR KLGA 090551Z 20007KT 10SM FEW250 09/06 A2962 RMK AO2 SLP030 T00940061 10144 20094 56018 (RZ)","FM-15","7",,,,,,,,,,,,,,,,,,,,,,,,,,,,
"72503014732","2020-04-09T01:00:00","FM-12","4",,,,,,,,,,,,,,,,,,,,,,,,,,,,,,,,,,,,,,,"43","49",,,"+0.05","6","80","29.62",,"29.58","9.94","46","200",,"8",,,,,,,,,,,,,,,,,,,,,,,,,,,,,,,,,,,,,"SYN08072503 32966 22007 10094 20061 30017 40030 56018 90551 333 10144 20094 555 90906=","FM-12","4",,,,,,,,,,,,,,,,,,,,,,,,,,,,
"72503014732","2020-04-09T01:51:00","FM-15","7",,,,,,,,,,,,,,,,,,,,,,,,,,,,,,,,,,,,,,"29.61","42","50","0.00",,,,"74","29.61","CLR:00","29.58","10.00","46","220",,"6",,,,,,,,,,,,,,,,,,,,,,,,,,,,,,,,,,,,,"MET09504/09/20 01:51:02 METAR KLGA 090651Z 22005KT 10SM CLR 10/06 A2961 RMK AO2 SLP026 T01000056 (RZ)","FM-15","7",,,,,,,,,,,,,,,,,,,,,,,,,,,,
"72503014732","2020-04-09T02:51:00","FM-15","7",,,,,,,,,,,,,,,,,,,,,,,,,,,,,,,,,,,,,,"29.58","42","49","0.00",,,,"77","29.58","FEW:02 30 FEW:02 250","29.55","10.00","46","200",,"5",,,,,,,,,,,,,,,,,,,,,,,,,,,,,,,,,,,,,"MET10504/09/20 02:51:02 METAR KLGA 090751Z 20004KT 10SM FEW030 FEW250 09/06 A2958 RMK AO2 SLP017 T00940056 (RZ)","FM-15","7",,,,,,,,,,,,,,,,,,,,,,,,,,,,
"72503014732","2020-04-09T03:51:00","FM-15","6",,,,,,,,,,,,,,,,,,,,,,,,,,,,,,,,,,,,,,"29.56","43","49","0.00",,"+0.06","8","80","29.56","SCT:04 30 BKN:07 250","29.53","10.00","46","140",,"3",,,,,,,,,,,,,,,,,,,,,,,,,,,,,,,,,,,,,"MET11604/09/20 03:51:02 METAR KLGA 090851Z 14003KT 10SM SCT030 BKN250 09/06 A2956 RMK AO2 SLP009 T00940061 58021 FIBI (RZ)","FM-15","6",,,,,,,,,,,,,,,,,,,,,,,,,,,,
"72503014732","2020-04-09T04:51:00","FM-15","7",,,,,,,,,,,,,,,,,,,,,,,,,,,,,,,,,,,,,,"29.53","44","50","0.00",,,,"80","29.53","OVC:08 38","29.50","10.00","47","110",,"3",,,,,,,,,,,,,,,,,,,,,,,,,,,,,,,,,,,,,"MET09804/09/20 04:51:02 METAR KLGA 090951Z 11003KT 10SM OVC038 10/07 A2953 RMK AO2 SLP000 T01000067 (RZ)","FM-15","7",,,,,,,,,,,,,,,,,,,,,,,,,,,,
"72503014732","2020-04-09T05:51:00","FM-15","7",,,,,,,,,,,,,,,,,,,,,,,,,,,,,,,,,,,,,,"29.50","45","51","0.00",,,,"80","29.50","OVC:08 30","29.47","10.00","48","160",,"10",,,,,,,,,,,,,,,,,,,,,,,,,,,,,,,,,,,,,"MET09904/09/20 05:51:02 METAR KLGA 091051Z 16009KT 10SM OVC030 11/07 A2950 RMK AO2 SLP990 T01060072 (PAS)","FM-15","7",,,,,,,,,,,,,,,,,,,,,,,,,,,,
"72503014732","2020-04-09T06:51:00","FM-15","7",,,,,,,,,,,,,,,,,,,,,,,,,,,,,,,,,,,,,,"29.46","45","52","0.00",,"+0.09","8","77","29.46","OVC:08 30","29.43","10.00","48","170",,"14",,,,,,,,,,,,,,,,,,,,,,,,,,,,,,,,,,,,,"MET11704/09/20 06:51:02 METAR KLGA 091151Z 17012KT 10SM OVC030 11/07 A2946 RMK AO2 SLP977 T01110072 10111 20094 58031 (PAS)","FM-15","7",,,,,,,,,,,,,,,,,,,,,,,,,,,,
"72503014732","2020-04-09T07:00:00","FM-12","4",,,,,,,,,,,,,,,,,,,,,,,,,,,,,,,,,,,,,,,"45","52",,,"+0.09","8","77","29.46","26","29.42","9.94","48","170",,"14",,,,,,,,,,,,,,,,,,,,,,,,,,,,,,,,,,,,,"SYN08072503 32566 81712 10111 20072 39963 49977 58031 91151 333 10172 20094 555 90912=","FM-12","4",,,,,,,,,,,,,,,,,,,,,,,,,,,,
"72503014732","2020-04-09T07:00:00","FM-16","7",,,,,,,,,,,,,,,,,,,,,,,,,,,,,,,,,,,,,,"29.45","45","52",,,,,"77",,"OVC:08 29","29.42","10.00","48","160",,"15",,,,,,,,,,,,,,,,,,,,,,,,,,,,,,,,,,,,,"MET09204/09/20 07:00:02 SPECI KLGA 091200Z 16013KT 10SM OVC029 11/07 A2945 RMK AO2 T01110072 (PAS)","FM-16","7",,,,,,,,,,,,,,,,,,,,,,,,,,,,
"72503014732","2020-04-09T07:51:00","FM-15","7",,,,,,,,,,,,,,,,,,,,,,,,,,,,,,,,,,,,,,"29.43","45","52","T",,,,"77","29.43","OVC:08 27","29.40","10.00","48","170","21","11",,,,,,,,,,,,,,,,,,,,,,,,,,,,,,,,,,,,,"MET10204/09/20 07:51:02 METAR KLGA 091251Z 17010G18KT 10SM OVC027 11/07 A2943 RMK AO2 SLP965 T01110072 (PAS)","FM-15","7",,,,,,,,,,,,,,,,,,,,,,,,,,,,
"72503014732","2020-04-09T08:51:00","FM-15","7",,,,,,,,,,,,,,,,,,,,,,,,,,,,,,,,,,,,,,"29.36","46","52","0.08","-RA:02 |RA |RA",,,"80","29.35","OVC:08 23","29.33","10.00","49","180",,"9",,,,,,,,,,,,,,,,,,,,,,,,,,,,,,,,,,,,,"MET11704/09/20 08:51:02 METAR KLGA 091351Z 18008KT 10SM -RA OVC023 11/08 A2936 RMK AO2 RAB1255 SLP940 P0007 T01110078 (PAS)","FM-15","7",,,,,,,,,,,,,,,,,,,,,,,,,,,,
"72503014732","2020-04-09T09:51:00","FM-15","7",,,,,,,,,,,,,,,,,,,,,,,,,,,,,,,,,,,,,,"29.30","46","53","0.01",,"+0.17","8","77","29.30","OVC:08 20","29.27","10.00","49","170",,"13",,,,,,,,,,,,,,,,,,,,,,,,,,,,,,,,,,,,,"MET12304/09/20 09:51:02 METAR KLGA 091451Z 17011KT 10SM OVC020 12/08 A2930 RMK AO2 RAE49 SLP921 P0002 60009 T01170078 58056 (PAS)","FM-15","7",,,,,,,,,,,,,,,,,,,,,,,,,,,,
"72503014732","2020-04-09T10:00:00","FM-12","4",,,,,,,,,,,,,,,,,,,,,,,,,,,,,,,,,,,,,,,"46","53",,,"+0.17","8","77","29.30","26","29.26","9.94","49","170",,"13",,,,,,,,,,,,,,,,,,,,,,,,,,,,,,,,,,,,,"SYN07072503 12566 81711 10117 20078 39909 49921 58056 60027 91451 555 90915=","FM-12","4",,,,,,,,,,,,,,,,,,,,,,,,,,,,
"72503014732","2020-04-09T10:18:00","FM-16","7",,,,,,,,,,,,,,,,,,,,,,,,,,,,,,,,,,,,,,"29.25","48","54",,,,,"80",,"OVC:08 14","29.22","10.00","51","170","23","16",,,,,,,,,,,,,,,,,,,,,,,,,,,,,,,,,,,,,"MET10204/09/20 10:18:02 SPECI KLGA 091518Z 17014G20KT 10SM OVC014 12/09 A2925 RMK AO2 PRESFR T01220089 (PAS)","FM-16","7",,,,,,,,,,,,,,,,,,,,,,,,,,,,
"72503014732","2020-04-09T10:51:00","FM-15","7",,,,,,,,,,,,,,,,,,,,,,,,,,,,,,,,,,,,,,"29.21","48","54","0.00",,,,"80","29.21","OVC:08 10","29.18","10.00","51","180","23","13",,,,,,,,,,,,,,,,,,,,,,,,,,,,,,,,,,,,,"MET10904/09/20 10:51:02 METAR KLGA 091551Z 18011G20KT 10SM OVC010 12/09 A2921 RMK AO2 PRESFR SLP891 T01220089 (PAS)","FM-15","7",,,,,,,,,,,,,,,,,,,,,,,,,,,,
"72503014732","2020-04-09T11:20:00","FM-16","7",,,,,,,,,,,,,,,,,,,,,,,,,,,,,,,,,,,,,,"29.19","50","54",,,,,"87",,"OVC:08 9","29.16","8.00","52","180",,"9",,,,,,,,,,,,,,,,,,,,,,,,,,,,,,,,,,,,,"MET09104/09/20 11:20:02 SPECI KLGA 091620Z 18008KT 8SM OVC009 12/10 A2919 RMK AO2 T01220100 (PAS)","FM-16","7",,,,,,,,,,,,,,,,,,,,,,,,,,,,
"72503014732","2020-04-09T11:49:00","FM-16","7",,,,,,,,,,,,,,,,,,,,,,,,,,,,,,,,,,,,,,"29.16","52","57",,,,,"82",,"OVC:08 7","29.13","8.00","54","190",,"14",,,,,,,,,,,,,,,,,,,,,,,,,,,,,,,,,,,,,"MET08104/09/20 11:49:02 SPECI KLGA 091649Z 19012KT 8SM OVC007 14/11 A2916 RMK AO2 (PAS)","FM-16","7",,,,,,,,,,,,,,,,,,,,,,,,,,,,
"72503014732","2020-04-09T11:51:00","FM-15","7",,,,,,,,,,,,,,,,,,,,,,,,,,,,,,,,,,,,,,"29.16","53","57","0.00",,,,"87","29.16","OVC:08 7","29.13","8.00","55","190",,"14",,,,,,,,,,,,,,,,,,,,,,,,,,,,,,,,,,,,,"MET09804/09/20 11:51:02 METAR KLGA 091651Z 19012KT 8SM OVC007 14/12 A2916 RMK AO2 SLP874 T01390117 (PAS)","FM-15","7",,,,,,,,,,,,,,,,,,,,,,,,,,,,
"72503014732","2020-04-09T12:34:00","FM-16","7",,,,,,,,,,,,,,,,,,,,,,,,,,,,,,,,,,,,,,"29.15","53","58","T","-RA:02 |RA |RA",,,"84",,"SCT:04 9 BKN:07 26 OVC:08 46","29.12","7.00","55","200",,"9",,,,,,,,,,,,,,,,,,,,,,,,,,,,,,,,,,,,,"MET12104/09/20 12:34:02 SPECI KLGA 091734Z 20008KT 7SM -RA SCT009 BKN026 OVC046 14/12 A2915 RMK AO2 RAB16 P0000 T01440117 (PAS)","FM-16","7",,,,,,,,,,,,,,,,,,,,,,,,,,,,
"72503014732","2020-04-09T12:49:00","FM-16","6",,,,,,,,,,,,,,,,,,,,,,,,,,,,,,,,,,,,,,"29.14","54","57",,"-RA:02 |RA |RA",,,"88",,"FEW:02 9 SCT:04 25 OVC:08 45","29.11","8.00","55","200",,"7",,,,,,,,,,,,,,,,,,,,,,,,,,,,,,,,,,,,,"MET12804/09/20 12:49:02 SPECI KLGA 091749Z 20006KT 8SM -RA FEW009 SCT025 OVC045 14/12 A2914 RMK AO2 LTG DSNT SW RAB16 P0001 FIBI (PAS)","FM-16","6",,,,,,,,,,,,,,,,,,,,,,,,,,,,
"72503014732","2020-04-09T12:51:00","FM-15","7",,,,,,,,,,,,,,,,,,,,,,,,,,,,,,,,,,,,,,"29.14","53","58","0.03","-RA:02 |RA |RA","+0.07","6","84","29.14","FEW:02 9 SCT:04 34 OVC:08 50","29.11","6.00","55","200",,"7",,,,,,,,,,,,,,,,,,,,,,,,,,,,,,,,,,,,,"MET17004/09/20 12:51:02 METAR KLGA 091751Z 20006KT 6SM -RA FEW009 SCT034 OVC050 14/12 A2914 RMK AO2 LTG DSNT SW AND W RAB16 SLP868 P0001 60010 T01440117 10144 20106 56024 (PAS)","FM-15","7",,,,,,,,,,,,,,,,,,,,,,,,,,,,
"72503014732","2020-04-09T12:57:00","FM-16","7",,,,,,,,,,,,,,,,,,,,,,,,,,,,,,,,,,,,,,"29.14","53","58","T","TS:7 RA:02 |RA TS TS |RA",,,"84",,"FEW:02 9 BKN:07 55 OVC:08 75","29.11","4.00","55","VRB",,"6",,,,,,,,,,,,,,,,,,,,,,,,,,,,,,,,,,,,,"MET17404/09/20 12:57:02 SPECI KLGA 091757Z VRB05KT 4SM TSRA FEW009 BKN055CB OVC075 14/12 A2914 RMK AO2 LTG DSNT SW AND W TSB56 OCNL LTGIC SW-NW TS SW-NW MOV E P0000 T01440117 (PAS)","FM-16","7",,,,,,,,,,,,,,,,,,,,,,,,,,,,
"72503014732","2020-04-09T13:00:00","FM-12","4",,,,,,,,,,,,,,,,,,,,,,,,,,,,,,,,,,,,,,,"53","58",,"||RA","+0.07","6","84","29.14","8","29.10","5.59","55","200",,"7",,,,,,,,,,,,,,,,,,,,,,,,,,,,,,,,,,,,,"SYN09272503 11359 82006 10144 20117 39854 49868 56024 60031 761// 91751 333 10144 20106 555 90918=","FM-12","4",,,,,,,,,,,,,,,,,,,,,,,,,,,,
"72503014732","2020-04-09T13:00:00","FM-16","7",,,,,,,,,,,,,,,,,,,,,,,,,,,,,,,,,,,,,,"29.19","52","57","0.02","TS:7 +RA:02 |RA TS TS |RA",,,"83",,"FEW:02 9 BKN:07 55 OVC:08 75","29.16","1.00","54","320",,"28",,,,,,,,,,,,,,,,,,,,,,,,,,,,,,,,,,,,,"MET20004/09/20 13:00:02 SPECI KLGA 091800Z 32024KT 1SM +TSRA FEW009 BKN055CB OVC075 14/11 A2919 RMK AO2 LTG DSNT SW AND W TSB1756 PRESRR OCNL LTGIC OHD AND SW-NW TS OHD AND SW-NW MOV E P0002 T01390111 (PAS)","FM-16","7",,,,,,,,,,,,,,,,,,,,,,,,,,,,
"72503014732","2020-04-09T13:13:00","FM-16","7",,,,,,,,,,,,,,,,,,,,,,,,,,,,,,,,,,,,,,"29.17","48","55","0.14","TS:7 RA:02 |RA TS TS |RA",,,"77",,"FEW:02 12 BKN:07 35 OVC:08 60","29.14","7.00","51","290","34","23",,,,,,,,,,,,,,,,,,,,,,,,,,,,,,,,,,,,,"MET19304/09/20 13:13:02 SPECI KLGA 091813Z 29020G30KT 7SM TSRA FEW012 BKN035CB OVC060 13/09 A2917 RMK AO2 PK WND 30032/1803 LTG DSNT S AND SW TSB1756 OCNL LTGIC OHD TS OHD MOV E P0014 T01280089 (PAS)","FM-16","7",,,,,,,,,,,,,,,,,,,,,,,,,,,,
"72503014732","2020-04-09T13:40:00","FM-16","7",,,,,,,,,,,,,,,,,,,,,,,,,,,,,,,,,,,,,,"29.16","44","56","0.16",,,,"65",,"FEW:02 38 SCT:04 55 OVC:08 70","29.13","10.00","50","290","33","26",,,,,,,,,,,,,,,,,,,,,,,,,,,,,,,,,,,,,"MET16404/09/20 13:40:02 SPECI KLGA 091840Z 29023G29KT 10SM FEW038 SCT055 OVC070 13/07 A2916 RMK AO2 PK WND 30032/1803 RAE37 TSB1756E39 CIG 055 R22 SW P0016 T01330067 (JT)","FM-16","7",,,,,,,,,,,,,,,,,,,,,,,,,,,,
"72503014732","2020-04-09T13:49:00","FM-16","6",,,,,,,,,,,,,,,,,,,,,,,,,,,,,,,,,,,,,,"29.18","41","54",,"-RA:02 SQ:2 |SQ RA |RA",,,"63",,"SCT:04 35 BKN:07 60 OVC:08 75","29.15","10.00","48","290","56","32",,,,,,,,,,,,,,,,,,,,,,,,,,,,,,,,,,,,,"MET16504/09/20 13:49:02 SPECI KLGA 091849Z 29028G49KT 10SM -RA SQ SCT035 BKN060 OVC075 12/05 A2918 RMK AO2 PK WND 31049/1843 LTG DSNT E RAE37B43 TSB1756E39 P0016 FIBI (JT)","FM-16","6",,,,,,,,,,,,,,,,,,,,,,,,,,,,
"72503014732","2020-04-09T13:51:00","FM-15","7",,,,,,,,,,,,,,,,,,,,,,,,,,,,,,,,,,,,,,"29.19","41","54","0.14","-RA:02 SQ:2 |SQ RA |RA",,,"62","29.18","FEW:02 33 BKN:07 60 OVC:08 75","29.16","10.00","48","290","56","29",,,,,,,,,,,,,,,,,,,,,,,,,,,,,,,,,,,,,"MET17704/09/20 13:51:02 METAR KLGA 091851Z 29025G49KT 10SM -RA SQ FEW033 BKN060 OVC075 12/05 A2919 RMK AO2 PK WND 31049/1843 LTG DSNT E RAE37B43 TSB1756E39 SLP883 P0016 T01220050 (JT)","FM-15","7",,,,,,,,,,,,,,,,,,,,,,,,,,,,
"72503014732","2020-04-09T14:51:00","FM-15","7",,,,,,,,,,,,,,,,,,,,,,,,,,,,,,,,,,,,,,"29.22","38","54","T",,,,"55","29.21","FEW:02 40 SCT:04 95 BKN:07 110","29.19","10.00","46","300","34","28",,,,,,,,,,,,,,,,,,,,,,,,,,,,,,,,,,,,,"MET15304/09/20 14:51:02 METAR KLGA 091951Z 30024G30KT 10SM FEW040 SCT095 BKN110 12/03 A2922 RMK AO2 PK WND 30039/1903 RAE1859B15E38 SLP893 P0000 T01220033 (JT)","FM-15","7",,,,,,,,,,,,,,,,,,,,,,,,,,,,
"72503014732","2020-04-09T15:51:00","FM-15","7",,,,,,,,,,,,,,,,,,,,,,,,,,,,,,,,,,,,,,"29.25","30","54","0.00",,"-0.11","1","40","29.25","FEW:02 55","29.22","10.00","43","300","40","32",,,,,,,,,,,,,,,,,,,,,,,,,,,,,,,,,,,,,"MET13204/09/20 15:51:02 METAR KLGA 092051Z 30028G35KT 10SM FEW055 12/M01 A2925 RMK AO2 PK WND 32039/2026 SLP904 60016 T01221011 51036 (JT)","FM-15","7",,,,,,,,,,,,,,,,,,,,,,,,,,,,
"72503014732","2020-04-09T16:00:00","FM-12","4",,,,,,,,,,,,,,,,,,,,,,,,,,,,,,,,,,,,,,,"30","54",,,"-0.11","1","40","29.25","57","29.21","9.94","43","300",,"32",,,,,,,,,,,,,,,,,,,,,,,,,,,,,,,,,,,,,"SYN08072503 12766 23028 10122 21011 39892 49904 51036 60047 92051 333 91035 555 90921=","FM-12","4",,,,,,,,,,,,,,,,,,,,,,,,,,,,
"72503014732","2020-04-09T16:51:00","FM-15","7",,,,,,,,,,,,,,,,,,,,,,,,,,,,,,,,,,,,,,"29.30","30","53","0.00",,,,"41","29.29","FEW:02 55 FEW:02 70","29.27","10.00","43","300","45","26",,,,,,,,,,,,,,,,,,,,,,,,,,,,,,,,,,,,,"MET13404/09/20 16:51:02 METAR KLGA 092151Z 30023G39KT 10SM FEW055 FEW070 12/M01 A2930 RMK AO2 PK WND 32039/2143 PRESRR SLP920 T01171011 (JT)","FM-15","7",,,,,,,,,,,,,,,,,,,,,,,,,,,,
"72503014732","2020-04-09T17:51:00","FM-15","7",,,,,,,,,,,,,,,,,,,,,,,,,,,,,,,,,,,,,,"29.32","27","51","0.00",,,,"39","29.32","FEW:02 60","29.29","10.00","41","310","32","21",,,,,,,,,,,,,,,,,,,,,,,,,,,,,,,,,,,,,"MET12004/09/20 17:51:02 METAR KLGA 092251Z 31018G28KT 10SM FEW060 11/M03 A2932 RMK AO2 PK WND 31034/2212 SLP929 T01061028 (JT)","FM-15","7",,,,,,,,,,,,,,,,,,,,,,,,,,,,
"72503014732","2020-04-09T18:51:00","FM-15","7",,,,,,,,,,,,,,,,,,,,,,,,,,,,,,,,,,,,,,"29.34","25","50","0.00",,"-0.09","1","38","29.34","FEW:02 60","29.31","10.00","40","300","36","22",,,,,,,,,,,,,,,,,,,,,,,,,,,,,,,,,,,,,"MET14404/09/20 18:51:02 METAR KLGA 092351Z 30019G31KT 10SM FEW060 10/M04 A2934 RMK AO2 PK WND 31031/2347 SLP935 60016 T01001039 10144 20100 51031 (JT)","FM-15","7",,,,,,,,,,,,,,,,,,,,,,,,,,,,
"72503014732","2020-04-09T19:00:00","FM-12","4",,,,,,,,,,,,,,,,,,,,,,,,,,,,,,,,,,,,,,,"25","50",,,"-0.09","1","38","29.34","57","29.30","9.94","40","300",,"22",,,,,,,,,,,,,,,,,,,,,,,,,,,,,,,,,,,,,"SYN09272503 12766 23019 10100 21039 39922 49935 51031 60041 92351 333 10144 20094 91031 555 91000=","FM-12","4",,,,,,,,,,,,,,,,,,,,,,,,,,,,
"72503014732","2020-04-09T19:51:00","FM-15","7",,,,,,,,,,,,,,,,,,,,,,,,,,,,,,,,,,,,,,"29.37","23","50","0.00",,,,"35","29.37","CLR:00","29.34","10.00","39","300","28","18",,,,,,,,,,,,,,,,,,,,,,,,,,,,,,,,,,,,,"MET11204/09/20 19:51:01 METAR KLGA 100051Z 30016G24KT 10SM CLR 10/M05 A2937 RMK AO2 PK WND 30030/2359 SLP946 T01001050","FM-15","7",,,,,,,,,,,,,,,,,,,,,,,,,,,,
"72503014732","2020-04-09T20:51:00","FM-15","7",,,,,,,,,,,,,,,,,,,,,,,,,,,,,,,,,,,,,,"29.38","24","49","0.00",,,,"38","29.38","CLR:00","29.35","10.00","39","300",,"14",,,,,,,,,,,,,,,,,,,,,,,,,,,,,,,,,,,,,"MET09104/09/20 20:51:01 METAR KLGA 100151Z 30012KT 10SM CLR 09/M04 A2938 RMK AO2 SLP948 T00941044","FM-15","7",,,,,,,,,,,,,,,,,,,,,,,,,,,,
"72503014732","2020-04-09T21:51:00","FM-15","7",,,,,,,,,,,,,,,,,,,,,,,,,,,,,,,,,,,,,,"29.37","23","48","0.00",,"-0.03","0","37","29.37","CLR:00","29.34","10.00","38","290","22","13",,,,,,,,,,,,,,,,,,,,,,,,,,,,,,,,,,,,,"MET10004/09/20 21:51:01 METAR KLGA 100251Z 29011G19KT 10SM CLR 09/M05 A2937 RMK AO2 SLP945 T00891050 50010","FM-15","7",,,,,,,,,,,,,,,,,,,,,,,,,,,,
"72503014732","2020-04-09T22:00:00","FM-12","4",,,,,,,,,,,,,,,,,,,,,,,,,,,,,,,,,,,,,,,"23","48",,,"0.03","9","37","29.37",,"29.33","9.94","38","290",,"13",,,,,,,,,,,,,,,,,,,,,,,,,,,,,,,,,,,,,"SYN07472503 32966 02911 10089 21050 39932 49945 50010 90251 333 91019 555 91003=","FM-12","4",,,,,,,,,,,,,,,,,,,,,,,,,,,,
"72503014732","2020-04-09T22:51:00","FM-15","7",,,,,,,,,,,,,,,,,,,,,,,,,,,,,,,,,,,,,,"29.36","24","48","0.00",,,,"39","29.36","SCT:04 60 BKN:07 110","29.33","10.00","38","280","26","15",,,,,,,,,,,,,,,,,,,,,,,,,,,,,,,,,,,,,"MET10404/09/20 22:51:02 METAR KLGA 100351Z 28013G23KT 10SM SCT060 BKN110 09/M04 A2936 RMK AO2 SLP941 T00891044","FM-15","7",,,,,,,,,,,,,,,,,,,,,,,,,,,,
"72503014732","2020-04-09T23:51:00","FM-15","7",,,,,,,,,,,,,,,,,,,,,,,,,,,,,,,,,,,,,,"29.36","29","44","T",,,,"55","29.36","BKN:07 45 OVC:08 60","29.33","10.00","38","280","32","22",,,,,,,,,,,,,,,,,,,,,,,,,,,,,,,,,,,,,"MET14704/09/20 23:51:02 METAR KLGA 100451Z 28019G28KT 10SM BKN045 OVC060 07/M02 A2936 RMK AO2 PK WND 29034/0416 RAB43E48 SLP943 P0000 T00671017 401440067","FM-15","7",,,,,,,,,,,,,,,,,,,,,,,,,,,,
"72503014732","2020-04-09T23:59:00","SOD  ","6",,,,,,,,,,,,,,,,"51",,,"29.36",,"14.8","0","0.6","14","58","44","310","57","0.26","0","0.0","300","44","TS RA",,,,,,,,,,,,,,,,,,,,,,,,,,,,,,,,,,,,,,,,,,,,,,,,,,,,,,,,"SOD75424 HR PRECIPITATION (IN): 0.26 SNOW DEPTH (IN):0     24 HR SNOWFALL (IN):0.0  WEATHER(CODE):13  24 HR MAX TEMP (F): 5824 HR MIN TEMP (F): 44AVERAGE STATION PRESSURE:29.355 MINIMUM SEA LEVEL PRESSURE:29.13 TIME OF OCCURRENCE:1255 PEAK WIND SPEED (MPH): 57 PEAK WIND DIR (DEG):310 PEAK WIND TIME (LST):      FASTEST 2MIN SPEED (MPH): 44FASTEST 2MIN DIR (DEG):300 FASTEST 2MIN TIME (LST):     AVERAGE WIND SPEED (MPH):14.8 24 HR AVG TEMP (F): 51DEPART FROM NORMAL:  1  HEATING DEGREE DAYS: 14 COOLING DEGREE DAYS:  0 LATEST DAY MAX TEMP (0700-1900 LST):58  LATEST NIGHT MIN TEMP(1900-0800 LST):49 HOURLY INCREMENTAL PRECIPITATION VALUES (IN):.00 0.00 0.00 0.00 0.00 0.00 0.00 T    0.08 0.01 0.00 0.00 0.03 0.14 T    0.00 0.00 0.00 0.00 0.00 0.00 0.00 0.00 T","SOD  ","6",,,,,,,,,,,,,,,,,,,,,,,,,"0525","1830",,
"72503014732","2020-04-10T00:51:00","FM-15","7",,,,,,,,,,,,,,,,,,,,,,,,,,,,,,,,,,,,,,"29.34","30","43","T",,"+0.03","8","60","29.34","SCT:04 100 OVC:08 130","29.31","10.00","38","270","29","23",,,,,,,,,,,,,,,,,,,,,,,,,,,,,,,,,,,,,"MET15004/10/20 00:51:02 METAR KLGA 100551Z 27020G25KT 10SM SCT100 OVC130 06/M01 A2934 RMK AO2 RAB0455E13 SLP934 P0000 60000 T00611011 10100 20061 58011 (RZ)","FM-15","7",,,,,,,,,,,,,,,,,,,,,,,,,,,,
"72503014732","2020-04-10T01:00:00","FM-12","4",,,,,,,,,,,,,,,,,,,,,,,,,,,,,,,,,,,,,,,"30","43",,,"+0.03","8","60","29.34",,"29.30","9.94","38","270",,"23",,,,,,,,,,,,,,,,,,,,,,,,,,,,,,,,,,,,,"SYN09272503 12966 82720 10061 21011 39922 49934 58011 69901 90551 333 10111 20061 91025 555 91006=","FM-12","4",,,,,,,,,,,,,,,,,,,,,,,,,,,,
"72503014732","2020-04-10T01:51:00","FM-15","7",,,,,,,,,,,,,,,,,,,,,,,,,,,,,,,,,,,,,,"29.33","30","43","0.00",,,,"60","29.33","SCT:04 100 OVC:08 130","29.30","10.00","38","260","28","21",,,,,,,,,,,,,,,,,,,,,,,,,,,,,,,,,,,,,"MET12704/10/20 01:51:02 METAR KLGA 100651Z 26018G24KT 10SM SCT100 OVC130 06/M01 A2933 RMK AO2 PK WND 26026/0552 SLP932 T00611011 (RZ)","FM-15","7",,,,,,,,,,,,,,,,,,,,,,,,,,,,
"72503014732","2020-04-10T02:46:00","FM-16","7",,,,,,,,,,,,,,,,,,,,,,,,,,,,,,,,,,,,,,"29.35","30","41","T","-RA:02 |RA |RA",,,"66",,"BKN:07 27 OVC:08 37","29.32","10.00","37","290",,"17",,,,,,,,,,,,,,,,,,,,,,,,,,,,,,,,,,,,,"MET12304/10/20 02:46:02 SPECI KLGA 100746Z 29015KT 10SM -RA BKN027 OVC037 05/M01 A2935 RMK AO2 PK WND 28034/0733 RAB30 P0000 (RZ)","FM-16","7",,,,,,,,,,,,,,,,,,,,,,,,,,,,
"72503014732","2020-04-10T02:51:00","FM-15","7",,,,,,,,,,,,,,,,,,,,,,,,,,,,,,,,,,,,,,"29.35","32","42","T",,,,"68","29.34","BKN:07 29 OVC:08 37","29.32","10.00","38","290",,"16",,,,,,,,,,,,,,,,,,,,,,,,,,,,,,,,,,,,,"MET13804/10/20 02:51:02 METAR KLGA 100751Z 29014KT 10SM BKN029 OVC037 06/00 A2935 RMK AO2 PK WND 28034/0733 RAB30E51 SLP937 P0000 T00560000 (RZ)","FM-15","7",,,,,,,,,,,,,,,,,,,,,,,,,,,,
"72503014732","2020-04-10T03:11:00","FM-16","7",,,,,,,,,,,,,,,,,,,,,,,,,,,,,,,,,,,,,,"29.37","32","40","T","-RA:02 |RA |RA",,,"73",,"FEW:02 16 SCT:04 25 OVC:08 36","29.34","6.00","37","290","39","16",,,,,,,,,,,,,,,,,,,,,,,,,,,,,,,,,,,,,"MET15804/10/20 03:11:02 SPECI KLGA 100811Z 29014G34KT 6SM -RA FEW016 SCT025 OVC036 04/00 A2937 RMK AO2 PK WND 31034/0805 RAB0759 CIG 028 R22 SW P0000 T00440000 (RZ)","FM-16","7",,,,,,,,,,,,,,,,,,,,,,,,,,,,
"72503014732","2020-04-10T03:51:00","FM-15","7",,,,,,,,,,,,,,,,,,,,,,,,,,,,,,,,,,,,,,"29.37","30","40","0.01",,"-0.04","3","68","29.37","FEW:02 80 SCT:04 110 BKN:07 250","29.34","10.00","36","270","25","18",,,,,,,,,,,,,,,,,,,,,,,,,,,,,,,,,,,,,"MET16304/10/20 03:51:02 METAR KLGA 100851Z 27016G22KT 10SM FEW080 SCT110 BKN250 04/M01 A2937 RMK AO2 PK WND 31034/0805 RAB0759E19 SLP946 P0001 60001 T00441011 53012 (RZ)","FM-15","7",,,,,,,,,,,,,,,,,,,,,,,,,,,,
"72503014732","2020-04-10T04:00:00","FM-12","4",,,,,,,,,,,,,,,,,,,,,,,,,,,,,,,,,,,,,,,"30","40",,,"-0.04","3","68","29.37","74","29.33","9.94","36","270",,"18",,,,,,,,,,,,,,,,,,,,,,,,,,,,,,,,,,,,,"SYN08072503 12866 62716 10044 21011 39932 49946 53012 69937 90851 333 91022 555 91009=","FM-12","4",,,,,,,,,,,,,,,,,,,,,,,,,,,,
"72503014732","2020-04-10T04:51:00","FM-15","7",,,,,,,,,,,,,,,,,,,,,,,,,,,,,,,,,,,,,,"29.36","30","40","0.00",,,,"68","29.36","FEW:02 12 FEW:02 250","29.33","10.00","36","270","28","17",,,,,,,,,,,,,,,,,,,,,,,,,,,,,,,,,,,,,"MET12704/10/20 04:51:02 METAR KLGA 100951Z 27015G24KT 10SM FEW012 FEW250 04/M01 A2936 RMK AO2 PK WND 28027/0857 SLP941 T00441011 (RZ)","FM-15","7",,,,,,,,,,,,,,,,,,,,,,,,,,,,
"72503014732","2020-04-10T05:51:00","FM-15","7",,,,,,,,,,,,,,,,,,,,,,,,,,,,,,,,,,,,,,"29.36","27","41","0.00",,,,"57","29.36","FEW:02 30","29.33","10.00","35","260","29","20",,,,,,,,,,,,,,,,,,,,,,,,,,,,,,,,,,,,,"MET12104/10/20 05:51:02 METAR KLGA 101051Z 26017G25KT 10SM FEW030 05/M03 A2936 RMK AO2 PK WND 27026/1013 SLP943 T00501028 (PAS)","FM-15","7",,,,,,,,,,,,,,,,,,,,,,,,,,,,
"72503014732","2020-04-10T06:51:00","FM-15","7",,,,,,,,,,,,,,,,,,,,,,,,,,,,,,,,,,,,,,"29.37","26","42","0.00",,"+0.00","5","53","29.37","FEW:02 35","29.34","10.00","36","270","30","23",,,,,,,,,,,,,,,,,,,,,,,,,,,,,,,,,,,,,"MET15104/10/20 06:51:02 METAR KLGA 101151Z 27020G26KT 10SM FEW035 06/M03 A2937 RMK AO2 PK WND 25028/1056 SLP945 60001 70027 T00561033 10061 20039 55000 (PAS)","FM-15","7",,,,,,,,,,,,,,,,,,,,,,,,,,,,
"72503014732","2020-04-10T07:00:00","FM-12","4",,,,,,,,,,,,,,,,,,,,,,,,,,,,,,,,,,,,,,,"26","42",,,"+0.00","5","53","29.37","41","29.33","9.94","36","270",,"23",,,,,,,,,,,,,,,,,,,,,,,,,,,,,,,,,,,,,"SYN09872503 12666 22720 10056 21033 39932 49945 55000 69931 91151 333 10144 20039 70069 91026 555 91012=","FM-12","4",,,,,,,,,,,,,,,,,,,,,,,,,,,,
"72503014732","2020-04-10T07:51:00","FM-15","7",,,,,,,,,,,,,,,,,,,,,,,,,,,,,,,,,,,,,,"29.36","24","44","0.00",,,,"45","29.36","SCT:04 50","29.33","10.00","36","280","36","23",,,,,,,,,,,,,,,,,,,,,,,,,,,,,,,,,,,,,"MET12104/10/20 07:51:02 METAR KLGA 101251Z 28020G31KT 10SM SCT050 07/M04 A2936 RMK AO2 PK WND 26033/1214 SLP942 T00671044 (PAS)","FM-15","7",,,,,,,,,,,,,,,,,,,,,,,,,,,,
"72503014732","2020-04-10T08:51:00","FM-15","7",,,,,,,,,,,,,,,,,,,,,,,,,,,,,,,,,,,,,,"29.37","22","44","0.00",,,,"41","29.37","OVC:08 55","29.34","10.00","36","270","39","32",,,,,,,,,,,,,,,,,,,,,,,,,,,,,,,,,,,,,"MET12104/10/20 08:51:02 METAR KLGA 101351Z 27028G34KT 10SM OVC055 07/M06 A2937 RMK AO2 PK WND 28036/1255 SLP947 T00671056 (PAS)","FM-15","7",,,,,,,,,,,,,,,,,,,,,,,,,,,,
"72503014732","2020-04-10T09:51:00","FM-15","7",,,,,,,,,,,,,,,,,,,,,,,,,,,,,,,,,,,,,,"29.38","22","45","T",,"-0.01","3","40","29.38","OVC:08 55","29.35","10.00","36","280","38","20",,,,,,,,,,,,,,,,,,,,,,,,,,,,,,,,,,,,,"MET14804/10/20 09:51:02 METAR KLGA 101451Z 28017G33KT 10SM OVC055 07/M06 A2938 RMK AO2 PK WND 27033/1444 RAB30E47 SLP950 P0000 60000 T00721056 53005 (PAS)","FM-15","7",,,,,,,,,,,,,,,,,,,,,,,,,,,,
"72503014732","2020-04-10T10:00:00","FM-12","4",,,,,,,,,,,,,,,,,,,,,,,,,,,,,,,,,,,,,,,"22","45",,,"-0.01","3","40","29.38","57","29.34","9.94","36","280",,"20",,,,,,,,,,,,,,,,,,,,,,,,,,,,,,,,,,,,,"SYN08072503 12766 82817 10072 21056 39936 49950 53005 69907 91451 333 91033 555 91015=","FM-12","4",,,,,,,,,,,,,,,,,,,,,,,,,,,,
"72503014732","2020-04-10T10:51:00","FM-15","7",,,,,,,,,,,,,,,,,,,,,,,,,,,,,,,,,,,,,,"29.39","22","45","0.00",,,,"40","29.39","OVC:08 60","29.36","10.00","36","290","34","25",,,,,,,,,,,,,,,,,,,,,,,,,,,,,,,,,,,,,"MET12104/10/20 10:51:02 METAR KLGA 101551Z 29022G30KT 10SM OVC060 07/M06 A2939 RMK AO2 PK WND 28031/1527 SLP952 T00721056 (PAS)","FM-15","7",,,,,,,,,,,,,,,,,,,,,,,,,,,,
"72503014732","2020-04-10T11:51:00","FM-15","7",,,,,,,,,,,,,,,,,,,,,,,,,,,,,,,,,,,,,,"29.39","21","47","0.00",,,,"36","29.38","OVC:08 65","29.36","10.00","37","280","36","26",,,,,,,,,,,,,,,,,,,,,,,,,,,,,,,,,,,,,"MET12104/10/20 11:51:02 METAR KLGA 101651Z 28023G31KT 10SM OVC065 08/M06 A2939 RMK AO2 PK WND 29031/1624 SLP950 T00831061 (PAS)","FM-15","7",,,,,,,,,,,,,,,,,,,,,,,,,,,,
"72503014732","2020-04-10T12:51:00","FM-15","7",,,,,,,,,,,,,,,,,,,,,,,,,,,,,,,,,,,,,,"29.40","24","47","T","-RA:02 |RA |RA","-0.01","3","41","29.40","BKN:07 55 OVC:08 75","29.37","10.00","38","300","34","20",,,,,,,,,,,,,,,,,,,,,,,,,,,,,,,,,,,,,"MET16804/10/20 12:51:02 METAR KLGA 101751Z 30017G30KT 10SM -RA BKN055 OVC075 08/M04 A2940 RMK AO2 PK WND 29033/1728 RAB45 SLP955 P0000 60000 T00831044 10089 20056 53005 (PAS)","FM-15","7",,,,,,,,,,,,,,,,,,,,,,,,,,,,
"72503014732","2020-04-10T13:00:00","FM-12","4",,,,,,,,,,,,,,,,,,,,,,,,,,,,,,,,,,,,,,,"24","47",,"||RA","-0.01","3","41","29.40","57","29.36","9.94","38","300",,"20",,,,,,,,,,,,,,,,,,,,,,,,,,,,,,,,,,,,,"SYN09872503 11766 83017 10083 21044 39942 49955 53005 69901 761// 91751 333 10089 20056 91030 555 91018=","FM-12","4",,,,,,,,,,,,,,,,,,,,,,,,,,,,
"72503014732","2020-04-10T13:51:00","FM-15","7",,,,,,,,,,,,,,,,,,,,,,,,,,,,,,,,,,,,,,"29.41","21","49","T",,,,"33","29.41","FEW:02 47 SCT:04 55 BKN:07 70","29.38","10.00","38","280","43","28",,,,,,,,,,,,,,,,,,,,,,,,,,,,,,,,,,,,,"MET15204/10/20 13:51:02 METAR KLGA 101851Z 28024G37KT 10SM FEW047 SCT055 BKN070 09/M06 A2941 RMK AO2 PK WND 28037/1849 RAE03B21E35 SLP959 P0000 T00941061 (WL)","FM-15","7",,,,,,,,,,,,,,,,,,,,,,,,,,,,
"72503014732","2020-04-10T14:51:00","FM-15","7",,,,,,,,,,,,,,,,,,,,,,,,,,,,,,,,,,,,,,"29.45","24","47","T",,,,"41","29.44","SCT:04 60 BKN:07 80 OVC:08 110","29.42","10.00","38","290","43","30",,,,,,,,,,,,,,,,,,,,,,,,,,,,,,,,,,,,,"MET16404/10/20 14:51:02 METAR KLGA 101951Z 29026G37KT 10SM SCT060 BKN080 OVC110 08/M04 A2945 RMK AO2 PK WND 30040/1903 RAB04E13 CIG 060 R22 SW SLP971 P0000 T00831044 (WL)","FM-15","7",,,,,,,,,,,,,,,,,,,,,,,,,,,,
"72503014732","2020-04-10T15:51:00","FM-15","7",,,,,,,,,,,,,,,,,,,,,,,,,,,,,,,,,,,,,,"29.47","25","47","0.00",,"-0.07","3","42","29.47","BKN:07 60 BKN:07 80 BKN:07 250","29.44","10.00","38","300","39","23",,,,,,,,,,,,,,,,,,,,,,,,,,,,,,,,,,,,,"MET14604/10/20 15:51:02 METAR KLGA 102051Z 30020G34KT 10SM BKN060 BKN080 BKN250 08/M04 A2947 RMK AO2 PK WND 31038/2019 SLP980 60000 T00831039 53025 (WL)","FM-15","7",,,,,,,,,,,,,,,,,,,,,,,,,,,,
"72503014732","2020-04-10T16:00:00","FM-12","4",,,,,,,,,,,,,,,,,,,,,,,,,,,,,,,,,,,,,,,"25","47",,,"-0.07","3","42","29.47","57","29.43","9.94","38","300",,"23",,,,,,,,,,,,,,,,,,,,,,,,,,,,,,,,,,,,,"SYN08072503 12766 63020 10083 21039 39966 49980 53025 69907 92051 333 91034 555 91021=","FM-12","4",,,,,,,,,,,,,,,,,,,,,,,,,,,,
"72503014732","2020-04-10T16:51:00","FM-15","7",,,,,,,,,,,,,,,,,,,,,,,,,,,,,,,,,,,,,,"29.51","25","47","0.00",,,,"42","29.51","BKN:07 65 BKN:07 250","29.48","10.00","38","310","44","29",,,,,,,,,,,,,,,,,,,,,,,,,,,,,,,,,,,,,"MET12704/10/20 16:51:02 METAR KLGA 102151Z 31025G38KT 10SM BKN065 BKN250 08/M04 A2951 RMK AO2 PK WND 31038/2121 SLP992 T00831039 (WL)","FM-15","7",,,,,,,,,,,,,,,,,,,,,,,,,,,,
"72503014732","2020-04-10T17:51:00","FM-15","7",,,,,,,,,,,,,,,,,,,,,,,,,,,,,,,,,,,,,,"29.57","26","46","0.00",,,,"46","29.57","BKN:07 65 BKN:07 250","29.54","10.00","38","300","41","31",,,,,,,,,,,,,,,,,,,,,,,,,,,,,,,,,,,,,"MET13404/10/20 17:51:02 METAR KLGA 102251Z 30027G36KT 10SM BKN065 BKN250 08/M03 A2957 RMK AO2 PK WND 30038/2239 PRESRR SLP012 T00781033 (WL)","FM-15","7",,,,,,,,,,,,,,,,,,,,,,,,,,,,
"72503014732","2020-04-10T18:51:00","FM-15","7",,,,,,,,,,,,,,,,,,,,,,,,,,,,,,,,,,,,,,"29.61","26","46","0.00",,"-0.14","3","46","29.61","BKN:07 60","29.58","10.00","38","320","33","18",,,,,,,,,,,,,,,,,,,,,,,,,,,,,,,,,,,,,"MET14404/10/20 18:51:02 METAR KLGA 102351Z 32016G29KT 10SM BKN060 08/M03 A2961 RMK AO2 PK WND 32037/2332 SLP027 60000 T00781033 10094 20072 53047 (WL)","FM-15","7",,,,,,,,,,,,,,,,,,,,,,,,,,,,
"72503014732","2020-04-10T19:00:00","FM-12","4",,,,,,,,,,,,,,,,,,,,,,,,,,,,,,,,,,,,,,,"26","46",,,"-0.14","3","46","29.61","57","29.57","9.94","38","320",,"18",,,,,,,,,,,,,,,,,,,,,,,,,,,,,,,,,,,,,"SYN09272503 12766 63216 10078 21033 30013 40027 53047 69901 92351 333 10094 20039 91029 555 91100=","FM-12","4",,,,,,,,,,,,,,,,,,,,,,,,,,,,
"72503014732","2020-04-10T19:51:00","FM-15","7",,,,,,,,,,,,,,,,,,,,,,,,,,,,,,,,,,,,,,"29.66","28","45","0.00",,,,"52","29.66","BKN:07 60","29.63","10.00","38","300","29","21",,,,,,,,,,,,,,,,,,,,,,,,,,,,,,,,,,,,,"MET11504/10/20 19:51:01 METAR KLGA 110051Z 30018G25KT 10SM BKN060 07/M02 A2966 RMK AO2 PK WND 31031/2352 SLP043 T00721022","FM-15","7",,,,,,,,,,,,,,,,,,,,,,,,,,,,
"72503014732","2020-04-10T20:51:00","FM-15","7",,,,,,,,,,,,,,,,,,,,,,,,,,,,,,,,,,,,,,"29.69","28","45","0.00",,,,"52","29.69","FEW:02 42 BKN:07 80","29.66","10.00","38","290","25","16",,,,,,,,,,,,,,,,,,,,,,,,,,,,,,,,,,,,,"MET12204/10/20 20:51:01 METAR KLGA 110151Z 29014G22KT 10SM FEW042 BKN080 07/M02 A2969 RMK AO2 PK WND 31029/0054 SLP055 T00721022","FM-15","7",,,,,,,,,,,,,,,,,,,,,,,,,,,,
"72503014732","2020-04-10T21:51:00","FM-15","7",,,,,,,,,,,,,,,,,,,,,,,,,,,,,,,,,,,,,,"29.72","28","45","0.00",,"-0.10","1","52","29.71","BKN:07 80","29.69","10.00","38","300",,"10",,,,,,,,,,,,,,,,,,,,,,,,,,,,,,,,,,,,,"MET10004/10/20 21:51:01 METAR KLGA 110251Z 30009KT 10SM BKN080 07/M02 A2972 RMK AO2 SLP062 T00721022 51035","FM-15","7",,,,,,,,,,,,,,,,,,,,,,,,,,,,
"72503014732","2020-04-10T22:00:00","FM-12","4",,,,,,,,,,,,,,,,,,,,,,,,,,,,,,,,,,,,,,,"28","45",,,"-0.10","1","52","29.71","74","29.68","9.94","38","300",,"10",,,,,,,,,,,,,,,,,,,,,,,,,,,,,,,,,,,,,"SYN06472503 32866 63009 10072 21022 30051 40062 51035 90251 555 91103=","FM-12","4",,,,,,,,,,,,,,,,,,,,,,,,,,,,
"72503014732","2020-04-10T22:51:00","FM-15","7",,,,,,,,,,,,,,,,,,,,,,,,,,,,,,,,,,,,,,"29.74","25","45","0.00",,,,"46","29.74","SCT:04 70","29.71","10.00","37","300",,"17",,,,,,,,,,,,,,,,,,,,,,,,,,,,,,,,,,,,,"MET11204/10/20 22:51:02 METAR KLGA 110351Z 30015KT 10SM SCT070 07/M04 A2974 RMK AO2 PK WND 29032/0313 SLP071 T00721039","FM-15","7",,,,,,,,,,,,,,,,,,,,,,,,,,,,
"72503014732","2020-04-10T23:51:00","FM-15","7",,,,,,,,,,,,,,,,,,,,,,,,,,,,,,,,,,,,,,"29.76","24","44","0.00",,,,"45","29.76","SCT:04 50","29.73","10.00","36","290","23","17",,,,,,,,,,,,,,,,,,,,,,,,,,,,,,,,,,,,,"MET12504/10/20 23:51:02 METAR KLGA 110451Z 29015G20KT 10SM SCT050 07/M04 A2976 RMK AO2 PK WND 30029/0403 SLP078 T00671044 400940039","FM-15","7",,,,,,,,,,,,,,,,,,,,,,,,,,,,
"72503014732","2020-04-10T23:59:00","SOD  ","6",,,,,,,,,,,,,,,,"44",,,"29.39",,"21.9","0","-6.7","21","49","39","300","45","0.01","0","0.0","290","37","RA",,,,,,,,,,,,,,,,,,,,,,,,,,,,,,,,,,,,,,,,,,,,,,,,,,,,,,,,"SOD73924 HR PRECIPITATION (IN): 0.01 SNOW DEPTH (IN):0     24 HR SNOWFALL (IN):0.0  24 HR MAX TEMP (F): 4924 HR MIN TEMP (F): 39AVERAGE STATION PRESSURE:29.390 MINIMUM SEA LEVEL PRESSURE:29.33 TIME OF OCCURRENCE:0225 PEAK WIND SPEED (MPH): 45 PEAK WIND DIR (DEG):300 PEAK WIND TIME (LST):      FASTEST 2MIN SPEED (MPH): 37FASTEST 2MIN DIR (DEG):290 FASTEST 2MIN TIME (LST):     AVERAGE WIND SPEED (MPH):21.9 24 HR AVG TEMP (F): 44DEPART FROM NORMAL: -7  HEATING DEGREE DAYS: 21 COOLING DEGREE DAYS:  0 LATEST DAY MAX TEMP (0700-1900 LST):49  LATEST NIGHT MIN TEMP(1900-0800 LST):39 HOURLY INCREMENTAL PRECIPITATION VALUES (IN):    0.00 T    0.01 0.00 0.00 0.00 0.00 0.00 T    0.00 0.00 T    T    T    0.00 0.00 0.00 0.00 0.00 0.00 0.00 0.00 0.00","SOD  ","6",,,,,,,,,,,,,,,,,,,,,,,,,"0523","1831",,
"72503014732","2020-04-11T00:51:00","FM-15","7",,,,,,,,,,,,,,,,,,,,,,,,,,,,,,,,,,,,,,"29.78","23","44","0.00",,"-0.06","1","43","29.78","FEW:02 50","29.75","10.00","36","290","22","15",,,,,,,,,,,,,,,,,,,,,,,,,,,,,,,,,,,,,"MET12004/11/20 00:51:02 METAR KLGA 110551Z 29013G19KT 10SM FEW050 07/M05 A2978 RMK AO2 SLP083 T00671050 10078 20067 51020 (RZ)","FM-15","7",,,,,,,,,,,,,,,,,,,,,,,,,,,,
"72503014732","2020-04-11T01:00:00","FM-12","4",,,,,,,,,,,,,,,,,,,,,,,,,,,,,,,,,,,,,,,"23","44",,,"-0.06","1","43","29.78","57","29.74","9.94","36","290",,"15",,,,,,,,,,,,,,,,,,,,,,,,,,,,,,,,,,,,,"SYN08672503 32766 22913 10067 21050 30071 40083 51020 90551 333 10078 20039 91019 555 91106=","FM-12","4",,,,,,,,,,,,,,,,,,,,,,,,,,,,
"72503014732","2020-04-11T01:51:00","FM-15","7",,,,,,,,,,,,,,,,,,,,,,,,,,,,,,,,,,,,,,"29.79","22","43","0.00",,,,"43","29.78","FEW:02 50","29.76","10.00","35","290","24","14",,,,,,,,,,,,,,,,,,,,,,,,,,,,,,,,,,,,,"MET10204/11/20 01:51:02 METAR KLGA 110651Z 29012G21KT 10SM FEW050 06/M06 A2979 RMK AO2 SLP086 T00611056 (RZ)","FM-15","7",,,,,,,,,,,,,,,,,,,,,,,,,,,,
"72503014732","2020-04-11T02:51:00","FM-15","7",,,,,,,,,,,,,,,,,,,,,,,,,,,,,,,,,,,,,,"29.79","20","42","0.00",,,,"41","29.79","FEW:02 50","29.76","10.00","34","290","24","17",,,,,,,,,,,,,,,,,,,,,,,,,,,,,,,,,,,,,"MET10204/11/20 02:51:02 METAR KLGA 110751Z 29015G21KT 10SM FEW050 06/M07 A2979 RMK AO2 SLP088 T00561067 (RZ)","FM-15","7",,,,,,,,,,,,,,,,,,,,,,,,,,,,
"72503014732","2020-04-11T03:51:00","FM-15","7",,,,,,,,,,,,,,,,,,,,,,,,,,,,,,,,,,,,,,"29.81","19","41","0.00",,"-0.04","3","41","29.81","CLR:00","29.78","10.00","33","290","23","9",,,,,,,,,,,,,,,,,,,,,,,,,,,,,,,,,,,,,"MET10504/11/20 03:51:02 METAR KLGA 110851Z 29008G20KT 10SM CLR 05/M07 A2981 RMK AO2 SLP094 T00501072 53012 (RZ)","FM-15","7",,,,,,,,,,,,,,,,,,,,,,,,,,,,
"72503014732","2020-04-11T04:00:00","FM-12","4",,,,,,,,,,,,,,,,,,,,,,,,,,,,,,,,,,,,,,,"19","41",,,"-0.04","3","41","29.81",,"29.77","9.94","33","290",,"9",,,,,,,,,,,,,,,,,,,,,,,,,,,,,,,,,,,,,"SYN07472503 32966 02908 10050 21072 30081 40094 53012 90851 333 91020 555 91109=","FM-12","4",,,,,,,,,,,,,,,,,,,,,,,,,,,,
"72503014732","2020-04-11T04:51:00","FM-15","7",,,,,,,,,,,,,,,,,,,,,,,,,,,,,,,,,,,,,,"29.84","19","40","0.00",,,,"43","29.84","FEW:02 50","29.81","10.00","33","290",,"16",,,,,,,,,,,,,,,,,,,,,,,,,,,,,,,,,,,,,"MET09904/11/20 04:51:02 METAR KLGA 110951Z 29014KT 10SM FEW050 04/M07 A2984 RMK AO2 SLP104 T00441072 (RZ)","FM-15","7",,,,,,,,,,,,,,,,,,,,,,,,,,,,
"72503014732","2020-04-11T05:51:00","FM-15","7",,,,,,,,,,,,,,,,,,,,,,,,,,,,,,,,,,,,,,"29.87","18","40","0.00",,,,"41","29.87","FEW:02 50","29.84","10.00","32","270","24","16",,,,,,,,,,,,,,,,,,,,,,,,,,,,,,,,,,,,,"MET10204/11/20 05:51:02 METAR KLGA 111051Z 27014G21KT 10SM FEW050 04/M08 A2987 RMK AO2 SLP115 T00441078 (ML)","FM-15","7",,,,,,,,,,,,,,,,,,,,,,,,,,,,
"72503014732","2020-04-11T06:51:00","FM-15","7",,,,,,,,,,,,,,,,,,,,,,,,,,,,,,,,,,,,,,"29.90","17","41","0.00",,"-0.09","3","38","29.90","FEW:02 50 FEW:02 200","29.87","10.00","33","280","24","14",,,,,,,,,,,,,,,,,,,,,,,,,,,,,,,,,,,,,"MET12704/11/20 06:51:02 METAR KLGA 111151Z 28012G21KT 10SM FEW050 FEW200 05/M08 A2990 RMK AO2 SLP125 T00501083 10067 20044 53031 (ML)","FM-15","7",,,,,,,,,,,,,,,,,,,,,,,,,,,,
"72503014732","2020-04-11T07:00:00","FM-12","4",,,,,,,,,,,,,,,,,,,,,,,,,,,,,,,,,,,,,,,"17","41",,,"-0.09","3","38","29.90","57","29.86","9.94","33","280",,"14",,,,,,,,,,,,,,,,,,,,,,,,,,,,,,,,,,,,,"SYN08672503 32766 22812 10050 21083 30112 40125 53031 91151 333 10094 20044 91021 555 91112=","FM-12","4",,,,,,,,,,,,,,,,,,,,,,,,,,,,
"72503014732","2020-04-11T07:51:00","FM-15","7",,,,,,,,,,,,,,,,,,,,,,,,,,,,,,,,,,,,,,"29.91","18","42","0.00",,,,"38","29.91","FEW:02 50 FEW:02 200","29.88","10.00","33","300",,"17",,,,,,,,,,,,,,,,,,,,,,,,,,,,,,,,,,,,,"MET10604/11/20 07:51:02 METAR KLGA 111251Z 30015KT 10SM FEW050 FEW200 06/M08 A2991 RMK AO2 SLP129 T00561078 (ML)","FM-15","7",,,,,,,,,,,,,,,,,,,,,,,,,,,,
"72503014732","2020-04-11T08:51:00","FM-15","7",,,,,,,,,,,,,,,,,,,,,,,,,,,,,,,,,,,,,,"29.91","18","44","0.00",,,,"35","29.91","FEW:02 50 FEW:02 200","29.88","10.00","35","300","23","14",,,,,,,,,,,,,,,,,,,,,,,,,,,,,,,,,,,,,"MET10904/11/20 08:51:02 METAR KLGA 111351Z 30012G20KT 10SM FEW050 FEW200 07/M08 A2991 RMK AO2 SLP128 T00671078 (ML)","FM-15","7",,,,,,,,,,,,,,,,,,,,,,,,,,,,
"72503014732","2020-04-11T09:51:00","FM-15","7",,,,,,,,,,,,,,,,,,,,,,,,,,,,,,,,,,,,,,"29.92","18","46","0.00",,"-0.01","1","32","29.92","FEW:02 60 FEW:02 200","29.89","10.00","36","320","24","20",,,,,,,,,,,,,,,,,,,,,,,,,,,,,,,,,,,,,"MET11504/11/20 09:51:02 METAR KLGA 111451Z 32017G21KT 10SM FEW060 FEW200 08/M08 A2992 RMK AO2 SLP131 T00781078 51005 (ML)","FM-15","7",,,,,,,,,,,,,,,,,,,,,,,,,,,,
"72503014732","2020-04-11T10:00:00","FM-12","4",,,,,,,,,,,,,,,,,,,,,,,,,,,,,,,,,,,,,,,"18","46",,,"-0.01","1","32","29.92","57","29.88","9.94","36","320",,"20",,,,,,,,,,,,,,,,,,,,,,,,,,,,,,,,,,,,,"SYN07472503 32766 23217 10078 21078 30118 40131 51005 91451 333 91021 555 91115=","FM-12","4",,,,,,,,,,,,,,,,,,,,,,,,,,,,
"72503014732","2020-04-11T10:51:00","FM-15","7",,,,,,,,,,,,,,,,,,,,,,,,,,,,,,,,,,,,,,"29.91","16","48","0.00",,,,"28","29.91","FEW:02 70 SCT:04 250","29.88","10.00","36","300","26","16",,,,,,,,,,,,,,,,,,,,,,,,,,,,,,,,,,,,,"MET10904/11/20 10:51:02 METAR KLGA 111551Z 30014G23KT 10SM FEW070 SCT250 09/M09 A2991 RMK AO2 SLP128 T00891089 (ML)","FM-15","7",,,,,,,,,,,,,,,,,,,,,,,,,,,,
"72503014732","2020-04-11T11:51:00","FM-15","7",,,,,,,,,,,,,,,,,,,,,,,,,,,,,,,,,,,,,,"29.89","13","50","0.00",,,,"22","29.89","SCT:04 70","29.86","10.00","37","VRB","25","7",,,,,,,,,,,,,,,,,,,,,,,,,,,,,,,,,,,,,"MET10204/11/20 11:51:02 METAR KLGA 111651Z VRB06G22KT 10SM SCT070 10/M11 A2989 RMK AO2 SLP121 T01001106 (ML)","FM-15","7",,,,,,,,,,,,,,,,,,,,,,,,,,,,
"72503014732","2020-04-11T12:51:00","FM-15","7",,,,,,,,,,,,,,,,,,,,,,,,,,,,,,,,,,,,,,"29.89","14","52","0.00",,"+0.03","6","22","29.88","SCT:04 75","29.86","10.00","38","280","28","14",,,,,,,,,,,,,,,,,,,,,,,,,,,,,,,,,,,,,"MET13804/11/20 12:51:02 METAR KLGA 111751Z 28012G24KT 10SM SCT075 11/M10 A2989 RMK AO2 PK WND 28026/1707 SLP120 T01111100 10111 20050 56011 (ML)","FM-15","7",,,,,,,,,,,,,,,,,,,,,,,,,,,,
"72503014732","2020-04-11T13:00:00","FM-12","4",,,,,,,,,,,,,,,,,,,,,,,,,,,,,,,,,,,,,,,"14","52",,,"+0.03","6","22","29.88","74","29.85","9.94","38","280",,"14",,,,,,,,,,,,,,,,,,,,,,,,,,,,,,,,,,,,,"SYN08672503 32866 42812 10111 21100 30108 40120 56011 91751 333 10111 20050 91024 555 91118=","FM-12","4",,,,,,,,,,,,,,,,,,,,,,,,,,,,
"72503014732","2020-04-11T13:51:00","FM-15","7",,,,,,,,,,,,,,,,,,,,,,,,,,,,,,,,,,,,,,"29.88","16","53","0.00",,,,"23","29.88","SCT:04 75","29.85","10.00","39","250","26","16",,,,,,,,,,,,,,,,,,,,,,,,,,,,,,,,,,,,,"MET10204/11/20 13:51:02 METAR KLGA 111851Z 25014G23KT 10SM SCT075 12/M09 A2988 RMK AO2 SLP118 T01171089 (JG)","FM-15","7",,,,,,,,,,,,,,,,,,,,,,,,,,,,
"72503014732","2020-04-11T14:51:00","FM-15","7",,,,,,,,,,,,,,,,,,,,,,,,,,,,,,,,,,,,,,"29.88","15","54","0.00",,,,"21","29.87","SCT:04 80","29.85","10.00","39","290","25","18",,,,,,,,,,,,,,,,,,,,,,,,,,,,,,,,,,,,,"MET10204/11/20 14:51:02 METAR KLGA 111951Z 29016G22KT 10SM SCT080 12/M09 A2988 RMK AO2 SLP116 T01221094 (JG)","FM-15","7",,,,,,,,,,,,,,,,,,,,,,,,,,,,
"72503014732","2020-04-11T15:51:00","FM-15","7",,,,,,,,,,,,,,,,,,,,,,,,,,,,,,,,,,,,,,"29.88","17","55","0.00",,"+0.00","5","22","29.88","SCT:04 80","29.85","10.00","40","270","25","16",,,,,,,,,,,,,,,,,,,,,,,,,,,,,,,,,,,,,"MET12604/11/20 15:51:02 METAR KLGA 112051Z 27014G22KT 10SM SCT080 13/M08 A2988 RMK AO2 PK WND 27028/2041 SLP118 T01281083 55001 (JG)","FM-15","7",,,,,,,,,,,,,,,,,,,,,,,,,,,,
"72503014732","2020-04-11T16:00:00","FM-12","4",,,,,,,,,,,,,,,,,,,,,,,,,,,,,,,,,,,,,,,"17","55",,,"+0.00","5","22","29.88","74","29.84","9.94","40","270",,"16",,,,,,,,,,,,,,,,,,,,,,,,,,,,,,,,,,,,,"SYN07472503 32866 42714 10128 21083 30105 40118 55001 92051 333 91022 555 91121=","FM-12","4",,,,,,,,,,,,,,,,,,,,,,,,,,,,
"72503014732","2020-04-11T16:51:00","FM-15","7",,,,,,,,,,,,,,,,,,,,,,,,,,,,,,,,,,,,,,"29.90","19","55","0.00",,,,"24","29.90","SCT:04 85","29.87","10.00","41","290",,"20",,,,,,,,,,,,,,,,,,,,,,,,,,,,,,,,,,,,,"MET09904/11/20 16:51:02 METAR KLGA 112151Z 29017KT 10SM SCT085 13/M07 A2990 RMK AO2 SLP125 T01281072 (JG)","FM-15","7",,,,,,,,,,,,,,,,,,,,,,,,,,,,
"72503014732","2020-04-11T17:51:00","FM-15","7",,,,,,,,,,,,,,,,,,,,,,,,,,,,,,,,,,,,,,"29.92","17","54","0.00",,,,"23","29.92","FEW:02 85","29.89","10.00","40","250",,"20",,,,,,,,,,,,,,,,,,,,,,,,,,,,,,,,,,,,,"MET09904/11/20 17:51:02 METAR KLGA 112251Z 25017KT 10SM FEW085 12/M08 A2992 RMK AO2 SLP133 T01221083 (JG)","FM-15","7",,,,,,,,,,,,,,,,,,,,,,,,,,,,
"72503014732","2020-04-11T18:51:00","FM-15","7",,,,,,,,,,,,,,,,,,,,,,,,,,,,,,,,,,,,,,"29.95","18","54","0.00",,"-0.07","3","24","29.95","FEW:02 80","29.92","10.00","40","270",,"10",,,,,,,,,,,,,,,,,,,,,,,,,,,,,,,,,,,,,"MET11704/11/20 18:51:02 METAR KLGA 112351Z 27009KT 10SM FEW080 12/M08 A2995 RMK AO2 SLP142 T01221078 10133 20111 53023 (JG)","FM-15","7",,,,,,,,,,,,,,,,,,,,,,,,,,,,
"72503014732","2020-04-11T19:00:00","FM-12","4",,,,,,,,,,,,,,,,,,,,,,,,,,,,,,,,,,,,,,,"18","54",,,"-0.07","3","24","29.95","74","29.91","9.94","40","270",,"10",,,,,,,,,,,,,,,,,,,,,,,,,,,,,,,,,,,,,"SYN08072503 32866 22709 10122 21078 30129 40142 53023 92351 333 10133 20044 555 91200=","FM-12","4",,,,,,,,,,,,,,,,,,,,,,,,,,,,
"72503014732","2020-04-11T19:51:00","FM-15","7",,,,,,,,,,,,,,,,,,,,,,,,,,,,,,,,,,,,,,"29.99","18","53","0.00",,,,"25","29.99","FEW:02 80","29.96","10.00","40","260",,"10",,,,,,,,,,,,,,,,,,,,,,,,,,,,,,,,,,,,,"MET09404/11/20 19:51:01 METAR KLGA 120051Z 26009KT 10SM FEW080 12/M08 A2999 RMK AO2 SLP155 T01171078","FM-15","7",,,,,,,,,,,,,,,,,,,,,,,,,,,,
"72503014732","2020-04-11T20:51:00","FM-15","7",,,,,,,,,,,,,,,,,,,,,,,,,,,,,,,,,,,,,,"30.02","24","52","0.00",,,,"34","30.02","FEW:02 80","29.99","10.00","41","300",,"11",,,,,,,,,,,,,,,,,,,,,,,,,,,,,,,,,,,,,"MET09404/11/20 20:51:01 METAR KLGA 120151Z 30010KT 10SM FEW080 11/M04 A3002 RMK AO2 SLP165 T01111044","FM-15","7",,,,,,,,,,,,,,,,,,,,,,,,,,,,
"72503014732","2020-04-11T21:51:00","FM-15","7",,,,,,,,,,,,,,,,,,,,,,,,,,,,,,,,,,,,,,"30.04","30","50","0.00",,"-0.09","1","46","30.03","CLR:00","30.01","10.00","41","330",,"5",,,,,,,,,,,,,,,,,,,,,,,,,,,,,,,,,,,,,"MET09704/11/20 21:51:02 METAR KLGA 120251Z 33004KT 10SM CLR 10/M01 A3004 RMK AO2 SLP170 T01001011 51029","FM-15","7",,,,,,,,,,,,,,,,,,,,,,,,,,,,
"72503014732","2020-04-11T22:00:00","FM-12","4",,,,,,,,,,,,,,,,,,,,,,,,,,,,,,,,,,,,,,,"30","50",,,"-0.09","1","46","30.03",,"30.00","9.94","41","330",,"5",,,,,,,,,,,,,,,,,,,,,,,,,,,,,,,,,,,,,"SYN06472503 32966 03304 10100 21011 30159 40170 51029 90251 555 91203=","FM-12","4",,,,,,,,,,,,,,,,,,,,,,,,,,,,
"72503014732","2020-04-11T22:51:00","FM-15","7",,,,,,,,,,,,,,,,,,,,,,,,,,,,,,,,,,,,,,"30.06","18","51","0.00",,,,"27","30.06","CLR:00","30.03","10.00","39","300",,"7",,,,,,,,,,,,,,,,,,,,,,,,,,,,,,,,,,,,,"MET09104/11/20 22:51:02 METAR KLGA 120351Z 30006KT 10SM CLR 11/M08 A3006 RMK AO2 SLP178 T01061078","FM-15","7",,,,,,,,,,,,,,,,,,,,,,,,,,,,
"72503014732","2020-04-11T23:51:00","FM-15","7",,,,,,,,,,,,,,,,,,,,,,,,,,,,,,,,,,,,,,"30.08","23","50","0.00",,,,"35","30.08","CLR:00","30.05","10.00","39","300",,"7",,,,,,,,,,,,,,,,,,,,,,,,,,,,,,,,,,,,,"MET10104/11/20 23:51:02 METAR KLGA 120451Z 30006KT 10SM CLR 10/M05 A3008 RMK AO2 SLP185 T01001050 401330044","FM-15","7",,,,,,,,,,,,,,,,,,,,,,,,,,,,
"72503014732","2020-04-11T23:59:00","SOD  ","6",,,,,,,,,,,,,,,,"48",,,"29.84",,"13.7","0","-3.1","17","56","40","270","33","0.00","0","0.0","260","24",,,,,,,,,,,,,,,,,,,,,,,,,,,,,,,,,,,,,,,,,,,,,,,,,,,,,,,,,"SOD73924 HR PRECIPITATION (IN): 0.00 SNOW DEPTH (IN):0     24 HR SNOWFALL (IN):0.0  24 HR MAX TEMP (F): 5624 HR MIN TEMP (F): 40AVERAGE STATION PRESSURE:29.840 MINIMUM SEA LEVEL PRESSURE:29.76 TIME OF OCCURRENCE:0009 PEAK WIND SPEED (MPH): 33 PEAK WIND DIR (DEG):270 PEAK WIND TIME (LST):      FASTEST 2MIN SPEED (MPH): 24FASTEST 2MIN DIR (DEG):260 FASTEST 2MIN TIME (LST):     AVERAGE WIND SPEED (MPH):13.7 24 HR AVG TEMP (F): 48DEPART FROM NORMAL: -3  HEATING DEGREE DAYS: 17 COOLING DEGREE DAYS:  0 LATEST DAY MAX TEMP (0700-1900 LST):56  LATEST NIGHT MIN TEMP(1900-0800 LST):40 HOURLY INCREMENTAL PRECIPITATION VALUES (IN):.00 0.00 0.00 0.00 0.00 0.00 0.00 0.00 0.00 0.00 0.00 0.00 0.00 0.00 0.00 0.00 0.00 0.00 0.00 0.00 0.00 0.00 0.00 0.00","SOD  ","6",,,,,,,,,,,,,,,,,,,,,,,,,"0522","1832",,
"72503014732","2020-04-12T00:51:00","FM-15","7",,,,,,,,,,,,,,,,,,,,,,,,,,,,,,,,,,,,,,"30.10","25","50","0.00",,"-0.06","1","38","30.09","CLR:00","30.07","10.00","40","330",,"5",,,,,,,,,,,,,,,,,,,,,,,,,,,,,,,,,,,,,"MET11404/12/20 00:51:02 METAR KLGA 120551Z 33004KT 10SM CLR 10/M04 A3010 RMK AO2 SLP191 T01001039 10122 20100 51021 (WL)","FM-15","7",,,,,,,,,,,,,,,,,,,,,,,,,,,,
"72503014732","2020-04-12T01:00:00","FM-12","4",,,,,,,,,,,,,,,,,,,,,,,,,,,,,,,,,,,,,,,"25","50",,,"-0.06","1","38","30.09",,"30.06","9.94","40","330",,"5",,,,,,,,,,,,,,,,,,,,,,,,,,,,,,,,,,,,,"SYN08072503 32966 03304 10100 21039 30179 40191 51021 90551 333 10122 20044 555 91206=","FM-12","4",,,,,,,,,,,,,,,,,,,,,,,,,,,,
"72503014732","2020-04-12T01:51:00","FM-15","7",,,,,,,,,,,,,,,,,,,,,,,,,,,,,,,,,,,,,,"30.10","24","48","0.00",,,,"39","30.10","CLR:00","30.07","10.00","39","010",,"5",,,,,,,,,,,,,,,,,,,,,,,,,,,,,,,,,,,,,"MET09604/12/20 01:51:02 METAR KLGA 120651Z 01004KT 10SM CLR 09/M04 A3010 RMK AO2 SLP192 T00891044 (WL)","FM-15","7",,,,,,,,,,,,,,,,,,,,,,,,,,,,
"72503014732","2020-04-12T02:51:00","FM-15","7",,,,,,,,,,,,,,,,,,,,,,,,,,,,,,,,,,,,,,"30.10","32","46","0.00",,,,"58","30.10","CLR:00","30.07","10.00","40","040",,"7",,,,,,,,,,,,,,,,,,,,,,,,,,,,,,,,,,,,,"MET09504/12/20 02:51:02 METAR KLGA 120751Z 04006KT 10SM CLR 08/00 A3010 RMK AO2 SLP193 T00780000 (WL)","FM-15","7",,,,,,,,,,,,,,,,,,,,,,,,,,,,
"72503014732","2020-04-12T03:51:00","FM-15","7",,,,,,,,,,,,,,,,,,,,,,,,,,,,,,,,,,,,,,"30.14","29","45","0.00",,"-0.04","3","54","30.14","CLR:00","30.11","10.00","38","070",,"3",,,,,,,,,,,,,,,,,,,,,,,,,,,,,,,,,,,,,"MET10204/12/20 03:51:02 METAR KLGA 120851Z 07003KT 10SM CLR 07/M02 A3014 RMK AO2 SLP205 T00721017 53013 (WL)","FM-15","7",,,,,,,,,,,,,,,,,,,,,,,,,,,,
"72503014732","2020-04-12T04:00:00","FM-12","4",,,,,,,,,,,,,,,,,,,,,,,,,,,,,,,,,,,,,,,"29","45",,,"-0.04","3","54","30.14",,"30.10","9.94","38","070",,"3",,,,,,,,,,,,,,,,,,,,,,,,,,,,,,,,,,,,,"SYN06472503 32966 00703 10072 21017 30193 40205 53013 90851 555 91209=","FM-12","4",,,,,,,,,,,,,,,,,,,,,,,,,,,,
"72503014732","2020-04-12T04:51:00","FM-15","7",,,,,,,,,,,,,,,,,,,,,,,,,,,,,,,,,,,,,,"30.16","23","45","0.00",,,,"42","30.16","FEW:02 250","30.13","10.00","37","000",,"0",,,,,,,,,,,,,,,,,,,,,,,,,,,,,,,,,,,,,"MET09904/12/20 04:51:02 METAR KLGA 120951Z 00000KT 10SM FEW250 07/M05 A3016 RMK AO2 SLP212 T00721050 (WL)","FM-15","7",,,,,,,,,,,,,,,,,,,,,,,,,,,,
"72503014732","2020-04-12T05:51:00","FM-15","7",,,,,,,,,,,,,,,,,,,,,,,,,,,,,,,,,,,,,,"30.18","27","44","0.00",,,,"51","30.18","FEW:02 90 FEW:02 120 SCT:04 200","30.15","10.00","37","060",,"3",,,,,,,,,,,,,,,,,,,,,,,,,,,,,,,,,,,,,"MET11404/12/20 05:51:02 METAR KLGA 121051Z 06003KT 10SM FEW090 FEW120 SCT200 07/M03 A3018 RMK AO2 SLP219 T00671028 (ATK)","FM-15","7",,,,,,,,,,,,,,,,,,,,,,,,,,,,
"72503014732","2020-04-12T06:51:00","FM-15","7",,,,,,,,,,,,,,,,,,,,,,,,,,,,,,,,,,,,,,"30.20","28","46","0.00",,"-0.06","1","50","30.19","FEW:02 85 FEW:02 120 FEW:02 180","30.17","10.00","39","080",,"3",,,,,,,,,,,,,,,,,,,,,,,,,,,,,,,,,,,,,"MET13204/12/20 06:51:02 METAR KLGA 121151Z 08003KT 10SM FEW085 FEW120 FEW180 08/M02 A3020 RMK AO2 SLP225 T00781022 10100 20061 51020 (ATK)","FM-15","7",,,,,,,,,,,,,,,,,,,,,,,,,,,,
"72503014732","2020-04-12T07:00:00","FM-12","4",,,,,,,,,,,,,,,,,,,,,,,,,,,,,,,,,,,,,,,"28","46",,,"-0.06","1","50","30.19",,"30.16","9.94","39","080",,"3",,,,,,,,,,,,,,,,,,,,,,,,,,,,,,,,,,,,,"SYN08072503 32966 20803 10078 21022 30213 40225 51020 91151 333 10133 20061 555 91212=","FM-12","4",,,,,,,,,,,,,,,,,,,,,,,,,,,,
"72503014732","2020-04-12T07:51:00","FM-15","7",,,,,,,,,,,,,,,,,,,,,,,,,,,,,,,,,,,,,,"30.21","31","48","0.00",,,,"52","30.20","SCT:04 95 BKN:07 180 BKN:07 250","30.18","10.00","41","070",,"6",,,,,,,,,,,,,,,,,,,,,,,,,,,,,,,,,,,,,"MET11404/12/20 07:51:02 METAR KLGA 121251Z 07005KT 10SM SCT095 BKN180 BKN250 09/M01 A3021 RMK AO2 SLP228 T00891006 (ATK)","FM-15","7",,,,,,,,,,,,,,,,,,,,,,,,,,,,
"72503014732","2020-04-12T08:51:00","FM-15","7",,,,,,,,,,,,,,,,,,,,,,,,,,,,,,,,,,,,,,"30.20","25","55","0.00",,,,"31","30.19","SCT:04 100 BKN:07 180 BKN:07 250","30.17","10.00","43","140",,"10",,,,,,,,,,,,,,,,,,,,,,,,,,,,,,,,,,,,,"MET11404/12/20 08:51:02 METAR KLGA 121351Z 14009KT 10SM SCT100 BKN180 BKN250 13/M04 A3020 RMK AO2 SLP225 T01281039 (ATK)","FM-15","7",,,,,,,,,,,,,,,,,,,,,,,,,,,,
"72503014732","2020-04-12T09:51:00","FM-15","7",,,,,,,,,,,,,,,,,,,,,,,,,,,,,,,,,,,,,,"30.18","23","59","0.00",,"+0.01","8","25","30.18","FEW:02 95 SCT:04 120 BKN:07 190","30.15","10.00","44","170",,"13",,,,,,,,,,,,,,,,,,,,,,,,,,,,,,,,,,,,,"MET12004/12/20 09:51:02 METAR KLGA 121451Z 17011KT 10SM FEW095 SCT120 BKN190 15/M05 A3018 RMK AO2 SLP220 T01501050 58005 (ATK)","FM-15","7",,,,,,,,,,,,,,,,,,,,,,,,,,,,
"72503014732","2020-04-12T10:00:00","FM-12","4",,,,,,,,,,,,,,,,,,,,,,,,,,,,,,,,,,,,,,,"23","59",,,"+0.01","8","25","30.18",,"30.14","9.94","44","170",,"13",,,,,,,,,,,,,,,,,,,,,,,,,,,,,,,,,,,,,"SYN06472503 32966 61711 10150 21050 30206 40220 58005 91451 555 91215=","FM-12","4",,,,,,,,,,,,,,,,,,,,,,,,,,,,
"72503014732","2020-04-12T10:51:00","FM-15","7",,,,,,,,,,,,,,,,,,,,,,,,,,,,,,,,,,,,,,"30.19","24","59","0.00",,,,"26","30.19","FEW:02 95 SCT:04 150 BKN:07 180","30.16","10.00","44","160","25","18",,,,,,,,,,,,,,,,,,,,,,,,,,,,,,,,,,,,,"MET11704/12/20 10:51:02 METAR KLGA 121551Z 16016G22KT 10SM FEW095 SCT150 BKN180 15/M04 A3019 RMK AO2 SLP222 T01501044 (ATK)","FM-15","7",,,,,,,,,,,,,,,,,,,,,,,,,,,,
"72503014732","2020-04-12T11:51:00","FM-15","7",,,,,,,,,,,,,,,,,,,,,,,,,,,,,,,,,,,,,,"30.18","31","57","0.00",,,,"37","30.18","SCT:04 100 BKN:07 140 BKN:07 250","30.15","10.00","45","160","28","15",,,,,,,,,,,,,,,,,,,,,,,,,,,,,,,,,,,,,"MET11704/12/20 11:51:02 METAR KLGA 121651Z 16013G24KT 10SM SCT100 BKN140 BKN250 14/M01 A3018 RMK AO2 SLP219 T01391006 (ATK)","FM-15","7",,,,,,,,,,,,,,,,,,,,,,,,,,,,
"72503014732","2020-04-12T12:51:00","FM-15","7",,,,,,,,,,,,,,,,,,,,,,,,,,,,,,,,,,,,,,"30.15","41","55","0.00",,"+0.03","8","59","30.15","BKN:07 100 BKN:07 150 BKN:07 250","30.12","10.00","48","170",,"15",,,,,,,,,,,,,,,,,,,,,,,,,,,,,,,,,,,,,"MET13104/12/20 12:51:02 METAR KLGA 121751Z 17013KT 10SM BKN100 BKN150 BKN250 13/05 A3015 RMK AO2 SLP211 T01280050 10156 20078 58009 (ATK)","FM-15","7",,,,,,,,,,,,,,,,,,,,,,,,,,,,
"72503014732","2020-04-12T13:00:00","FM-12","4",,,,,,,,,,,,,,,,,,,,,,,,,,,,,,,,,,,,,,,"41","55",,,"+0.03","8","59","30.15",,"30.11","9.94","48","170",,"15",,,,,,,,,,,,,,,,,,,,,,,,,,,,,,,,,,,,,"SYN08072503 32966 61713 10128 20050 30196 40211 58009 91751 333 10156 20078 555 91218=","FM-12","4",,,,,,,,,,,,,,,,,,,,,,,,,,,,
"72503014732","2020-04-12T13:51:00","FM-15","7",,,,,,,,,,,,,,,,,,,,,,,,,,,,,,,,,,,,,,"30.12","43","57","0.00",,,,"60","30.12","BKN:07 110 BKN:07 250","30.09","10.00","50","150",,"15",,,,,,,,,,,,,,,,,,,,,,,,,,,,,,,,,,,,,"MET10504/12/20 13:51:02 METAR KLGA 121851Z 15013KT 10SM BKN110 BKN250 14/06 A3012 RMK AO2 SLP199 T01390061 (JT)","FM-15","7",,,,,,,,,,,,,,,,,,,,,,,,,,,,
"72503014732","2020-04-12T14:51:00","FM-15","7",,,,,,,,,,,,,,,,,,,,,,,,,,,,,,,,,,,,,,"30.12","43","57","0.00",,,,"60","30.11","BKN:07 110 BKN:07 250","30.09","10.00","50","160",,"15",,,,,,,,,,,,,,,,,,,,,,,,,,,,,,,,,,,,,"MET10504/12/20 14:51:02 METAR KLGA 121951Z 16013KT 10SM BKN110 BKN250 14/06 A3012 RMK AO2 SLP198 T01390061 (JT)","FM-15","7",,,,,,,,,,,,,,,,,,,,,,,,,,,,
"72503014732","2020-04-12T15:51:00","FM-15","7",,,,,,,,,,,,,,,,,,,,,,,,,,,,,,,,,,,,,,"30.09","43","59","0.00",,"+0.06","6","56","30.09","SCT:04 110 BKN:07 250","30.06","10.00","51","170","23","15",,,,,,,,,,,,,,,,,,,,,,,,,,,,,,,,,,,,,"MET11404/12/20 15:51:02 METAR KLGA 122051Z 17013G20KT 10SM SCT110 BKN250 15/06 A3009 RMK AO2 SLP190 T01500061 56020 (JT)","FM-15","7",,,,,,,,,,,,,,,,,,,,,,,,,,,,
"72503014732","2020-04-12T16:00:00","FM-12","4",,,,,,,,,,,,,,,,,,,,,,,,,,,,,,,,,,,,,,,"43","59",,,"+0.06","6","56","30.09",,"30.05","9.94","51","170",,"15",,,,,,,,,,,,,,,,,,,,,,,,,,,,,,,,,,,,,"SYN07472503 32966 61713 10150 20061 30176 40190 56020 92051 333 91020 555 91221=","FM-12","4",,,,,,,,,,,,,,,,,,,,,,,,,,,,
"72503014732","2020-04-12T16:51:00","FM-15","7",,,,,,,,,,,,,,,,,,,,,,,,,,,,,,,,,,,,,,"30.09","42","61","0.00",,,,"50","30.09","FEW:02 110 SCT:04 210 BKN:07 250","30.06","10.00","51","160",,"18",,,,,,,,,,,,,,,,,,,,,,,,,,,,,,,,,,,,,"MET11204/12/20 16:51:02 METAR KLGA 122151Z 16016KT 10SM FEW110 SCT210 BKN250 16/06 A3009 RMK AO2 SLP188 T01610056 (JT)","FM-15","7",,,,,,,,,,,,,,,,,,,,,,,,,,,,
"72503014732","2020-04-12T17:51:00","FM-15","7",,,,,,,,,,,,,,,,,,,,,,,,,,,,,,,,,,,,,,"30.07","39","59","0.00",,,,"48","30.07","SCT:04 110 BKN:07 190 BKN:07 250","30.04","10.00","49","180","22","15",,,,,,,,,,,,,,,,,,,,,,,,,,,,,,,,,,,,,"MET11504/12/20 17:51:02 METAR KLGA 122251Z 18013G19KT 10SM SCT110 BKN190 BKN250 15/04 A3007 RMK AO2 SLP182 T01500039 (JT)","FM-15","7",,,,,,,,,,,,,,,,,,,,,,,,,,,,
"72503014732","2020-04-12T18:51:00","FM-15","7",,,,,,,,,,,,,,,,,,,,,,,,,,,,,,,,,,,,,,"30.07","42","56","0.00",,"+0.03","6","60","30.06","BKN:07 140 OVC:08 250","30.04","10.00","49","180","24","16",,,,,,,,,,,,,,,,,,,,,,,,,,,,,,,,,,,,,"MET12604/12/20 18:51:02 METAR KLGA 122351Z 18014G21KT 10SM BKN140 OVC250 13/06 A3007 RMK AO2 SLP181 T01330056 10167 20122 56009 (JT)","FM-15","7",,,,,,,,,,,,,,,,,,,,,,,,,,,,
"72503014732","2020-04-12T19:00:00","FM-12","4",,,,,,,,,,,,,,,,,,,,,,,,,,,,,,,,,,,,,,,"42","56",,,"+0.03","6","60","30.06",,"30.03","9.94","49","180",,"16",,,,,,,,,,,,,,,,,,,,,,,,,,,,,,,,,,,,,"SYN08672503 32966 81814 10133 20056 30169 40181 56009 92351 333 10167 20061 91021 555 91300=","FM-12","4",,,,,,,,,,,,,,,,,,,,,,,,,,,,
"72503014732","2020-04-12T19:51:00","FM-15","7",,,,,,,,,,,,,,,,,,,,,,,,,,,,,,,,,,,,,,"30.11","42","57","0.00",,,,"58","30.11","BKN:07 150 BKN:07 200 OVC:08 250","30.08","10.00","50","180",,"13",,,,,,,,,,,,,,,,,,,,,,,,,,,,,,,,,,,,,"MET10704/12/20 19:51:01 METAR KLGA 130051Z 18011KT 10SM BKN150 BKN200 OVC250 14/06 A3011 RMK AO2 SLP197 T01390056","FM-15","7",,,,,,,,,,,,,,,,,,,,,,,,,,,,
"72503014732","2020-04-12T20:51:00","FM-15","7",,,,,,,,,,,,,,,,,,,,,,,,,,,,,,,,,,,,,,"30.11","43","56","0.00",,,,"62","30.11","OVC:08 130","30.08","10.00","50","160",,"8",,,,,,,,,,,,,,,,,,,,,,,,,,,,,,,,,,,,,"MET09304/12/20 20:51:01 METAR KLGA 130151Z 16007KT 10SM OVC130 13/06 A3011 RMK AO2 SLP197 T01330061","FM-15","7",,,,,,,,,,,,,,,,,,,,,,,,,,,,
"72503014732","2020-04-12T21:51:00","FM-15","7",,,,,,,,,,,,,,,,,,,,,,,,,,,,,,,,,,,,,,"30.10","45","56","0.00",,"-0.03","0","67","30.09","FEW:02 120","30.07","10.00","50","170",,"9",,,,,,,,,,,,,,,,,,,,,,,,,,,,,,,,,,,,,"MET09904/12/20 21:51:01 METAR KLGA 130251Z 17008KT 10SM FEW120 13/07 A3010 RMK AO2 SLP191 T01330072 50011","FM-15","7",,,,,,,,,,,,,,,,,,,,,,,,,,,,
"72503014732","2020-04-12T22:00:00","FM-12","4",,,,,,,,,,,,,,,,,,,,,,,,,,,,,,,,,,,,,,,"45","56",,,"0.03","9","67","30.09",,"30.06","9.94","50","170",,"9",,,,,,,,,,,,,,,,,,,,,,,,,,,,,,,,,,,,,"SYN06472503 32966 21708 10133 20072 30179 40191 50011 90251 555 91303=","FM-12","4",,,,,,,,,,,,,,,,,,,,,,,,,,,,
"72503014732","2020-04-12T22:51:00","FM-15","7",,,,,,,,,,,,,,,,,,,,,,,,,,,,,,,,,,,,,,"30.06","47","56","0.00",,,,"72","30.06","SCT:04 65 OVC:08 110","30.03","10.00","51","180",,"13",,,,,,,,,,,,,,,,,,,,,,,,,,,,,,,,,,,,,"MET10004/12/20 22:51:02 METAR KLGA 130351Z 18011KT 10SM SCT065 OVC110 13/08 A3006 RMK AO2 SLP179 T01330083","FM-15","7",,,,,,,,,,,,,,,,,,,,,,,,,,,,
"72503014732","2020-04-12T23:51:00","FM-15","7",,,,,,,,,,,,,,,,,,,,,,,,,,,,,,,,,,,,,,"30.05","48","55","T","-RA:02 |RA |RA",,,"77","30.04","OVC:08 110","30.02","10.00","51","170","20","13",,,,,,,,,,,,,,,,,,,,,,,,,,,,,,,,,,,,,"MET12204/12/20 23:51:02 METAR KLGA 130451Z 17011G17KT 10SM -RA OVC110 13/09 A3005 RMK AO2 RAB14 SLP174 P0000 T01280089 401670061","FM-15","7",,,,,,,,,,,,,,,,,,,,,,,,,,,,
"72503014732","2020-04-12T23:59:00","SOD  ","6",,,,,,,,,,,,,,,,"53",,,"30.09",,"10.5","0","1.5","12","62","43","180s","27s","T","0","0.0","170","22","RA",,,,,,,,,,,,,,,,,,,,,,,,,,,,,,,,,,,,,,,,,,,,,,,,,,,,,,,,"SOD73624 HR PRECIPITATION (IN):    T SNOW DEPTH (IN):0     24 HR SNOWFALL (IN):0.0  24 HR MAX TEMP (F): 6224 HR MIN TEMP (F): 43AVERAGE STATION PRESSURE:30.090 MINIMUM SEA LEVEL PRESSURE:30.04 TIME OF OCCURRENCE:2358 PEAK WIND SPEED (MPH): 27 PEAK WIND DIR (DEG):180 PEAK WIND TIME (LST):      FASTEST 2MIN SPEED (MPH): 22FASTEST 2MIN DIR (DEG):170 FASTEST 2MIN TIME (LST):     AVERAGE WIND SPEED (MPH):10.5 24 HR AVG TEMP (F): 53DEPART FROM NORMAL:  1  HEATING DEGREE DAYS: 12 COOLING DEGREE DAYS:  0 LATEST DAY MAX TEMP (0700-1900 LST):62  LATEST NIGHT MIN TEMP(1900-0800 LST):43 HOURLY INCREMENTAL PRECIPITATION VALUES (IN):.00 0.00 0.00 0.00 0.00 0.00 0.00 0.00 0.00 0.00 0.00 0.00 0.00 0.00 0.00 0.00 0.00 0.00 0.00 0.00 0.00 0.00 0.00 T","SOD  ","6",,,,,,,,,,,,,,,,,,,,,,,,,"0520","1833",,
"72503014732","2020-04-13T00:51:00","FM-15","7",,,,,,,,,,,,,,,,,,,,,,,,,,,,,,,,,,,,,,"30.03","50","55","0.04s","RA:02 |RA |RA","+0.06","6","83","30.03","OVC:08 80","30.00","7.00","52","180",,"10",,,,,,,,,,,,,,,,,,,,,,,,,,,,,,,,,,,,,"MET13004/13/20 00:51:02 METAR KLGA 130551Z 18009KT 7SM RA OVC080 13/10 A3003 RMK AO2 SLP170 P0003 60003 T01280100 10139 20128 56022 (WL)","FM-15","7",,,,,,,,,,,,,,,,,,,,,,,,,,,,
"72503014732","2020-04-13T01:00:00","FM-12","4",,,,,,,,,,,,,,,,,,,,,,,,,,,,,,,,,,,,,,,"50","55",,"||RA","+0.06","6","83","30.03","74","29.99","6.84","52","180",,"10",,,,,,,,,,,,,,,,,,,,,,,,,,,,,,,,,,,,,"SYN09272503 11861 81809 10128 20100 30156 40170 56022 69981 763// 90551 333 10139 20061 555 91306=","FM-12","4",,,,,,,,,,,,,,,,,,,,,,,,,,,,
"72503014732","2020-04-13T01:51:00","FM-15","7",,,,,,,,,,,,,,,,,,,,,,,,,,,,,,,,,,,,,,"29.98","53","57","0.07","-RA:02 |RA |RA",,,"87","29.98","OVC:08 75","29.95","8.00","55","180","21","13",,,,,,,,,,,,,,,,,,,,,,,,,,,,,,,,,,,,,"MET11004/13/20 01:51:02 METAR KLGA 130651Z 18011G18KT 8SM -RA OVC075 14/12 A2998 RMK AO2 SLP153 P0007 T01390117 (WL)","FM-15","7",,,,,,,,,,,,,,,,,,,,,,,,,,,,
"72503014732","2020-04-13T02:51:00","FM-15","7",,,,,,,,,,,,,,,,,,,,,,,,,,,,,,,,,,,,,,"29.97","50","54","0.06","-RA:02 |RA |RA",,,"87","29.97","FEW:02 15 BKN:07 50 OVC:08 85","29.94","8.00","52","180",,"13",,,,,,,,,,,,,,,,,,,,,,,,,,,,,,,,,,,,,"MET12104/13/20 02:51:02 METAR KLGA 130751Z 18011KT 8SM -RA FEW015 BKN050 OVC085 12/10 A2997 RMK AO2 SLP149 P0007 T01220100 (WL)","FM-15","7",,,,,,,,,,,,,,,,,,,,,,,,,,,,
"72503014732","2020-04-13T03:51:00","FM-15","7",,,,,,,,,,,,,,,,,,,,,,,,,,,,,,,,,,,,,,"29.94","50","53","0.09","RA:02 BR:1 |RA |RA","+0.09","6","89","29.94","SCT:04 21 BKN:07 39 OVC:08 50","29.91","5.00","51","160",,"13",,,,,,,,,,,,,,,,,,,,,,,,,,,,,,,,,,,,,"MET13004/13/20 03:51:01 METAR KLGA 130851Z 16011KT 5SM RA BR SCT021 BKN039 OVC050 12/10 A2994 RMK AO2 SLP138 P0007 60021 T01170100 56032","FM-15","7",,,,,,,,,,,,,,,,,,,,,,,,,,,,
"72503014732","2020-04-13T03:59:00","FM-16","7",,,,,,,,,,,,,,,,,,,,,,,,,,,,,,,,,,,,,,"29.95","50","53","0.02","RA:02 BR:1 |RA |RA",,,"89",,"FEW:02 7 BKN:07 19 OVC:08 49","29.92","5.00","51","180",,"9",,,,,,,,,,,,,,,,,,,,,,,,,,,,,,,,,,,,,"MET11604/13/20 03:59:02 SPECI KLGA 130859Z 18008KT 5SM RA BR FEW007 BKN019 OVC049 12/10 A2995 RMK AO2 P0002 T01170100 (WL)","FM-16","7",,,,,,,,,,,,,,,,,,,,,,,,,,,,
"72503014732","2020-04-13T04:00:00","FM-12","4",,,,,,,,,,,,,,,,,,,,,,,,,,,,,,,,,,,,,,,"50","53",,"||RA","+0.09","6","89","29.94","26","29.90","4.97","51","160",,"13",,,,,,,,,,,,,,,,,,,,,,,,,,,,,,,,,,,,,"SYN08672503 11558 81611 10117 20100 30125 40138 56032 60057 763// 90851 333 96010 555 91309=","FM-12","4",,,,,,,,,,,,,,,,,,,,,,,,,,,,
"72503014732","2020-04-13T04:15:00","FM-16","7",,,,,,,,,,,,,,,,,,,,,,,,,,,,,,,,,,,,,,"29.96","50","53","0.07","+RA:02 BR:1 |RA |RA",,,"89",,"BKN:07 7 BKN:07 19 OVC:08 48","29.93","4.00","51","200",,"7",,,,,,,,,,,,,,,,,,,,,,,,,,,,,,,,,,,,,"MET11704/13/20 04:15:02 SPECI KLGA 130915Z 20006KT 4SM +RA BR BKN007 BKN019 OVC048 12/10 A2996 RMK AO2 P0007 T01170100 (WL)","FM-16","7",,,,,,,,,,,,,,,,,,,,,,,,,,,,
"72503014732","2020-04-13T04:28:00","FM-16","7",,,,,,,,,,,,,,,,,,,,,,,,,,,,,,,,,,,,,,"29.93","50","53","0.13","RA:02 BR:1 |RA |RA",,,"89",,"OVC:08 6","29.90","4.00","51","170",,"7",,,,,,,,,,,,,,,,,,,,,,,,,,,,,,,,,,,,,"MET10204/13/20 04:28:02 SPECI KLGA 130928Z 17006KT 4SM RA BR OVC006 12/10 A2993 RMK AO2 P0013 T01170100 (WL)","FM-16","7",,,,,,,,,,,,,,,,,,,,,,,,,,,,
"72503014732","2020-04-13T04:49:00","FM-16","6",,,,,,,,,,,,,,,,,,,,,,,,,,,,,,,,,,,,,,"29.91","52","54",,"-RA:02 BR:1 |RA |RA",,,"94",,"SCT:04 6 BKN:07 14 OVC:08 40","29.88","4.00","53","180","22","14",,,,,,,,,,,,,,,,,,,,,,,,,,,,,,,,,,,,,"MET11504/13/20 04:49:02 SPECI KLGA 130949Z 18012G19KT 4SM -RA BR SCT006 BKN014 OVC040 12/11 A2991 RMK AO2 P0018 FIBI (WL)","FM-16","6",,,,,,,,,,,,,,,,,,,,,,,,,,,,
"72503014732","2020-04-13T04:51:00","FM-15","7",,,,,,,,,,,,,,,,,,,,,,,,,,,,,,,,,,,,,,"29.91","51","54","0.16","-RA:02 BR:1 |RA |RA",,,"90","29.91","SCT:04 6 BKN:07 14 OVC:08 60","29.88","4.00","52","180","22","11",,,,,,,,,,,,,,,,,,,,,,,,,,,,,,,,,,,,,"MET12704/13/20 04:51:02 METAR KLGA 130951Z 18010G19KT 4SM -RA BR SCT006 BKN014 OVC060 12/11 A2991 RMK AO2 SLP127 P0018 T01220106 (WL)","FM-15","7",,,,,,,,,,,,,,,,,,,,,,,,,,,,
"72503014732","2020-04-13T05:20:00","FM-16","7",,,,,,,,,,,,,,,,,,,,,,,,,,,,,,,,,,,,,,"29.88","50","54","T",,,,"87",,"BKN:07 6 BKN:07 14 OVC:08 55","29.85","10.00","52","170",,"14",,,,,,,,,,,,,,,,,,,,,,,,,,,,,,,,,,,,,"MET12004/13/20 05:20:02 SPECI KLGA 131020Z 17012KT 10SM BKN006 BKN014 OVC055 12/10 A2988 RMK AO2 RAE0957 P0000 T01220100 (PAS)","FM-16","7",,,,,,,,,,,,,,,,,,,,,,,,,,,,
"72503014732","2020-04-13T05:51:00","FM-15","7",,,,,,,,,,,,,,,,,,,,,,,,,,,,,,,,,,,,,,"29.88","51","54","0.05","RA:02 BR:1 |RA |RA",,,"90","29.88","BKN:07 7 BKN:07 20 OVC:08 50","29.85","4.00","52","180",,"9",,,,,,,,,,,,,,,,,,,,,,,,,,,,,,,,,,,,,"MET13504/13/20 05:51:02 METAR KLGA 131051Z 18008KT 4SM RA BR BKN007 BKN020 OVC050 12/11 A2988 RMK AO2 RAE0957B29 SLP119 P0002 T01220106 (PAS)","FM-15","7",,,,,,,,,,,,,,,,,,,,,,,,,,,,
"72503014732","2020-04-13T06:46:00","FM-16","7",,,,,,,,,,,,,,,,,,,,,,,,,,,,,,,,,,,,,,"29.83","52","55","0.16","-RA:02 BR:1 |RA |RA",,,"88",,"OVC:08 6","29.80","5.00","53","170","26","16",,,,,,,,,,,,,,,,,,,,,,,,,,,,,,,,,,,,,"MET09704/13/20 06:46:02 SPECI KLGA 131146Z 17014G23KT 5SM -RA BR OVC006 13/11 A2983 RMK AO2 P0016 (PAS)","FM-16","7",,,,,,,,,,,,,,,,,,,,,,,,,,,,
"72503014732","2020-04-13T06:51:00","FM-15","7",,,,,,,,,,,,,,,,,,,,,,,,,,,,,,,,,,,,,,"29.83","52","55","0.15","-RA:02 BR:1 |RA |RA","+0.08","6","90","29.82","OVC:08 6","29.80","4.00","53","180","24","16",,,,,,,,,,,,,,,,,,,,,,,,,,,,,,,,,,,,,"MET14404/13/20 06:51:02 METAR KLGA 131151Z 18014G21KT 4SM -RA BR OVC006 13/11 A2983 RMK AO2 SLP099 P0017 60058 70061 T01280111 10144 20117 56027 (PAS)","FM-15","7",,,,,,,,,,,,,,,,,,,,,,,,,,,,
"72503014732","2020-04-13T07:00:00","FM-12","4",,,,,,,,,,,,,,,,,,,,,,,,,,,,,,,,,,,,,,,"52","55",,"||RA","+0.08","6","90","29.82","5","29.79","3.73","53","180",,"16",,,,,,,,,,,,,,,,,,,,,,,,,,,,,,,,,,,,,"SYN11072503 11256 81814 10128 20111 30088 40099 56027 60151 761// 91151 333 10167 20117 70155 91021 96010 555 91312=","FM-12","4",,,,,,,,,,,,,,,,,,,,,,,,,,,,
"72503014732","2020-04-13T07:51:00","FM-15","7",,,,,,,,,,,,,,,,,,,,,,,,,,,,,,,,,,,,,,"29.79","53","57","0.26","RA:02 BR:1 |RA |RA",,,"87","29.79","OVC:08 6","29.76","4.00","55","180","38","25",,,,,,,,,,,,,,,,,,,,,,,,,,,,,,,,,,,,,"MET12504/13/20 07:51:02 METAR KLGA 131251Z 18022G33KT 4SM RA BR OVC006 14/12 A2979 RMK AO2 PK WND 19033/1249 SLP087 P0023 T01390117","FM-15","7",,,,,,,,,,,,,,,,,,,,,,,,,,,,
"72503014732","2020-04-13T08:49:00","FM-16","6",,,,,,,,,,,,,,,,,,,,,,,,,,,,,,,,,,,,,,"29.73","55","57",,"RA:02 BR:1 |RA |RA",,,"94",,"BKN:07 7 BKN:07 14 OVC:08 20","29.70","4.00","56","170","43","28",,,,,,,,,,,,,,,,,,,,,,,,,,,,,,,,,,,,,"MET13304/13/20 08:49:02 SPECI KLGA 131349Z 17024G37KT 4SM RA BR BKN007 BKN014 OVC020 14/13 A2973 RMK AO2 PK WND 18037/1323 P0023 FIBI (PAS)","FM-16","6",,,,,,,,,,,,,,,,,,,,,,,,,,,,
"72503014732","2020-04-13T08:51:00","FM-15","7",,,,,,,,,,,,,,,,,,,,,,,,,,,,,,,,,,,,,,"29.72","55","59","0.22","RA:02 BR:1 |RA |RA",,,"87","29.72","BKN:07 7 BKN:07 14 OVC:08 20","29.69","4.00","57","180","43","28",,,,,,,,,,,,,,,,,,,,,,,,,,,,,,,,,,,,,"MET13904/13/20 08:51:02 METAR KLGA 131351Z 18024G37KT 4SM RA BR BKN007 BKN014 OVC020 15/13 A2972 RMK AO2 PK WND 18037/1323 SLP065 P0024 T01500128","FM-15","7",,,,,,,,,,,,,,,,,,,,,,,,,,,,
"72503014732","2020-04-13T09:04:00","FM-16","7",,,,,,,,,,,,,,,,,,,,,,,,,,,,,,,,,,,,,,"29.71","56","59","0.04","RA:02 BR:1 |RA |RA",,,"90",,"BKN:07 8 OVC:08 12","29.68","2.00","57","170","47","24",,,,,,,,,,,,,,,,,,,,,,,,,,,,,,,,,,,,,"MET13204/13/20 09:04:02 SPECI KLGA 131404Z 17021G41KT 2SM RA BR BKN008 OVC012 15/13 A2971 RMK AO2 PK WND 17041/1358 PRESFR P0004 T01500133","FM-16","7",,,,,,,,,,,,,,,,,,,,,,,,,,,,
"72503014732","2020-04-13T09:24:00","FM-16","7",,,,,,,,,,,,,,,,,,,,,,,,,,,,,,,,,,,,,,"29.70","55","59","0.09","RA:02 BR:1 |RA |RA",,,"87",,"OVC:08 8","29.67","4.00","57","170","48","32",,,,,,,,,,,,,,,,,,,,,,,,,,,,,,,,,,,,,"MET11804/13/20 09:24:02 SPECI KLGA 131424Z 17028G42KT 4SM RA BR OVC008 15/13 A2970 RMK AO2 PK WND 17042/1423 P0009 T01500128","FM-16","7",,,,,,,,,,,,,,,,,,,,,,,,,,,,
"72503014732","2020-04-13T09:49:00","FM-16","7",,,,,,,,,,,,,,,,,,,,,,,,,,,,,,,,,,,,,,"29.67","55","59","0.18","+RA:02 BR:1 |RA |RA",,,"88",,"BKN:07 7 OVC:08 11","29.64","2.00","57","160","45","29",,,,,,,,,,,,,,,,,,,,,,,,,,,,,,,,,,,,,"MET13704/13/20 09:49:02 SPECI KLGA 131449Z 16025G39KT 2SM +RA BR BKN007 OVC011 15/13 A2967 RMK AO2 PK WND 17043/1432 SFC VIS 2 1/2 PRESFR P0018","FM-16","7",,,,,,,,,,,,,,,,,,,,,,,,,,,,
"72503014732","2020-04-13T09:51:00","FM-15","7",,,,,,,,,,,,,,,,,,,,,,,,,,,,,,,,,,,,,,"29.66","55","59","0.21","+RA:02 BR:1 |RA |RA","+0.16","8","87","29.66","BKN:07 7 OVC:08 11","29.63","2.00","57","160","45","31",,,,,,,,,,,,,,,,,,,,,,,,,,,,,,,,,,,,,"MET16604/13/20 09:51:02 METAR KLGA 131451Z 16027G39KT 2SM +RA BR BKN007 OVC011 15/13 A2966 RMK AO2 PK WND 17043/1432 SFC VIS 2 1/2 PRESFR SLP045 P0019 60066 T01500128 58054","FM-15","7",,,,,,,,,,,,,,,,,,,,,,,,,,,,
"72503014732","2020-04-13T10:00:00","FM-12","4",,,,,,,,,,,,,,,,,,,,,,,,,,,,,,,,,,,,,,,"55","59",,"||RA","+0.16","8","87","29.66","8","29.62","1.99","57","160",,"31",,,,,,,,,,,,,,,,,,,,,,,,,,,,,,,,,,,,,"SYN09272503 11332 81627 10150 20128 30030 40045 58054 60177 765// 91451 333 91039 96010 555 91315=","FM-12","4",,,,,,,,,,,,,,,,,,,,,,,,,,,,
"72503014732","2020-04-13T10:16:00","FM-16","7",,,,,,,,,,,,,,,,,,,,,,,,,,,,,,,,,,,,,,"29.65","55","58","0.13","-RA:02 BR:1 |RA |RA",,,"90",,"OVC:08 7","29.62","5.00","56","170","43","28",,,,,,,,,,,,,,,,,,,,,,,,,,,,,,,,,,,,,"MET11904/13/20 10:16:02 SPECI KLGA 131516Z 17024G37KT 5SM -RA BR OVC007 14/13 A2965 RMK AO2 PK WND 16042/1500 P0013 T01440128","FM-16","7",,,,,,,,,,,,,,,,,,,,,,,,,,,,
"72503014732","2020-04-13T10:40:00","FM-16","7",,,,,,,,,,,,,,,,,,,,,,,,,,,,,,,,,,,,,,"29.63","54","57","0.14","-RA:02 BR:1 |RA |RA",,,"90",,"OVC:08 6","29.60","4.00","55","180","41","28",,,,,,,,,,,,,,,,,,,,,,,,,,,,,,,,,,,,,"MET11904/13/20 10:40:02 SPECI KLGA 131540Z 18024G36KT 4SM -RA BR OVC006 14/12 A2963 RMK AO2 PK WND 16042/1500 P0014 T01390122","FM-16","7",,,,,,,,,,,,,,,,,,,,,,,,,,,,
"72503014732","2020-04-13T10:51:00","FM-15","7",,,,,,,,,,,,,,,,,,,,,,,,,,,,,,,,,,,,,,"29.62","54","57","0.11","BR:1 ||",,,"90","29.62","OVC:08 6","29.59","4.00","55","180","38","26",,,,,,,,,,,,,,,,,,,,,,,,,,,,,,,,,,,,,"MET12804/13/20 10:51:02 METAR KLGA 131551Z 18023G33KT 4SM BR OVC006 14/12 A2962 RMK AO2 PK WND 16042/1500 RAE51 SLP030 P0015 T01390122","FM-15","7",,,,,,,,,,,,,,,,,,,,,,,,,,,,
"72503014732","2020-04-13T11:41:00","FM-16","7",,,,,,,,,,,,,,,,,,,,,,,,,,,,,,,,,,,,,,"29.59","54","57","T","-RA:02 BR:1 |RA |RA",,,"90",,"OVC:08 6","29.56","2.00","55","180","43","26",,,,,,,,,,,,,,,,,,,,,,,,,,,,,,,,,,,,,"MET14604/13/20 11:41:02 SPECI KLGA 131641Z 18023G37KT 2SM -RA BR OVC006 14/12 A2959 RMK AO2 PK WND 19041/1628 SFC VIS 2 1/2 RAB08 PRESFR P0000 T01390122","FM-16","7",,,,,,,,,,,,,,,,,,,,,,,,,,,,
"72503014732","2020-04-13T11:51:00","FM-15","7",,,,,,,,,,,,,,,,,,,,,,,,,,,,,,,,,,,,,,"29.58","54","57","0.01","-RA:02 BR:1 |RA |RA",,,"90","29.58","OVC:08 6","29.55","2.00","55","170","41","24",,,,,,,,,,,,,,,,,,,,,,,,,,,,,,,,,,,,,"MET13204/13/20 11:51:02 METAR KLGA 131651Z 17021G36KT 2SM -RA BR OVC006 14/12 A2958 RMK AO2 PK WND 19041/1628 RAB08 SLP018 P0000 T01390122","FM-15","7",,,,,,,,,,,,,,,,,,,,,,,,,,,,
"72503014732","2020-04-13T12:09:00","FM-16","7",,,,,,,,,,,,,,,,,,,,,,,,,,,,,,,,,,,,,,"29.56","54","57","0.02","-RA:02 BR:1 |RA |RA",,,"90",,"BKN:07 7 OVC:08 13","29.53","3.00","55","170","36","25",,,,,,,,,,,,,,,,,,,,,,,,,,,,,,,,,,,,,"MET13604/13/20 12:09:02 SPECI KLGA 131709Z 17022G31KT 3SM -RA BR BKN007 OVC013 14/12 A2956 RMK AO2 PK WND 17031/1709 SFC VIS 3 P0002 T01390122","FM-16","7",,,,,,,,,,,,,,,,,,,,,,,,,,,,
"72503014732","2020-04-13T12:26:00","FM-16","7",,,,,,,,,,,,,,,,,,,,,,,,,,,,,,,,,,,,,,"29.53","56","60","0.03","-RA:02 BR:1 |RA |RA",,,"86",,"SCT:04 8 BKN:07 15 OVC:08 25","29.50","4.00","58","180","41","26",,,,,,,,,,,,,,,,,,,,,,,,,,,,,,,,,,,,,"MET13304/13/20 12:26:02 SPECI KLGA 131726Z 18023G36KT 4SM -RA BR SCT008 BKN015 OVC025 16/13 A2953 RMK AO2 PK WND 18036/1722 P0003 T01560133","FM-16","7",,,,,,,,,,,,,,,,,,,,,,,,,,,,
"72503014732","2020-04-13T12:37:00","FM-16","7",,,,,,,,,,,,,,,,,,,,,,,,,,,,,,,,,,,,,,"29.52","56","59","0.04","-RA:02 BR:1 |RA |RA",,,"90",,"BKN:07 7 BKN:07 15 OVC:08 21","29.49","4.00","57","170","40","25",,,,,,,,,,,,,,,,,,,,,,,,,,,,,,,,,,,,,"MET13304/13/20 12:37:02 SPECI KLGA 131737Z 17022G35KT 4SM -RA BR BKN007 BKN015 OVC021 15/13 A2952 RMK AO2 PK WND 18036/1722 P0004 T01500133","FM-16","7",,,,,,,,,,,,,,,,,,,,,,,,,,,,
"72503014732","2020-04-13T12:51:00","FM-15","7",,,,,,,,,,,,,,,,,,,,,,,,,,,,,,,,,,,,,,"29.53","56","60","0.07","-RA:02 BR:1 |RA |RA","+0.14","8","86","29.53","BKN:07 7 OVC:08 11","29.50","4.00","58","180","44","28",,,,,,,,,,,,,,,,,,,,,,,,,,,,,,,,,,,,,"MET15704/13/20 12:51:02 METAR KLGA 131751Z 18024G38KT 4SM -RA BR BKN007 OVC011 16/13 A2953 RMK AO2 PK WND 18038/1747 SLP999 P0006 60087 T01560133 10156 20128 58046","FM-15","7",,,,,,,,,,,,,,,,,,,,,,,,,,,,
"72503014732","2020-04-13T13:00:00","FM-12","4",,,,,,,,,,,,,,,,,,,,,,,,,,,,,,,,,,,,,,,"56","60",,,,,"86",,"8","29.49","3.73","58","180",,"28",,,,,,,,,,,,,,,,,,,,,,,,,,,,,,,,,,,,,"SYN10372503 11356 81824 10156 20133 39986 4999 58046 60221 761// 91751 333 10156 20122 91038 96010 555 91318=","FM-12","4",,,,,,,,,,,,,,,,,,,,,,,,,,,,
"72503014732","2020-04-13T13:51:00","FM-15","7",,,,,,,,,,,,,,,,,,,,,,,,,,,,,,,,,,,,,,"29.47","54","57","0.12","RA:02 BR:1 |RA |RA",,,"90","29.47","OVC:08 7","29.44","2.00V","55","180","34","23",,,,,,,,,,,,,,,,,,,,,,,,,,,,,,,,,,,,,"MET13304/13/20 13:51:02 METAR KLGA 131851Z 18020G30KT 2SM RA BR OVC007 14/12 A2947 RMK AO2 PK WND 19044/1826 VIS 1V4 SLP981 P0013 T01390122","FM-15","7",,,,,,,,,,,,,,,,,,,,,,,,,,,,
"72503014732","2020-04-13T14:05:00","FM-16","7",,,,,,,,,,,,,,,,,,,,,,,,,,,,,,,,,,,,,,"29.46","54","57","0.02","-RA:02 BR:1 |RA |RA",,,"90",,"OVC:08 6","29.43","2.50","55","180","39","25",,,,,,,,,,,,,,,,,,,,,,,,,,,,,,,,,,,,,"MET12304/13/20 14:05:02 SPECI KLGA 131905Z 18022G34KT 2 1/2SM -RA BR OVC006 14/12 A2946 RMK AO2 PK WND 18034/1905 P0002 T01390122","FM-16","7",,,,,,,,,,,,,,,,,,,,,,,,,,,,
"72503014732","2020-04-13T14:49:00","FM-16","6",,,,,,,,,,,,,,,,,,,,,,,,,,,,,,,,,,,,,,"29.45","54","57",,"-RA:02 BR:1 |RA |RA",,,"88",,"OVC:08 7","29.42","3.00","55","190","37","22",,,,,,,,,,,,,,,,,,,,,,,,,,,,,,,,,,,,,"MET11904/13/20 14:49:02 SPECI KLGA 131949Z 19019G32KT 3SM -RA BR OVC007 14/12 A2945 RMK AO2 PK WND 18034/1905 P0006 FIBI (WL)","FM-16","6",,,,,,,,,,,,,,,,,,,,,,,,,,,,
"72503014732","2020-04-13T14:51:00","FM-15","7",,,,,,,,,,,,,,,,,,,,,,,,,,,,,,,,,,,,,,"29.45","54","58","0.05","-RA:02 BR:1 |RA |RA",,,"87","29.45","OVC:08 7","29.42","3.00","56","190","37","23",,,,,,,,,,,,,,,,,,,,,,,,,,,,,,,,,,,,,"MET12604/13/20 14:51:02 METAR KLGA 131951Z 19020G32KT 3SM -RA BR OVC007 14/12 A2945 RMK AO2 PK WND 18034/1905 SLP973 P0006 T01440122","FM-15","7",,,,,,,,,,,,,,,,,,,,,,,,,,,,
"72503014732","2020-04-13T15:13:00","FM-16","7",,,,,,,,,,,,,,,,,,,,,,,,,,,,,,,,,,,,,,"29.46","55","58","T","BR:1 ||",,,"90",,"OVC:08 6","29.43","5.00","56","190",,"15",,,,,,,,,,,,,,,,,,,,,,,,,,,,,,,,,,,,,"MET11804/13/20 15:13:02 SPECI KLGA 132013Z 19013KT 5SM BR OVC006 14/13 A2946 RMK AO2 PK WND 18029/2002 RAE05 P0000 T01440128","FM-16","7",,,,,,,,,,,,,,,,,,,,,,,,,,,,
"72503014732","2020-04-13T15:48:00","FM-16","7",,,,,,,,,,,,,,,,,,,,,,,,,,,,,,,,,,,,,,"29.45","55","57","T","BR:1 ||",,,"94",,"OVC:08 5","29.42","4.00","56","190","29","18",,,,,,,,,,,,,,,,,,,,,,,,,,,,,,,,,,,,,"MET11804/13/20 15:48:02 SPECI KLGA 132048Z 19016G25KT 4SM BR OVC005 14/13 A2945 RMK AO2 PK WND 18029/2002 RAE05 PRESRR P0000","FM-16","7",,,,,,,,,,,,,,,,,,,,,,,,,,,,
"72503014732","2020-04-13T15:51:00","FM-15","7",,,,,,,,,,,,,,,,,,,,,,,,,,,,,,,,,,,,,,"29.45","55","58","T","BR:1 ||","+0.02","5","90","29.45","OVC:08 5","29.42","4.00","56","190","29","16",,,,,,,,,,,,,,,,,,,,,,,,,,,,,,,,,,,,,"MET14004/13/20 15:51:02 METAR KLGA 132051Z 19014G25KT 4SM BR OVC005 14/13 A2945 RMK AO2 PK WND 18029/2002 RAE05 SLP973 P0000 60019 T01440128 55008","FM-15","7",,,,,,,,,,,,,,,,,,,,,,,,,,,,
"72503014732","2020-04-13T16:00:00","FM-12","4",,,,,,,,,,,,,,,,,,,,,,,,,,,,,,,,,,,,,,,"55","58",,,"+0.02","5","90","29.45","5","29.41","3.73","56","190",,"16",,,,,,,,,,,,,,,,,,,,,,,,,,,,,,,,,,,,,"SYN08672503 11256 81914 10144 20128 39959 49973 55008 60057 710// 92051 333 91025 555 91321=","FM-12","4",,,,,,,,,,,,,,,,,,,,,,,,,,,,
"72503014732","2020-04-13T16:10:00","FM-16","7",,,,,,,,,,,,,,,,,,,,,,,,,,,,,,,,,,,,,,"29.46","57","60",,"BR:1 ||",,,"90",,"BKN:07 6 OVC:08 13","29.43","5.00","58","200","23","14",,,,,,,,,,,,,,,,,,,,,,,,,,,,,,,,,,,,,"MET09804/13/20 16:10:02 SPECI KLGA 132110Z 20012G20KT 5SM BR BKN006 OVC013 16/14 A2946 RMK AO2 T01560139","FM-16","7",,,,,,,,,,,,,,,,,,,,,,,,,,,,
"72503014732","2020-04-13T16:17:00","FM-16","7",,,,,,,,,,,,,,,,,,,,,,,,,,,,,,,,,,,,,,"29.46","57","61",,"BR:1 ||",,,"87",,"BKN:07 8 OVC:08 13","29.43","5.00","59","190",,"11",,,,,,,,,,,,,,,,,,,,,,,,,,,,,,,,,,,,,"MET09504/13/20 16:17:02 SPECI KLGA 132117Z 19010KT 5SM BR BKN008 OVC013 16/14 A2946 RMK AO2 T01610139","FM-16","7",,,,,,,,,,,,,,,,,,,,,,,,,,,,
"72503014732","2020-04-13T16:49:00","FM-16","6",,,,,,,,,,,,,,,,,,,,,,,,,,,,,,,,,,,,,,"29.49","59","63",,,,,"88",,"BKN:07 10 BKN:07 27 OVC:08 43","29.46","7.00","61","190","21","14",,,,,,,,,,,,,,,,,,,,,,,,,,,,,,,,,,,,,"MET11704/13/20 16:49:02 SPECI KLGA 132149Z 19012G18KT 7SM BKN010 BKN027 OVC043 17/15 A2949 RMK AO2 RAB25E49 P0004 FIBI (WL)","FM-16","6",,,,,,,,,,,,,,,,,,,,,,,,,,,,
"72503014732","2020-04-13T16:51:00","FM-15","7",,,,,,,,,,,,,,,,,,,,,,,,,,,,,,,,,,,,,,"29.49","59","62","0.05",,,,"90","29.49","BKN:07 10 BKN:07 27 OVC:08 43","29.46","7.00","60","190","21","15",,,,,,,,,,,,,,,,,,,,,,,,,,,,,,,,,,,,,"MET12404/13/20 16:51:02 METAR KLGA 132151Z 19013G18KT 7SM BKN010 BKN027 OVC043 17/15 A2949 RMK AO2 RAB25E49 SLP985 P0004 T01670150","FM-15","7",,,,,,,,,,,,,,,,,,,,,,,,,,,,
"72503014732","2020-04-13T17:06:00","FM-16","7",,,,,,,,,,,,,,,,,,,,,,,,,,,,,,,,,,,,,,"29.50","60","64","0.01",,,,"87",,"SCT:04 12 BKN:07 39 BKN:07 49","29.47","9.00","62","210","23","17",,,,,,,,,,,,,,,,,,,,,,,,,,,,,,,,,,,,,"MET11904/13/20 17:06:02 SPECI KLGA 132206Z 21015G20KT 9SM SCT012 BKN039 BKN049 18/16 A2950 RMK AO2 RAB2155E06 P0001 T01780156","FM-16","7",,,,,,,,,,,,,,,,,,,,,,,,,,,,
"72503014732","2020-04-13T17:51:00","FM-15","7",,,,,,,,,,,,,,,,,,,,,,,,,,,,,,,,,,,,,,"29.55","59","68","T",,,,"73","29.55","FEW:02 30 SCT:04 43 BKN:07 60","29.52","10.00","63","250","26","18",,,,,,,,,,,,,,,,,,,,,,,,,,,,,,,,,,,,,"MET13404/13/20 17:51:02 METAR KLGA 132251Z 25016G23KT 10SM FEW030 SCT043 BKN060 20/15 A2955 RMK AO2 RAB2155E06 PRESRR SLP008 P0001 T02000150","FM-15","7",,,,,,,,,,,,,,,,,,,,,,,,,,,,
"72503014732","2020-04-13T18:51:00","FM-15","7",,,,,,,,,,,,,,,,,,,,,,,,,,,,,,,,,,,,,,"29.63","55","68","0.00",,"-0.18","3","63","29.63","FEW:02 45 BKN:07 75 BKN:07 150","29.60","10.00","60","260","26","16",,,,,,,,,,,,,,,,,,,,,,,,,,,,,,,,,,,,,"MET15904/13/20 18:51:02 METAR KLGA 132351Z 26014G23KT 10SM FEW045 BKN075 BKN150 20/13 A2963 RMK AO2 PK WND 26033/2332 PRESRR SLP033 60024 T02000128 10206 20139 53061","FM-15","7",,,,,,,,,,,,,,,,,,,,,,,,,,,,
"72503014732","2020-04-13T19:00:00","FM-12","4",,,,,,,,,,,,,,,,,,,,,,,,,,,,,,,,,,,,,,,"55","68",,,"-0.18","3","63","29.63","41","29.59","9.94","60","260",,"16",,,,,,,,,,,,,,,,,,,,,,,,,,,,,,,,,,,,,"SYN09272503 12666 62614 10200 20128 30020 40033 53061 60061 92351 333 10206 20117 91023 555 91400=","FM-12","4",,,,,,,,,,,,,,,,,,,,,,,,,,,,
"72503014732","2020-04-13T19:51:00","FM-15","7",,,,,,,,,,,,,,,,,,,,,,,,,,,,,,,,,,,,,,"29.70","50","68","0.00",,,,"53","29.70","FEW:02 75 FEW:02 150","29.67","10.00","58","250","26","16",,,,,,,,,,,,,,,,,,,,,,,,,,,,,,,,,,,,,"MET12804/13/20 19:51:01 METAR KLGA 140051Z 25014G23KT 10SM FEW075 FEW150 20/10 A2970 RMK AO2 PK WND 26030/0037 PRESRR SLP056 T02000100","FM-15","7",,,,,,,,,,,,,,,,,,,,,,,,,,,,
"72503014732","2020-04-13T20:51:00","FM-15","7",,,,,,,,,,,,,,,,,,,,,,,,,,,,,,,,,,,,,,"29.74","49","67","0.00",,,,"53","29.74","FEW:02 50","29.71","10.00","57","260","26","18",,,,,,,,,,,,,,,,,,,,,,,,,,,,,,,,,,,,,"MET09604/13/20 20:51:01 METAR KLGA 140151Z 26016G23KT 10SM FEW050 19/09 A2974 RMK AO2 SLP072 T01940094","FM-15","7",,,,,,,,,,,,,,,,,,,,,,,,,,,,
"72503014732","2020-04-13T21:51:00","FM-15","7",,,,,,,,,,,,,,,,,,,,,,,,,,,,,,,,,,,,,,"29.80","46","66","0.00",,"-0.17","1","49","29.79","CLR:00","29.77","10.00","55","280","34","24",,,,,,,,,,,,,,,,,,,,,,,,,,,,,,,,,,,,,"MET11704/13/20 21:51:01 METAR KLGA 140251Z 28021G30KT 10SM CLR 19/08 A2980 RMK AO2 PK WND 28030/0251 SLP089 T01890078 51056","FM-15","7",,,,,,,,,,,,,,,,,,,,,,,,,,,,
"72503014732","2020-04-13T22:00:00","FM-12","4",,,,,,,,,,,,,,,,,,,,,,,,,,,,,,,,,,,,,,,"46","66",,,"-0.17","1","49","29.79",,"29.76","9.94","55","280",,"24",,,,,,,,,,,,,,,,,,,,,,,,,,,,,,,,,,,,,"SYN07472503 32966 02821 10189 20078 30078 40089 51056 90251 333 91030 555 91403=","FM-12","4",,,,,,,,,,,,,,,,,,,,,,,,,,,,
"72503014732","2020-04-13T22:51:00","FM-15","7",,,,,,,,,,,,,,,,,,,,,,,,,,,,,,,,,,,,,,"29.85","38","61","0.00",,,,"43","29.85","CLR:00","29.82","10.00","50","290","31","23",,,,,,,,,,,,,,,,,,,,,,,,,,,,,,,,,,,,,"MET11804/13/20 22:51:01 METAR KLGA 140351Z 29020G27KT 10SM CLR 16/03 A2985 RMK AO2 PK WND 28030/0315 PRESRR SLP108 T01610033","FM-15","7",,,,,,,,,,,,,,,,,,,,,,,,,,,,
"72503014732","2020-04-13T23:51:00","FM-15","7",,,,,,,,,,,,,,,,,,,,,,,,,,,,,,,,,,,,,,"29.90","38","57","0.00",,,,"49","29.90","CLR:00","29.87","10.00","48","290","25","16",,,,,,,,,,,,,,,,,,,,,,,,,,,,,,,,,,,,,"MET12104/13/20 23:51:01 METAR KLGA 140451Z 29014G22KT 10SM CLR 14/03 A2990 RMK AO2 PK WND 29030/0352 SLP125 T01390033 402060117","FM-15","7",,,,,,,,,,,,,,,,,,,,,,,,,,,,
"72503014732","2020-04-13T23:59:00","SOD  ","6",,,,,,,,,,,,,,,,"61",,,"29.65",,"19.0","0","9.2","4","69","53","190","50","1.72","0","0.0","160","40","RA BR",,,,,,,,,,,,,,,,,,,,,,,,,,,,,,,,,,,,,,,,,,,,,,,,,,,,,,,,"SOD76024 HR PRECIPITATION (IN): 1.72 SNOW DEPTH (IN):0     24 HR SNOWFALL (IN):0.0  WEATHER(CODE):1  24 HR MAX TEMP (F): 6924 HR MIN TEMP (F): 53AVERAGE STATION PRESSURE(D):29.655 MINIMUM SEA LEVEL PRESSURE:29.38 TIME OF OCCURRENCE:1536 PEAK WIND SPEED (MPH): 50 PEAK WIND DIR (DEG):190 PEAK WIND TIME (LST):      FASTEST 2MIN SPEED (MPH): 40FASTEST 2MIN DIR (DEG):160 FASTEST 2MIN TIME (LST):     AVERAGE WIND SPEED (MPH):19.0 24 HR AVG TEMP (F): 61DEPART FROM NORMAL:  9  HEATING DEGREE DAYS:  4 COOLING DEGREE DAYS:  0 LATEST DAY MAX TEMP (0700-1900 LST): 69 LATEST NIGHT MIN TEMP(1900-0800 LST):53 HOURLY INCREMENTAL PRECIPITATION VALUES (IN):0.04 0.07 0.06 0.09 0.16 0.05 0.15 0.26 0.22 0.21 0.11 0.01 0.07 0.12 0.05T     0.05T     0.00 0.00 0.00 0.00 0.00 0.00","SOD  ","6",,,,,,,,,,,,,,,,,,,,,,,,,"0519","1834",,
"72503014732","2020-04-14T00:51:00","FM-15","7",,,,,,,,,,,,,,,,,,,,,,,,,,,,,,,,,,,,,,"29.92","38","55","0.00",,"-0.13","1","53","29.92","CLR:00","29.89","10.00","47","310",,"16",,,,,,,,,,,,,,,,,,,,,,,,,,,,,,,,,,,,,"MET11304/14/20 00:51:02 METAR KLGA 140551Z 31014KT 10SM CLR 13/03 A2992 RMK AO2 SLP132 T01280033 10206 20128 51043 (RZ)","FM-15","7",,,,,,,,,,,,,,,,,,,,,,,,,,,,
"72503014732","2020-04-14T01:00:00","FM-12","4",,,,,,,,,,,,,,,,,,,,,,,,,,,,,,,,,,,,,,,"38","55",,,"-0.13","1","53","29.92",,"29.88","9.94","47","310",,"16",,,,,,,,,,,,,,,,,,,,,,,,,,,,,,,,,,,,,"SYN08072503 32966 03114 10128 20033 30118 40132 51043 90551 333 10206 20117 555 91406=","FM-12","4",,,,,,,,,,,,,,,,,,,,,,,,,,,,
"72503014732","2020-04-14T01:51:00","FM-15","7",,,,,,,,,,,,,,,,,,,,,,,,,,,,,,,,,,,,,,"29.96","35","52","0.00",,,,"53","29.95","CLR:00","29.93","10.00","44","310",,"21",,,,,,,,,,,,,,,,,,,,,,,,,,,,,,,,,,,,,"MET09504/14/20 01:51:02 METAR KLGA 140651Z 31018KT 10SM CLR 11/02 A2996 RMK AO2 SLP143 T01110017 (RZ)","FM-15","7",,,,,,,,,,,,,,,,,,,,,,,,,,,,
"72503014732","2020-04-14T02:51:00","FM-15","7",,,,,,,,,,,,,,,,,,,,,,,,,,,,,,,,,,,,,,"29.97","33","50","0.00",,,,"52","29.97","SCT:04 250","29.94","10.00","43","310","28","21",,,,,,,,,,,,,,,,,,,,,,,,,,,,,,,,,,,,,"MET11904/14/20 02:51:02 METAR KLGA 140751Z 31018G24KT 10SM SCT250 10/01 A2997 RMK AO2 PK WND 31027/0659 SLP148 T01000006 (RZ)","FM-15","7",,,,,,,,,,,,,,,,,,,,,,,,,,,,
"72503014732","2020-04-14T03:51:00","FM-15","7",,,,,,,,,,,,,,,,,,,,,,,,,,,,,,,,,,,,,,"29.98","32","49","0.00",,"-0.06","1","52","29.97","FEW:02 50 BKN:07 250","29.95","10.00","42","310","28","23",,,,,,,,,,,,,,,,,,,,,,,,,,,,,,,,,,,,,"MET11404/14/20 03:51:02 METAR KLGA 140851Z 31020G24KT 10SM FEW050 BKN250 09/00 A2998 RMK AO2 SLP150 T00940000 51019 (RZ)","FM-15","7",,,,,,,,,,,,,,,,,,,,,,,,,,,,
"72503014732","2020-04-14T04:00:00","FM-12","4",,,,,,,,,,,,,,,,,,,,,,,,,,,,,,,,,,,,,,,"32","49",,,"-0.06","1","52","29.97","57","29.94","9.94","42","310",,"23",,,,,,,,,,,,,,,,,,,,,,,,,,,,,,,,,,,,,"SYN07472503 32766 63120 10094 20000 30139 40150 51019 90851 333 91024 555 91409=","FM-12","4",,,,,,,,,,,,,,,,,,,,,,,,,,,,
"72503014732","2020-04-14T04:51:00","FM-15","7",,,,,,,,,,,,,,,,,,,,,,,,,,,,,,,,,,,,,,"29.99","31","49","0.00",,,,"50","29.99","FEW:02 50 FEW:02 250","29.96","10.00","41","320","26","18",,,,,,,,,,,,,,,,,,,,,,,,,,,,,,,,,,,,,"MET12704/14/20 04:51:02 METAR KLGA 140951Z 32016G23KT 10SM FEW050 FEW250 09/M01 A2999 RMK AO2 PK WND 32027/0859 SLP156 T00941006 (RZ)","FM-15","7",,,,,,,,,,,,,,,,,,,,,,,,,,,,
"72503014732","2020-04-14T05:51:00","FM-15","7",,,,,,,,,,,,,,,,,,,,,,,,,,,,,,,,,,,,,,"30.02","32","48","0.00",,,,"54","30.02","BKN:07 130","29.99","10.00","41","330",,"11",,,,,,,,,,,,,,,,,,,,,,,,,,,,,,,,,,,,,"MET09904/14/20 05:51:02 METAR KLGA 141051Z 33010KT 10SM BKN130 09/00 A3002 RMK AO2 SLP165 T00890000 (PAS)","FM-15","7",,,,,,,,,,,,,,,,,,,,,,,,,,,,
"72503014732","2020-04-14T06:51:00","FM-15","7",,,,,,,,,,,,,,,,,,,,,,,,,,,,,,,,,,,,,,"30.07","27","49","0.00",,"-0.09","3","43","30.06","FEW:02 60 SCT:04 130","30.04","10.00","40","310","28","20",,,,,,,,,,,,,,,,,,,,,,,,,,,,,,,,,,,,,"MET13404/14/20 06:51:02 METAR KLGA 141151Z 31017G24KT 10SM FEW060 SCT130 09/M03 A3007 RMK AO2 SLP180 70111 T00941028 10128 20089 53030 (PAS)","FM-15","7",,,,,,,,,,,,,,,,,,,,,,,,,,,,
"72503014732","2020-04-14T07:00:00","FM-12","4",,,,,,,,,,,,,,,,,,,,,,,,,,,,,,,,,,,,,,,"27","49",,,"-0.09","3","43","30.06","57","30.03","9.94","40","310",,"20",,,,,,,,,,,,,,,,,,,,,,,,,,,,,,,,,,,,,"SYN09272503 32766 43117 10094 21028 30169 40180 53030 91151 333 10206 20089 70282 91024 555 91412=","FM-12","4",,,,,,,,,,,,,,,,,,,,,,,,,,,,
"72503014732","2020-04-14T07:51:00","FM-15","7",,,,,,,,,,,,,,,,,,,,,,,,,,,,,,,,,,,,,,"30.07","27","49","0.00",,,,"43","30.07","SCT:04 130 BKN:07 250","30.04","10.00","40","310",,"14",,,,,,,,,,,,,,,,,,,,,,,,,,,,,,,,,,,,,"MET10704/14/20 07:51:02 METAR KLGA 141251Z 31012KT 10SM SCT130 BKN250 09/M03 A3007 RMK AO2 SLP183 T00941028 (PAS)","FM-15","7",,,,,,,,,,,,,,,,,,,,,,,,,,,,
"72503014732","2020-04-14T08:51:00","FM-15","7",,,,,,,,,,,,,,,,,,,,,,,,,,,,,,,,,,,,,,"30.07","28","50","0.00",,,,"43","30.07","FEW:02 130 BKN:07 250","30.04","10.00","41","310","20","15",,,,,,,,,,,,,,,,,,,,,,,,,,,,,,,,,,,,,"MET11004/14/20 08:51:02 METAR KLGA 141351Z 31013G17KT 10SM FEW130 BKN250 10/M02 A3007 RMK AO2 SLP183 T01001022 (PAS)","FM-15","7",,,,,,,,,,,,,,,,,,,,,,,,,,,,
"72503014732","2020-04-14T09:51:00","FM-15","7",,,,,,,,,,,,,,,,,,,,,,,,,,,,,,,,,,,,,,"30.09","26","50","0.00",,"-0.02","3","39","30.08","FEW:02 120 BKN:07 200","30.06","10.00","40","320",,"9",,,,,,,,,,,,,,,,,,,,,,,,,,,,,,,,,,,,,"MET11304/14/20 09:51:02 METAR KLGA 141451Z 32008KT 10SM FEW120 BKN200 10/M03 A3009 RMK AO2 SLP187 T01001033 53007 (PAS)","FM-15","7",,,,,,,,,,,,,,,,,,,,,,,,,,,,
"72503014732","2020-04-14T10:00:00","FM-12","4",,,,,,,,,,,,,,,,,,,,,,,,,,,,,,,,,,,,,,,"26","50",,,"-0.02","3","39","30.08",,"30.05","9.94","40","320",,"9",,,,,,,,,,,,,,,,,,,,,,,,,,,,,,,,,,,,,"SYN06472503 32966 63208 10100 21033 30176 40187 53007 91451 555 91415=","FM-12","4",,,,,,,,,,,,,,,,,,,,,,,,,,,,
"72503014732","2020-04-14T10:51:00","FM-15","7",,,,,,,,,,,,,,,,,,,,,,,,,,,,,,,,,,,,,,"30.10","25","51","0.00",,,,"36","30.10","BKN:07 120 OVC:08 160","30.07","10.00","40","320",,"10",,,,,,,,,,,,,,,,,,,,,,,,,,,,,,,,,,,,,"MET10704/14/20 10:51:02 METAR KLGA 141551Z 32009KT 10SM BKN120 OVC160 11/M04 A3010 RMK AO2 SLP193 T01061039 (PAS)","FM-15","7",,,,,,,,,,,,,,,,,,,,,,,,,,,,
"72503014732","2020-04-14T11:51:00","FM-15","7",,,,,,,,,,,,,,,,,,,,,,,,,,,,,,,,,,,,,,"30.06","25","53","0.00",,,,"34","30.06","SCT:04 110 BKN:07 150","30.03","10.00","41","310",,"9",,,,,,,,,,,,,,,,,,,,,,,,,,,,,,,,,,,,,"MET10704/14/20 11:51:02 METAR KLGA 141651Z 31008KT 10SM SCT110 BKN150 12/M04 A3006 RMK AO2 SLP179 T01171039 (PAS)","FM-15","7",,,,,,,,,,,,,,,,,,,,,,,,,,,,
"72503014732","2020-04-14T12:51:00","FM-15","7",,,,,,,,,,,,,,,,,,,,,,,,,,,,,,,,,,,,,,"30.04","25","56","0.00",,"+0.04","8","30","30.04","FEW:02 80 BKN:07 120 BKN:07 250","30.01","10.00","43","310",,"8",,,,,,,,,,,,,,,,,,,,,,,,,,,,,,,,,,,,,"MET13204/14/20 12:51:02 METAR KLGA 141751Z 31007KT 10SM FEW080 BKN120 BKN250 13/M04 A3004 RMK AO2 SLP173 T01331039 10133 20094 58014 (PAS)","FM-15","7",,,,,,,,,,,,,,,,,,,,,,,,,,,,
"72503014732","2020-04-14T13:00:00","FM-12","4",,,,,,,,,,,,,,,,,,,,,,,,,,,,,,,,,,,,,,,"25","56",,,"+0.04","8","30","30.04","74","30.00","9.94","43","310",,"8",,,,,,,,,,,,,,,,,,,,,,,,,,,,,,,,,,,,,"SYN08072503 32866 63107 10133 21039 30159 40173 58014 91751 333 10133 20094 555 91418=","FM-12","4",,,,,,,,,,,,,,,,,,,,,,,,,,,,
"72503014732","2020-04-14T13:51:00","FM-15","7",,,,,,,,,,,,,,,,,,,,,,,,,,,,,,,,,,,,,,"30.01","27","57","0.00",,,,"32","30.01","FEW:02 80 BKN:07 130 BKN:07 250","29.98","10.00","44","000",,"0",,,,,,,,,,,,,,,,,,,,,,,,,,,,,,,,,,,,,"MET11304/14/20 13:51:02 METAR KLGA 141851Z 00000KT 10SM FEW080 BKN130 BKN250 14/M03 A3001 RMK AO2 SLP163 T01391028 (WL)","FM-15","7",,,,,,,,,,,,,,,,,,,,,,,,,,,,
"72503014732","2020-04-14T14:51:00","FM-15","7",,,,,,,,,,,,,,,,,,,,,,,,,,,,,,,,,,,,,,"29.99","24","58","0.00",,,,"27","29.99","FEW:02 90 SCT:04 130 BKN:07 250","29.96","10.00","44","280",,"6",,,,,,,,,,,,,,,,,,,,,,,,,,,,,,,,,,,,,"MET11304/14/20 14:51:02 METAR KLGA 141951Z 28005KT 10SM FEW090 SCT130 BKN250 14/M04 A2999 RMK AO2 SLP156 T01441044 (WL)","FM-15","7",,,,,,,,,,,,,,,,,,,,,,,,,,,,
"72503014732","2020-04-14T15:51:00","FM-15","7",,,,,,,,,,,,,,,,,,,,,,,,,,,,,,,,,,,,,,"29.96","25","59","0.00",,"+0.08","7","27","29.96","FEW:02 90 SCT:04 130 BKN:07 250","29.93","10.00","45","290",,"7",,,,,,,,,,,,,,,,,,,,,,,,,,,,,,,,,,,,,"MET11904/14/20 15:51:02 METAR KLGA 142051Z 29006KT 10SM FEW090 SCT130 BKN250 15/M04 A2996 RMK AO2 SLP146 T01501039 57027 (WL)","FM-15","7",,,,,,,,,,,,,,,,,,,,,,,,,,,,
"72503014732","2020-04-14T16:00:00","FM-12","4",,,,,,,,,,,,,,,,,,,,,,,,,,,,,,,,,,,,,,,"25","59",,,"+0.08","7","27","29.96",,"29.92","9.94","44","290",,"7",,,,,,,,,,,,,,,,,,,,,,,,,,,,,,,,,,,,,"SYN06472503 32966 62906 10150 21039 30132 40146 57027 92051 555 91421=","FM-12","4",,,,,,,,,,,,,,,,,,,,,,,,,,,,
"72503014732","2020-04-14T16:51:00","FM-15","7",,,,,,,,,,,,,,,,,,,,,,,,,,,,,,,,,,,,,,"29.94","26","58","0.00",,,,"29","29.94","FEW:02 80 SCT:04 120 BKN:07 250","29.91","10.00","44","230",,"8",,,,,,,,,,,,,,,,,,,,,,,,,,,,,,,,,,,,,"MET12004/14/20 16:51:02 METAR KLGA 142151Z 23007KT 10SM FEW080 SCT120 BKN250 14/M03 A2994 RMK AO2 PRESFR SLP138 T01441033 (WL)","FM-15","7",,,,,,,,,,,,,,,,,,,,,,,,,,,,
"72503014732","2020-04-14T17:51:00","FM-15","7",,,,,,,,,,,,,,,,,,,,,,,,,,,,,,,,,,,,,,"29.99","28","55","0.00",,,,"35","29.98","BKN:07 100","29.96","10.00","43","210",,"14",,,,,,,,,,,,,,,,,,,,,,,,,,,,,,,,,,,,,"MET10604/14/20 17:51:02 METAR KLGA 142251Z 21012KT 10SM BKN100 13/M02 A2999 RMK AO2 PRESRR SLP154 T01281022 (WL)","FM-15","7",,,,,,,,,,,,,,,,,,,,,,,,,,,,
"72503014732","2020-04-14T18:51:00","FM-15","7",,,,,,,,,,,,,,,,,,,,,,,,,,,,,,,,,,,,,,"29.97","28","51","0.00",,"-0.00","3","41","29.96","OVC:08 100","29.94","10.00","41","190",,"14",,,,,,,,,,,,,,,,,,,,,,,,,,,,,,,,,,,,,"MET11704/14/20 18:51:02 METAR KLGA 142351Z 19012KT 10SM OVC100 11/M02 A2997 RMK AO2 SLP147 T01061022 10156 20106 53001 (WL)","FM-15","7",,,,,,,,,,,,,,,,,,,,,,,,,,,,
"72503014732","2020-04-14T19:00:00","FM-12","4",,,,,,,,,,,,,,,,,,,,,,,,,,,,,,,,,,,,,,,"28","51",,,"-0.00","3","41","29.96",,"29.93","9.94","41","190",,"14",,,,,,,,,,,,,,,,,,,,,,,,,,,,,,,,,,,,,"SYN08072503 32966 81912 10106 21022 30135 40147 53001 92351 333 10156 20089 555 91500=","FM-12","4",,,,,,,,,,,,,,,,,,,,,,,,,,,,
"72503014732","2020-04-14T19:51:00","FM-15","7",,,,,,,,,,,,,,,,,,,,,,,,,,,,,,,,,,,,,,"29.99","34","51","0.00",,,,"52","29.99","OVC:08 90","29.96","10.00","43","190",,"10",,,,,,,,,,,,,,,,,,,,,,,,,,,,,,,,,,,,,"MET09304/14/20 19:51:01 METAR KLGA 150051Z 19009KT 10SM OVC090 11/01 A2999 RMK AO2 SLP157 T01060011","FM-15","7",,,,,,,,,,,,,,,,,,,,,,,,,,,,
"72503014732","2020-04-14T20:51:00","FM-15","7",,,,,,,,,,,,,,,,,,,,,,,,,,,,,,,,,,,,,,"30.00","37","51","0.00",,,,"59","29.99","BKN:07 80 OVC:08 90","29.97","10.00","45","180",,"10",,,,,,,,,,,,,,,,,,,,,,,,,,,,,,,,,,,,,"MET10004/14/20 20:51:01 METAR KLGA 150151Z 18009KT 10SM BKN080 OVC090 11/03 A3000 RMK AO2 SLP157 T01060028","FM-15","7",,,,,,,,,,,,,,,,,,,,,,,,,,,,
"72503014732","2020-04-14T21:51:00","FM-15","7",,,,,,,,,,,,,,,,,,,,,,,,,,,,,,,,,,,,,,"29.98","35","52","0.00",,"-0.01","0","53","29.98","SCT:04 60 SCT:04 90 BKN:07 130","29.95","10.00","44","200",,"7",,,,,,,,,,,,,,,,,,,,,,,,,,,,,,,,,,,,,"MET11304/14/20 21:51:01 METAR KLGA 150251Z 20006KT 10SM SCT060 SCT090 BKN130 11/02 A2998 RMK AO2 SLP151 T01110017 50003","FM-15","7",,,,,,,,,,,,,,,,,,,,,,,,,,,,
"72503014732","2020-04-14T22:00:00","FM-12","4",,,,,,,,,,,,,,,,,,,,,,,,,,,,,,,,,,,,,,,"35","52",,,"0.01","9","53","29.98","57","29.94","9.94","44","200",,"7",,,,,,,,,,,,,,,,,,,,,,,,,,,,,,,,,,,,,"SYN06472503 32766 82006 10111 20017 30139 40151 50003 90251 555 91503=","FM-12","4",,,,,,,,,,,,,,,,,,,,,,,,,,,,
"72503014732","2020-04-14T22:51:00","FM-15","7",,,,,,,,,,,,,,,,,,,,,,,,,,,,,,,,,,,,,,"29.99","32","51","0.00",,,,"48","29.99","FEW:02 42 OVC:08 70","29.96","10.00","43","290",,"17",,,,,,,,,,,,,,,,,,,,,,,,,,,,,,,,,,,,,"MET10004/14/20 22:51:01 METAR KLGA 150351Z 29015KT 10SM FEW042 OVC070 11/00 A2999 RMK AO2 SLP156 T01060000","FM-15","7",,,,,,,,,,,,,,,,,,,,,,,,,,,,
"72503014732","2020-04-14T23:51:00","FM-15","7",,,,,,,,,,,,,,,,,,,,,,,,,,,,,,,,,,,,,,"29.99","32","50","T",,,,"50","29.99","BKN:07 60 OVC:08 90","29.96","10.00","42","290",,"13",,,,,,,,,,,,,,,,,,,,,,,,,,,,,,,,,,,,,"MET11004/14/20 23:51:01 METAR KLGA 150451Z 29011KT 10SM BKN060 OVC090 10/00 A2999 RMK AO2 SLP155 T01000000 401560089","FM-15","7",,,,,,,,,,,,,,,,,,,,,,,,,,,,
"72503014732","2020-04-14T23:59:00","SOD  ","6",,,,,,,,,,,,,,,,"54",,,"29.96",,"12.6","0","1.8","11","60","48","320","31","Ts","0","0.0","310","25",,,,,,,,,,,,,,,,,,,,,,,,,,,,,,,,,,,,,,,,,,,,,,,,,,,,,,,,,"SOD73624 HR PRECIPITATION (IN):    T SNOW DEPTH (IN):0     24 HR SNOWFALL (IN):0.0  24 HR MAX TEMP (F): 6024 HR MIN TEMP (F): 48AVERAGE STATION PRESSURE:29.960 MINIMUM SEA LEVEL PRESSURE:29.90 TIME OF OCCURRENCE:0031 PEAK WIND SPEED (MPH): 31 PEAK WIND DIR (DEG):320 PEAK WIND TIME (LST):      FASTEST 2MIN SPEED (MPH): 25FASTEST 2MIN DIR (DEG):310 FASTEST 2MIN TIME (LST):     AVERAGE WIND SPEED (MPH):12.6 24 HR AVG TEMP (F): 54DEPART FROM NORMAL:  2  HEATING DEGREE DAYS: 11 COOLING DEGREE DAYS:  0 LATEST DAY MAX TEMP (0700-1900 LST):60  LATEST NIGHT MIN TEMP(1900-0800 LST):48 HOURLY INCREMENTAL PRECIPITATION VALUES (IN):.00 0.00 0.00 0.00 0.00 0.00 0.00 0.00 0.00 0.00 0.00 0.00 0.00 0.00 0.00 0.00 0.00 0.00 0.00 0.00 0.00 0.00 0.00 T","SOD  ","6",,,,,,,,,,,,,,,,,,,,,,,,,"0517","1835",,
"72503014732","2020-04-15T00:51:00","FM-15","7",,,,,,,,,,,,,,,,,,,,,,,,,,,,,,,,,,,,,,"29.97","33","48","T","-RA:02 |RA |RA","+0.01","8","56","29.96","FEW:02 38 BKN:07 50 OVC:08 70","29.94","10.00","41","290","24","14",,,,,,,,,,,,,,,,,,,,,,,,,,,,,,,,,,,,,"MET15704/15/20 00:51:02 METAR KLGA 150551Z 29012G21KT 10SM -RA FEW038 BKN050 OVC070 09/01 A2997 RMK AO2 RAB0453 SLP147 P0000 60000 T00890006 10111 20089 58004 (RZ)","FM-15","7",,,,,,,,,,,,,,,,,,,,,,,,,,,,
"72503014732","2020-04-15T01:00:00","FM-12","4",,,,,,,,,,,,,,,,,,,,,,,,,,,,,,,,,,,,,,,"33","48",,"||RA","+0.01","8","56","29.96","41","29.93","9.94","41","290",,"14",,,,,,,,,,,,,,,,,,,,,,,,,,,,,,,,,,,,,"SYN09872503 11666 82912 10089 20006 30135 40147 58004 69901 761// 90551 333 10128 20089 91021 555 91506=","FM-12","4",,,,,,,,,,,,,,,,,,,,,,,,,,,,
"72503014732","2020-04-15T01:51:00","FM-15","7",,,,,,,,,,,,,,,,,,,,,,,,,,,,,,,,,,,,,,"29.96","32","47","T",,,,"56","29.96","SCT:04 55 BKN:07 70 OVC:08 95","29.93","10.00","41","290","26","15",,,,,,,,,,,,,,,,,,,,,,,,,,,,,,,,,,,,,"MET12704/15/20 01:51:02 METAR KLGA 150651Z 29013G23KT 10SM SCT055 BKN070 OVC095 08/00 A2996 RMK AO2 RAE16 SLP146 P0000 T00830000 (RZ)","FM-15","7",,,,,,,,,,,,,,,,,,,,,,,,,,,,
"72503014732","2020-04-15T02:39:00","FM-16","7",,,,,,,,,,,,,,,,,,,,,,,,,,,,,,,,,,,,,,"29.97","33","44","T","-RA:02 |RA |RA",,,"65",,"BKN:07 26 OVC:08 31","29.94","10.00","39","300","29","16",,,,,,,,,,,,,,,,,,,,,,,,,,,,,,,,,,,,,"MET11704/15/20 02:39:02 SPECI KLGA 150739Z 30014G25KT 10SM -RA BKN026 OVC031 07/01 A2997 RMK AO2 RAB17 P0000 T00670006 (RZ)","FM-16","7",,,,,,,,,,,,,,,,,,,,,,,,,,,,
"72503014732","2020-04-15T02:51:00","FM-15","7",,,,,,,,,,,,,,,,,,,,,,,,,,,,,,,,,,,,,,"29.97","33","44","T",,,,"65","29.97","BKN:07 26 BKN:07 31 OVC:08 50","29.94","10.00","39","310",,"14",,,,,,,,,,,,,,,,,,,,,,,,,,,,,,,,,,,,,"MET12704/15/20 02:51:02 METAR KLGA 150751Z 31012KT 10SM BKN026 BKN031 OVC050 07/01 A2997 RMK AO2 RAB17E51 SLP148 P0000 T00670006 (RZ)","FM-15","7",,,,,,,,,,,,,,,,,,,,,,,,,,,,
"72503014732","2020-04-15T03:28:00","FM-16","7",,,,,,,,,,,,,,,,,,,,,,,,,,,,,,,,,,,,,,"29.96","32","45",,,,,"61",,"FEW:02 26 OVC:08 60","29.93","10.00","40","310",,"10",,,,,,,,,,,,,,,,,,,,,,,,,,,,,,,,,,,,,"MET09804/15/20 03:28:02 SPECI KLGA 150828Z 31009KT 10SM FEW026 OVC060 07/00 A2996 RMK AO2 T00720000 (RZ)","FM-16","7",,,,,,,,,,,,,,,,,,,,,,,,,,,,
"72503014732","2020-04-15T03:51:00","FM-15","7",,,,,,,,,,,,,,,,,,,,,,,,,,,,,,,,,,,,,,"29.96","32","45","0.00",,"+0.00","8","61","29.96","OVC:08 60","29.93","10.00","40","320",,"11",,,,,,,,,,,,,,,,,,,,,,,,,,,,,,,,,,,,,"MET11004/15/20 03:51:02 METAR KLGA 150851Z 32010KT 10SM OVC060 07/00 A2996 RMK AO2 SLP146 60000 T00720000 58001 (RZ)","FM-15","7",,,,,,,,,,,,,,,,,,,,,,,,,,,,
"72503014732","2020-04-15T04:00:00","FM-12","4",,,,,,,,,,,,,,,,,,,,,,,,,,,,,,,,,,,,,,,"32","45",,,"+0.00","8","61","29.96","57","29.92","9.94","40","320",,"11",,,,,,,,,,,,,,,,,,,,,,,,,,,,,,,,,,,,,"SYN07072503 12766 83210 10072 20000 30132 40146 58001 69907 90851 555 91509=","FM-12","4",,,,,,,,,,,,,,,,,,,,,,,,,,,,
"72503014732","2020-04-15T04:51:00","FM-15","7",,,,,,,,,,,,,,,,,,,,,,,,,,,,,,,,,,,,,,"29.96","31","44","0.00",,,,"60","29.96","SCT:04 60 BKN:07 95 OVC:08 110","29.93","10.00","39","310",,"13",,,,,,,,,,,,,,,,,,,,,,,,,,,,,,,,,,,,,"MET11304/15/20 04:51:02 METAR KLGA 150951Z 31011KT 10SM SCT060 BKN095 OVC110 07/M01 A2996 RMK AO2 SLP146 T00671006 (RZ)","FM-15","7",,,,,,,,,,,,,,,,,,,,,,,,,,,,
"72503014732","2020-04-15T05:51:00","FM-15","7",,,,,,,,,,,,,,,,,,,,,,,,,,,,,,,,,,,,,,"29.98","27","44","0.00",,,,"51","29.98","FEW:02 32 BKN:07 120","29.95","10.00","37","320","23","16",,,,,,,,,,,,,,,,,,,,,,,,,,,,,,,,,,,,,"MET11004/15/20 05:51:02 METAR KLGA 151051Z 32014G20KT 10SM FEW032 BKN120 07/M03 A2998 RMK AO2 SLP151 T00671028 (PAS)","FM-15","7",,,,,,,,,,,,,,,,,,,,,,,,,,,,
"72503014732","2020-04-15T06:51:00","FM-15","7",,,,,,,,,,,,,,,,,,,,,,,,,,,,,,,,,,,,,,"29.99","25","43","0.00",,"-0.02","3","49","29.98","FEW:02 33 BKN:07 110","29.96","10.00","36","330",,"13",,,,,,,,,,,,,,,,,,,,,,,,,,,,,,,,,,,,,"MET13104/15/20 06:51:02 METAR KLGA 151151Z 33011KT 10SM FEW033 BKN110 06/M04 A2999 RMK AO2 SLP154 60000 T00611039 10089 20061 53007 (PAS)","FM-15","7",,,,,,,,,,,,,,,,,,,,,,,,,,,,
"72503014732","2020-04-15T07:00:00","FM-12","4",,,,,,,,,,,,,,,,,,,,,,,,,,,,,,,,,,,,,,,"25","43",,,"-0.02","3","49","29.98","26","29.95","9.94","36","330",,"13",,,,,,,,,,,,,,,,,,,,,,,,,,,,,,,,,,,,,"SYN08672503 12566 63311 10061 21039 30142 40154 53007 69901 91151 333 10156 20061 555 91512=","FM-12","4",,,,,,,,,,,,,,,,,,,,,,,,,,,,
"72503014732","2020-04-15T07:51:00","FM-15","7",,,,,,,,,,,,,,,,,,,,,,,,,,,,,,,,,,,,,,"29.98","26","43","0.00",,,,"51","29.98","FEW:02 32 BKN:07 130","29.95","10.00","36","340",,"13",,,,,,,,,,,,,,,,,,,,,,,,,,,,,,,,,,,,,"MET10704/15/20 07:51:02 METAR KLGA 151251Z 34011KT 10SM FEW032 BKN130 06/M03 A2998 RMK AO2 SLP151 T00611033 (PAS)","FM-15","7",,,,,,,,,,,,,,,,,,,,,,,,,,,,
"72503014732","2020-04-15T08:51:00","FM-15","7",,,,,,,,,,,,,,,,,,,,,,,,,,,,,,,,,,,,,,"29.98","25","44","0.00",,,,"47","29.98","FEW:02 34 BKN:07 150","29.95","10.00","37","320",,"14",,,,,,,,,,,,,,,,,,,,,,,,,,,,,,,,,,,,,"MET10704/15/20 08:51:02 METAR KLGA 151351Z 32012KT 10SM FEW034 BKN150 07/M04 A2998 RMK AO2 SLP152 T00671039 (PAS)","FM-15","7",,,,,,,,,,,,,,,,,,,,,,,,,,,,
"72503014732","2020-04-15T09:51:00","FM-15","7",,,,,,,,,,,,,,,,,,,,,,,,,,,,,,,,,,,,,,"29.97","19","46","0.00",,"+0.01","8","34","29.97","FEW:02 35 SCT:04 150","29.94","10.00","36","340",,"11",,,,,,,,,,,,,,,,,,,,,,,,,,,,,,,,,,,,,"MET11304/15/20 09:51:02 METAR KLGA 151451Z 34010KT 10SM FEW035 SCT150 08/M07 A2997 RMK AO2 SLP149 T00781072 58005 (PAS)","FM-15","7",,,,,,,,,,,,,,,,,,,,,,,,,,,,
"72503014732","2020-04-15T10:00:00","FM-12","4",,,,,,,,,,,,,,,,,,,,,,,,,,,,,,,,,,,,,,,"19","46",,,"+0.01","8","34","29.97","41","29.93","9.94","36","340",,"11",,,,,,,,,,,,,,,,,,,,,,,,,,,,,,,,,,,,,"SYN06472503 32666 43410 10078 21072 30135 40149 58005 91451 555 91515=","FM-12","4",,,,,,,,,,,,,,,,,,,,,,,,,,,,
"72503014732","2020-04-15T10:51:00","FM-15","7",,,,,,,,,,,,,,,,,,,,,,,,,,,,,,,,,,,,,,"29.95","18","48","0.00",,,,"30","29.95","FEW:02 42 FEW:02 150","29.92","10.00","37","VRB",,"6",,,,,,,,,,,,,,,,,,,,,,,,,,,,,,,,,,,,,"MET10704/15/20 10:51:02 METAR KLGA 151551Z VRB05KT 10SM FEW042 FEW150 09/M08 A2995 RMK AO2 SLP142 T00891078 (PAS)","FM-15","7",,,,,,,,,,,,,,,,,,,,,,,,,,,,
"72503014732","2020-04-15T11:51:00","FM-15","7",,,,,,,,,,,,,,,,,,,,,,,,,,,,,,,,,,,,,,"29.93","13","50","0.00",,,,"22","29.93","FEW:02 50 FEW:02 150","29.90","10.00","37","290","21","15",,,,,,,,,,,,,,,,,,,,,,,,,,,,,,,,,,,,,"MET11004/15/20 11:51:02 METAR KLGA 151651Z 29013G18KT 10SM FEW050 FEW150 10/M11 A2993 RMK AO2 SLP135 T01001106 (PAS)","FM-15","7",,,,,,,,,,,,,,,,,,,,,,,,,,,,
"72503014732","2020-04-15T12:51:00","FM-15","7",,,,,,,,,,,,,,,,,,,,,,,,,,,,,,,,,,,,,,"29.92","15","51","0.00",,"+0.05","6","24","29.92","FEW:02 80","29.89","10.00","38","VRB",,"5",,,,,,,,,,,,,,,,,,,,,,,,,,,,,,,,,,,,,"MET11704/15/20 12:51:02 METAR KLGA 151751Z VRB04KT 10SM FEW080 11/M09 A2992 RMK AO2 SLP131 T01061094 10106 20061 56018 (WL)","FM-15","7",,,,,,,,,,,,,,,,,,,,,,,,,,,,
"72503014732","2020-04-15T13:00:00","FM-12","4",,,,,,,,,,,,,,,,,,,,,,,,,,,,,,,,,,,,,,,"15","51",,,"+0.05","6","24","29.92","74","29.88","9.94","38",,,"5",,,,,,,,,,,,,,,,,,,,,,,,,,,,,,,,,,,,,"SYN08072503 32866 2//04 10106 21094 30118 40131 56018 91751 333 10106 20061 555 91518=","FM-12","4",,,,,,,,,,,,,,,,,,,,,,,,,,,,
"72503014732","2020-04-15T13:51:00","FM-15","7",,,,,,,,,,,,,,,,,,,,,,,,,,,,,,,,,,,,,,"29.91","16","52","0.00",,,,"24","29.91","BKN:07 85","29.88","10.00","39","320","21","14",,,,,,,,,,,,,,,,,,,,,,,,,,,,,,,,,,,,,"MET10204/15/20 13:51:02 METAR KLGA 151851Z 32012G18KT 10SM BKN085 11/M09 A2991 RMK AO2 SLP130 T01111089 (WL)","FM-15","7",,,,,,,,,,,,,,,,,,,,,,,,,,,,
"72503014732","2020-04-15T14:51:00","FM-15","7",,,,,,,,,,,,,,,,,,,,,,,,,,,,,,,,,,,,,,"29.90","15","52","0.00",,,,"23","29.90","SCT:04 85","29.87","10.00","38","330",,"10",,,,,,,,,,,,,,,,,,,,,,,,,,,,,,,,,,,,,"MET09904/15/20 14:51:02 METAR KLGA 151951Z 33009KT 10SM SCT085 11/M09 A2990 RMK AO2 SLP124 T01111094 (WL)","FM-15","7",,,,,,,,,,,,,,,,,,,,,,,,,,,,
"72503014732","2020-04-15T15:51:00","FM-15","7",,,,,,,,,,,,,,,,,,,,,,,,,,,,,,,,,,,,,,"29.88","12","52","0.00",,"+0.04","8","20","29.88","FEW:02 80","29.85","10.00","38","280","20","15",,,,,,,,,,,,,,,,,,,,,,,,,,,,,,,,,,,,,"MET10804/15/20 15:51:02 METAR KLGA 152051Z 28013G17KT 10SM FEW080 11/M11 A2988 RMK AO2 SLP118 T01111111 58013 (WL)","FM-15","7",,,,,,,,,,,,,,,,,,,,,,,,,,,,
"72503014732","2020-04-15T16:00:00","FM-12","4",,,,,,,,,,,,,,,,,,,,,,,,,,,,,,,,,,,,,,,"12","52",,,"+0.04","8","20","29.88","74","29.84","9.94","38","280",,"15",,,,,,,,,,,,,,,,,,,,,,,,,,,,,,,,,,,,,"SYN07472503 32866 22813 10111 21111 30105 40118 58013 92051 333 91017 555 91521=","FM-12","4",,,,,,,,,,,,,,,,,,,,,,,,,,,,
"72503014732","2020-04-15T16:51:00","FM-15","7",,,,,,,,,,,,,,,,,,,,,,,,,,,,,,,,,,,,,,"29.89","10","52","0.00",,,,"18","29.88","FEW:02 90","29.86","10.00","37","290","22","18",,,,,,,,,,,,,,,,,,,,,,,,,,,,,,,,,,,,,"MET10204/15/20 16:51:02 METAR KLGA 152151Z 29016G19KT 10SM FEW090 11/M12 A2989 RMK AO2 SLP120 T01111122 (WL)","FM-15","7",,,,,,,,,,,,,,,,,,,,,,,,,,,,
"72503014732","2020-04-15T17:51:00","FM-15","7",,,,,,,,,,,,,,,,,,,,,,,,,,,,,,,,,,,,,,"29.89","8","52","0.00",,,,"17","29.89","FEW:02 80","29.86","10.00","37","290",,"16",,,,,,,,,,,,,,,,,,,,,,,,,,,,,,,,,,,,,"MET09904/15/20 17:51:02 METAR KLGA 152251Z 29014KT 10SM FEW080 11/M13 A2989 RMK AO2 SLP122 T01111133 (WL)","FM-15","7",,,,,,,,,,,,,,,,,,,,,,,,,,,,
"72503014732","2020-04-15T18:51:00","FM-15","7",,,,,,,,,,,,,,,,,,,,,,,,,,,,,,,,,,,,,,"29.92","12","51","0.00",,"-0.04","3","21","29.92","FEW:02 80","29.89","10.00","37","300",,"14",,,,,,,,,,,,,,,,,,,,,,,,,,,,,,,,,,,,,"MET11704/15/20 18:51:02 METAR KLGA 152351Z 30012KT 10SM FEW080 11/M11 A2992 RMK AO2 SLP132 T01061111 10117 20100 53014 (WL)","FM-15","7",,,,,,,,,,,,,,,,,,,,,,,,,,,,
"72503014732","2020-04-15T19:00:00","FM-12","4",,,,,,,,,,,,,,,,,,,,,,,,,,,,,,,,,,,,,,,"12","51",,,"-0.04","3","21","29.92","74","29.88","9.94","37","300",,"14",,,,,,,,,,,,,,,,,,,,,,,,,,,,,,,,,,,,,"SYN08072503 32866 23012 10106 21111 30118 40132 53014 92351 333 10117 20061 555 91600=","FM-12","4",,,,,,,,,,,,,,,,,,,,,,,,,,,,
"72503014732","2020-04-15T19:51:00","FM-15","7",,,,,,,,,,,,,,,,,,,,,,,,,,,,,,,,,,,,,,"29.95","15","51","0.00",,,,"24","29.95","FEW:02 80","29.92","10.00","38","300",,"6",,,,,,,,,,,,,,,,,,,,,,,,,,,,,,,,,,,,,"MET09404/15/20 19:51:01 METAR KLGA 160051Z 30005KT 10SM FEW080 11/M09 A2995 RMK AO2 SLP142 T01061094","FM-15","7",,,,,,,,,,,,,,,,,,,,,,,,,,,,
"72503014732","2020-04-15T20:51:00","FM-15","7",,,,,,,,,,,,,,,,,,,,,,,,,,,,,,,,,,,,,,"29.97","15","50","0.00",,,,"25","29.97","SCT:04 90","29.94","10.00","37","230",,"10",,,,,,,,,,,,,,,,,,,,,,,,,,,,,,,,,,,,,"MET09404/15/20 20:51:01 METAR KLGA 160151Z 23009KT 10SM SCT090 10/M09 A2997 RMK AO2 SLP148 T01001094","FM-15","7",,,,,,,,,,,,,,,,,,,,,,,,,,,,
"72503014732","2020-04-15T21:51:00","FM-15","7",,,,,,,,,,,,,,,,,,,,,,,,,,,,,,,,,,,,,,"29.96","16","50","0.00",,"-0.04","0","26","29.96","FEW:02 80","29.93","10.00","37","220",,"13",,,,,,,,,,,,,,,,,,,,,,,,,,,,,,,,,,,,,"MET10004/15/20 21:51:01 METAR KLGA 160251Z 22011KT 10SM FEW080 10/M09 A2996 RMK AO2 SLP146 T01001089 50014","FM-15","7",,,,,,,,,,,,,,,,,,,,,,,,,,,,
"72503014732","2020-04-15T22:00:00","FM-12","4",,,,,,,,,,,,,,,,,,,,,,,,,,,,,,,,,,,,,,,"16","50",,,"0.04","9","26","29.96","74","29.92","9.94","37","220",,"13",,,,,,,,,,,,,,,,,,,,,,,,,,,,,,,,,,,,,"SYN06472503 32866 22211 10100 21089 30132 40146 50014 90251 555 91603=","FM-12","4",,,,,,,,,,,,,,,,,,,,,,,,,,,,
"72503014732","2020-04-15T22:51:00","FM-15","7",,,,,,,,,,,,,,,,,,,,,,,,,,,,,,,,,,,,,,"29.97","18","49","0.00",,,,"29","29.97","FEW:02 80","29.94","10.00","37","230",,"13",,,,,,,,,,,,,,,,,,,,,,,,,,,,,,,,,,,,,"MET09404/15/20 22:51:01 METAR KLGA 160351Z 23011KT 10SM FEW080 09/M08 A2997 RMK AO2 SLP149 T00941078","FM-15","7",,,,,,,,,,,,,,,,,,,,,,,,,,,,
"72503014732","2020-04-15T23:51:00","FM-15","7",,,,,,,,,,,,,,,,,,,,,,,,,,,,,,,,,,,,,,"29.97","20","48","0.00",,,,"33","29.96","FEW:02 80","29.94","10.00","37","230","21","11",,,,,,,,,,,,,,,,,,,,,,,,,,,,,,,,,,,,,"MET10704/15/20 23:51:01 METAR KLGA 160451Z 23010G18KT 10SM FEW080 09/M07 A2997 RMK AO2 SLP147 T00891067 401170061","FM-15","7",,,,,,,,,,,,,,,,,,,,,,,,,,,,
"72503014732","2020-04-15T23:59:00","SOD  ","6",,,,,,,,,,,,,,,,"48",,,"29.91",,"12.5","0","-4.6","17","53","43","320s","28s","T","0","0.0","310","23","RA",,,,,,,,,,,,,,,,,,,,,,,,,,,,,,,,,,,,,,,,,,,,,,,,,,,,,,,,"SOD73924 HR PRECIPITATION (IN):    T SNOW DEPTH (IN):0     24 HR SNOWFALL (IN):0.0  24 HR MAX TEMP (F): 5324 HR MIN TEMP (F): 43AVERAGE STATION PRESSURE:29.910 MINIMUM SEA LEVEL PRESSURE:29.88 TIME OF OCCURRENCE:1653 PEAK WIND SPEED (MPH): 28 PEAK WIND DIR (DEG):320 PEAK WIND TIME (LST):      FASTEST 2MIN SPEED (MPH): 23FASTEST 2MIN DIR (DEG):310 FASTEST 2MIN TIME (LST):     AVERAGE WIND SPEED (MPH):12.5 24 HR AVG TEMP (F): 48DEPART FROM NORMAL: -5  HEATING DEGREE DAYS: 17 COOLING DEGREE DAYS:  0 LATEST DAY MAX TEMP (0700-1900 LST):53  LATEST NIGHT MIN TEMP(1900-0800 LST):43 HOURLY INCREMENTAL PRECIPITATION VALUES (IN):    T    T    0.00 0.00 0.00 0.00 0.00 0.00 0.00 0.00 0.00 0.00 0.00 0.00 0.00 0.00 0.00 0.00 0.00 0.00 0.00 0.00 0.00","SOD  ","6",,,,,,,,,,,,,,,,,,,,,,,,,"0516","1836",,
"72503014732","2020-04-16T00:51:00","FM-15","7",,,,,,,,,,,,,,,,,,,,,,,,,,,,,,,,,,,,,,"29.96","21","48","0.00",,"-0.00","0","34","29.96","FEW:02 90","29.93","10.00","38","230",,"10",,,,,,,,,,,,,,,,,,,,,,,,,,,,,,,,,,,,,"MET11704/16/20 00:51:02 METAR KLGA 160551Z 23009KT 10SM FEW090 09/M06 A2996 RMK AO2 SLP146 T00891061 10106 20089 50000 (RZ)","FM-15","7",,,,,,,,,,,,,,,,,,,,,,,,,,,,
"72503014732","2020-04-16T01:00:00","FM-12","4",,,,,,,,,,,,,,,,,,,,,,,,,,,,,,,,,,,,,,,"21","48",,,"0.00","9","34","29.96",,"29.92","9.94","38","230",,"10",,,,,,,,,,,,,,,,,,,,,,,,,,,,,,,,,,,,,"SYN08072503 32966 22309 10089 21061 30132 40146 50000 90551 333 10106 20061 555 91606=","FM-12","4",,,,,,,,,,,,,,,,,,,,,,,,,,,,
"72503014732","2020-04-16T01:51:00","FM-15","7",,,,,,,,,,,,,,,,,,,,,,,,,,,,,,,,,,,,,,"29.96","21","48","0.00",,,,"34","29.95","OVC:08 90","29.93","10.00","38","220",,"14",,,,,,,,,,,,,,,,,,,,,,,,,,,,,,,,,,,,,"MET09904/16/20 01:51:02 METAR KLGA 160651Z 22012KT 10SM OVC090 09/M06 A2996 RMK AO2 SLP143 T00891061 (RZ)","FM-15","7",,,,,,,,,,,,,,,,,,,,,,,,,,,,
"72503014732","2020-04-16T02:51:00","FM-15","7",,,,,,,,,,,,,,,,,,,,,,,,,,,,,,,,,,,,,,"29.97","22","48","0.00",,,,"36","29.97","BKN:07 80","29.94","10.00","38","240","25","17",,,,,,,,,,,,,,,,,,,,,,,,,,,,,,,,,,,,,"MET10204/16/20 02:51:02 METAR KLGA 160751Z 24015G22KT 10SM BKN080 09/M06 A2997 RMK AO2 SLP148 T00891056 (RZ)","FM-15","7",,,,,,,,,,,,,,,,,,,,,,,,,,,,
"72503014732","2020-04-16T03:51:00","FM-15","7",,,,,,,,,,,,,,,,,,,,,,,,,,,,,,,,,,,,,,"29.99","23","47","0.00",,"-0.02","3","39","29.98","BKN:07 80","29.96","10.00","38","270","25","21",,,,,,,,,,,,,,,,,,,,,,,,,,,,,,,,,,,,,"MET10804/16/20 03:51:02 METAR KLGA 160851Z 27018G22KT 10SM BKN080 08/M05 A2999 RMK AO2 SLP154 T00831050 53008 (RZ)","FM-15","7",,,,,,,,,,,,,,,,,,,,,,,,,,,,
"72503014732","2020-04-16T04:00:00","FM-12","4",,,,,,,,,,,,,,,,,,,,,,,,,,,,,,,,,,,,,,,"23","47",,,"-0.02","3","39","29.98","74","29.95","9.94","38","270",,"21",,,,,,,,,,,,,,,,,,,,,,,,,,,,,,,,,,,,,"SYN07472503 32866 62718 10083 21050 30142 40154 53008 90851 333 91022 555 91609=","FM-12","4",,,,,,,,,,,,,,,,,,,,,,,,,,,,
"72503014732","2020-04-16T04:51:00","FM-15","6",,,,,,,,,,,,,,,,,,,,,,,,,,,,,,,,,,,,,,"29.99","26","45","0.00",,,,"48","29.99","SCT:04 75 BKN:07 85 BKN:07 110","29.96","10.00","37","260","28","18",,,,,,,,,,,,,,,,,,,,,,,,,,,,,,,,,,,,,"MET12104/16/20 04:51:02 METAR KLGA 160951Z 26016G24KT 10SM SCT075 BKN085 BKN110 07/M03 A2999 RMK AO2 SLP155 T00721033 FIBI (RZ)","FM-15","6",,,,,,,,,,,,,,,,,,,,,,,,,,,,
"72503014732","2020-04-16T05:51:00","FM-15","7",,,,,,,,,,,,,,,,,,,,,,,,,,,,,,,,,,,,,,"30.02","29","45","0.00",,,,"54","30.02","BKN:07 35 BKN:07 50","29.99","10.00","38","280",,"14",,,,,,,,,,,,,,,,,,,,,,,,,,,,,,,,,,,,,"MET10604/16/20 05:51:02 METAR KLGA 161051Z 28012KT 10SM BKN035 BKN050 07/M02 A3002 RMK AO2 SLP166 T00721017 (DM)","FM-15","7",,,,,,,,,,,,,,,,,,,,,,,,,,,,
"72503014732","2020-04-16T06:51:00","FM-15","7",,,,,,,,,,,,,,,,,,,,,,,,,,,,,,,,,,,,,,"30.06","28","42","0.00",,"-0.08","3","58","30.06","SCT:04 35 SCT:04 50 SCT:04 75","30.03","10.00","36","310","28","20",,,,,,,,,,,,,,,,,,,,,,,,,,,,,,,,,,,,,"MET13404/16/20 06:51:02 METAR KLGA 161151Z 31017G24KT 10SM SCT035 SCT050 SCT075 06/M02 A3006 RMK AO2 SLP180 T00561022 10089 20056 53026 (DM)","FM-15","7",,,,,,,,,,,,,,,,,,,,,,,,,,,,
"72503014732","2020-04-16T07:00:00","FM-12","4",,,,,,,,,,,,,,,,,,,,,,,,,,,,,,,,,,,,,,,"28","42",,,"-0.08","3","58","30.06","41","30.02","9.94","36","310",,"20",,,,,,,,,,,,,,,,,,,,,,,,,,,,,,,,,,,,,"SYN08672503 32666 43117 10056 21022 30166 40180 53026 91151 333 10117 20056 91024 555 91612=","FM-12","4",,,,,,,,,,,,,,,,,,,,,,,,,,,,
"72503014732","2020-04-16T07:51:00","FM-15","7",,,,,,,,,,,,,,,,,,,,,,,,,,,,,,,,,,,,,,"30.08","25","43","0.00",,,,"49","30.08","SCT:04 36 SCT:04 50 SCT:04 70","30.05","10.00","36","330",,"17",,,,,,,,,,,,,,,,,,,,,,,,,,,,,,,,,,,,,"MET11304/16/20 07:51:02 METAR KLGA 161251Z 33015KT 10SM SCT036 SCT050 SCT070 06/M04 A3008 RMK AO2 SLP185 T00611039 (DM)","FM-15","7",,,,,,,,,,,,,,,,,,,,,,,,,,,,
"72503014732","2020-04-16T08:51:00","FM-15","7",,,,,,,,,,,,,,,,,,,,,,,,,,,,,,,,,,,,,,"30.09","23","44","0.00",,,,"43","30.09","SCT:04 40 SCT:04 70","30.06","10.00","36","300","25","18",,,,,,,,,,,,,,,,,,,,,,,,,,,,,,,,,,,,,"MET10904/16/20 08:51:02 METAR KLGA 161351Z 30016G22KT 10SM SCT040 SCT070 07/M05 A3009 RMK AO2 SLP189 T00671050 (DM)","FM-15","7",,,,,,,,,,,,,,,,,,,,,,,,,,,,
"72503014732","2020-04-16T09:51:00","FM-15","7",,,,,,,,,,,,,,,,,,,,,,,,,,,,,,,,,,,,,,"30.09","19","45","0.00",,"-0.03","1","35","30.09","SCT:04 55","30.06","10.00","35","310",,"18",,,,,,,,,,,,,,,,,,,,,,,,,,,,,,,,,,,,,"MET10504/16/20 09:51:02 METAR KLGA 161451Z 31016KT 10SM SCT055 07/M07 A3009 RMK AO2 SLP188 T00721072 51009 (DM)","FM-15","7",,,,,,,,,,,,,,,,,,,,,,,,,,,,
"72503014732","2020-04-16T10:00:00","FM-12","4",,,,,,,,,,,,,,,,,,,,,,,,,,,,,,,,,,,,,,,"19","45",,,"-0.03","1","35","30.09","57","30.05","9.94","35","310",,"18",,,,,,,,,,,,,,,,,,,,,,,,,,,,,,,,,,,,,"SYN06472503 32766 43116 10072 21072 30176 40188 51009 91451 555 91615=","FM-12","4",,,,,,,,,,,,,,,,,,,,,,,,,,,,
"72503014732","2020-04-16T10:51:00","FM-15","7",,,,,,,,,,,,,,,,,,,,,,,,,,,,,,,,,,,,,,"30.09","14","47","0.00",,,,"26","30.09","SCT:04 60","30.06","10.00","35","290","29","22",,,,,,,,,,,,,,,,,,,,,,,,,,,,,,,,,,,,,"MET12004/16/20 10:51:02 METAR KLGA 161551Z 29019G25KT 10SM SCT060 08/M10 A3009 RMK AO2 PK WND 28030/1511 SLP190 T00831100 (DM)","FM-15","7",,,,,,,,,,,,,,,,,,,,,,,,,,,,
"72503014732","2020-04-16T11:51:00","FM-15","7",,,,,,,,,,,,,,,,,,,,,,,,,,,,,,,,,,,,,,"30.08","14","48","0.00",,,,"25","30.08","BKN:07 75","30.05","10.00","36","300","29","24",,,,,,,,,,,,,,,,,,,,,,,,,,,,,,,,,,,,,"MET12004/16/20 11:51:02 METAR KLGA 161651Z 30021G25KT 10SM BKN075 09/M10 A3008 RMK AO2 PK WND 28030/1637 SLP186 T00891100 (DM)","FM-15","7",,,,,,,,,,,,,,,,,,,,,,,,,,,,
"72503014732","2020-04-16T12:51:00","FM-15","7",,,,,,,,,,,,,,,,,,,,,,,,,,,,,,,,,,,,,,"30.09","13","48","0.00",,"+0.00","7","24","30.09","SCT:04 75","30.06","10.00","36","280","28","22",,,,,,,,,,,,,,,,,,,,,,,,,,,,,,,,,,,,,"MET13804/16/20 12:51:02 METAR KLGA 161751Z 28019G24KT 10SM SCT075 09/M11 A3009 RMK AO2 PK WND 30029/1740 SLP188 T00891106 10089 20056 57001 (DM)","FM-15","7",,,,,,,,,,,,,,,,,,,,,,,,,,,,
"72503014732","2020-04-16T13:00:00","FM-12","4",,,,,,,,,,,,,,,,,,,,,,,,,,,,,,,,,,,,,,,"13","48",,,"+0.00","7","24","30.09","74","30.05","9.94","36","280",,"22",,,,,,,,,,,,,,,,,,,,,,,,,,,,,,,,,,,,,"SYN08672503 32866 42819 10089 21106 30176 40188 57001 91751 333 10089 20056 91024 555 91618=","FM-12","4",,,,,,,,,,,,,,,,,,,,,,,,,,,,
"72503014732","2020-04-16T13:51:00","FM-15","7",,,,,,,,,,,,,,,,,,,,,,,,,,,,,,,,,,,,,,"30.09","15","47","0.00",,,,"28","30.09","BKN:07 85","30.06","10.00","36","310","30","22",,,,,,,,,,,,,,,,,,,,,,,,,,,,,,,,,,,,,"MET12004/16/20 13:51:02 METAR KLGA 161851Z 31019G26KT 10SM BKN085 08/M09 A3009 RMK AO2 PK WND 30031/1807 SLP189 T00831094 (JT)","FM-15","7",,,,,,,,,,,,,,,,,,,,,,,,,,,,
"72503014732","2020-04-16T14:51:00","FM-15","7",,,,,,,,,,,,,,,,,,,,,,,,,,,,,,,,,,,,,,"30.09","11","47","0.00",,,,"23","30.09","BKN:07 90","30.06","10.00","35","310","30","24",,,,,,,,,,,,,,,,,,,,,,,,,,,,,,,,,,,,,"MET12004/16/20 14:51:02 METAR KLGA 161951Z 31021G26KT 10SM BKN090 08/M12 A3009 RMK AO2 PK WND 33029/1941 SLP188 T00831117 (JT)","FM-15","7",,,,,,,,,,,,,,,,,,,,,,,,,,,,
"72503014732","2020-04-16T15:51:00","FM-15","7",,,,,,,,,,,,,,,,,,,,,,,,,,,,,,,,,,,,,,"30.09","13","47","0.00",,"-0.01","2","25","30.09","BKN:07 90","30.06","10.00","35","310",,"16",,,,,,,,,,,,,,,,,,,,,,,,,,,,,,,,,,,,,"MET10504/16/20 15:51:02 METAR KLGA 162051Z 31014KT 10SM BKN090 08/M11 A3009 RMK AO2 SLP190 T00831106 52002 (JT)","FM-15","7",,,,,,,,,,,,,,,,,,,,,,,,,,,,
"72503014732","2020-04-16T16:00:00","FM-12","4",,,,,,,,,,,,,,,,,,,,,,,,,,,,,,,,,,,,,,,"13","47",,,"-0.01","2","25","30.09",,"30.05","9.94","35","310",,"16",,,,,,,,,,,,,,,,,,,,,,,,,,,,,,,,,,,,,"SYN06472503 32966 63114 10083 21106 30176 40190 52002 92051 555 91621=","FM-12","4",,,,,,,,,,,,,,,,,,,,,,,,,,,,
"72503014732","2020-04-16T16:51:00","FM-15","7",,,,,,,,,,,,,,,,,,,,,,,,,,,,,,,,,,,,,,"30.09","12","48","0.00",,,,"23","30.09","BKN:07 100","30.06","10.00","36","300","26","23",,,,,,,,,,,,,,,,,,,,,,,,,,,,,,,,,,,,,"MET10204/16/20 16:51:02 METAR KLGA 162151Z 30020G23KT 10SM BKN100 09/M11 A3009 RMK AO2 SLP190 T00891111 (JT)","FM-15","7",,,,,,,,,,,,,,,,,,,,,,,,,,,,
"72503014732","2020-04-16T17:51:00","FM-15","7",,,,,,,,,,,,,,,,,,,,,,,,,,,,,,,,,,,,,,"30.10","15","47","0.00",,,,"28","30.10","FEW:02 75 BKN:07 90","30.07","10.00","36","310",,"14",,,,,,,,,,,,,,,,,,,,,,,,,,,,,,,,,,,,,"MET10604/16/20 17:51:02 METAR KLGA 162251Z 31012KT 10SM FEW075 BKN090 08/M09 A3010 RMK AO2 SLP192 T00831094 (JT)","FM-15","7",,,,,,,,,,,,,,,,,,,,,,,,,,,,
"72503014732","2020-04-16T18:51:00","FM-15","7",,,,,,,,,,,,,,,,,,,,,,,,,,,,,,,,,,,,,,"30.13","16","46","0.00",,"-0.03","3","30","30.12","BKN:07 75 BKN:07 95","30.10","10.00","35","260","30","21",,,,,,,,,,,,,,,,,,,,,,,,,,,,,,,,,,,,,"MET14504/16/20 18:51:02 METAR KLGA 162351Z 26018G26KT 10SM BKN075 BKN095 08/M09 A3013 RMK AO2 PK WND 26026/2342 SLP201 T00781089 10094 20078 53011 (JT)","FM-15","7",,,,,,,,,,,,,,,,,,,,,,,,,,,,
"72503014732","2020-04-16T19:00:00","FM-12","4",,,,,,,,,,,,,,,,,,,,,,,,,,,,,,,,,,,,,,,"16","46",,,"-0.03","3","30","30.12","74","30.09","9.94","35","260",,"21",,,,,,,,,,,,,,,,,,,,,,,,,,,,,,,,,,,,,"SYN08672503 32866 62618 10078 21089 30189 40201 53011 92351 333 10094 20056 91026 555 91700=","FM-12","4",,,,,,,,,,,,,,,,,,,,,,,,,,,,
"72503014732","2020-04-16T19:51:00","FM-15","7",,,,,,,,,,,,,,,,,,,,,,,,,,,,,,,,,,,,,,"30.16","22","44","0.00",,,,"41","30.16","FEW:02 75 FEW:02 100","30.13","10.00","36","260","33","21",,,,,,,,,,,,,,,,,,,,,,,,,,,,,,,,,,,,,"MET12204/16/20 19:51:01 METAR KLGA 170051Z 26018G29KT 10SM FEW075 FEW100 07/M06 A3016 RMK AO2 PK WND 27029/0044 SLP213 T00671056","FM-15","7",,,,,,,,,,,,,,,,,,,,,,,,,,,,
"72503014732","2020-04-16T20:51:00","FM-15","7",,,,,,,,,,,,,,,,,,,,,,,,,,,,,,,,,,,,,,"30.20","25","42","0.00",,,,"51","30.20","SCT:04 70","30.17","10.00","35","290","28","22",,,,,,,,,,,,,,,,,,,,,,,,,,,,,,,,,,,,,"MET11504/16/20 20:51:01 METAR KLGA 170151Z 29019G24KT 10SM SCT070 06/M04 A3020 RMK AO2 PK WND 31030/0106 SLP227 T00561039","FM-15","7",,,,,,,,,,,,,,,,,,,,,,,,,,,,
"72503014732","2020-04-16T21:51:00","FM-15","7",,,,,,,,,,,,,,,,,,,,,,,,,,,,,,,,,,,,,,"30.22","25","41","0.00",,"-0.10","1","53","30.22","FEW:02 85","30.19","10.00","35","310","28","20",,,,,,,,,,,,,,,,,,,,,,,,,,,,,,,,,,,,,"MET12104/16/20 21:51:01 METAR KLGA 170251Z 31017G24KT 10SM FEW085 05/M04 A3022 RMK AO2 PK WND 31027/0240 SLP233 T00501039 51033","FM-15","7",,,,,,,,,,,,,,,,,,,,,,,,,,,,
"72503014732","2020-04-16T22:00:00","FM-12","4",,,,,,,,,,,,,,,,,,,,,,,,,,,,,,,,,,,,,,,"25","41",,,"-0.10","1","53","30.22",,"30.18","9.94","35","310",,"20",,,,,,,,,,,,,,,,,,,,,,,,,,,,,,,,,,,,,"SYN07472503 32966 23117 10050 21039 30220 40233 51033 90251 333 91024 555 91703=","FM-12","4",,,,,,,,,,,,,,,,,,,,,,,,,,,,
"72503014732","2020-04-16T22:51:00","FM-15","7",,,,,,,,,,,,,,,,,,,,,,,,,,,,,,,,,,,,,,"30.25","23","40","0.00",,,,"51","30.24","CLR:00","30.22","10.00","34","300",,"14",,,,,,,,,,,,,,,,,,,,,,,,,,,,,,,,,,,,,"MET09104/16/20 22:51:01 METAR KLGA 170351Z 30012KT 10SM CLR 04/M05 A3025 RMK AO2 SLP242 T00441050","FM-15","7",,,,,,,,,,,,,,,,,,,,,,,,,,,,
"72503014732","2020-04-16T23:51:00","FM-15","7",,,,,,,,,,,,,,,,,,,,,,,,,,,,,,,,,,,,,,"30.25","22","40","0.00",,,,"49","30.24","CLR:00","30.22","10.00","33","310",,"13",,,,,,,,,,,,,,,,,,,,,,,,,,,,,,,,,,,,,"MET10104/16/20 23:51:02 METAR KLGA 170451Z 31011KT 10SM CLR 04/M06 A3025 RMK AO2 SLP242 T00441056 400940044","FM-15","7",,,,,,,,,,,,,,,,,,,,,,,,,,,,
"72503014732","2020-04-16T23:59:00","SOD  ","6",,,,,,,,,,,,,,,,"45",,,"30.02",,"18.5","0","-7.9","20","49","40","300","36","0.00","0","0.0","300","28",,,,,,,,,,,,,,,,,,,,,,,,,,,,,,,,,,,,,,,,,,,,,,,,,,,,,,,,,"SOD73924 HR PRECIPITATION (IN): 0.00 SNOW DEPTH (IN):0     24 HR SNOWFALL (IN):0.0  24 HR MAX TEMP (F): 4924 HR MIN TEMP (F): 40AVERAGE STATION PRESSURE:30.020 MINIMUM SEA LEVEL PRESSURE:29.95 TIME OF OCCURRENCE:0217 PEAK WIND SPEED (MPH): 36 PEAK WIND DIR (DEG):300 PEAK WIND TIME (LST):      FASTEST 2MIN SPEED (MPH): 28FASTEST 2MIN DIR (DEG):300 FASTEST 2MIN TIME (LST):     AVERAGE WIND SPEED (MPH):18.5 24 HR AVG TEMP (F): 45DEPART FROM NORMAL: -8  HEATING DEGREE DAYS: 20 COOLING DEGREE DAYS:  0 LATEST DAY MAX TEMP (0700-1900 LST):49  LATEST NIGHT MIN TEMP(1900-0800 LST):42 HOURLY INCREMENTAL PRECIPITATION VALUES (IN):.00 0.00 0.00 0.00 0.00 0.00 0.00 0.00 0.00 0.00 0.00 0.00 0.00 0.00 0.00 0.00 0.00 0.00 0.00 0.00 0.00 0.00 0.00 0.00","SOD  ","6",,,,,,,,,,,,,,,,,,,,,,,,,"0514","1837",,
"72503014732","2020-04-17T00:51:00","FM-15","7",,,,,,,,,,,,,,,,,,,,,,,,,,,,,,,,,,,,,,"30.25","19","39","0.00",,"-0.02","0","45","30.24","CLR:00","30.22","10.00","32","270",,"9",,,,,,,,,,,,,,,,,,,,,,,,,,,,,,,,,,,,,"MET11404/17/20 00:51:02 METAR KLGA 170551Z 27008KT 10SM CLR 04/M07 A3025 RMK AO2 SLP241 T00391072 10078 20039 50008 (RZ)","FM-15","7",,,,,,,,,,,,,,,,,,,,,,,,,,,,
"72503014732","2020-04-17T01:00:00","FM-12","4",,,,,,,,,,,,,,,,,,,,,,,,,,,,,,,,,,,,,,,"19","39",,,"0.02","9","45","30.24",,"30.21","9.94","32","270",,"9",,,,,,,,,,,,,,,,,,,,,,,,,,,,,,,,,,,,,"SYN08072503 32966 02708 10039 21072 30230 40241 50008 90551 333 10089 20039 555 91706=","FM-12","4",,,,,,,,,,,,,,,,,,,,,,,,,,,,
"72503014732","2020-04-17T01:51:00","FM-15","7",,,,,,,,,,,,,,,,,,,,,,,,,,,,,,,,,,,,,,"30.25","17","39","0.00",,,,"41","30.25","CLR:00","30.22","10.00","31","270",,"10",,,,,,,,,,,,,,,,,,,,,,,,,,,,,,,,,,,,,"MET09604/17/20 01:51:02 METAR KLGA 170651Z 27009KT 10SM CLR 04/M08 A3025 RMK AO2 SLP244 T00391083 (RZ)","FM-15","7",,,,,,,,,,,,,,,,,,,,,,,,,,,,
"72503014732","2020-04-17T02:51:00","FM-15","7",,,,,,,,,,,,,,,,,,,,,,,,,,,,,,,,,,,,,,"30.26","18","40","0.00",,,,"41","30.26","CLR:00","30.23","10.00","32","260",,"14",,,,,,,,,,,,,,,,,,,,,,,,,,,,,,,,,,,,,"MET09604/17/20 02:51:02 METAR KLGA 170751Z 26012KT 10SM CLR 04/M08 A3026 RMK AO2 SLP247 T00441078 (RZ)","FM-15","7",,,,,,,,,,,,,,,,,,,,,,,,,,,,
"72503014732","2020-04-17T03:51:00","FM-15","7",,,,,,,,,,,,,,,,,,,,,,,,,,,,,,,,,,,,,,"30.26","18","40","0.00",,"-0.01","0","41","30.25","FEW:02 250","30.23","10.00","32","300",,"11",,,,,,,,,,,,,,,,,,,,,,,,,,,,,,,,,,,,,"MET10504/17/20 03:51:02 METAR KLGA 170851Z 30010KT 10SM FEW250 04/M08 A3026 RMK AO2 SLP245 T00441078 50004 (RZ)","FM-15","7",,,,,,,,,,,,,,,,,,,,,,,,,,,,
"72503014732","2020-04-17T04:00:00","FM-12","4",,,,,,,,,,,,,,,,,,,,,,,,,,,,,,,,,,,,,,,"18","40",,,"0.01","9","41","30.25",,"30.22","9.94","32","300",,"11",,,,,,,,,,,,,,,,,,,,,,,,,,,,,,,,,,,,,"SYN06472503 32966 23010 10044 21078 30233 40245 50004 90851 555 91709=","FM-12","4",,,,,,,,,,,,,,,,,,,,,,,,,,,,
"72503014732","2020-04-17T04:51:00","FM-15","7",,,,,,,,,,,,,,,,,,,,,,,,,,,,,,,,,,,,,,"30.27","19","39","0.00",,,,"45","30.27","FEW:02 250","30.24","10.00","32","300",,"13",,,,,,,,,,,,,,,,,,,,,,,,,,,,,,,,,,,,,"MET09904/17/20 04:51:02 METAR KLGA 170951Z 30011KT 10SM FEW250 04/M07 A3027 RMK AO2 SLP249 T00391072 (RZ)","FM-15","7",,,,,,,,,,,,,,,,,,,,,,,,,,,,
"72503014732","2020-04-17T05:51:00","FM-15","7",,,,,,,,,,,,,,,,,,,,,,,,,,,,,,,,,,,,,,"30.31","18","39","0.00",,,,"43","30.31","SCT:04 250","30.28","10.00","32","300",,"11",,,,,,,,,,,,,,,,,,,,,,,,,,,,,,,,,,,,,"MET09904/17/20 05:51:02 METAR KLGA 171051Z 30010KT 10SM SCT250 04/M08 A3031 RMK AO2 SLP264 T00391078 (WL)","FM-15","7",,,,,,,,,,,,,,,,,,,,,,,,,,,,
"72503014732","2020-04-17T06:51:00","FM-15","7",,,,,,,,,,,,,,,,,,,,,,,,,,,,,,,,,,,,,,"30.32","16","40","0.00",,"-0.07","1","38","30.32","SCT:04 250","30.29","10.00","32","280",,"9",,,,,,,,,,,,,,,,,,,,,,,,,,,,,,,,,,,,,"MET11704/17/20 06:51:02 METAR KLGA 171151Z 28008KT 10SM SCT250 04/M09 A3032 RMK AO2 SLP268 T00441089 10044 20039 51023 (WL)","FM-15","7",,,,,,,,,,,,,,,,,,,,,,,,,,,,
"72503014732","2020-04-17T07:00:00","FM-12","4",,,,,,,,,,,,,,,,,,,,,,,,,,,,,,,,,,,,,,,"16","40",,,"-0.07","1","38","30.32",,"30.28","9.94","32","280",,"9",,,,,,,,,,,,,,,,,,,,,,,,,,,,,,,,,,,,,"SYN08072503 32966 42808 10044 21089 30254 40268 51023 91151 333 10094 20039 555 91712=","FM-12","4",,,,,,,,,,,,,,,,,,,,,,,,,,,,
"72503014732","2020-04-17T07:51:00","FM-15","7",,,,,,,,,,,,,,,,,,,,,,,,,,,,,,,,,,,,,,"30.31","15","42","0.00",,,,"33","30.31","FEW:02 50 SCT:04 250","30.28","10.00","33","290",,"8",,,,,,,,,,,,,,,,,,,,,,,,,,,,,,,,,,,,,"MET10604/17/20 07:51:02 METAR KLGA 171251Z 29007KT 10SM FEW050 SCT250 06/M09 A3031 RMK AO2 SLP264 T00561094 (WL)","FM-15","7",,,,,,,,,,,,,,,,,,,,,,,,,,,,
"72503014732","2020-04-17T08:51:00","FM-15","7",,,,,,,,,,,,,,,,,,,,,,,,,,,,,,,,,,,,,,"30.30","16","44","0.00",,,,"32","30.29","FEW:02 50 SCT:04 250","30.27","10.00","34","250",,"11",,,,,,,,,,,,,,,,,,,,,,,,,,,,,,,,,,,,,"MET10604/17/20 08:51:02 METAR KLGA 171351Z 25010KT 10SM FEW050 SCT250 07/M09 A3030 RMK AO2 SLP258 T00671089 (WL)","FM-15","7",,,,,,,,,,,,,,,,,,,,,,,,,,,,
"72503014732","2020-04-17T09:51:00","FM-15","7",,,,,,,,,,,,,,,,,,,,,,,,,,,,,,,,,,,,,,"30.29","14","45","0.00",,"+0.04","6","29","30.29","FEW:02 50 SCT:04 250","30.26","10.00","34","260",,"17",,,,,,,,,,,,,,,,,,,,,,,,,,,,,,,,,,,,,"MET11204/17/20 09:51:02 METAR KLGA 171451Z 26015KT 10SM FEW050 SCT250 07/M10 A3029 RMK AO2 SLP256 T00721100 56012 (WL)","FM-15","7",,,,,,,,,,,,,,,,,,,,,,,,,,,,
"72503014732","2020-04-17T10:00:00","FM-12","4",,,,,,,,,,,,,,,,,,,,,,,,,,,,,,,,,,,,,,,"14","45",,,"+0.04","6","29","30.29","57","30.25","9.94","34","260",,"17",,,,,,,,,,,,,,,,,,,,,,,,,,,,,,,,,,,,,"SYN06472503 32766 42615 10072 21100 30244 40256 56012 91451 555 91715=","FM-12","4",,,,,,,,,,,,,,,,,,,,,,,,,,,,
"72503014732","2020-04-17T10:51:00","FM-15","7",,,,,,,,,,,,,,,,,,,,,,,,,,,,,,,,,,,,,,"30.25","16","47","0.00",,,,"29","30.25","FEW:02 50 BKN:07 250","30.22","10.00","36","250","25","14",,,,,,,,,,,,,,,,,,,,,,,,,,,,,,,,,,,,,"MET10904/17/20 10:51:02 METAR KLGA 171551Z 25012G22KT 10SM FEW050 BKN250 08/M09 A3025 RMK AO2 SLP244 T00831089 (WL)","FM-15","7",,,,,,,,,,,,,,,,,,,,,,,,,,,,
"72503014732","2020-04-17T11:51:00","FM-15","7",,,,,,,,,,,,,,,,,,,,,,,,,,,,,,,,,,,,,,"30.21","15","49","0.00",,,,"26","30.21","FEW:02 55 SCT:04 130 BKN:07 250","30.18","10.00","37","260","24","14",,,,,,,,,,,,,,,,,,,,,,,,,,,,,,,,,,,,,"MET11604/17/20 11:51:02 METAR KLGA 171651Z 26012G21KT 10SM FEW055 SCT130 BKN250 09/M09 A3021 RMK AO2 SLP231 T00941094 (WL)","FM-15","7",,,,,,,,,,,,,,,,,,,,,,,,,,,,
"72503014732","2020-04-17T12:51:00","FM-15","7",,,,,,,,,,,,,,,,,,,,,,,,,,,,,,,,,,,,,,"30.17","15","50","0.00",,"+0.12","8","25","30.17","FEW:02 55 SCT:04 150 OVC:08 250","30.14","10.00","37","210","22","16",,,,,,,,,,,,,,,,,,,,,,,,,,,,,,,,,,,,,"MET13404/17/20 12:51:02 METAR KLGA 171751Z 21014G19KT 10SM FEW055 SCT150 OVC250 10/M09 A3017 RMK AO2 SLP216 T01001094 10106 20044 58040 (WL)","FM-15","7",,,,,,,,,,,,,,,,,,,,,,,,,,,,
"72503014732","2020-04-17T13:00:00","FM-12","4",,,,,,,,,,,,,,,,,,,,,,,,,,,,,,,,,,,,,,,"15","50",,,"+0.12","8","25","30.17","57","30.13","9.94","37","210",,"16",,,,,,,,,,,,,,,,,,,,,,,,,,,,,,,,,,,,,"SYN08672503 32766 82114 10100 21094 30203 40216 58040 91751 333 10106 20044 91019 555 91718=","FM-12","4",,,,,,,,,,,,,,,,,,,,,,,,,,,,
"72503014732","2020-04-17T13:51:00","FM-15","7",,,,,,,,,,,,,,,,,,,,,,,,,,,,,,,,,,,,,,"30.16","13","50","0.00",,,,"22","30.16","FEW:02 90 SCT:04 150 OVC:08 250","30.13","10.00","37","240","24","16",,,,,,,,,,,,,,,,,,,,,,,,,,,,,,,,,,,,,"MET11604/17/20 13:51:02 METAR KLGA 171851Z 24014G21KT 10SM FEW090 SCT150 OVC250 10/M11 A3016 RMK AO2 SLP213 T01001106 (JT)","FM-15","7",,,,,,,,,,,,,,,,,,,,,,,,,,,,
"72503014732","2020-04-17T14:51:00","FM-15","7",,,,,,,,,,,,,,,,,,,,,,,,,,,,,,,,,,,,,,"30.13","16","50","0.00",,,,"26","30.12","BKN:07 65 OVC:08 80","30.10","10.00","38","260","22","14",,,,,,,,,,,,,,,,,,,,,,,,,,,,,,,,,,,,,"MET12704/17/20 14:51:02 METAR KLGA 171951Z 26012G19KT 10SM BKN065 OVC080 10/M09 A3013 RMK AO2 PK WND 22028/1926 SLP201 T01001089 (JT)","FM-15","7",,,,,,,,,,,,,,,,,,,,,,,,,,,,
"72503014732","2020-04-17T15:51:00","FM-15","7",,,,,,,,,,,,,,,,,,,,,,,,,,,,,,,,,,,,,,"30.11","25","47","T","-RA:02 |RA |RA","+0.06","8","42","30.11","BKN:07 47 BKN:07 60 OVC:08 70","30.08","10.00","38","260","24","11",,,,,,,,,,,,,,,,,,,,,,,,,,,,,,,,,,,,,"MET14404/17/20 15:51:02 METAR KLGA 172051Z 26010G21KT 10SM -RA BKN047 BKN060 OVC070 08/M04 A3011 RMK AO2 RAB48 SLP197 P0000 60000 T00831039 58019 (JT)","FM-15","7",,,,,,,,,,,,,,,,,,,,,,,,,,,,
"72503014732","2020-04-17T16:00:00","FM-12","4",,,,,,,,,,,,,,,,,,,,,,,,,,,,,,,,,,,,,,,"25","47",,"||RA","+0.06","8","42","30.11","41","30.07","9.94","38","260",,"11",,,,,,,,,,,,,,,,,,,,,,,,,,,,,,,,,,,,,"SYN08672503 11666 82610 10083 21039 30183 40197 58019 69907 761// 92051 333 91021 555 91721=","FM-12","4",,,,,,,,,,,,,,,,,,,,,,,,,,,,
"72503014732","2020-04-17T16:51:00","FM-15","7",,,,,,,,,,,,,,,,,,,,,,,,,,,,,,,,,,,,,,"30.12","28","46","T",,,,"50","30.11","BKN:07 48 OVC:08 60","30.09","10.00","39","250",,"11",,,,,,,,,,,,,,,,,,,,,,,,,,,,,,,,,,,,,"MET12604/17/20 16:51:02 METAR KLGA 172151Z 25010KT 10SM BKN048 OVC060 08/M02 A3012 RMK AO2 RAE2057B16E37 SLP198 P0000 T00781022 (JT)","FM-15","7",,,,,,,,,,,,,,,,,,,,,,,,,,,,
"72503014732","2020-04-17T17:51:00","FM-15","7",,,,,,,,,,,,,,,,,,,,,,,,,,,,,,,,,,,,,,"30.08","31","45","T",,,,"58","30.07","SCT:04 36 BKN:07 48 OVC:08 60","30.05","10.00","39","220",,"9",,,,,,,,,,,,,,,,,,,,,,,,,,,,,,,,,,,,,"MET12804/17/20 17:51:02 METAR KLGA 172251Z 22008KT 10SM SCT036 BKN048 OVC060 07/M01 A3008 RMK AO2 RAB02E22 SLP184 P0000 T00721006 (JT)","FM-15","7",,,,,,,,,,,,,,,,,,,,,,,,,,,,
"72503014732","2020-04-17T18:51:00","FM-15","7",,,,,,,,,,,,,,,,,,,,,,,,,,,,,,,,,,,,,,"30.06","33","44","T","-RA:02 |RA |RA","+0.06","8","65","30.06","FEW:02 30 BKN:07 42 OVC:08 50","30.03","10.00","39","220",,"7",,,,,,,,,,,,,,,,,,,,,,,,,,,,,,,,,,,,,"MET16004/17/20 18:51:02 METAR KLGA 172351Z 22006KT 10SM -RA FEW030 BKN042 OVC050 07/01 A3006 RMK AO2 RAB2256E12B47 SLP178 P0000 60000 T00670006 10106 20067 58019 (JT)","FM-15","7",,,,,,,,,,,,,,,,,,,,,,,,,,,,
"72503014732","2020-04-17T19:00:00","FM-12","4",,,,,,,,,,,,,,,,,,,,,,,,,,,,,,,,,,,,,,,"33","44",,"||RA","+0.06","8","65","30.06","26","30.02","9.94","39","220",,"7",,,,,,,,,,,,,,,,,,,,,,,,,,,,,,,,,,,,,"SYN09272503 11566 82206 10067 20006 30166 40178 58019 69901 761// 92351 333 10106 20039 555 91800=","FM-12","4",,,,,,,,,,,,,,,,,,,,,,,,,,,,
"72503014732","2020-04-17T19:51:00","FM-15","7",,,,,,,,,,,,,,,,,,,,,,,,,,,,,,,,,,,,,,"30.04","34","44","T","-RA:02 |RA |RA",,,"68","30.03","SCT:04 35 OVC:08 48","30.01","10.00","40","000",,"0",,,,,,,,,,,,,,,,,,,,,,,,,,,,,,,,,,,,,"MET11004/17/20 19:51:01 METAR KLGA 180051Z 00000KT 10SM -RA SCT035 OVC048 07/01 A3004 RMK AO2 SLP171 P0000 T00670011","FM-15","7",,,,,,,,,,,,,,,,,,,,,,,,,,,,
"72503014732","2020-04-17T20:51:00","FM-15","7",,,,,,,,,,,,,,,,,,,,,,,,,,,,,,,,,,,,,,"30.02","36","45","T","-RA:02 |RA |RA",,,"71","30.01","FEW:02 37 OVC:08 65","29.99","10.00","41","130",,"9",,,,,,,,,,,,,,,,,,,,,,,,,,,,,,,,,,,,,"MET11904/17/20 20:51:01 METAR KLGA 180151Z 13008KT 10SM -RA FEW037 OVC065 07/02 A3002 RMK AO2 RAE00B31 SLP163 P0000 T00720022","FM-15","7",,,,,,,,,,,,,,,,,,,,,,,,,,,,
"72503014732","2020-04-17T21:51:00","FM-15","7",,,,,,,,,,,,,,,,,,,,,,,,,,,,,,,,,,,,,,"29.96","37","45","0.01","-RA:02 |RA |RA","+0.10","8","74","29.96","OVC:08 48","29.93","10.00","41","VRB",,"3",,,,,,,,,,,,,,,,,,,,,,,,,,,,,,,,,,,,,"MET12204/17/20 21:51:01 METAR KLGA 180251Z VRB03KT 10SM -RA OVC048 07/03 A2996 RMK AO2 PRESFR SLP145 P0001 60001 T00720028 58034","FM-15","7",,,,,,,,,,,,,,,,,,,,,,,,,,,,
"72503014732","2020-04-17T22:00:00","FM-12","4",,,,,,,,,,,,,,,,,,,,,,,,,,,,,,,,,,,,,,,"37","45",,"||RA","+0.10","8","74","29.96","41","29.92","9.94","41",,,"3",,,,,,,,,,,,,,,,,,,,,,,,,,,,,,,,,,,,,"SYN07672503 11666 8//03 10072 20028 30132 40145 58034 69937 761// 90251 555 91803=","FM-12","4",,,,,,,,,,,,,,,,,,,,,,,,,,,,
"72503014732","2020-04-17T22:51:00","FM-15","7",,,,,,,,,,,,,,,,,,,,,,,,,,,,,,,,,,,,,,"29.92","38","44","0.01","-RA:02 |RA |RA",,,"79","29.92","OVC:08 55","29.89","7.00","41","070",,"7",,,,,,,,,,,,,,,,,,,,,,,,,,,,,,,,,,,,,"MET10204/17/20 22:51:02 METAR KLGA 180351Z 07006KT 7SM -RA OVC055 07/03 A2992 RMK AO2 SLP131 P0001 T00670033","FM-15","7",,,,,,,,,,,,,,,,,,,,,,,,,,,,
"72503014732","2020-04-17T23:51:00","FM-15","7",,,,,,,,,,,,,,,,,,,,,,,,,,,,,,,,,,,,,,"29.89","39","43","0.03","-RA:02 BR:1 |RA |RA",,,"86","29.89","BKN:07 37 BKN:07 44 OVC:08 60","29.86","6.00","41","050",,"9",,,,,,,,,,,,,,,,,,,,,,,,,,,,,,,,,,,,,"MET12904/17/20 23:51:02 METAR KLGA 180451Z 05008KT 6SM -RA BR BKN037 BKN044 OVC060 06/04 A2989 RMK AO2 SLP122 P0003 T00610039 401060039","FM-15","7",,,,,,,,,,,,,,,,,,,,,,,,,,,,
"72503014732","2020-04-17T23:59:00","SOD  ","6",,,,,,,,,,,,,,,,"45",,,"30.16",,"11.0","0","-8.3","20","51","39","220","32","0.05","0","0.0","220","22","RA BR",,,,,,,,,,,,,,,,,,,,,,,,,,,,,,,,,,,,,,,,,,,,,,,,,,,,,,,,"SOD75624 HR PRECIPITATION (IN): 0.05 SNOW DEPTH (IN):0     24 HR SNOWFALL (IN):0.0  WEATHER(CODE):1  24 HR MAX TEMP (F): 5124 HR MIN TEMP (F): 39AVERAGE STATION PRESSURE:30.160 MINIMUM SEA LEVEL PRESSURE:29.89 TIME OF OCCURRENCE:2358 PEAK WIND SPEED (MPH): 32 PEAK WIND DIR (DEG):220 PEAK WIND TIME (LST):      FASTEST 2MIN SPEED (MPH): 22FASTEST 2MIN DIR (DEG):220 FASTEST 2MIN TIME (LST):     AVERAGE WIND SPEED (MPH):11.0 24 HR AVG TEMP (F): 45DEPART FROM NORMAL: -8  HEATING DEGREE DAYS: 20 COOLING DEGREE DAYS:  0 LATEST DAY MAX TEMP (0700-1900 LST):51  LATEST NIGHT MIN TEMP(1900-0800 LST):39 HOURLY INCREMENTAL PRECIPITATION VALUES (IN):.00 0.00 0.00 0.00 0.00 0.00 0.00 0.00 0.00 0.00 0.00 0.00 0.00 0.00 0.00 T    T    T    T    T    T    0.01 0.01 0.03","SOD  ","6",,,,,,,,,,,,,,,,,,,,,,,,,"0513","1838",,
"72503014732","2020-04-18T00:16:00","FM-16","7",,,,,,,,,,,,,,,,,,,,,,,,,,,,,,,,,,,,,,"29.88","39","43","0.02","-RA:02 BR:1 |RA |RA",,,"86",,"FEW:02 8 SCT:04 30 OVC:08 38","29.85","5.00","41","060",,"9",,,,,,,,,,,,,,,,,,,,,,,,,,,,,,,,,,,,,"MET11704/18/20 00:16:02 SPECI KLGA 180516Z 06008KT 5SM -RA BR FEW008 SCT030 OVC038 06/04 A2988 RMK AO2 P0002 T00610039 (RZ)","FM-16","7",,,,,,,,,,,,,,,,,,,,,,,,,,,,
"72503014732","2020-04-18T00:35:00","FM-16","7",,,,,,,,,,,,,,,,,,,,,,,,,,,,,,,,,,,,,,"29.86","39","43","0.03","-RA:02 BR:1 |RA |RA",,,"86",,"FEW:02 7 BKN:07 38 OVC:08 47","29.83","6.00","41","060",,"8",,,,,,,,,,,,,,,,,,,,,,,,,,,,,,,,,,,,,"MET11704/18/20 00:35:02 SPECI KLGA 180535Z 06007KT 6SM -RA BR FEW007 BKN038 OVC047 06/04 A2986 RMK AO2 P0003 T00610039 (RZ)","FM-16","7",,,,,,,,,,,,,,,,,,,,,,,,,,,,
"72503014732","2020-04-18T00:51:00","FM-15","7",,,,,,,,,,,,,,,,,,,,,,,,,,,,,,,,,,,,,,"29.86","39","43","0.04","-RA:02 BR:1 |RA |RA","+0.10","6","86","29.85","SCT:04 7 BKN:07 36 OVC:08 49","29.83","6.00","41","050",,"8",,,,,,,,,,,,,,,,,,,,,,,,,,,,,,,,,,,,,"MET14804/18/20 00:51:02 METAR KLGA 180551Z 05007KT 6SM -RA BR SCT007 BKN036 OVC049 06/04 A2986 RMK AO2 SLP110 P0004 60009 T00610039 10078 20061 56035 (RZ)","FM-15","7",,,,,,,,,,,,,,,,,,,,,,,,,,,,
"72503014732","2020-04-18T01:00:00","FM-12","4",,,,,,,,,,,,,,,,,,,,,,,,,,,,,,,,,,,,,,,"39","43",,"||RA","+0.10","6","86","29.85","8","29.82","5.59","41","050",,"8",,,,,,,,,,,,,,,,,,,,,,,,,,,,,,,,,,,,,"SYN09872503 11359 80507 10061 20039 30098 40110 56035 60021 761// 90551 333 10078 20039 96010 555 91806=","FM-12","4",,,,,,,,,,,,,,,,,,,,,,,,,,,,
"72503014732","2020-04-18T01:06:00","FM-16","7",,,,,,,,,,,,,,,,,,,,,,,,,,,,,,,,,,,,,,"29.85","40","43","0.01","-RA:02 BR:1 |RA |RA",,,"89",,"BKN:07 6 OVC:08 36","29.82","5.00","42","050",,"10",,,,,,,,,,,,,,,,,,,,,,,,,,,,,,,,,,,,,"MET11004/18/20 01:06:02 SPECI KLGA 180606Z 05009KT 5SM -RA BR BKN006 OVC036 06/04 A2985 RMK AO2 P0001 T00610044 (RZ)","FM-16","7",,,,,,,,,,,,,,,,,,,,,,,,,,,,
"72503014732","2020-04-18T01:32:00","FM-16","7",,,,,,,,,,,,,,,,,,,,,,,,,,,,,,,,,,,,,,"29.83","40","43","0.04","-RA:02 BR:1 |RA |RA",,,"89",,"SCT:04 6 BKN:07 44 OVC:08 60","29.80","5.00","42","080",,"10",,,,,,,,,,,,,,,,,,,,,,,,,,,,,,,,,,,,,"MET11704/18/20 01:32:02 SPECI KLGA 180632Z 08009KT 5SM -RA BR SCT006 BKN044 OVC060 06/04 A2983 RMK AO2 P0004 T00610044 (RZ)","FM-16","7",,,,,,,,,,,,,,,,,,,,,,,,,,,,
"72503014732","2020-04-18T01:51:00","FM-15","7",,,,,,,,,,,,,,,,,,,,,,,,,,,,,,,,,,,,,,"29.81","40","43","0.04","-RA:02 |RA |RA",,,"89","29.81","FEW:02 6 SCT:04 48 OVC:08 60","29.78","7.00","42","080",,"9",,,,,,,,,,,,,,,,,,,,,,,,,,,,,,,,,,,,,"MET12104/18/20 01:51:02 METAR KLGA 180651Z 08008KT 7SM -RA FEW006 SCT048 OVC060 06/04 A2981 RMK AO2 SLP094 P0005 T00610044 (RZ)","FM-15","7",,,,,,,,,,,,,,,,,,,,,,,,,,,,
"72503014732","2020-04-18T02:51:00","FM-15","7",,,,,,,,,,,,,,,,,,,,,,,,,,,,,,,,,,,,,,"29.79","40","43","T","-RA:02 |RA |RA",,,"89","29.78","FEW:02 7 OVC:08 60","29.76","9.00","42","060",,"7",,,,,,,,,,,,,,,,,,,,,,,,,,,,,,,,,,,,,"MET11404/18/20 02:51:02 METAR KLGA 180751Z 06006KT 9SM -RA FEW007 OVC060 06/04 A2979 RMK AO2 SLP086 P0000 T00610044 (RZ)","FM-15","7",,,,,,,,,,,,,,,,,,,,,,,,,,,,
"72503014732","2020-04-18T03:16:00","FM-16","7",,,,,,,,,,,,,,,,,,,,,,,,,,,,,,,,,,,,,,"29.79","40","44","T",,,,"85",,"BKN:07 7 OVC:08 60","29.76","10.00","42","050",,"7",,,,,,,,,,,,,,,,,,,,,,,,,,,,,,,,,,,,,"MET11004/18/20 03:16:02 SPECI KLGA 180816Z 05006KT 10SM BKN007 OVC060 07/04 A2979 RMK AO2 RAE16 P0000 T00670044 (RZ)","FM-16","7",,,,,,,,,,,,,,,,,,,,,,,,,,,,
"72503014732","2020-04-18T03:51:00","FM-15","7",,,,,,,,,,,,,,,,,,,,,,,,,,,,,,,,,,,,,,"29.78","40","44","0.01","-RA:02 |RA |RA","+0.08","6","85","29.77","BKN:07 7 BKN:07 34 OVC:08 41","29.75","9.00","42","050",,"7",,,,,,,,,,,,,,,,,,,,,,,,,,,,,,,,,,,,,"MET14204/18/20 03:51:02 METAR KLGA 180851Z 05006KT 9SM -RA BKN007 BKN034 OVC041 07/04 A2978 RMK AO2 RAE16B24 SLP082 P0000 60005 T00670044 56027 (RZ)","FM-15","7",,,,,,,,,,,,,,,,,,,,,,,,,,,,
"72503014732","2020-04-18T04:00:00","FM-12","4",,,,,,,,,,,,,,,,,,,,,,,,,,,,,,,,,,,,,,,"40","44",,"||RA","+0.08","6","85","29.77","8","29.74","8.70","42","050",,"7",,,,,,,,,,,,,,,,,,,,,,,,,,,,,,,,,,,,,"SYN07672503 11364 80506 10067 20044 30071 40082 56027 60017 761// 90851 555 91809=","FM-12","4",,,,,,,,,,,,,,,,,,,,,,,,,,,,
"72503014732","2020-04-18T04:18:00","FM-16","7",,,,,,,,,,,,,,,,,,,,,,,,,,,,,,,,,,,,,,"29.77","40","44","0.02","-RA:02 |RA |RA",,,"85",,"SCT:04 7 BKN:07 32 OVC:08 60","29.74","8.00","42","050",,"9",,,,,,,,,,,,,,,,,,,,,,,,,,,,,,,,,,,,,"MET12904/18/20 04:18:02 SPECI KLGA 180918Z 05008KT 8SM -RA SCT007 BKN032 OVC060 07/04 A2977 RMK AO2 CIG 008 R22 SW P0002 T00670044 (RZ)","FM-16","7",,,,,,,,,,,,,,,,,,,,,,,,,,,,
"72503014732","2020-04-18T04:44:00","FM-16","7",,,,,,,,,,,,,,,,,,,,,,,,,,,,,,,,,,,,,,"29.74","40","44","0.02","-RA:02 |RA |RA",,,"85",,"BKN:07 7 BKN:07 60 OVC:08 90","29.71","10.00","42","060",,"11",,,,,,,,,,,,,,,,,,,,,,,,,,,,,,,,,,,,,"MET12204/18/20 04:44:02 SPECI KLGA 180944Z 06010KT 10SM -RA BKN007 BKN060 OVC090 07/04 A2974 RMK AO2 PRESFR P0002 T00670044 (RZ)","FM-16","7",,,,,,,,,,,,,,,,,,,,,,,,,,,,
"72503014732","2020-04-18T04:51:00","FM-15","7",,,,,,,,,,,,,,,,,,,,,,,,,,,,,,,,,,,,,,"29.74","40","44","0.02","-RA:02 |RA |RA",,,"85","29.74","BKN:07 7 OVC:08 90","29.71","10.00","42","070",,"9",,,,,,,,,,,,,,,,,,,,,,,,,,,,,,,,,,,,,"MET11504/18/20 04:51:02 METAR KLGA 180951Z 07008KT 10SM -RA BKN007 OVC090 07/04 A2974 RMK AO2 SLP071 P0002 T00670044 (RZ)","FM-15","7",,,,,,,,,,,,,,,,,,,,,,,,,,,,
"72503014732","2020-04-18T05:15:00","FM-16","7",,,,,,,,,,,,,,,,,,,,,,,,,,,,,,,,,,,,,,"29.73","41","44","0.01","-RA:02 |RA |RA",,,"89",,"BKN:07 6 OVC:08 95","29.70","10.00","43","070",,"8",,,,,,,,,,,,,,,,,,,,,,,,,,,,,,,,,,,,,"MET10804/18/20 05:15:02 SPECI KLGA 181015Z 07007KT 10SM -RA BKN006 OVC095 07/05 A2973 RMK AO2 P0001 T00670050 (ML)","FM-16","7",,,,,,,,,,,,,,,,,,,,,,,,,,,,
"72503014732","2020-04-18T05:51:00","FM-15","7",,,,,,,,,,,,,,,,,,,,,,,,,,,,,,,,,,,,,,"29.74","41","44","T",,,,"89","29.74","BKN:07 6 BKN:07 15 OVC:08 60","29.71","10.00","43","080",,"5",,,,,,,,,,,,,,,,,,,,,,,,,,,,,,,,,,,,,"MET12404/18/20 05:51:02 METAR KLGA 181051Z 08004KT 10SM BKN006 BKN015 OVC060 07/05 A2974 RMK AO2 RAE31 SLP071 P0001 T00670050 (ML)","FM-15","7",,,,,,,,,,,,,,,,,,,,,,,,,,,,
"72503014732","2020-04-18T06:51:00","FM-15","7",,,,,,,,,,,,,,,,,,,,,,,,,,,,,,,,,,,,,,"29.74","41","45","0.01","-RA:02 |RA |RA","+0.04","6","86","29.74","BKN:07 6 OVC:08 14","29.71","9.00","43","060",,"6",,,,,,,,,,,,,,,,,,,,,,,,,,,,,,,,,,,,,"MET15004/18/20 06:51:02 METAR KLGA 181151Z 06005KT 9SM -RA BKN006 OVC014 07/05 A2974 RMK AO2 RAB10 SLP071 P0001 60009 70018 T00720050 10072 20061 56012 (ML)","FM-15","7",,,,,,,,,,,,,,,,,,,,,,,,,,,,
"72503014732","2020-04-18T07:00:00","FM-12","4",,,,,,,,,,,,,,,,,,,,,,,,,,,,,,,,,,,,,,,"41","45",,"||RA","+0.04","6","86","29.74","5","29.70","8.70","43","060",,"6",,,,,,,,,,,,,,,,,,,,,,,,,,,,,,,,,,,,,"SYN09872503 11264 80605 10072 20050 30057 40071 56012 60021 761// 91151 333 10106 20061 70046 555 91812=","FM-12","4",,,,,,,,,,,,,,,,,,,,,,,,,,,,
"72503014732","2020-04-18T07:40:00","FM-16","7",,,,,,,,,,,,,,,,,,,,,,,,,,,,,,,,,,,,,,"29.75","42","45","0.01","-RA:02 BR:1 |RA |RA",,,"90",,"OVC:08 7","29.72","6.00","44","030",,"3",,,,,,,,,,,,,,,,,,,,,,,,,,,,,,,,,,,,,"MET10304/18/20 07:40:02 SPECI KLGA 181240Z 03003KT 6SM -RA BR OVC007 07/06 A2975 RMK AO2 P0001 T00720056 (ML)","FM-16","7",,,,,,,,,,,,,,,,,,,,,,,,,,,,
"72503014732","2020-04-18T07:51:00","FM-15","7",,,,,,,,,,,,,,,,,,,,,,,,,,,,,,,,,,,,,,"29.74","42","45","0.03","-RA:02 BR:1 |RA |RA",,,"90","29.73","OVC:08 7","29.71","6.00","44","040",,"6",,,,,,,,,,,,,,,,,,,,,,,,,,,,,,,,,,,,,"MET11004/18/20 07:51:02 METAR KLGA 181251Z 04005KT 6SM -RA BR OVC007 07/06 A2974 RMK AO2 SLP069 P0003 T00720056 (ML)","FM-15","7",,,,,,,,,,,,,,,,,,,,,,,,,,,,
"72503014732","2020-04-18T08:08:00","FM-16","7",,,,,,,,,,,,,,,,,,,,,,,,,,,,,,,,,,,,,,"29.72","41","45","T","-RA:02 |RA |RA",,,"86",,"OVC:08 6","29.69","9.00","43","030",,"15",,,,,,,,,,,,,,,,,,,,,,,,,,,,,,,,,,,,,"MET10004/18/20 08:08:02 SPECI KLGA 181308Z 03013KT 9SM -RA OVC006 07/05 A2972 RMK AO2 P0000 T00720050 (ML)","FM-16","7",,,,,,,,,,,,,,,,,,,,,,,,,,,,
"72503014732","2020-04-18T08:51:00","FM-15","7",,,,,,,,,,,,,,,,,,,,,,,,,,,,,,,,,,,,,,"29.74","40","44","0.01","-RA:02 |RA |RA",,,"85","29.74","OVC:08 6","29.71","8.00","42","030",,"10",,,,,,,,,,,,,,,,,,,,,,,,,,,,,,,,,,,,,"MET10704/18/20 08:51:02 METAR KLGA 181351Z 03009KT 8SM -RA OVC006 07/04 A2974 RMK AO2 SLP070 P0001 T00670044 (ML)","FM-15","7",,,,,,,,,,,,,,,,,,,,,,,,,,,,
"72503014732","2020-04-18T09:17:00","FM-16","7",,,,,,,,,,,,,,,,,,,,,,,,,,,,,,,,,,,,,,"29.73","40","44","0.01","-RA:02 |RA |RA",,,"85",,"BKN:07 7 OVC:08 12","29.70","8.00","42","020",,"10",,,,,,,,,,,,,,,,,,,,,,,,,,,,,,,,,,,,,"MET10704/18/20 09:17:02 SPECI KLGA 181417Z 02009KT 8SM -RA BKN007 OVC012 07/04 A2973 RMK AO2 P0001 T00670044 (ML)","FM-16","7",,,,,,,,,,,,,,,,,,,,,,,,,,,,
"72503014732","2020-04-18T09:47:00","FM-16","7",,,,,,,,,,,,,,,,,,,,,,,,,,,,,,,,,,,,,,"29.75","39","43","0.01","-RA:02 |RA |RA",,,"87",,"OVC:08 9","29.72","10.00","41","350",,"16",,,,,,,,,,,,,,,,,,,,,,,,,,,,,,,,,,,,,"MET09104/18/20 09:47:02 SPECI KLGA 181447Z 35014KT 10SM -RA OVC009 06/04 A2975 RMK AO2 P0001 (ML)","FM-16","7",,,,,,,,,,,,,,,,,,,,,,,,,,,,
"72503014732","2020-04-18T09:51:00","FM-15","7",,,,,,,,,,,,,,,,,,,,,,,,,,,,,,,,,,,,,,"29.75","39","43","0.01","-RA:02 |RA |RA","-0.01","2","86","29.75","OVC:08 9","29.72","10.00","41","350",,"16",,,,,,,,,,,,,,,,,,,,,,,,,,,,,,,,,,,,,"MET12004/18/20 09:51:02 METAR KLGA 181451Z 35014KT 10SM -RA OVC009 06/04 A2975 RMK AO2 SLP074 P0001 60005 T00610039 52004 (ML)","FM-15","7",,,,,,,,,,,,,,,,,,,,,,,,,,,,
"72503014732","2020-04-18T10:00:00","FM-12","4",,,,,,,,,,,,,,,,,,,,,,,,,,,,,,,,,,,,,,,"39","43",,"||RA","-0.01","2","86","29.75","8","29.71","9.94","41","350",,"16",,,,,,,,,,,,,,,,,,,,,,,,,,,,,,,,,,,,,"SYN07672503 11366 83514 10061 20039 30061 40074 52004 60017 761// 91451 555 91815=","FM-12","4",,,,,,,,,,,,,,,,,,,,,,,,,,,,
"72503014732","2020-04-18T10:26:00","FM-16","7",,,,,,,,,,,,,,,,,,,,,,,,,,,,,,,,,,,,,,"29.76","38","42","0.02","-RA:02 |RA |RA",,,"85",,"OVC:08 11","29.73","10.00","40","360",,"13",,,,,,,,,,,,,,,,,,,,,,,,,,,,,,,,,,,,,"MET10104/18/20 10:26:02 SPECI KLGA 181526Z 36011KT 10SM -RA OVC011 06/03 A2976 RMK AO2 P0002 T00560033 (ML)","FM-16","7",,,,,,,,,,,,,,,,,,,,,,,,,,,,
"72503014732","2020-04-18T10:51:00","FM-15","7",,,,,,,,,,,,,,,,,,,,,,,,,,,,,,,,,,,,,,"29.76","38","42","0.03",,,,"85","29.76","BKN:07 12 OVC:08 40","29.73","10.00","40","010",,"11",,,,,,,,,,,,,,,,,,,,,,,,,,,,,,,,,,,,,"MET11704/18/20 10:51:02 METAR KLGA 181551Z 01010KT 10SM BKN012 OVC040 06/03 A2976 RMK AO2 RAE49 SLP078 P0003 T00560033 (ML)","FM-15","7",,,,,,,,,,,,,,,,,,,,,,,,,,,,
"72503014732","2020-04-18T11:37:00","FM-16","7",,,,,,,,,,,,,,,,,,,,,,,,,,,,,,,,,,,,,,"29.76","38","43",,,,,"82",,"FEW:02 10 BKN:07 16 OVC:08 40","29.73","10.00","41","360",,"16",,,,,,,,,,,,,,,,,,,,,,,,,,,,,,,,,,,,,"MET10504/18/20 11:37:02 SPECI KLGA 181637Z 36014KT 10SM FEW010 BKN016 OVC040 06/03 A2976 RMK AO2 T00610033 (ML)","FM-16","7",,,,,,,,,,,,,,,,,,,,,,,,,,,,
"72503014732","2020-04-18T11:51:00","FM-15","7",,,,,,,,,,,,,,,,,,,,,,,,,,,,,,,,,,,,,,"29.76","37","43","0.00",,,,"80","29.75","FEW:02 10 BKN:07 16 OVC:08 40","29.73","10.00","40","360",,"14",,,,,,,,,,,,,,,,,,,,,,,,,,,,,,,,,,,,,"MET11204/18/20 11:51:02 METAR KLGA 181651Z 36012KT 10SM FEW010 BKN016 OVC040 06/03 A2976 RMK AO2 SLP075 T00610028 (ML)","FM-15","7",,,,,,,,,,,,,,,,,,,,,,,,,,,,
"72503014732","2020-04-18T12:40:00","FM-16","7",,,,,,,,,,,,,,,,,,,,,,,,,,,,,,,,,,,,,,"29.75","36","43",,,,,"76",,"BKN:07 14 OVC:08 21","29.72","10.00","40","350","22","17",,,,,,,,,,,,,,,,,,,,,,,,,,,,,,,,,,,,,"MET10104/18/20 12:40:02 SPECI KLGA 181740Z 35015G19KT 10SM BKN014 OVC021 06/02 A2975 RMK AO2 T00610022 (ML)","FM-16","7",,,,,,,,,,,,,,,,,,,,,,,,,,,,
"72503014732","2020-04-18T12:49:00","FM-16","6",,,,,,,,,,,,,,,,,,,,,,,,,,,,,,,,,,,,,,"29.75","36","45",,,,,"71",,"SCT:04 14 OVC:08 21","29.72","10.00","41","350","24","18",,,,,,,,,,,,,,,,,,,,,,,,,,,,,,,,,,,,,"MET09604/18/20 12:49:02 SPECI KLGA 181749Z 35016G21KT 10SM SCT014 OVC021 07/02 A2975 RMK AO2 FIBI (ML)","FM-16","6",,,,,,,,,,,,,,,,,,,,,,,,,,,,
"72503014732","2020-04-18T12:51:00","FM-15","7",,,,,,,,,,,,,,,,,,,,,,,,,,,,,,,,,,,,,,"29.75","36","44","0.00",,"-0.00","1","73","29.75","SCT:04 14 OVC:08 23","29.72","10.00","40","350","24","18",,,,,,,,,,,,,,,,,,,,,,,,,,,,,,,,,,,,,"MET14704/18/20 12:51:02 METAR KLGA 181751Z 35016G21KT 10SM SCT014 OVC023 07/02 A2975 RMK AO2 CIG 017 R22 SW SLP075 60008 T00670022 10072 20056 51001 (ML)","FM-15","7",,,,,,,,,,,,,,,,,,,,,,,,,,,,
"72503014732","2020-04-18T13:00:00","FM-12","4",,,,,,,,,,,,,,,,,,,,,,,,,,,,,,,,,,,,,,,"36","44",,,"-0.00","1","73","29.75","15","29.71","9.94","40","350",,"18",,,,,,,,,,,,,,,,,,,,,,,,,,,,,,,,,,,,,"SYN09272503 12466 83516 10067 20022 30061 40075 51001 60021 91751 333 10072 20056 91021 555 91818=","FM-12","4",,,,,,,,,,,,,,,,,,,,,,,,,,,,
"72503014732","2020-04-18T13:51:00","FM-15","7",,,,,,,,,,,,,,,,,,,,,,,,,,,,,,,,,,,,,,"29.76","35","46","0.00",,,,"66","29.76","FEW:02 14 BKN:07 24 OVC:08 35","29.73","10.00","41","340","22","15",,,,,,,,,,,,,,,,,,,,,,,,,,,,,,,,,,,,,"MET11504/18/20 13:51:02 METAR KLGA 181851Z 34013G19KT 10SM FEW014 BKN024 OVC035 08/02 A2976 RMK AO2 SLP078 T00780017 (JG)","FM-15","7",,,,,,,,,,,,,,,,,,,,,,,,,,,,
"72503014732","2020-04-18T14:20:00","FM-16","7",,,,,,,,,,,,,,,,,,,,,,,,,,,,,,,,,,,,,,"29.77","34","47",,,,,"61",,"SCT:04 27 BKN:07 35 BKN:07 55","29.74","10.00","41","350",,"18",,,,,,,,,,,,,,,,,,,,,,,,,,,,,,,,,,,,,"MET10504/18/20 14:20:02 SPECI KLGA 181920Z 35016KT 10SM SCT027 BKN035 BKN055 08/01 A2977 RMK AO2 T00830011 (JG)","FM-16","7",,,,,,,,,,,,,,,,,,,,,,,,,,,,
"72503014732","2020-04-18T14:51:00","FM-15","7",,,,,,,,,,,,,,,,,,,,,,,,,,,,,,,,,,,,,,"29.78","33","46","0.00",,,,"61","29.78","FEW:02 29 BKN:07 40 BKN:07 55","29.75","10.00","40","350",,"13",,,,,,,,,,,,,,,,,,,,,,,,,,,,,,,,,,,,,"MET11204/18/20 14:51:02 METAR KLGA 181951Z 35011KT 10SM FEW029 BKN040 BKN055 08/01 A2978 RMK AO2 SLP085 T00780006 (JG)","FM-15","7",,,,,,,,,,,,,,,,,,,,,,,,,,,,
"72503014732","2020-04-18T15:51:00","FM-15","7",,,,,,,,,,,,,,,,,,,,,,,,,,,,,,,,,,,,,,"29.80","32","47","0.00",,"-0.05","3","56","29.80","BKN:07 38 BKN:07 55","29.77","10.00","41","010","20","11",,,,,,,,,,,,,,,,,,,,,,,,,,,,,,,,,,,,,"MET11404/18/20 15:51:02 METAR KLGA 182051Z 01010G17KT 10SM BKN038 BKN055 08/00 A2980 RMK AO2 SLP092 T00830000 53016 (JG)","FM-15","7",,,,,,,,,,,,,,,,,,,,,,,,,,,,
"72503014732","2020-04-18T16:00:00","FM-12","4",,,,,,,,,,,,,,,,,,,,,,,,,,,,,,,,,,,,,,,"32","47",,,"-0.05","3","56","29.80","41","29.76","9.94","41","010",,"11",,,,,,,,,,,,,,,,,,,,,,,,,,,,,,,,,,,,,"SYN07472503 32666 60110 10083 20000 30078 40092 53016 92051 333 91017 555 91821=","FM-12","4",,,,,,,,,,,,,,,,,,,,,,,,,,,,
"72503014732","2020-04-18T16:29:00","FM-16","7",,,,,,,,,,,,,,,,,,,,,,,,,,,,,,,,,,,,,,"29.82","35","46","T","-RA:02 |RA |RA",,,"66",,"BKN:07 35 BKN:07 50","29.79","10.00","41","310",,"17",,,,,,,,,,,,,,,,,,,,,,,,,,,,,,,,,,,,,"MET12504/18/20 16:29:02 SPECI KLGA 182129Z 31015KT 10SM -RA BKN035 BKN050 08/02 A2982 RMK AO2 WSHFT 2109 RAB22 P0000 T00780017 (JG)","FM-16","7",,,,,,,,,,,,,,,,,,,,,,,,,,,,
"72503014732","2020-04-18T16:51:00","FM-15","7",,,,,,,,,,,,,,,,,,,,,,,,,,,,,,,,,,,,,,"29.84","34","46","T",,,,"63","29.83","FEW:02 35 BKN:07 45 OVC:08 60","29.81","10.00","41","340",,"14",,,,,,,,,,,,,,,,,,,,,,,,,,,,,,,,,,,,,"MET14604/18/20 16:51:02 METAR KLGA 182151Z 34012KT 10SM FEW035 BKN045 OVC060 08/01 A2984 RMK AO2 WSHFT 2109 RAB22E32 SLP103 VCSH SE P0000 T00780011 (JG)","FM-15","7",,,,,,,,,,,,,,,,,,,,,,,,,,,,
"72503014732","2020-04-18T17:09:00","FM-16","7",,,,,,,,,,,,,,,,,,,,,,,,,,,,,,,,,,,,,,"29.85","34","45","T","-RA:02 |RA |RA",,,"66",,"BKN:07 29 BKN:07 45 OVC:08 60","29.82","10.00","40","350","23","18",,,,,,,,,,,,,,,,,,,,,,,,,,,,,,,,,,,,,"MET12404/18/20 17:09:02 SPECI KLGA 182209Z 35016G20KT 10SM -RA BKN029 BKN045 OVC060 07/01 A2985 RMK AO2 RAB09 P0000 T00720011 (JG)","FM-16","7",,,,,,,,,,,,,,,,,,,,,,,,,,,,
"72503014732","2020-04-18T17:33:00","FM-16","7",,,,,,,,,,,,,,,,,,,,,,,,,,,,,,,,,,,,,,"29.85","35","45","T",,,,"68",,"BKN:07 33 BKN:07 45 BKN:07 60","29.82","10.00","41","360",,"10",,,,,,,,,,,,,,,,,,,,,,,,,,,,,,,,,,,,,"MET12804/18/20 17:33:02 SPECI KLGA 182233Z 36009KT 10SM BKN033 BKN045 BKN060 07/02 A2985 RMK AO2 RAB09E28 VCSH SE P0000 T00720017 (JG)","FM-16","7",,,,,,,,,,,,,,,,,,,,,,,,,,,,
"72503014732","2020-04-18T17:51:00","FM-15","7",,,,,,,,,,,,,,,,,,,,,,,,,,,,,,,,,,,,,,"29.86","34","45","T",,,,"66","29.86","SCT:04 33 BKN:07 45 BKN:07 60","29.83","10.00","40","350",,"10",,,,,,,,,,,,,,,,,,,,,,,,,,,,,,,,,,,,,"MET12704/18/20 17:51:02 METAR KLGA 182251Z 35009KT 10SM SCT033 BKN045 BKN060 07/01 A2986 RMK AO2 RAB09E28 SLP111 P0000 T00720011 (JG)","FM-15","7",,,,,,,,,,,,,,,,,,,,,,,,,,,,
"72503014732","2020-04-18T18:51:00","FM-15","7",,,,,,,,,,,,,,,,,,,,,,,,,,,,,,,,,,,,,,"29.88","30","46","0.00",,"-0.08","1","54","29.88","FEW:02 40 BKN:07 60","29.85","10.00","39","320","21","14",,,,,,,,,,,,,,,,,,,,,,,,,,,,,,,,,,,,,"MET13304/18/20 18:51:02 METAR KLGA 182351Z 32012G18KT 10SM FEW040 BKN060 08/M01 A2988 RMK AO2 SLP118 60000 T00781011 10083 20061 51026 (JG)","FM-15","7",,,,,,,,,,,,,,,,,,,,,,,,,,,,
"72503014732","2020-04-18T19:00:00","FM-12","4",,,,,,,,,,,,,,,,,,,,,,,,,,,,,,,,,,,,,,,"30","46",,,"-0.08","1","54","29.88","41","29.84","9.94","39","320",,"14",,,,,,,,,,,,,,,,,,,,,,,,,,,,,,,,,,,,,"SYN09272503 12666 63212 10078 21011 30105 40118 51026 69901 92351 333 10083 20061 91018 555 91900=","FM-12","4",,,,,,,,,,,,,,,,,,,,,,,,,,,,
"72503014732","2020-04-18T19:51:00","FM-15","7",,,,,,,,,,,,,,,,,,,,,,,,,,,,,,,,,,,,,,"29.91","27","46","0.00",,,,"47","29.90","SCT:04 55","29.88","10.00","38","310",,"10",,,,,,,,,,,,,,,,,,,,,,,,,,,,,,,,,,,,,"MET09404/18/20 19:51:01 METAR KLGA 190051Z 31009KT 10SM SCT055 08/M03 A2991 RMK AO2 SLP126 T00781028","FM-15","7",,,,,,,,,,,,,,,,,,,,,,,,,,,,
"72503014732","2020-04-18T20:51:00","FM-15","7",,,,,,,,,,,,,,,,,,,,,,,,,,,,,,,,,,,,,,"29.91","27","45","0.00",,,,"49","29.91","FEW:02 55","29.88","10.00","38","300",,"9",,,,,,,,,,,,,,,,,,,,,,,,,,,,,,,,,,,,,"MET09404/18/20 20:51:01 METAR KLGA 190151Z 30008KT 10SM FEW055 07/M03 A2991 RMK AO2 SLP129 T00721028","FM-15","7",,,,,,,,,,,,,,,,,,,,,,,,,,,,
"72503014732","2020-04-18T21:51:00","FM-15","7",,,,,,,,,,,,,,,,,,,,,,,,,,,,,,,,,,,,,,"29.93","26","46","0.00",,"-0.05","1","46","29.93","FEW:02 55","29.90","10.00","38","290",,"10",,,,,,,,,,,,,,,,,,,,,,,,,,,,,,,,,,,,,"MET10004/18/20 21:51:01 METAR KLGA 190251Z 29009KT 10SM FEW055 08/M03 A2993 RMK AO2 SLP134 T00781033 51016","FM-15","7",,,,,,,,,,,,,,,,,,,,,,,,,,,,
"72503014732","2020-04-18T22:00:00","FM-12","4",,,,,,,,,,,,,,,,,,,,,,,,,,,,,,,,,,,,,,,"26","46",,,"-0.05","1","46","29.93","57","29.89","9.94","38","290",,"10",,,,,,,,,,,,,,,,,,,,,,,,,,,,,,,,,,,,,"SYN06472503 32766 22909 10078 21033 30122 40134 51016 90251 555 91903=","FM-12","4",,,,,,,,,,,,,,,,,,,,,,,,,,,,
"72503014732","2020-04-18T22:51:00","FM-15","7",,,,,,,,,,,,,,,,,,,,,,,,,,,,,,,,,,,,,,"29.93","24","45","0.00",,,,"44","29.93","CLR:00","29.90","10.00","37","290",,"10",,,,,,,,,,,,,,,,,,,,,,,,,,,,,,,,,,,,,"MET09104/18/20 22:51:02 METAR KLGA 190351Z 29009KT 10SM CLR 07/M04 A2993 RMK AO2 SLP135 T00721044","FM-15","7",,,,,,,,,,,,,,,,,,,,,,,,,,,,
"72503014732","2020-04-18T23:51:00","FM-15","7",,,,,,,,,,,,,,,,,,,,,,,,,,,,,,,,,,,,,,"29.94","24","44","0.00",,,,"45","29.94","CLR:00","29.91","10.00","36","270",,"7",,,,,,,,,,,,,,,,,,,,,,,,,,,,,,,,,,,,,"MET10104/18/20 23:51:02 METAR KLGA 190451Z 27006KT 10SM CLR 07/M04 A2994 RMK AO2 SLP138 T00671044 400830056","FM-15","7",,,,,,,,,,,,,,,,,,,,,,,,,,,,
"72503014732","2020-04-18T23:59:00","SOD  ","6",,,,,,,,,,,,,,,,"45",,,"29.77",,"10.4","0","-8.6","20","47","42","330","26","0.20","0","0.0","340","21","RA BR",,,,,,,,,,,,,,,,,,,,,,,,,,,,,,,,,,,,,,,,,,,,,,,,,,,,,,,,"SOD75624 HR PRECIPITATION (IN): 0.20 SNOW DEPTH (IN):0     24 HR SNOWFALL (IN):0.0  WEATHER(CODE):1  24 HR MAX TEMP (F): 4724 HR MIN TEMP (F): 42AVERAGE STATION PRESSURE:29.770 MINIMUM SEA LEVEL PRESSURE:29.72 TIME OF OCCURRENCE:0902 PEAK WIND SPEED (MPH): 26 PEAK WIND DIR (DEG):330 PEAK WIND TIME (LST):      FASTEST 2MIN SPEED (MPH): 21FASTEST 2MIN DIR (DEG):340 FASTEST 2MIN TIME (LST):     AVERAGE WIND SPEED (MPH):10.4 24 HR AVG TEMP (F): 45DEPART FROM NORMAL: -9  HEATING DEGREE DAYS: 20 COOLING DEGREE DAYS:  0 LATEST DAY MAX TEMP (0700-1900 LST):47  LATEST NIGHT MIN TEMP(1900-0800 LST):43 HOURLY INCREMENTAL PRECIPITATION VALUES (IN):.04 0.04 T    0.01 0.02 T    0.01 0.03 0.01 0.01 0.03 0.00 0.00 0.00 0.00 0.00 T    T    0.00 0.00 0.00 0.00 0.00 0.00","SOD  ","6",,,,,,,,,,,,,,,,,,,,,,,,,"0511","1839",,
"72503014732","2020-04-19T00:51:00","FM-15","7",,,,,,,,,,,,,,,,,,,,,,,,,,,,,,,,,,,,,,"29.94","24","44","0.00",,"-0.01","0","45","29.93","CLR:00","29.91","10.00","36","280",,"9",,,,,,,,,,,,,,,,,,,,,,,,,,,,,,,,,,,,,"MET11404/19/20 00:51:02 METAR KLGA 190551Z 28008KT 10SM CLR 07/M04 A2994 RMK AO2 SLP137 T00671044 10083 20067 50003 (WL)","FM-15","7",,,,,,,,,,,,,,,,,,,,,,,,,,,,
"72503014732","2020-04-19T01:00:00","FM-12","4",,,,,,,,,,,,,,,,,,,,,,,,,,,,,,,,,,,,,,,"24","44",,,"0.01","9","45","29.93",,"29.90","9.94","36","280",,"9",,,,,,,,,,,,,,,,,,,,,,,,,,,,,,,,,,,,,"SYN08072503 32966 02808 10067 21044 30125 40137 50003 90551 333 10083 20061 555 91906=","FM-12","4",,,,,,,,,,,,,,,,,,,,,,,,,,,,
"72503014732","2020-04-19T01:51:00","FM-15","7",,,,,,,,,,,,,,,,,,,,,,,,,,,,,,,,,,,,,,"29.94","24","44","0.00",,,,"45","29.94","CLR:00","29.91","10.00","36","250",,"9",,,,,,,,,,,,,,,,,,,,,,,,,,,,,,,,,,,,,"MET09604/19/20 01:51:02 METAR KLGA 190651Z 25008KT 10SM CLR 07/M04 A2994 RMK AO2 SLP139 T00671044 (WL)","FM-15","7",,,,,,,,,,,,,,,,,,,,,,,,,,,,
"72503014732","2020-04-19T02:51:00","FM-15","7",,,,,,,,,,,,,,,,,,,,,,,,,,,,,,,,,,,,,,"29.94","24","42","0.00",,,,"49","29.93","CLR:00","29.91","10.00","35","190",,"5",,,,,,,,,,,,,,,,,,,,,,,,,,,,,,,,,,,,,"MET09604/19/20 02:51:02 METAR KLGA 190751Z 19004KT 10SM CLR 06/M04 A2994 RMK AO2 SLP137 T00561044 (WL)","FM-15","7",,,,,,,,,,,,,,,,,,,,,,,,,,,,
"72503014732","2020-04-19T03:51:00","FM-15","7",,,,,,,,,,,,,,,,,,,,,,,,,,,,,,,,,,,,,,"29.93","24","43","0.00",,"+0.01","8","47","29.93","CLR:00","29.90","10.00","36","220",,"7",,,,,,,,,,,,,,,,,,,,,,,,,,,,,,,,,,,,,"MET10204/19/20 03:51:02 METAR KLGA 190851Z 22006KT 10SM CLR 06/M04 A2993 RMK AO2 SLP136 T00611044 58002 (WL)","FM-15","7",,,,,,,,,,,,,,,,,,,,,,,,,,,,
"72503014732","2020-04-19T04:00:00","FM-12","4",,,,,,,,,,,,,,,,,,,,,,,,,,,,,,,,,,,,,,,"24","43",,,"+0.01","8","47","29.93",,"29.89","9.94","36","220",,"7",,,,,,,,,,,,,,,,,,,,,,,,,,,,,,,,,,,,,"SYN06472503 32966 02206 10061 21044 30122 40136 58002 90851 555 91909=","FM-12","4",,,,,,,,,,,,,,,,,,,,,,,,,,,,
"72503014732","2020-04-19T04:51:00","FM-15","7",,,,,,,,,,,,,,,,,,,,,,,,,,,,,,,,,,,,,,"29.93","24","42","0.00",,,,"49","29.93","FEW:02 250","29.90","10.00","35","230",,"10",,,,,,,,,,,,,,,,,,,,,,,,,,,,,,,,,,,,,"MET09904/19/20 04:51:02 METAR KLGA 190951Z 23009KT 10SM FEW250 06/M04 A2993 RMK AO2 SLP135 T00561044 (WL)","FM-15","7",,,,,,,,,,,,,,,,,,,,,,,,,,,,
"72503014732","2020-04-19T05:51:00","FM-15","7",,,,,,,,,,,,,,,,,,,,,,,,,,,,,,,,,,,,,,"29.94","25","42","0.00",,,,"51","29.94","FEW:02 48 FEW:02 200 FEW:02 250","29.91","10.00","35","220",,"8",,,,,,,,,,,,,,,,,,,,,,,,,,,,,,,,,,,,,"MET11404/19/20 05:51:02 METAR KLGA 191051Z 22007KT 10SM FEW048 FEW200 FEW250 06/M04 A2994 RMK AO2 SLP138 T00561039 (ATK)","FM-15","7",,,,,,,,,,,,,,,,,,,,,,,,,,,,
"72503014732","2020-04-19T06:51:00","FM-15","7",,,,,,,,,,,,,,,,,,,,,,,,,,,,,,,,,,,,,,"29.95","27","44","0.00",,"-0.01","3","51","29.95","FEW:02 250","29.92","10.00","37","230",,"13",,,,,,,,,,,,,,,,,,,,,,,,,,,,,,,,,,,,,"MET12404/19/20 06:51:02 METAR KLGA 191151Z 23011KT 10SM FEW250 07/M03 A2995 RMK AO2 SLP141 70008 T00671028 10072 20056 53005 (ATK)","FM-15","7",,,,,,,,,,,,,,,,,,,,,,,,,,,,
"72503014732","2020-04-19T07:00:00","FM-12","4",,,,,,,,,,,,,,,,,,,,,,,,,,,,,,,,,,,,,,,"27","44",,,"-0.01","3","51","29.95",,"29.91","9.94","37","230",,"13",,,,,,,,,,,,,,,,,,,,,,,,,,,,,,,,,,,,,"SYN08672503 32966 22311 10067 21028 30129 40141 53005 91151 333 10083 20056 70020 555 91912=","FM-12","4",,,,,,,,,,,,,,,,,,,,,,,,,,,,
"72503014732","2020-04-19T07:51:00","FM-15","7",,,,,,,,,,,,,,,,,,,,,,,,,,,,,,,,,,,,,,"29.95","28","47","0.00",,,,"48","29.95","FEW:02 200","29.92","10.00","39","220",,"17",,,,,,,,,,,,,,,,,,,,,,,,,,,,,,,,,,,,,"MET10004/19/20 07:51:02 METAR KLGA 191251Z 22015KT 10SM FEW200 08/M02 A2995 RMK AO2 SLP141 T00831022 (ATK)","FM-15","7",,,,,,,,,,,,,,,,,,,,,,,,,,,,
"72503014732","2020-04-19T08:51:00","FM-15","7",,,,,,,,,,,,,,,,,,,,,,,,,,,,,,,,,,,,,,"29.92","27","51","0.00",,,,"39","29.92","FEW:02 130 FEW:02 200","29.89","10.00","41","240","24","15",,,,,,,,,,,,,,,,,,,,,,,,,,,,,,,,,,,,,"MET11004/19/20 08:51:02 METAR KLGA 191351Z 24013G21KT 10SM FEW130 FEW200 11/M03 A2992 RMK AO2 SLP131 T01061028 (ATK)","FM-15","7",,,,,,,,,,,,,,,,,,,,,,,,,,,,
"72503014732","2020-04-19T09:51:00","FM-15","7",,,,,,,,,,,,,,,,,,,,,,,,,,,,,,,,,,,,,,"29.90","27","54","0.00",,"+0.05","8","35","29.89","FEW:02 170 FEW:02 250","29.87","10.00","43","240","24","16",,,,,,,,,,,,,,,,,,,,,,,,,,,,,,,,,,,,,"MET11604/19/20 09:51:02 METAR KLGA 191451Z 24014G21KT 10SM FEW170 FEW250 12/M03 A2990 RMK AO2 SLP123 T01221028 58018 (ATK)","FM-15","7",,,,,,,,,,,,,,,,,,,,,,,,,,,,
"72503014732","2020-04-19T10:00:00","FM-12","4",,,,,,,,,,,,,,,,,,,,,,,,,,,,,,,,,,,,,,,"27","54",,,"+0.05","8","35","29.89",,"29.86","9.94","43","240",,"16",,,,,,,,,,,,,,,,,,,,,,,,,,,,,,,,,,,,,"SYN07472503 32966 22414 10122 21028 30112 40123 58018 91451 333 91021 555 91915=","FM-12","4",,,,,,,,,,,,,,,,,,,,,,,,,,,,
"72503014732","2020-04-19T10:51:00","FM-15","7",,,,,,,,,,,,,,,,,,,,,,,,,,,,,,,,,,,,,,"29.89","28","56","0.00",,,,"34","29.88","FEW:02 35 FEW:02 170 FEW:02 250","29.86","10.00","44","210","24","14",,,,,,,,,,,,,,,,,,,,,,,,,,,,,,,,,,,,,"MET11704/19/20 10:51:02 METAR KLGA 191551Z 21012G21KT 10SM FEW035 FEW170 FEW250 13/M02 A2989 RMK AO2 SLP120 T01331022 (ATK)","FM-15","7",,,,,,,,,,,,,,,,,,,,,,,,,,,,
"72503014732","2020-04-19T11:51:00","FM-15","7",,,,,,,,,,,,,,,,,,,,,,,,,,,,,,,,,,,,,,"29.84","29","58","0.00",,,,"33","29.84","FEW:02 50 FEW:02 250","29.81","10.00","45","230",,"16",,,,,,,,,,,,,,,,,,,,,,,,,,,,,,,,,,,,,"MET10704/19/20 11:51:02 METAR KLGA 191651Z 23014KT 10SM FEW050 FEW250 14/M02 A2984 RMK AO2 SLP106 T01441017 (ATK)","FM-15","7",,,,,,,,,,,,,,,,,,,,,,,,,,,,
"72503014732","2020-04-19T12:51:00","FM-15","7",,,,,,,,,,,,,,,,,,,,,,,,,,,,,,,,,,,,,,"29.81","29","60","0.00",,"+0.08","8","31","29.81","FEW:02 50 SCT:04 250","29.78","10.00","46","220","24","18",,,,,,,,,,,,,,,,,,,,,,,,,,,,,,,,,,,,,"MET12804/19/20 12:51:02 METAR KLGA 191751Z 22016G21KT 10SM FEW050 SCT250 16/M02 A2981 RMK AO2 SLP096 T01561017 10156 20067 58027 (ATK)","FM-15","7",,,,,,,,,,,,,,,,,,,,,,,,,,,,
"72503014732","2020-04-19T13:00:00","FM-12","4",,,,,,,,,,,,,,,,,,,,,,,,,,,,,,,,,,,,,,,"29","60",,,"+0.08","8","31","29.81","57","29.77","9.94","46","220",,"18",,,,,,,,,,,,,,,,,,,,,,,,,,,,,,,,,,,,,"SYN08672503 32766 42216 10156 21017 30081 40096 58027 91751 333 10156 20061 91021 555 91918=","FM-12","4",,,,,,,,,,,,,,,,,,,,,,,,,,,,
"72503014732","2020-04-19T13:51:00","FM-15","7",,,,,,,,,,,,,,,,,,,,,,,,,,,,,,,,,,,,,,"29.78","29","61","0.00",,,,"30","29.78","FEW:02 250","29.75","10.00","47","200","26","18",,,,,,,,,,,,,,,,,,,,,,,,,,,,,,,,,,,,,"MET10204/19/20 13:51:02 METAR KLGA 191851Z 20016G23KT 10SM FEW250 16/M02 A2978 RMK AO2 SLP084 T01611017 (JT)","FM-15","7",,,,,,,,,,,,,,,,,,,,,,,,,,,,
"72503014732","2020-04-19T14:51:00","FM-15","7",,,,,,,,,,,,,,,,,,,,,,,,,,,,,,,,,,,,,,"29.75","29","61","0.00",,,,"30","29.74","BKN:07 190 BKN:07 250","29.72","10.00","47","210","25","17",,,,,,,,,,,,,,,,,,,,,,,,,,,,,,,,,,,,,"MET12704/19/20 14:51:02 METAR KLGA 191951Z 21015G22KT 10SM BKN190 BKN250 16/M02 A2975 RMK AO2 PK WND 20026/1935 SLP072 T01611017 (JT)","FM-15","7",,,,,,,,,,,,,,,,,,,,,,,,,,,,
"72503014732","2020-04-19T15:51:00","FM-15","7",,,,,,,,,,,,,,,,,,,,,,,,,,,,,,,,,,,,,,"29.74","29","61","0.00",,"+0.07","6","30","29.74","FEW:02 190 OVC:08 250","29.71","10.00","47","220","30","15",,,,,,,,,,,,,,,,,,,,,,,,,,,,,,,,,,,,,"MET13304/19/20 15:51:02 METAR KLGA 192051Z 22013G26KT 10SM FEW190 OVC250 16/M02 A2974 RMK AO2 PK WND 24028/2039 SLP072 T01611017 56024 (JT)","FM-15","7",,,,,,,,,,,,,,,,,,,,,,,,,,,,
"72503014732","2020-04-19T16:00:00","FM-12","4",,,,,,,,,,,,,,,,,,,,,,,,,,,,,,,,,,,,,,,"29","61",,,"+0.07","6","30","29.74",,"29.70","9.94","47","220",,"15",,,,,,,,,,,,,,,,,,,,,,,,,,,,,,,,,,,,,"SYN07472503 32966 82213 10161 21017 30057 40072 56024 92051 333 91026 555 91921=","FM-12","4",,,,,,,,,,,,,,,,,,,,,,,,,,,,
"72503014732","2020-04-19T16:51:00","FM-15","7",,,,,,,,,,,,,,,,,,,,,,,,,,,,,,,,,,,,,,"29.73","28","60","0.00",,,,"30","29.73","SCT:04 120 BKN:07 170 OVC:08 250","29.70","10.00","46","230","25","15",,,,,,,,,,,,,,,,,,,,,,,,,,,,,,,,,,,,,"MET13404/19/20 16:51:02 METAR KLGA 192151Z 23013G22KT 10SM SCT120 BKN170 OVC250 16/M02 A2973 RMK AO2 PK WND 23026/2106 SLP068 T01561022 (JT)","FM-15","7",,,,,,,,,,,,,,,,,,,,,,,,,,,,
"72503014732","2020-04-19T17:51:00","FM-15","7",,,,,,,,,,,,,,,,,,,,,,,,,,,,,,,,,,,,,,"29.71","28","59","0.00",,,,"31","29.71","OVC:08 110","29.68","10.00","45","220",,"16",,,,,,,,,,,,,,,,,,,,,,,,,,,,,,,,,,,,,"MET09904/19/20 17:51:02 METAR KLGA 192251Z 22014KT 10SM OVC110 15/M02 A2971 RMK AO2 SLP062 T01501022 (JT)","FM-15","7",,,,,,,,,,,,,,,,,,,,,,,,,,,,
"72503014732","2020-04-19T18:51:00","FM-15","7",,,,,,,,,,,,,,,,,,,,,,,,,,,,,,,,,,,,,,"29.72","29","59","0.00",,"+0.02","5","32","29.72","OVC:08 110","29.69","10.00","46","230",,"10",,,,,,,,,,,,,,,,,,,,,,,,,,,,,,,,,,,,,"MET11704/19/20 18:51:02 METAR KLGA 192351Z 23009KT 10SM OVC110 15/M02 A2972 RMK AO2 SLP063 T01501017 10172 20150 55008 (JT)","FM-15","7",,,,,,,,,,,,,,,,,,,,,,,,,,,,
"72503014732","2020-04-19T19:00:00","FM-12","4",,,,,,,,,,,,,,,,,,,,,,,,,,,,,,,,,,,,,,,"29","59",,,"+0.02","5","32","29.72",,"29.68","9.94","46","230",,"10",,,,,,,,,,,,,,,,,,,,,,,,,,,,,,,,,,,,,"SYN08072503 32966 82309 10150 21017 30051 40063 55008 92351 333 10172 20056 555 92000=","FM-12","4",,,,,,,,,,,,,,,,,,,,,,,,,,,,
"72503014732","2020-04-19T19:51:00","FM-15","7",,,,,,,,,,,,,,,,,,,,,,,,,,,,,,,,,,,,,,"29.73","29","59","0.00",,,,"32","29.73","OVC:08 110","29.70","10.00","46","230","20","15",,,,,,,,,,,,,,,,,,,,,,,,,,,,,,,,,,,,,"MET09704/19/20 19:51:01 METAR KLGA 200051Z 23013G17KT 10SM OVC110 15/M02 A2973 RMK AO2 SLP067 T01501017","FM-15","7",,,,,,,,,,,,,,,,,,,,,,,,,,,,
"72503014732","2020-04-19T20:51:00","FM-15","7",,,,,,,,,,,,,,,,,,,,,,,,,,,,,,,,,,,,,,"29.73","30","58","0.00",,,,"35","29.73","OVC:08 120","29.70","10.00","45","220",,"10",,,,,,,,,,,,,,,,,,,,,,,,,,,,,,,,,,,,,"MET09404/19/20 20:51:01 METAR KLGA 200151Z 22009KT 10SM OVC120 14/M01 A2973 RMK AO2 SLP067 T01441011","FM-15","7",,,,,,,,,,,,,,,,,,,,,,,,,,,,
"72503014732","2020-04-19T21:51:00","FM-15","7",,,,,,,,,,,,,,,,,,,,,,,,,,,,,,,,,,,,,,"29.72","31","58","0.00",,"-0.00","0","36","29.72","SCT:04 110 OVC:08 130","29.69","10.00","46","210","17","9",,,,,,,,,,,,,,,,,,,,,,,,,,,,,,,,,,,,,"MET11004/19/20 21:51:01 METAR KLGA 200251Z 21008G15KT 10SM SCT110 OVC130 14/M01 A2972 RMK AO2 SLP065 T01441006 50001","FM-15","7",,,,,,,,,,,,,,,,,,,,,,,,,,,,
"72503014732","2020-04-19T22:00:00","FM-12","4",,,,,,,,,,,,,,,,,,,,,,,,,,,,,,,,,,,,,,,"31","58",,,"0.00","9","36","29.72",,"29.68","9.94","46","210",,"9",,,,,,,,,,,,,,,,,,,,,,,,,,,,,,,,,,,,,"SYN07472503 32966 82108 10144 21006 30051 40065 50001 90251 333 91015 555 92003=","FM-12","4",,,,,,,,,,,,,,,,,,,,,,,,,,,,
"72503014732","2020-04-19T22:51:00","FM-15","7",,,,,,,,,,,,,,,,,,,,,,,,,,,,,,,,,,,,,,"29.71","32","57","0.00",,,,"39","29.71","SCT:04 110 BKN:07 130 OVC:08 160","29.68","10.00","46","240",,"8",,,,,,,,,,,,,,,,,,,,,,,,,,,,,,,,,,,,,"MET10704/19/20 22:51:02 METAR KLGA 200351Z 24007KT 10SM SCT110 BKN130 OVC160 14/00 A2971 RMK AO2 SLP060 T01390000","FM-15","7",,,,,,,,,,,,,,,,,,,,,,,,,,,,
"72503014732","2020-04-19T23:51:00","FM-15","7",,,,,,,,,,,,,,,,,,,,,,,,,,,,,,,,,,,,,,"29.70","33","57","0.00",,,,"41","29.70","FEW:02 75 SCT:04 110 BKN:07 130","29.67","10.00","46","210",,"5",,,,,,,,,,,,,,,,,,,,,,,,,,,,,,,,,,,,,"MET11704/19/20 23:51:02 METAR KLGA 200451Z 21004KT 10SM FEW075 SCT110 BKN130 14/01 A2970 RMK AO2 SLP058 T01390006 401720056","FM-15","7",,,,,,,,,,,,,,,,,,,,,,,,,,,,
"72503014732","2020-04-19T23:59:00","SOD  ","6",,,,,,,,,,,,,,,,"53",,,"29.82",,"12.4","0","-1.0","12","63","42","240","32","0.00","0","0.0","220","24",,,,,,,,,,,,,,,,,,,,,,,,,,,,,,,,,,,,,,,,,,,,,,,,,,,,,,,,,"SOD73924 HR PRECIPITATION (IN): 0.00 SNOW DEPTH (IN):0     24 HR SNOWFALL (IN):0.0  24 HR MAX TEMP (F): 6324 HR MIN TEMP (F): 42AVERAGE STATION PRESSURE:29.815 MINIMUM SEA LEVEL PRESSURE:29.70 TIME OF OCCURRENCE:2359 PEAK WIND SPEED (MPH): 32 PEAK WIND DIR (DEG):240 PEAK WIND TIME (LST):      FASTEST 2MIN SPEED (MPH): 24FASTEST 2MIN DIR (DEG):220 FASTEST 2MIN TIME (LST):     AVERAGE WIND SPEED (MPH):12.4 24 HR AVG TEMP (F): 53DEPART FROM NORMAL: -1  HEATING DEGREE DAYS: 12 COOLING DEGREE DAYS:  0 LATEST DAY MAX TEMP (0700-1900 LST):63  LATEST NIGHT MIN TEMP(1900-0800 LST):42 HOURLY INCREMENTAL PRECIPITATION VALUES (IN):.00 0.00 0.00 0.00 0.00 0.00 0.00 0.00 0.00 0.00 0.00 0.00 0.00 0.00 0.00 0.00 0.00 0.00 0.00 0.00 0.00 0.00 0.00 0.00","SOD  ","6",,,,,,,,,,,,,,,,,,,,,,,,,"0510","1840",,
"72503014732","2020-04-20T00:51:00","FM-15","7",,,,,,,,,,,,,,,,,,,,,,,,,,,,,,,,,,,,,,"29.69","35","56","0.00",,"+0.03","6","46","29.69","FEW:02 70 BKN:07 95 BKN:07 110","29.66","10.00","46","300",,"8",,,,,,,,,,,,,,,,,,,,,,,,,,,,,,,,,,,,,"MET13004/20/20 00:51:02 METAR KLGA 200551Z 30007KT 10SM FEW070 BKN095 BKN110 13/02 A2969 RMK AO2 SLP055 T01330017 10150 20128 56009 (DM)","FM-15","7",,,,,,,,,,,,,,,,,,,,,,,,,,,,
"72503014732","2020-04-20T01:00:00","FM-12","4",,,,,,,,,,,,,,,,,,,,,,,,,,,,,,,,,,,,,,,"35","56",,,"+0.03","6","46","29.69","74","29.65","9.94","46","300",,"8",,,,,,,,,,,,,,,,,,,,,,,,,,,,,,,,,,,,,"SYN08072503 32866 83007 10133 20017 30041 40055 56009 90551 333 10150 20056 555 92006=","FM-12","4",,,,,,,,,,,,,,,,,,,,,,,,,,,,
"72503014732","2020-04-20T01:51:00","FM-15","7",,,,,,,,,,,,,,,,,,,,,,,,,,,,,,,,,,,,,,"29.68","38","54","0.00",,,,"55","29.67","FEW:02 85 BKN:07 120 OVC:08 140","29.65","10.00","46","310",,"7",,,,,,,,,,,,,,,,,,,,,,,,,,,,,,,,,,,,,"MET11204/20/20 01:51:02 METAR KLGA 200651Z 31006KT 10SM FEW085 BKN120 OVC140 12/03 A2968 RMK AO2 SLP049 T01220033 (DM)","FM-15","7",,,,,,,,,,,,,,,,,,,,,,,,,,,,
"72503014732","2020-04-20T02:51:00","FM-15","7",,,,,,,,,,,,,,,,,,,,,,,,,,,,,,,,,,,,,,"29.67","35","55","0.00",,,,"47","29.67","FEW:02 85 BKN:07 120 OVC:08 150","29.64","10.00","46","350",,"10",,,,,,,,,,,,,,,,,,,,,,,,,,,,,,,,,,,,,"MET11204/20/20 02:51:02 METAR KLGA 200751Z 35009KT 10SM FEW085 BKN120 OVC150 13/02 A2967 RMK AO2 SLP048 T01280017 (DM)","FM-15","7",,,,,,,,,,,,,,,,,,,,,,,,,,,,
"72503014732","2020-04-20T03:51:00","FM-15","7",,,,,,,,,,,,,,,,,,,,,,,,,,,,,,,,,,,,,,"29.67","37","53","0.00",,"+0.02","6","55","29.67","FEW:02 100 BKN:07 120 BKN:07 150","29.64","10.00","46","340",,"9",,,,,,,,,,,,,,,,,,,,,,,,,,,,,,,,,,,,,"MET11804/20/20 03:51:02 METAR KLGA 200851Z 34008KT 10SM FEW100 BKN120 BKN150 12/03 A2967 RMK AO2 SLP047 T01170028 56008 (DM)","FM-15","7",,,,,,,,,,,,,,,,,,,,,,,,,,,,
"72503014732","2020-04-20T04:00:00","FM-12","4",,,,,,,,,,,,,,,,,,,,,,,,,,,,,,,,,,,,,,,"37","53",,,"+0.02","6","55","29.67",,"29.63","9.94","46","340",,"9",,,,,,,,,,,,,,,,,,,,,,,,,,,,,,,,,,,,,"SYN06472503 32966 63408 10117 20028 30034 40047 56008 90851 555 92009=","FM-12","4",,,,,,,,,,,,,,,,,,,,,,,,,,,,
"72503014732","2020-04-20T04:51:00","FM-15","7",,,,,,,,,,,,,,,,,,,,,,,,,,,,,,,,,,,,,,"29.67","37","53","0.00",,,,"55","29.67","BKN:07 120 BKN:07 150 BKN:07 200","29.64","10.00","46","350",,"10",,,,,,,,,,,,,,,,,,,,,,,,,,,,,,,,,,,,,"MET11204/20/20 04:51:02 METAR KLGA 200951Z 35009KT 10SM BKN120 BKN150 BKN200 12/03 A2967 RMK AO2 SLP046 T01170028 (DM)","FM-15","7",,,,,,,,,,,,,,,,,,,,,,,,,,,,
"72503014732","2020-04-20T05:51:00","FM-15","7",,,,,,,,,,,,,,,,,,,,,,,,,,,,,,,,,,,,,,"29.67","38","52","0.00",,,,"59","29.67","SCT:04 120 OVC:08 170","29.64","10.00","45","360",,"8",,,,,,,,,,,,,,,,,,,,,,,,,,,,,,,,,,,,,"MET10504/20/20 05:51:02 METAR KLGA 201051Z 36007KT 10SM SCT120 OVC170 11/03 A2967 RMK AO2 SLP048 T01110033 (PS)","FM-15","7",,,,,,,,,,,,,,,,,,,,,,,,,,,,
"72503014732","2020-04-20T06:51:00","FM-15","7",,,,,,,,,,,,,,,,,,,,,,,,,,,,,,,,,,,,,,"29.69","38","52","0.00",,"-0.02","3","59","29.69","SCT:04 110 OVC:08 170","29.66","10.00","45","030",,"7",,,,,,,,,,,,,,,,,,,,,,,,,,,,,,,,,,,,,"MET12304/20/20 06:51:02 METAR KLGA 201151Z 03006KT 10SM SCT110 OVC170 11/03 A2969 RMK AO2 SLP054 T01110033 10133 20111 53007 (PS)","FM-15","7",,,,,,,,,,,,,,,,,,,,,,,,,,,,
"72503014732","2020-04-20T07:00:00","FM-12","4",,,,,,,,,,,,,,,,,,,,,,,,,,,,,,,,,,,,,,,"38","52",,,"-0.02","3","59","29.69",,"29.65","9.94","45","030",,"7",,,,,,,,,,,,,,,,,,,,,,,,,,,,,,,,,,,,,"SYN08072503 32966 80306 10111 20033 30041 40054 53007 91151 333 10172 20111 555 92012=","FM-12","4",,,,,,,,,,,,,,,,,,,,,,,,,,,,
"72503014732","2020-04-20T07:51:00","FM-15","7",,,,,,,,,,,,,,,,,,,,,,,,,,,,,,,,,,,,,,"29.68","33","51","0.00",,,,"50","29.68","SCT:04 100 BKN:07 140 OVC:08 250","29.65","10.00","43","010",,"10",,,,,,,,,,,,,,,,,,,,,,,,,,,,,,,,,,,,,"MET11204/20/20 07:51:02 METAR KLGA 201251Z 01009KT 10SM SCT100 BKN140 OVC250 11/01 A2968 RMK AO2 SLP051 T01060006 (PS)","FM-15","7",,,,,,,,,,,,,,,,,,,,,,,,,,,,
"72503014732","2020-04-20T08:51:00","FM-15","7",,,,,,,,,,,,,,,,,,,,,,,,,,,,,,,,,,,,,,"29.67","34","50","0.00",,,,"54","29.67","FEW:02 95 BKN:07 150 OVC:08 250","29.64","10.00","43","040",,"11",,,,,,,,,,,,,,,,,,,,,,,,,,,,,,,,,,,,,"MET11204/20/20 08:51:02 METAR KLGA 201351Z 04010KT 10SM FEW095 BKN150 OVC250 10/01 A2967 RMK AO2 SLP046 T01000011 (PS)","FM-15","7",,,,,,,,,,,,,,,,,,,,,,,,,,,,
"72503014732","2020-04-20T09:51:00","FM-15","7",,,,,,,,,,,,,,,,,,,,,,,,,,,,,,,,,,,,,,"29.67","32","50","0.00",,"+0.02","5","50","29.67","FEW:02 100 OVC:08 160","29.64","10.00","42","020",,"13",,,,,,,,,,,,,,,,,,,,,,,,,,,,,,,,,,,,,"MET11104/20/20 09:51:02 METAR KLGA 201451Z 02011KT 10SM FEW100 OVC160 10/00 A2967 RMK AO2 SLP047 T01000000 55006 (PS)","FM-15","7",,,,,,,,,,,,,,,,,,,,,,,,,,,,
"72503014732","2020-04-20T10:00:00","FM-12","4",,,,,,,,,,,,,,,,,,,,,,,,,,,,,,,,,,,,,,,"32","50",,,"+0.02","5","50","29.67",,"29.63","9.94","42","020",,"13",,,,,,,,,,,,,,,,,,,,,,,,,,,,,,,,,,,,,"SYN06472503 32966 80211 10100 20000 30034 40047 55006 91451 555 92015=","FM-12","4",,,,,,,,,,,,,,,,,,,,,,,,,,,,
"72503014732","2020-04-20T10:51:00","FM-15","7",,,,,,,,,,,,,,,,,,,,,,,,,,,,,,,,,,,,,,"29.66","29","50","0.00",,,,"44","29.66","FEW:02 95 OVC:08 160","29.63","10.00","41","030",,"9",,,,,,,,,,,,,,,,,,,,,,,,,,,,,,,,,,,,,"MET10604/20/20 10:51:02 METAR KLGA 201551Z 03008KT 10SM FEW095 OVC160 10/M02 A2966 RMK AO2 SLP044 T01001017 (PS)","FM-15","7",,,,,,,,,,,,,,,,,,,,,,,,,,,,
"72503014732","2020-04-20T11:51:00","FM-15","7",,,,,,,,,,,,,,,,,,,,,,,,,,,,,,,,,,,,,,"29.65","29","51","0.00",,,,"43","29.65","FEW:02 110 OVC:08 150","29.62","10.00","42","340",,"11",,,,,,,,,,,,,,,,,,,,,,,,,,,,,,,,,,,,,"MET10604/20/20 11:51:02 METAR KLGA 201651Z 34010KT 10SM FEW110 OVC150 11/M02 A2965 RMK AO2 SLP039 T01061017 (PS)","FM-15","7",,,,,,,,,,,,,,,,,,,,,,,,,,,,
"72503014732","2020-04-20T12:51:00","FM-15","7",,,,,,,,,,,,,,,,,,,,,,,,,,,,,,,,,,,,,,"29.63","26","51","0.00",,"+0.04","8","38","29.62","FEW:02 110 BKN:07 170 OVC:08 250","29.60","10.00","41","340",,"10",,,,,,,,,,,,,,,,,,,,,,,,,,,,,,,,,,,,,"MET13104/20/20 12:51:02 METAR KLGA 201751Z 34009KT 10SM FEW110 BKN170 OVC250 11/M03 A2963 RMK AO2 SLP032 T01061033 10111 20094 58015 (PS)","FM-15","7",,,,,,,,,,,,,,,,,,,,,,,,,,,,
"72503014732","2020-04-20T13:00:00","FM-12","4",,,,,,,,,,,,,,,,,,,,,,,,,,,,,,,,,,,,,,,"26","51",,,"+0.04","8","38","29.62",,"29.59","9.94","41","340",,"10",,,,,,,,,,,,,,,,,,,,,,,,,,,,,,,,,,,,,"SYN08072503 32966 83409 10106 21033 30020 40032 58015 91751 333 10133 20094 555 92018=","FM-12","4",,,,,,,,,,,,,,,,,,,,,,,,,,,,
"72503014732","2020-04-20T13:51:00","FM-15","7",,,,,,,,,,,,,,,,,,,,,,,,,,,,,,,,,,,,,,"29.62","25","53","0.00",,,,"34","29.62","FEW:02 110 BKN:07 170 OVC:08 250","29.59","10.00","41","030",,"5",,,,,,,,,,,,,,,,,,,,,,,,,,,,,,,,,,,,,"MET11304/20/20 13:51:02 METAR KLGA 201851Z 03004KT 10SM FEW110 BKN170 OVC250 12/M04 A2962 RMK AO2 SLP029 T01171039 (WL)","FM-15","7",,,,,,,,,,,,,,,,,,,,,,,,,,,,
"72503014732","2020-04-20T14:51:00","FM-15","7",,,,,,,,,,,,,,,,,,,,,,,,,,,,,,,,,,,,,,"29.61","26","54","0.00",,,,"34","29.61","FEW:02 100 BKN:07 180 BKN:07 250","29.58","10.00","42","070",,"6",,,,,,,,,,,,,,,,,,,,,,,,,,,,,,,,,,,,,"MET11304/20/20 14:51:02 METAR KLGA 201951Z 07005KT 10SM FEW100 BKN180 BKN250 12/M03 A2961 RMK AO2 SLP026 T01221033 (WL)","FM-15","7",,,,,,,,,,,,,,,,,,,,,,,,,,,,
"72503014732","2020-04-20T15:51:00","FM-15","7",,,,,,,,,,,,,,,,,,,,,,,,,,,,,,,,,,,,,,"29.61","26","54","0.00",,"+0.02","6","34","29.60","BKN:07 180 BKN:07 250","29.58","10.00","42","040",,"3",,,,,,,,,,,,,,,,,,,,,,,,,,,,,,,,,,,,,"MET11204/20/20 15:51:02 METAR KLGA 202051Z 04003KT 10SM BKN180 BKN250 12/M03 A2961 RMK AO2 SLP025 T01221033 56007 (WL)","FM-15","7",,,,,,,,,,,,,,,,,,,,,,,,,,,,
"72503014732","2020-04-20T16:00:00","FM-12","4",,,,,,,,,,,,,,,,,,,,,,,,,,,,,,,,,,,,,,,"26","54",,,"+0.02","6","34","29.60",,"29.57","9.94","42","040",,"3",,,,,,,,,,,,,,,,,,,,,,,,,,,,,,,,,,,,,"SYN06472503 32966 60403 10122 21033 30013 40025 56007 92051 555 92021=","FM-12","4",,,,,,,,,,,,,,,,,,,,,,,,,,,,
"72503014732","2020-04-20T16:51:00","FM-15","7",,,,,,,,,,,,,,,,,,,,,,,,,,,,,,,,,,,,,,"29.62","24","54","0.00",,,,"31","29.62","BKN:07 180 BKN:07 250","29.59","10.00","42","090",,"5",,,,,,,,,,,,,,,,,,,,,,,,,,,,,,,,,,,,,"MET10604/20/20 16:51:02 METAR KLGA 202151Z 09004KT 10SM BKN180 BKN250 12/M04 A2962 RMK AO2 SLP029 T01221044 (WL)","FM-15","7",,,,,,,,,,,,,,,,,,,,,,,,,,,,
"72503014732","2020-04-20T17:51:00","FM-15","7",,,,,,,,,,,,,,,,,,,,,,,,,,,,,,,,,,,,,,"29.61","23","54","0.00",,,,"30","29.61","BKN:07 180 BKN:07 250","29.58","10.00","41","000",,"0",,,,,,,,,,,,,,,,,,,,,,,,,,,,,,,,,,,,,"MET10604/20/20 17:51:02 METAR KLGA 202251Z 00000KT 10SM BKN180 BKN250 12/M05 A2961 RMK AO2 SLP027 T01221050 (WL)","FM-15","7",,,,,,,,,,,,,,,,,,,,,,,,,,,,
"72503014732","2020-04-20T18:51:00","FM-15","7",,,,,,,,,,,,,,,,,,,,,,,,,,,,,,,,,,,,,,"29.63","21","54","0.00",,"-0.02","3","28","29.62","FEW:02 200 BKN:07 250","29.60","10.00","41","000",,"0",,,,,,,,,,,,,,,,,,,,,,,,,,,,,,,,,,,,,"MET12404/20/20 18:51:02 METAR KLGA 202351Z 00000KT 10SM FEW200 BKN250 12/M06 A2963 RMK AO2 SLP032 T01221061 10128 20106 53006 (WL)","FM-15","7",,,,,,,,,,,,,,,,,,,,,,,,,,,,
"72503014732","2020-04-20T19:00:00","FM-12","4",,,,,,,,,,,,,,,,,,,,,,,,,,,,,,,,,,,,,,,"21","54",,,"-0.02","3","28","29.62",,"29.59","9.94","41","000",,"0",,,,,,,,,,,,,,,,,,,,,,,,,,,,,,,,,,,,,"SYN08072503 32966 60000 10122 21061 30020 40032 53006 92351 333 10128 20106 555 92100=","FM-12","4",,,,,,,,,,,,,,,,,,,,,,,,,,,,
"72503014732","2020-04-20T19:51:00","FM-15","7",,,,,,,,,,,,,,,,,,,,,,,,,,,,,,,,,,,,,,"29.65","21","54","0.00",,,,"28","29.65","FEW:02 200 BKN:07 250","29.62","10.00","41","000",,"0",,,,,,,,,,,,,,,,,,,,,,,,,,,,,,,,,,,,,"MET10104/20/20 19:51:01 METAR KLGA 210051Z 00000KT 10SM FEW200 BKN250 12/M06 A2965 RMK AO2 SLP039 T01221061","FM-15","7",,,,,,,,,,,,,,,,,,,,,,,,,,,,
"72503014732","2020-04-20T20:51:00","FM-15","7",,,,,,,,,,,,,,,,,,,,,,,,,,,,,,,,,,,,,,"29.67","23","52","0.00",,,,"32","29.67","FEW:02 200 BKN:07 250","29.64","10.00","40","210",,"8",,,,,,,,,,,,,,,,,,,,,,,,,,,,,,,,,,,,,"MET10104/20/20 20:51:01 METAR KLGA 210151Z 21007KT 10SM FEW200 BKN250 11/M05 A2967 RMK AO2 SLP047 T01111050","FM-15","7",,,,,,,,,,,,,,,,,,,,,,,,,,,,
"72503014732","2020-04-20T21:51:00","FM-15","7",,,,,,,,,,,,,,,,,,,,,,,,,,,,,,,,,,,,,,"29.68","26","51","0.00",,"-0.05","1","38","29.67","FEW:02 250","29.65","10.00","41","190",,"8",,,,,,,,,,,,,,,,,,,,,,,,,,,,,,,,,,,,,"MET10004/20/20 21:51:01 METAR KLGA 210251Z 19007KT 10SM FEW250 11/M03 A2968 RMK AO2 SLP049 T01061033 51018","FM-15","7",,,,,,,,,,,,,,,,,,,,,,,,,,,,
"72503014732","2020-04-20T22:00:00","FM-12","4",,,,,,,,,,,,,,,,,,,,,,,,,,,,,,,,,,,,,,,"26","51",,,"-0.05","1","38","29.67",,"29.64","9.94","41","190",,"8",,,,,,,,,,,,,,,,,,,,,,,,,,,,,,,,,,,,,"SYN06472503 32966 21907 10106 21033 30037 40049 51018 90251 555 92103=","FM-12","4",,,,,,,,,,,,,,,,,,,,,,,,,,,,
"72503014732","2020-04-20T22:51:00","FM-15","7",,,,,,,,,,,,,,,,,,,,,,,,,,,,,,,,,,,,,,"29.69","27","50","0.00",,,,"41","29.68","FEW:02 250","29.66","10.00","40","180",,"6",,,,,,,,,,,,,,,,,,,,,,,,,,,,,,,,,,,,,"MET09404/20/20 22:51:02 METAR KLGA 210351Z 18005KT 10SM FEW250 10/M03 A2969 RMK AO2 SLP052 T01001028","FM-15","7",,,,,,,,,,,,,,,,,,,,,,,,,,,,
"72503014732","2020-04-20T23:51:00","FM-15","7",,,,,,,,,,,,,,,,,,,,,,,,,,,,,,,,,,,,,,"29.70","32","49","0.00",,,,"52","29.70","CLR:00","29.67","10.00","42","190",,"8",,,,,,,,,,,,,,,,,,,,,,,,,,,,,,,,,,,,,"MET10004/20/20 23:51:02 METAR KLGA 210451Z 19007KT 10SM CLR 09/00 A2970 RMK AO2 SLP057 T00940000 401390094","FM-15","7",,,,,,,,,,,,,,,,,,,,,,,,,,,,
"72503014732","2020-04-20T23:59:00","SOD  ","6",,,,,,,,,,,,,,,,"53",,,"29.62",,"7.2","0","-1.3","12","57","49","030","20","0.00","0","0.0","050","17",,,,,,,,,,,,,,,,,,,,,,,,,,,,,,,,,,,,,,,,,,,,,,,,,,,,,,,,,"SOD73924 HR PRECIPITATION (IN): 0.00 SNOW DEPTH (IN):0     24 HR SNOWFALL (IN):0.0  24 HR MAX TEMP (F): 5724 HR MIN TEMP (F): 49AVERAGE STATION PRESSURE:29.620 MINIMUM SEA LEVEL PRESSURE:29.60 TIME OF OCCURRENCE:1552 PEAK WIND SPEED (MPH): 20 PEAK WIND DIR (DEG): 30 PEAK WIND TIME (LST):      FASTEST 2MIN SPEED (MPH): 17FASTEST 2MIN DIR (DEG): 50 FASTEST 2MIN TIME (LST):     AVERAGE WIND SPEED (MPH): 7.2 24 HR AVG TEMP (F): 53DEPART FROM NORMAL: -1  HEATING DEGREE DAYS: 12 COOLING DEGREE DAYS:  0 LATEST DAY MAX TEMP (0700-1900 LST):55  LATEST NIGHT MIN TEMP(1900-0800 LST):50 HOURLY INCREMENTAL PRECIPITATION VALUES (IN):.00 0.00 0.00 0.00 0.00 0.00 0.00 0.00 0.00 0.00 0.00 0.00 0.00 0.00 0.00 0.00 0.00 0.00 0.00 0.00 0.00 0.00 0.00 0.00","SOD  ","6",,,,,,,,,,,,,,,,,,,,,,,,,"0508","1841",,
"72503014732","2020-04-21T00:51:00","FM-15","7",,,,,,,,,,,,,,,,,,,,,,,,,,,,,,,,,,,,,,"29.70","32","49","0.00",,"-0.02","1","52","29.70","CLR:00","29.67","10.00","42","200",,"13",,,,,,,,,,,,,,,,,,,,,,,,,,,,,,,,,,,,,"MET11304/21/20 00:51:02 METAR KLGA 210551Z 20011KT 10SM CLR 09/00 A2970 RMK AO2 SLP057 T00940000 10122 20094 51008 (RZ)","FM-15","7",,,,,,,,,,,,,,,,,,,,,,,,,,,,
"72503014732","2020-04-21T01:00:00","FM-12","4",,,,,,,,,,,,,,,,,,,,,,,,,,,,,,,,,,,,,,,"32","49",,,"-0.02","1","52","29.70",,"29.66","9.94","42","200",,"13",,,,,,,,,,,,,,,,,,,,,,,,,,,,,,,,,,,,,"SYN08072503 32966 02011 10094 20000 30044 40057 51008 90551 333 10133 20094 555 92106=","FM-12","4",,,,,,,,,,,,,,,,,,,,,,,,,,,,
"72503014732","2020-04-21T01:51:00","FM-15","7",,,,,,,,,,,,,,,,,,,,,,,,,,,,,,,,,,,,,,"29.68","32","48","0.00",,,,"54","29.67","CLR:00","29.65","10.00","41","180",,"9",,,,,,,,,,,,,,,,,,,,,,,,,,,,,,,,,,,,,"MET09504/21/20 01:51:02 METAR KLGA 210651Z 18008KT 10SM CLR 09/00 A2968 RMK AO2 SLP049 T00890000 (RZ)","FM-15","7",,,,,,,,,,,,,,,,,,,,,,,,,,,,
"72503014732","2020-04-21T02:51:00","FM-15","7",,,,,,,,,,,,,,,,,,,,,,,,,,,,,,,,,,,,,,"29.67","33","47","0.00",,,,"59","29.67","FEW:02 90","29.64","10.00","41","180",,"6",,,,,,,,,,,,,,,,,,,,,,,,,,,,,,,,,,,,,"MET09804/21/20 02:51:02 METAR KLGA 210751Z 18005KT 10SM FEW090 08/01 A2967 RMK AO2 SLP046 T00830006 (RZ)","FM-15","7",,,,,,,,,,,,,,,,,,,,,,,,,,,,
"72503014732","2020-04-21T03:51:00","FM-15","7",,,,,,,,,,,,,,,,,,,,,,,,,,,,,,,,,,,,,,"29.64","34","46","0.00",,"+0.06","8","63","29.64","FEW:02 65","29.61","10.00","41","160",,"9",,,,,,,,,,,,,,,,,,,,,,,,,,,,,,,,,,,,,"MET10404/21/20 03:51:02 METAR KLGA 210851Z 16008KT 10SM FEW065 08/01 A2964 RMK AO2 SLP038 T00780011 58019 (RZ)","FM-15","7",,,,,,,,,,,,,,,,,,,,,,,,,,,,
"72503014732","2020-04-21T04:00:00","FM-12","4",,,,,,,,,,,,,,,,,,,,,,,,,,,,,,,,,,,,,,,"34","46",,,"+0.06","8","63","29.64","57","29.60","9.94","41","160",,"9",,,,,,,,,,,,,,,,,,,,,,,,,,,,,,,,,,,,,"SYN06472503 32766 21608 10078 20011 30024 40038 58019 90851 555 92109=","FM-12","4",,,,,,,,,,,,,,,,,,,,,,,,,,,,
"72503014732","2020-04-21T04:51:00","FM-15","7",,,,,,,,,,,,,,,,,,,,,,,,,,,,,,,,,,,,,,"29.64","37","46","0.00",,,,"71","29.64","FEW:02 60","29.61","10.00","42","180",,"9",,,,,,,,,,,,,,,,,,,,,,,,,,,,,,,,,,,,,"MET09804/21/20 04:51:02 METAR KLGA 210951Z 18008KT 10SM FEW060 08/03 A2964 RMK AO2 SLP036 T00780028 (RZ)","FM-15","7",,,,,,,,,,,,,,,,,,,,,,,,,,,,
"72503014732","2020-04-21T05:51:00","FM-15","7",,,,,,,,,,,,,,,,,,,,,,,,,,,,,,,,,,,,,,"29.63","40","47","0.00",,,,"77","29.63","SCT:04 45 BKN:07 250","29.60","10.00","44","180",,"11",,,,,,,,,,,,,,,,,,,,,,,,,,,,,,,,,,,,,"MET10604/21/20 05:51:02 METAR KLGA 211051Z 18010KT 10SM SCT045 BKN250 08/04 A2963 RMK AO2 SLP034 T00830044 (PAS)","FM-15","7",,,,,,,,,,,,,,,,,,,,,,,,,,,,
"72503014732","2020-04-21T06:51:00","FM-15","7",,,,,,,,,,,,,,,,,,,,,,,,,,,,,,,,,,,,,,"29.62","42","50","0.00",,"+0.03","8","74","29.62","FEW:02 45 BKN:07 130 BKN:07 250","29.59","10.00","46","200",,"13",,,,,,,,,,,,,,,,,,,,,,,,,,,,,,,,,,,,,"MET13104/21/20 06:51:02 METAR KLGA 211151Z 20011KT 10SM FEW045 BKN130 BKN250 10/06 A2962 RMK AO2 SLP029 T01000056 10100 20078 58009 (PAS)","FM-15","7",,,,,,,,,,,,,,,,,,,,,,,,,,,,
"72503014732","2020-04-21T07:00:00","FM-12","4",,,,,,,,,,,,,,,,,,,,,,,,,,,,,,,,,,,,,,,"42","50",,,"+0.03","8","74","29.62","41","29.58","9.94","46","200",,"13",,,,,,,,,,,,,,,,,,,,,,,,,,,,,,,,,,,,,"SYN08072503 32666 62011 10100 20056 30017 40029 58009 91151 333 10139 20078 555 92112=","FM-12","4",,,,,,,,,,,,,,,,,,,,,,,,,,,,
"72503014732","2020-04-21T07:51:00","FM-15","7",,,,,,,,,,,,,,,,,,,,,,,,,,,,,,,,,,,,,,"29.59","44","53","0.00",,,,"72","29.59","FEW:02 18 BKN:07 100 BKN:07 250","29.56","10.00","49","180","18","13",,,,,,,,,,,,,,,,,,,,,,,,,,,,,,,,,,,,,"MET11604/21/20 07:51:02 METAR KLGA 211251Z 18011G16KT 10SM FEW018 BKN100 BKN250 12/07 A2959 RMK AO2 SLP019 T01170067 (PAS)","FM-15","7",,,,,,,,,,,,,,,,,,,,,,,,,,,,
"72503014732","2020-04-21T08:51:00","FM-15","7",,,,,,,,,,,,,,,,,,,,,,,,,,,,,,,,,,,,,,"29.55","45","55","0.00",,,,"69","29.55","FEW:02 20 SCT:04 90 BKN:07 250","29.52","10.00","50","190",,"17",,,,,,,,,,,,,,,,,,,,,,,,,,,,,,,,,,,,,"MET11304/21/20 08:51:02 METAR KLGA 211351Z 19015KT 10SM FEW020 SCT090 BKN250 13/07 A2955 RMK AO2 SLP008 T01280072 (PAS)","FM-15","7",,,,,,,,,,,,,,,,,,,,,,,,,,,,
"72503014732","2020-04-21T09:51:00","FM-15","7",,,,,,,,,,,,,,,,,,,,,,,,,,,,,,,,,,,,,,"29.51","47","57","0.00",,"+0.11","8","69","29.51","FEW:02 25 SCT:04 120 BKN:07 250","29.48","10.00","52","170","25","20",,,,,,,,,,,,,,,,,,,,,,,,,,,,,,,,,,,,,"MET12204/21/20 09:51:02 METAR KLGA 211451Z 17017G22KT 10SM FEW025 SCT120 BKN250 14/08 A2951 RMK AO2 SLP993 T01390083 58036 (PAS)","FM-15","7",,,,,,,,,,,,,,,,,,,,,,,,,,,,
"72503014732","2020-04-21T10:00:00","FM-12","4",,,,,,,,,,,,,,,,,,,,,,,,,,,,,,,,,,,,,,,"47","57",,,"+0.11","8","69","29.51","26","29.47","9.94","52","170",,"20",,,,,,,,,,,,,,,,,,,,,,,,,,,,,,,,,,,,,"SYN07472503 32566 61717 10139 20083 39980 49993 58036 91451 333 91022 555 92115=","FM-12","4",,,,,,,,,,,,,,,,,,,,,,,,,,,,
"72503014732","2020-04-21T10:51:00","FM-15","7",,,,,,,,,,,,,,,,,,,,,,,,,,,,,,,,,,,,,,"29.49","47","56","T",,,,"72","29.49","FEW:02 15 SCT:04 40 SCT:04 70","29.46","10.00","51","180","23","17",,,,,,,,,,,,,,,,,,,,,,,,,,,,,,,,,,,,,"MET11604/21/20 10:51:02 METAR KLGA 211551Z 18015G20KT 10SM FEW015 SCT040 SCT070 13/08 A2949 RMK AO2 SLP987 T01330083 (PAS)","FM-15","7",,,,,,,,,,,,,,,,,,,,,,,,,,,,
"72503014732","2020-04-21T11:18:00","FM-16","7",,,,,,,,,,,,,,,,,,,,,,,,,,,,,,,,,,,,,,"29.48","47","55","T","TS:7 -RA:02 |RA TS TS |RA",,,"74",,"FEW:02 17 BKN:07 60 OVC:08 75","29.45","8.00","51","210",,"10",,,,,,,,,,,,,,,,,,,,,,,,,,,,,,,,,,,,,"MET18904/21/20 11:18:02 SPECI KLGA 211618Z 21009KT 8SM -TSRA FEW017 BKN060CB OVC075 13/08 A2948 RMK AO2 LTG DSNT N AND S AND SW RAB1559 TSB17 OCNL LTGIC SW-NW TS SW-NW MOV E P0000 T01280083 (PAS)","FM-16","7",,,,,,,,,,,,,,,,,,,,,,,,,,,,
"72503014732","2020-04-21T11:49:00","FM-16","6",,,,,,,,,,,,,,,,,,,,,,,,,,,,,,,,,,,,,,"29.49","48","54",,"VCTS:7 -RA:02 |RA |RA",,,"82",,"FEW:02 12 BKN:07 31 OVC:08 39","29.46","5.00","51","210",,"9",,,,,,,,,,,,,,,,,,,,,,,,,,,,,,,,,,,,,"MET15004/21/20 11:49:02 SPECI KLGA 211649Z 21008KT 5SM VCTS -RA FEW012 BKN031 OVC039 12/09 A2949 RMK AO2 LTG DSNT SE AND S RAB1559 TSB17E48 P0009 FIBI (PAS)","FM-16","6",,,,,,,,,,,,,,,,,,,,,,,,,,,,
"72503014732","2020-04-21T11:51:00","FM-15","7",,,,,,,,,,,,,,,,,,,,,,,,,,,,,,,,,,,,,,"29.49","48","54","0.10","VCTS:7 RA:02 |RA |RA",,,"80","29.49","FEW:02 12 BKN:07 31 OVC:08 39","29.46","5.00","51","VRB","24","14",,,,,,,,,,,,,,,,,,,,,,,,,,,,,,,,,,,,,"MET16404/21/20 11:51:02 METAR KLGA 211651Z 23012G21KT 5SM VCTS RA FEW012 BKN031 OVC039 12/09 A2949 RMK AO2 LTG DSNT SE AND S RAB1559 TSB17E48 SLP986 P0009 T01220089 (PAS)","FM-15","7",,,,,,,,,,,,,,,,,,,,,,,,,,,,
"72503014732","2020-04-21T12:00:00","FM-16","7",,,,,,,,,,,,,,,,,,,,,,,,,,,,,,,,,,,,,,"29.48","47","55","0.01","-RA:02 |RA |RA",,,"74",,"FEW:02 13 BKN:07 35 OVC:08 55","29.45","7.00","51","230","26","17",,,,,,,,,,,,,,,,,,,,,,,,,,,,,,,,,,,,,"MET11804/21/20 12:00:02 SPECI KLGA 211700Z 23015G23KT 7SM -RA FEW013 BKN035 OVC055 13/08 A2948 RMK AO2 P0001 T01280083 (PAS)","FM-16","7",,,,,,,,,,,,,,,,,,,,,,,,,,,,
"72503014732","2020-04-21T12:51:00","FM-15","7",,,,,,,,,,,,,,,,,,,,,,,,,,,,,,,,,,,,,,"29.41","47","58","0.02",,"+0.10","8","67","29.41","FEW:02 34 SCT:04 65 BKN:07 150","29.38","10.00","52","210","23","17",,,,,,,,,,,,,,,,,,,,,,,,,,,,,,,,,,,,,"MET15204/21/20 12:51:02 METAR KLGA 211751Z 21015G20KT 10SM FEW034 SCT065 BKN150 14/08 A2941 RMK AO2 RAE36 SLP960 P0003 60012 T01440083 10144 20100 58033 (PAS)","FM-15","7",,,,,,,,,,,,,,,,,,,,,,,,,,,,
"72503014732","2020-04-21T13:00:00","FM-12","4",,,,,,,,,,,,,,,,,,,,,,,,,,,,,,,,,,,,,,,"47","58",,,"+0.10","8","67","29.41","41","29.37","9.94","52","210",,"17",,,,,,,,,,,,,,,,,,,,,,,,,,,,,,,,,,,,,"SYN09272503 12666 62115 10144 20083 39946 49960 58033 60031 91751 333 10144 20100 91020 555 92118=","FM-12","4",,,,,,,,,,,,,,,,,,,,,,,,,,,,
"72503014732","2020-04-21T13:38:00","FM-16","7",,,,,,,,,,,,,,,,,,,,,,,,,,,,,,,,,,,,,,"29.45","43","57","T","TS:7 -RA:02 |RA TS TS |RA",,,"60",,"SCT:04 38 BKN:07 75 OVC:08 95","29.42","9.00","50","290","52","32",,,,,,,,,,,,,,,,,,,,,,,,,,,,,,,,,,,,,"MET20504/21/20 13:38:02 SPECI KLGA 211838Z 29028G45KT 9SM -TSRA SCT038CB BKN075 OVC095 14/06 A2945 RMK AO2 PK WND 30045/1837 LTG DSNT SW-N RAB35 TSB38 PRESRR FRQ LTGICCG SW-NW TS SW-NW MOV E P0000 T01390061 (WL)","FM-16","7",,,,,,,,,,,,,,,,,,,,,,,,,,,,
"72503014732","2020-04-21T13:42:00","FM-16","7",,,,,,,,,,,,,,,,,,,,,,,,,,,,,,,,,,,,,,"29.45","40","51","T","TS:7 RA:02 |RA TS TS |RA",,,"66",,"SCT:04 38 BKN:07 60 OVC:08 95","29.42","2.50","46","290","52","21",,,,,,,,,,,,,,,,,,,,,,,,,,,,,,,,,,,,,"MET21904/21/20 13:42:02 SPECI KLGA 211842Z 29018G45KT 2 1/2SM TSRA SCT038CB BKN060 OVC095 11/04 A2945 RMK AO2 PK WND 30045/1837 WSHFT 1826 LTG DSNT SW-N RAB35 TSB38 PRESRR FRQ LTGICCG SW-NW TS SW-NW MOV E P0000 T01060044 (WL)","FM-16","7",,,,,,,,,,,,,,,,,,,,,,,,,,,,
"72503014732","2020-04-21T13:49:00","FM-16","6",,,,,,,,,,,,,,,,,,,,,,,,,,,,,,,,,,,,,,"29.45","41","48",,"TS:7 +RA:02 |RA TS |RA",,,"76",,"SCT:04 27 BKN:07 42 OVC:08 95","29.42","2.00","45","280","36","21",,,,,,,,,,,,,,,,,,,,,,,,,,,,,,,,,,,,,"MET22904/21/20 13:49:02 SPECI KLGA 211849Z 28018G31KT 2SM +TSRA SCT027CB BKN042 OVC095 09/05 A2945 RMK AO2 PK WND 30045/1837 WSHFT 1826 SFC VIS 2 1/2 LTG DSNT N AND NE AND SW RAB35 TSB38 FRQ LTGICCG SW-NW TS SW-NW MOV E P0008 FIBI (WL)","FM-16","6",,,,,,,,,,,,,,,,,,,,,,,,,,,,
"72503014732","2020-04-21T13:51:00","FM-15","7",,,,,,,,,,,,,,,,,,,,,,,,,,,,,,,,,,,,,,"29.44","*","*","0.16","TS:7 +RA:02 |RA TS TS |RA",,,"*","29.44","SCT:04 25 BKN:07 42 OVC:08 95","29.41","2.00","*","290","36","20",,,,,,,,,,,,,,,,,,,,,,,,,,,,,,,,,,,,,"MET22804/21/20 13:51:02 METAR KLGA 211851Z 29017G31KT 2SM +TSRA SCT025CB BKN042 OVC095 09/05 A2944 RMK AO2 PK WND 30045/1837 WSHFT 1826 SFC VIS 3 LTG DSNT N AND NE AND SW RAB35 TSB38 SLP970 FRQ LTGICCG OHD TS OHD MOV E P0008 T00940050","FM-15","7",,,,,,,,,,,,,,,,,,,,,,,,,,,,
"72503014732","2020-04-21T14:18:00","FM-16","7",,,,,,,,,,,,,,,,,,,,,,,,,,,,,,,,,,,,,,"29.44","43","50","0.12","TS:7 -RA:02 |RA TS TS |RA",,,"77",,"SCT:04 20 BKN:07 38 OVC:08 46","29.41","5.00","47","260",,"13",,,,,,,,,,,,,,,,,,,,,,,,,,,,,,,,,,,,,"MET17804/21/20 14:18:02 SPECI KLGA 211918Z 26011KT 5SM -TSRA SCT020CB BKN038 OVC046 10/06 A2944 RMK AO2 WSHFT 1838 LTG DSNT ALQDS OCNL LTGICCG NE-SE TS NE-SE MOV E P0012 T01000061 (WL)","FM-16","7",,,,,,,,,,,,,,,,,,,,,,,,,,,,
"72503014732","2020-04-21T14:39:00","FM-16","7",,,,,,,,,,,,,,,,,,,,,,,,,,,,,,,,,,,,,,"29.42","43","51","0.13",,,,"74",,"FEW:02 15 BKN:07 46 BKN:07 90","29.39","10.00","47","260",,"11",,,,,,,,,,,,,,,,,,,,,,,,,,,,,,,,,,,,,"MET14704/21/20 14:39:02 SPECI KLGA 211939Z 26010KT 10SM FEW015 BKN046 BKN090 11/06 A2942 RMK AO2 WSHFT 1838 LTG DSNT E-S RAE39 TSE38 P0013 T01060061 (WL)","FM-16","7",,,,,,,,,,,,,,,,,,,,,,,,,,,,
"72503014732","2020-04-21T14:51:00","FM-15","7",,,,,,,,,,,,,,,,,,,,,,,,,,,,,,,,,,,,,,"29.42","44","52","0.05",,,,"75","29.42","FEW:02 15 BKN:07 49 BKN:07 110","29.39","10.00","48","260",,"11",,,,,,,,,,,,,,,,,,,,,,,,,,,,,,,,,,,,,"MET16504/21/20 14:51:02 METAR KLGA 211951Z 26010KT 10SM FEW015 BKN049 BKN110 11/07 A2942 RMK AO2 WSHFT 1838 LTG DSNT E AND SE RAE39B41E51 TSE38 SLP962 P0013 T01110067 (WL)","FM-15","7",,,,,,,,,,,,,,,,,,,,,,,,,,,,
"72503014732","2020-04-21T15:51:00","FM-15","7",,,,,,,,,,,,,,,,,,,,,,,,,,,,,,,,,,,,,,"29.45","40","55","T",,"-0.04","3","57","29.45","FEW:02 32 SCT:04 40 BKN:07 75","29.42","10.00","48","270",,"17",,,,,,,,,,,,,,,,,,,,,,,,,,,,,,,,,,,,,"MET15704/21/20 15:51:02 METAR KLGA 212051Z 27015KT 10SM FEW032 SCT040 BKN075 13/04 A2945 RMK AO2 PK WND 32030/2033 RAB34E43 SLP973 P0000 60021 T01280044 53013 (WL)","FM-15","7",,,,,,,,,,,,,,,,,,,,,,,,,,,,
"72503014732","2020-04-21T16:00:00","FM-12","4",,,,,,,,,,,,,,,,,,,,,,,,,,,,,,,,,,,,,,,"40","55",,,"-0.04","3","57","29.45","26","29.41","9.94","48","270",,"17",,,,,,,,,,,,,,,,,,,,,,,,,,,,,,,,,,,,,"SYN07072503 12566 62715 10128 20044 39959 49973 53013 60057 92051 555 92121=","FM-12","4",,,,,,,,,,,,,,,,,,,,,,,,,,,,
"72503014732","2020-04-21T16:51:00","FM-15","7",,,,,,,,,,,,,,,,,,,,,,,,,,,,,,,,,,,,,,"29.48","29","56","0.00",,,,"36","29.48","FEW:02 50 BKN:07 100","29.45","10.00","44","270","29","21",,,,,,,,,,,,,,,,,,,,,,,,,,,,,,,,,,,,,"MET13404/21/20 16:51:02 METAR KLGA 212151Z 27018G25KT 10SM FEW050 BKN100 13/M02 A2948 RMK AO2 PK WND 29033/2104 PRESRR SLP983 T01331017 (WL)","FM-15","7",,,,,,,,,,,,,,,,,,,,,,,,,,,,
"72503014732","2020-04-21T17:15:00","FM-16","7",,,,,,,,,,,,,,,,,,,,,,,,,,,,,,,,,,,,,,"29.50","34","54",,,,,"47",,"SCT:04 60 BKN:07 75 BKN:07 90","29.47","10.00","45","330","34","26",,,,,,,,,,,,,,,,,,,,,,,,,,,,,,,,,,,,,"MET14404/21/20 17:15:02 SPECI KLGA 212215Z 33023G30KT 10SM SCT060 BKN075 BKN090 12/01 A2950 RMK AO2 PK WND 34030/2215 WSHFT 2155 PRESRR T01220011 (WL)","FM-16","7",,,,,,,,,,,,,,,,,,,,,,,,,,,,
"72503014732","2020-04-21T17:51:00","FM-15","7",,,,,,,,,,,,,,,,,,,,,,,,,,,,,,,,,,,,,,"29.54","34","52","0.00",,,,"50","29.54","FEW:02 65 SCT:04 100","29.51","10.00","44","330","28","17",,,,,,,,,,,,,,,,,,,,,,,,,,,,,,,,,,,,,"MET13704/21/20 17:51:02 METAR KLGA 212251Z 33015G24KT 10SM FEW065 SCT100 11/01 A2954 RMK AO2 PK WND 33031/2216 WSHFT 2155 SLP002 T01110011 (WL)","FM-15","7",,,,,,,,,,,,,,,,,,,,,,,,,,,,
"72503014732","2020-04-21T18:51:00","FM-15","7",,,,,,,,,,,,,,,,,,,,,,,,,,,,,,,,,,,,,,"29.61","28","49","0.00",,"-0.15","3","44","29.60","FEW:02 50 FEW:02 100","29.58","10.00","40","310","43","25",,,,,,,,,,,,,,,,,,,,,,,,,,,,,,,,,,,,,"MET15104/21/20 18:51:02 METAR KLGA 212351Z 31022G37KT 10SM FEW050 FEW100 09/M02 A2961 RMK AO2 PK WND 30037/2348 SLP025 60021 T00941022 10156 20094 53052 (WL)","FM-15","7",,,,,,,,,,,,,,,,,,,,,,,,,,,,
"72503014732","2020-04-21T19:00:00","FM-12","4",,,,,,,,,,,,,,,,,,,,,,,,,,,,,,,,,,,,,,,"28","49",,,"-0.15","3","44","29.60","57","29.57","9.94","40","310",,"25",,,,,,,,,,,,,,,,,,,,,,,,,,,,,,,,,,,,,"SYN09272503 12766 23122 10094 21022 30013 40025 53052 60051 92351 333 10156 20078 91037 555 92200=","FM-12","4",,,,,,,,,,,,,,,,,,,,,,,,,,,,
"72503014732","2020-04-21T19:51:00","FM-15","7",,,,,,,,,,,,,,,,,,,,,,,,,,,,,,,,,,,,,,"29.66","26","46","0.00",,,,"46","29.66","FEW:02 50 FEW:02 100","29.63","10.00","38","290",,"20",,,,,,,,,,,,,,,,,,,,,,,,,,,,,,,,,,,,,"MET11904/21/20 19:51:01 METAR KLGA 220051Z 29017KT 10SM FEW050 FEW100 08/M03 A2966 RMK AO2 PK WND 30034/2358 SLP044 T00781033","FM-15","7",,,,,,,,,,,,,,,,,,,,,,,,,,,,
"72503014732","2020-04-21T20:51:00","FM-15","7",,,,,,,,,,,,,,,,,,,,,,,,,,,,,,,,,,,,,,"29.70","30","44","0.00",,,,"58","29.70","FEW:02 38 FEW:02 55","29.67","10.00","38","330",,"16",,,,,,,,,,,,,,,,,,,,,,,,,,,,,,,,,,,,,"MET11904/21/20 20:51:01 METAR KLGA 220151Z 33014KT 10SM FEW038 FEW055 07/M01 A2970 RMK AO2 PK WND 32028/0120 SLP058 T00671011","FM-15","7",,,,,,,,,,,,,,,,,,,,,,,,,,,,
"72503014732","2020-04-21T21:51:00","FM-15","7",,,,,,,,,,,,,,,,,,,,,,,,,,,,,,,,,,,,,,"29.71","29","43","0.00",,"-0.11","1","58","29.71","FEW:02 95","29.68","10.00","37","310",,"16",,,,,,,,,,,,,,,,,,,,,,,,,,,,,,,,,,,,,"MET10004/21/20 21:51:01 METAR KLGA 220251Z 31014KT 10SM FEW095 06/M02 A2971 RMK AO2 SLP061 T00611017 51036","FM-15","7",,,,,,,,,,,,,,,,,,,,,,,,,,,,
"72503014732","2020-04-21T22:00:00","FM-12","4",,,,,,,,,,,,,,,,,,,,,,,,,,,,,,,,,,,,,,,"29","43",,,"-0.11","1","58","29.71",,"29.67","9.94","37","310",,"16",,,,,,,,,,,,,,,,,,,,,,,,,,,,,,,,,,,,,"SYN06472503 32966 23114 10061 21017 30047 40061 51036 90251 555 92203=","FM-12","4",,,,,,,,,,,,,,,,,,,,,,,,,,,,
"72503014732","2020-04-21T22:51:00","FM-15","7",,,,,,,,,,,,,,,,,,,,,,,,,,,,,,,,,,,,,,"29.73","27","41","0.00",,,,"57","29.73","FEW:02 50","29.70","10.00","35","300",,"15",,,,,,,,,,,,,,,,,,,,,,,,,,,,,,,,,,,,,"MET09404/21/20 22:51:02 METAR KLGA 220351Z 30013KT 10SM FEW050 05/M03 A2973 RMK AO2 SLP067 T00501028","FM-15","7",,,,,,,,,,,,,,,,,,,,,,,,,,,,
"72503014732","2020-04-21T23:51:00","FM-15","7",,,,,,,,,,,,,,,,,,,,,,,,,,,,,,,,,,,,,,"29.74","23","41","0.00",,,,"49","29.74","FEW:02 50","29.71","10.00","34","300","29","23",,,,,,,,,,,,,,,,,,,,,,,,,,,,,,,,,,,,,"MET12504/21/20 23:51:02 METAR KLGA 220451Z 30020G25KT 10SM FEW050 05/M05 A2974 RMK AO2 PK WND 28027/0436 SLP071 T00501050 401560050","FM-15","7",,,,,,,,,,,,,,,,,,,,,,,,,,,,
"72503014732","2020-04-21T23:59:00","SOD  ","6",,,,,,,,,,,,,,,,"51",,,"29.54",,"15.4","0","-3.6","14","60","41","300","52","0.33","0","0.0","290","35","TS RA",,,,,,,,,,,,,,,,,,,,,,,,,,,,,,,,,,,,,,,,,,,,,,,,,,,,,,,,"SOD75624 HR PRECIPITATION (IN): 0.33 SNOW DEPTH (IN):0     24 HR SNOWFALL (IN):0.0  WEATHER(CODE):3  24 HR MAX TEMP (F): 6024 HR MIN TEMP (F): 41AVERAGE STATION PRESSURE:29.545 MINIMUM SEA LEVEL PRESSURE:29.39 TIME OF OCCURRENCE:1327 PEAK WIND SPEED (MPH): 52 PEAK WIND DIR (DEG):300 PEAK WIND TIME (LST):      FASTEST 2MIN SPEED (MPH): 35FASTEST 2MIN DIR (DEG):290 FASTEST 2MIN TIME (LST):     AVERAGE WIND SPEED (MPH):15.4 24 HR AVG TEMP (F): 51DEPART FROM NORMAL: -4  HEATING DEGREE DAYS: 14 COOLING DEGREE DAYS:  0 LATEST DAY MAX TEMP (0700-1900 LST):60  LATEST NIGHT MIN TEMP(1900-0800 LST):46 HOURLY INCREMENTAL PRECIPITATION VALUES (IN):.00 0.00 0.00 0.00 0.00 0.00 0.00 0.00 0.00 0.00 T    0.10 0.02 0.16 0.05 T    0.00 0.00 0.00 0.00 0.00 0.00 0.00 0.00","SOD  ","6",,,,,,,,,,,,,,,,,,,,,,,,,"0507","1842",,
"72503014732","2020-04-22T00:51:00","FM-15","7",,,,,,,,,,,,,,,,,,,,,,,,,,,,,,,,,,,,,,"29.75","17","41","0.00",,"-0.04","1","38","29.75","FEW:02 50","29.72","10.00","33","300","23","18",,,,,,,,,,,,,,,,,,,,,,,,,,,,,,,,,,,,,"MET13804/22/20 00:51:02 METAR KLGA 220551Z 30016G20KT 10SM FEW050 05/M08 A2975 RMK AO2 PK WND 28034/0506 SLP074 T00501083 10094 20050 51013 (RZ)","FM-15","7",,,,,,,,,,,,,,,,,,,,,,,,,,,,
"72503014732","2020-04-22T01:00:00","FM-12","4",,,,,,,,,,,,,,,,,,,,,,,,,,,,,,,,,,,,,,,"17","41",,,"-0.04","1","38","29.75","57","29.71","9.94","33","300",,"18",,,,,,,,,,,,,,,,,,,,,,,,,,,,,,,,,,,,,"SYN08672503 32766 23016 10050 21083 30061 40074 51013 90551 333 10100 20050 91020 555 92206=","FM-12","4",,,,,,,,,,,,,,,,,,,,,,,,,,,,
"72503014732","2020-04-22T01:51:00","FM-15","7",,,,,,,,,,,,,,,,,,,,,,,,,,,,,,,,,,,,,,"29.76","18","40","0.00",,,,"41","29.75","FEW:02 55","29.73","10.00","32","300","37","25",,,,,,,,,,,,,,,,,,,,,,,,,,,,,,,,,,,,,"MET12004/22/20 01:51:02 METAR KLGA 220651Z 30022G32KT 10SM FEW055 04/M08 A2976 RMK AO2 PK WND 30033/0629 SLP076 T00441078 (RZ)","FM-15","7",,,,,,,,,,,,,,,,,,,,,,,,,,,,
"72503014732","2020-04-22T02:51:00","FM-15","7",,,,,,,,,,,,,,,,,,,,,,,,,,,,,,,,,,,,,,"29.77","17","39","0.00",,,,"41","29.76","FEW:02 60","29.74","10.00","31","280","25","11",,,,,,,,,,,,,,,,,,,,,,,,,,,,,,,,,,,,,"MET12004/22/20 02:51:02 METAR KLGA 220751Z 28010G22KT 10SM FEW060 04/M08 A2977 RMK AO2 PK WND 30031/0700 SLP079 T00391083 (RZ)","FM-15","7",,,,,,,,,,,,,,,,,,,,,,,,,,,,
"72503014732","2020-04-22T03:51:00","FM-15","7",,,,,,,,,,,,,,,,,,,,,,,,,,,,,,,,,,,,,,"29.77","17","39","0.00",,"-0.02","3","41","29.77","FEW:02 50","29.74","10.00","31","290",,"17",,,,,,,,,,,,,,,,,,,,,,,,,,,,,,,,,,,,,"MET12304/22/20 03:51:02 METAR KLGA 220851Z 29015KT 10SM FEW050 04/M08 A2977 RMK AO2 PK WND 31033/0835 SLP082 T00391083 53008 (RZ)","FM-15","7",,,,,,,,,,,,,,,,,,,,,,,,,,,,
"72503014732","2020-04-22T04:00:00","FM-12","4",,,,,,,,,,,,,,,,,,,,,,,,,,,,,,,,,,,,,,,"17","39",,,"-0.02","3","41","29.77","57","29.73","9.94","31","290",,"17",,,,,,,,,,,,,,,,,,,,,,,,,,,,,,,,,,,,,"SYN06472503 32766 22915 10039 21083 30068 40082 53008 90851 555 92209=","FM-12","4",,,,,,,,,,,,,,,,,,,,,,,,,,,,
"72503014732","2020-04-22T04:51:00","FM-15","7",,,,,,,,,,,,,,,,,,,,,,,,,,,,,,,,,,,,,,"29.80","16","38","0.00",,,,"41","29.80","FEW:02 55","29.77","10.00","31","290","29","21",,,,,,,,,,,,,,,,,,,,,,,,,,,,,,,,,,,,,"MET12004/22/20 04:51:02 METAR KLGA 220951Z 29018G25KT 10SM FEW055 03/M09 A2980 RMK AO2 PK WND 29028/0926 SLP090 T00331089 (RZ)","FM-15","7",,,,,,,,,,,,,,,,,,,,,,,,,,,,
"72503014732","2020-04-22T05:51:00","FM-15","7",,,,,,,,,,,,,,,,,,,,,,,,,,,,,,,,,,,,,,"29.82","18","38","0.00",,,,"44","29.82","FEW:02 55","29.79","10.00","31","290",,"17",,,,,,,,,,,,,,,,,,,,,,,,,,,,,,,,,,,,,"MET11804/22/20 05:51:02 METAR KLGA 221051Z 29015KT 10SM FEW055 03/M08 A2982 RMK AO2 PK WND 30031/1022 SLP099 T00331078 (PAS)","FM-15","7",,,,,,,,,,,,,,,,,,,,,,,,,,,,
"72503014732","2020-04-22T06:51:00","FM-15","7",,,,,,,,,,,,,,,,,,,,,,,,,,,,,,,,,,,,,,"29.84","15","38","0.00",,"-0.06","1","39","29.84","FEW:02 55","29.81","10.00","30","300","32","23",,,,,,,,,,,,,,,,,,,,,,,,,,,,,,,,,,,,,"MET14504/22/20 06:51:02 METAR KLGA 221151Z 30020G28KT 10SM FEW055 03/M09 A2984 RMK AO2 PK WND 29028/1116 SLP104 70033 T00331094 10050 20033 51022 (PAS)","FM-15","7",,,,,,,,,,,,,,,,,,,,,,,,,,,,
"72503014732","2020-04-22T07:00:00","FM-12","4",,,,,,,,,,,,,,,,,,,,,,,,,,,,,,,,,,,,,,,"15","38",,,"-0.06","1","39","29.84","57","29.80","9.94","30","300",,"23",,,,,,,,,,,,,,,,,,,,,,,,,,,,,,,,,,,,,"SYN09272503 32766 23020 10033 21094 30091 40104 51022 91151 333 10156 20033 70084 91028 555 92212=","FM-12","4",,,,,,,,,,,,,,,,,,,,,,,,,,,,
"72503014732","2020-04-22T07:51:00","FM-15","7",,,,,,,,,,,,,,,,,,,,,,,,,,,,,,,,,,,,,,"29.85","14","40","0.00",,,,"35","29.85","FEW:02 55","29.82","10.00","31","280","33","22",,,,,,,,,,,,,,,,,,,,,,,,,,,,,,,,,,,,,"MET12104/22/20 07:51:02 METAR KLGA 221251Z 28019G29KT 10SM FEW055 04/M10 A2985 RMK AO2 PK WND 28032/1233 SLP107 T00441100 (PAS)","FM-15","7",,,,,,,,,,,,,,,,,,,,,,,,,,,,
"72503014732","2020-04-22T08:51:00","FM-15","7",,,,,,,,,,,,,,,,,,,,,,,,,,,,,,,,,,,,,,"29.86","14","41","0.00",,,,"33","29.86","SCT:04 60","29.83","10.00","32","300","33","21",,,,,,,,,,,,,,,,,,,,,,,,,,,,,,,,,,,,,"MET12104/22/20 08:51:02 METAR KLGA 221351Z 30018G29KT 10SM SCT060 05/M10 A2986 RMK AO2 PK WND 28032/1316 SLP112 T00501100 (PAS)","FM-15","7",,,,,,,,,,,,,,,,,,,,,,,,,,,,
"72503014732","2020-04-22T09:51:00","FM-15","7",,,,,,,,,,,,,,,,,,,,,,,,,,,,,,,,,,,,,,"29.87","16","43","0.00",,"-0.03","3","34","29.87","SCT:04 70","29.84","10.00","34","300","30","20",,,,,,,,,,,,,,,,,,,,,,,,,,,,,,,,,,,,,"MET12704/22/20 09:51:02 METAR KLGA 221451Z 30017G26KT 10SM SCT070 06/M09 A2987 RMK AO2 PK WND 31030/1432 SLP115 T00611089 53011 (PAS)","FM-15","7",,,,,,,,,,,,,,,,,,,,,,,,,,,,
"72503014732","2020-04-22T10:00:00","FM-12","4",,,,,,,,,,,,,,,,,,,,,,,,,,,,,,,,,,,,,,,"16","43",,,"-0.03","3","34","29.87","74","29.83","9.94","34","300",,"20",,,,,,,,,,,,,,,,,,,,,,,,,,,,,,,,,,,,,"SYN07472503 32866 43017 10061 21089 30101 40115 53011 91451 333 91026 555 92215=","FM-12","4",,,,,,,,,,,,,,,,,,,,,,,,,,,,
"72503014732","2020-04-22T10:51:00","FM-15","7",,,,,,,,,,,,,,,,,,,,,,,,,,,,,,,,,,,,,,"29.87","15","44","0.00",,,,"31","29.87","SCT:04 70","29.84","10.00","34","300","25","18",,,,,,,,,,,,,,,,,,,,,,,,,,,,,,,,,,,,,"MET12104/22/20 10:51:02 METAR KLGA 221551Z 30016G22KT 10SM SCT070 07/M09 A2987 RMK AO2 PK WND 28027/1511 SLP114 T00671094 (PAS)","FM-15","7",,,,,,,,,,,,,,,,,,,,,,,,,,,,
"72503014732","2020-04-22T11:51:00","FM-15","7",,,,,,,,,,,,,,,,,,,,,,,,,,,,,,,,,,,,,,"29.86","14","46","0.00",,,,"27","29.86","SCT:04 75","29.83","10.00","35","280","32","20",,,,,,,,,,,,,,,,,,,,,,,,,,,,,,,,,,,,,"MET12104/22/20 11:51:02 METAR KLGA 221651Z 28017G28KT 10SM SCT075 08/M10 A2986 RMK AO2 PK WND 28030/1626 SLP112 T00781100 (PAS)","FM-15","7",,,,,,,,,,,,,,,,,,,,,,,,,,,,
"72503014732","2020-04-22T12:51:00","FM-15","7",,,,,,,,,,,,,,,,,,,,,,,,,,,,,,,,,,,,,,"29.86","14","48","0.00",,"+0.01","8","25","29.85","SCT:04 80","29.83","10.00","36","300","36","29",,,,,,,,,,,,,,,,,,,,,,,,,,,,,,,,,,,,,"MET13904/22/20 12:51:02 METAR KLGA 221751Z 30025G31KT 10SM SCT080 09/M10 A2986 RMK AO2 PK WND 29031/1751 SLP110 T00891100 10089 20033 58005 (PAS)","FM-15","7",,,,,,,,,,,,,,,,,,,,,,,,,,,,
"72503014732","2020-04-22T13:00:00","FM-12","4",,,,,,,,,,,,,,,,,,,,,,,,,,,,,,,,,,,,,,,"14","48",,,"+0.01","8","25","29.85","74","29.82","9.94","36","300",,"29",,,,,,,,,,,,,,,,,,,,,,,,,,,,,,,,,,,,,"SYN08672503 32866 43025 10089 21100 30098 40110 58005 91751 333 10089 20033 91031 555 92218=","FM-12","4",,,,,,,,,,,,,,,,,,,,,,,,,,,,
"72503014732","2020-04-22T13:51:00","FM-15","7",,,,,,,,,,,,,,,,,,,,,,,,,,,,,,,,,,,,,,"29.86","10","49","0.00",,,,"21","29.85","SCT:04 80","29.83","10.00","36","300","29","17",,,,,,,,,,,,,,,,,,,,,,,,,,,,,,,,,,,,,"MET12004/22/20 13:51:02 METAR KLGA 221851Z 30015G25KT 10SM SCT080 09/M12 A2986 RMK AO2 PK WND 31028/1827 SLP110 T00941122 (WL)","FM-15","7",,,,,,,,,,,,,,,,,,,,,,,,,,,,
"72503014732","2020-04-22T14:51:00","FM-15","7",,,,,,,,,,,,,,,,,,,,,,,,,,,,,,,,,,,,,,"29.85","14","50","0.00",,,,"24","29.85","SCT:04 90","29.82","10.00","37","290","34","20",,,,,,,,,,,,,,,,,,,,,,,,,,,,,,,,,,,,,"MET12004/22/20 14:51:02 METAR KLGA 221951Z 29017G30KT 10SM SCT090 10/M10 A2985 RMK AO2 PK WND 28030/1938 SLP107 T01001100 (WL)","FM-15","7",,,,,,,,,,,,,,,,,,,,,,,,,,,,
"72503014732","2020-04-22T15:51:00","FM-15","7",,,,,,,,,,,,,,,,,,,,,,,,,,,,,,,,,,,,,,"29.85","14","51","0.00",,"+0.00","5","23","29.85","FEW:02 90","29.82","10.00","38","290","30","23",,,,,,,,,,,,,,,,,,,,,,,,,,,,,,,,,,,,,"MET12604/22/20 15:51:02 METAR KLGA 222051Z 29020G26KT 10SM FEW090 11/M10 A2985 RMK AO2 PK WND 31034/2006 SLP109 T01061100 55001 (WL)","FM-15","7",,,,,,,,,,,,,,,,,,,,,,,,,,,,
"72503014732","2020-04-22T16:00:00","FM-12","4",,,,,,,,,,,,,,,,,,,,,,,,,,,,,,,,,,,,,,,"14","51",,,"+0.00","5","23","29.85",,"29.81","9.94","38","290",,"23",,,,,,,,,,,,,,,,,,,,,,,,,,,,,,,,,,,,,"SYN07472503 32966 22920 10106 21100 30095 40109 55001 92051 333 91026 555 92221=","FM-12","4",,,,,,,,,,,,,,,,,,,,,,,,,,,,
"72503014732","2020-04-22T16:51:00","FM-15","7",,,,,,,,,,,,,,,,,,,,,,,,,,,,,,,,,,,,,,"29.87","12","51","0.00",,,,"21","29.87","FEW:02 90","29.84","10.00","37","280","29","22",,,,,,,,,,,,,,,,,,,,,,,,,,,,,,,,,,,,,"MET12004/22/20 16:51:02 METAR KLGA 222151Z 28019G25KT 10SM FEW090 11/M11 A2987 RMK AO2 PK WND 31029/2114 SLP114 T01061111 (WL)","FM-15","7",,,,,,,,,,,,,,,,,,,,,,,,,,,,
"72503014732","2020-04-22T17:51:00","FM-15","7",,,,,,,,,,,,,,,,,,,,,,,,,,,,,,,,,,,,,,"29.89","15","50","0.00",,,,"25","29.88","FEW:02 90","29.86","10.00","37","320","29","21",,,,,,,,,,,,,,,,,,,,,,,,,,,,,,,,,,,,,"MET12004/22/20 17:51:02 METAR KLGA 222251Z 32018G25KT 10SM FEW090 10/M09 A2989 RMK AO2 PK WND 26031/2201 SLP120 T01001094 (WL)","FM-15","7",,,,,,,,,,,,,,,,,,,,,,,,,,,,
"72503014732","2020-04-22T18:51:00","FM-15","7",,,,,,,,,,,,,,,,,,,,,,,,,,,,,,,,,,,,,,"29.92","15","49","0.00",,"-0.06","3","26","29.91","FEW:02 250","29.89","10.00","37","320","23","15",,,,,,,,,,,,,,,,,,,,,,,,,,,,,,,,,,,,,"MET12004/22/20 18:51:02 METAR KLGA 222351Z 32013G20KT 10SM FEW250 09/M09 A2992 RMK AO2 SLP130 T00941094 10106 20089 53020 (WL)","FM-15","7",,,,,,,,,,,,,,,,,,,,,,,,,,,,
"72503014732","2020-04-22T19:00:00","FM-12","4",,,,,,,,,,,,,,,,,,,,,,,,,,,,,,,,,,,,,,,"15","49",,,"-0.06","3","26","29.91",,"29.88","9.94","37","320",,"15",,,,,,,,,,,,,,,,,,,,,,,,,,,,,,,,,,,,,"SYN08672503 32966 23213 10094 21094 30118 40130 53020 92351 333 10106 20033 91020 555 92300=","FM-12","4",,,,,,,,,,,,,,,,,,,,,,,,,,,,
"72503014732","2020-04-22T19:51:00","FM-15","7",,,,,,,,,,,,,,,,,,,,,,,,,,,,,,,,,,,,,,"29.96","16","48","0.00",,,,"28","29.96","FEW:02 250","29.93","10.00","36","330",,"11",,,,,,,,,,,,,,,,,,,,,,,,,,,,,,,,,,,,,"MET09404/22/20 19:51:01 METAR KLGA 230051Z 33010KT 10SM FEW250 09/M09 A2996 RMK AO2 SLP144 T00891089","FM-15","7",,,,,,,,,,,,,,,,,,,,,,,,,,,,
"72503014732","2020-04-22T20:51:00","FM-15","7",,,,,,,,,,,,,,,,,,,,,,,,,,,,,,,,,,,,,,"29.98","16","47","0.00",,,,"29","29.98","FEW:02 250","29.95","10.00","36","320",,"14",,,,,,,,,,,,,,,,,,,,,,,,,,,,,,,,,,,,,"MET09404/22/20 20:51:01 METAR KLGA 230151Z 32012KT 10SM FEW250 08/M09 A2998 RMK AO2 SLP153 T00831089","FM-15","7",,,,,,,,,,,,,,,,,,,,,,,,,,,,
"72503014732","2020-04-22T21:51:00","FM-15","7",,,,,,,,,,,,,,,,,,,,,,,,,,,,,,,,,,,,,,"30.00","15","46","0.00",,"-0.08","1","29","30.00","CLR:00","29.97","10.00","35","330",,"7",,,,,,,,,,,,,,,,,,,,,,,,,,,,,,,,,,,,,"MET09704/22/20 21:51:01 METAR KLGA 230251Z 33006KT 10SM CLR 08/M09 A3000 RMK AO2 SLP158 T00781094 51028","FM-15","7",,,,,,,,,,,,,,,,,,,,,,,,,,,,
"72503014732","2020-04-22T22:00:00","FM-12","4",,,,,,,,,,,,,,,,,,,,,,,,,,,,,,,,,,,,,,,"15","46",,,"-0.08","1","29","30.00",,"29.96","9.94","35","330",,"7",,,,,,,,,,,,,,,,,,,,,,,,,,,,,,,,,,,,,"SYN06472503 32966 03306 10078 21094 30145 40158 51028 90251 555 92303=","FM-12","4",,,,,,,,,,,,,,,,,,,,,,,,,,,,
"72503014732","2020-04-22T22:51:00","FM-15","7",,,,,,,,,,,,,,,,,,,,,,,,,,,,,,,,,,,,,,"30.01","16","45","0.00",,,,"31","30.01","CLR:00","29.98","10.00","35","320",,"15",,,,,,,,,,,,,,,,,,,,,,,,,,,,,,,,,,,,,"MET09104/22/20 22:51:02 METAR KLGA 230351Z 32013KT 10SM CLR 07/M09 A3001 RMK AO2 SLP163 T00721089","FM-15","7",,,,,,,,,,,,,,,,,,,,,,,,,,,,
"72503014732","2020-04-22T23:51:00","FM-15","7",,,,,,,,,,,,,,,,,,,,,,,,,,,,,,,,,,,,,,"30.03","16","44","0.00",,,,"32","30.03","CLR:00","30.00","10.00","34","340",,"7",,,,,,,,,,,,,,,,,,,,,,,,,,,,,,,,,,,,,"MET10104/22/20 23:51:02 METAR KLGA 230451Z 34006KT 10SM CLR 07/M09 A3003 RMK AO2 SLP169 T00671089 401060033","FM-15","7",,,,,,,,,,,,,,,,,,,,,,,,,,,,
"72503014732","2020-04-22T23:59:00","SOD  ","6",,,,,,,,,,,,,,,,"45",,,"29.80",,"18.1","0","-10.0","20","51","38","310","39","0.00","0","0.0","310","31",,,,,,,,,,,,,,,,,,,,,,,,,,,,,,,,,,,,,,,,,,,,,,,,,,,,,,,,,"SOD73924 HR PRECIPITATION (IN): 0.00 SNOW DEPTH (IN):0     24 HR SNOWFALL (IN):0.0  24 HR MAX TEMP (F): 5124 HR MIN TEMP (F): 38AVERAGE STATION PRESSURE:29.800 MINIMUM SEA LEVEL PRESSURE:29.74 TIME OF OCCURRENCE:0042 PEAK WIND SPEED (MPH): 39 PEAK WIND DIR (DEG):310 PEAK WIND TIME (LST):      FASTEST 2MIN SPEED (MPH): 31FASTEST 2MIN DIR (DEG):310 FASTEST 2MIN TIME (LST):     AVERAGE WIND SPEED (MPH):18.1 24 HR AVG TEMP (F): 45DEPART FROM NORMAL:-10  HEATING DEGREE DAYS: 20 COOLING DEGREE DAYS:  0 LATEST DAY MAX TEMP (0700-1900 LST):51  LATEST NIGHT MIN TEMP(1900-0800 LST):38 HOURLY INCREMENTAL PRECIPITATION VALUES (IN):.00 0.00 0.00 0.00 0.00 0.00 0.00 0.00 0.00 0.00 0.00 0.00 0.00 0.00 0.00 0.00 0.00 0.00 0.00 0.00 0.00 0.00 0.00 0.00","SOD  ","6",,,,,,,,,,,,,,,,,,,,,,,,,"0505","1843",,
"72503014732","2020-04-23T00:51:00","FM-15","7",,,,,,,,,,,,,,,,,,,,,,,,,,,,,,,,,,,,,,"30.05","17","43","0.00",,"-0.05","3","35","30.05","CLR:00","30.02","10.00","34","310",,"13",,,,,,,,,,,,,,,,,,,,,,,,,,,,,,,,,,,,,"MET11404/23/20 00:51:02 METAR KLGA 230551Z 31011KT 10SM CLR 06/M08 A3005 RMK AO2 SLP175 T00611083 10094 20061 53017 (RZ)","FM-15","7",,,,,,,,,,,,,,,,,,,,,,,,,,,,
"72503014732","2020-04-23T01:00:00","FM-12","4",,,,,,,,,,,,,,,,,,,,,,,,,,,,,,,,,,,,,,,"17","43",,,"-0.05","3","35","30.05",,"30.01","9.94","34","310",,"13",,,,,,,,,,,,,,,,,,,,,,,,,,,,,,,,,,,,,"SYN08072503 32966 03111 10061 21083 30162 40175 53017 90551 333 10094 20033 555 92306=","FM-12","4",,,,,,,,,,,,,,,,,,,,,,,,,,,,
"72503014732","2020-04-23T01:51:00","FM-15","7",,,,,,,,,,,,,,,,,,,,,,,,,,,,,,,,,,,,,,"30.05","19","43","0.00",,,,"38","30.05","BKN:07 160","30.02","10.00","34","310",,"11",,,,,,,,,,,,,,,,,,,,,,,,,,,,,,,,,,,,,"MET09904/23/20 01:51:02 METAR KLGA 230651Z 31010KT 10SM BKN160 06/M07 A3005 RMK AO2 SLP177 T00611072 (RZ)","FM-15","7",,,,,,,,,,,,,,,,,,,,,,,,,,,,
"72503014732","2020-04-23T02:51:00","FM-15","7",,,,,,,,,,,,,,,,,,,,,,,,,,,,,,,,,,,,,,"30.03","17","42","0.00",,,,"36","30.03","BKN:07 150","30.00","10.00","33","320",,"13",,,,,,,,,,,,,,,,,,,,,,,,,,,,,,,,,,,,,"MET09904/23/20 02:51:02 METAR KLGA 230751Z 32011KT 10SM BKN150 06/M08 A3003 RMK AO2 SLP168 T00561083 (RZ)","FM-15","7",,,,,,,,,,,,,,,,,,,,,,,,,,,,
"72503014732","2020-04-23T03:51:00","FM-15","7",,,,,,,,,,,,,,,,,,,,,,,,,,,,,,,,,,,,,,"30.04","17","42","0.00",,"+0.01","5","36","30.03","BKN:07 100 BKN:07 180","30.01","10.00","33","320",,"9",,,,,,,,,,,,,,,,,,,,,,,,,,,,,,,,,,,,,"MET11204/23/20 03:51:02 METAR KLGA 230851Z 32008KT 10SM BKN100 BKN180 06/M08 A3004 RMK AO2 SLP171 T00561083 55004 (RZ)","FM-15","7",,,,,,,,,,,,,,,,,,,,,,,,,,,,
"72503014732","2020-04-23T04:00:00","FM-12","4",,,,,,,,,,,,,,,,,,,,,,,,,,,,,,,,,,,,,,,"17","42",,,"+0.01","5","36","30.03",,"30.00","9.94","33","320",,"9",,,,,,,,,,,,,,,,,,,,,,,,,,,,,,,,,,,,,"SYN06472503 32966 63208 10056 21083 30159 40171 55004 90851 555 92309=","FM-12","4",,,,,,,,,,,,,,,,,,,,,,,,,,,,
"72503014732","2020-04-23T04:51:00","FM-15","7",,,,,,,,,,,,,,,,,,,,,,,,,,,,,,,,,,,,,,"30.03","18","42","0.00",,,,"38","30.03","SCT:04 90 BKN:07 180","30.00","10.00","33","310",,"7",,,,,,,,,,,,,,,,,,,,,,,,,,,,,,,,,,,,,"MET10604/23/20 04:51:02 METAR KLGA 230951Z 31006KT 10SM SCT090 BKN180 06/M08 A3003 RMK AO2 SLP168 T00561078 (RZ)","FM-15","7",,,,,,,,,,,,,,,,,,,,,,,,,,,,
"72503014732","2020-04-23T05:51:00","FM-15","7",,,,,,,,,,,,,,,,,,,,,,,,,,,,,,,,,,,,,,"30.06","17","42","0.00",,,,"36","30.06","BKN:07 80","30.03","10.00","33","330",,"7",,,,,,,,,,,,,,,,,,,,,,,,,,,,,,,,,,,,,"MET10004/23/20 05:51:02 METAR KLGA 231051Z 33006KT 10SM BKN080 06/M08 A3006 RMK AO2 SLP179 T00561083 (PAS)","FM-15","7",,,,,,,,,,,,,,,,,,,,,,,,,,,,
"72503014732","2020-04-23T06:51:00","FM-15","7",,,,,,,,,,,,,,,,,,,,,,,,,,,,,,,,,,,,,,"30.08","18","42","0.00",,"-0.04","3","38","30.08","BKN:07 60 OVC:08 80","30.05","10.00","33","320",,"8",,,,,,,,,,,,,,,,,,,,,,,,,,,,,,,,,,,,,"MET12504/23/20 06:51:02 METAR KLGA 231151Z 32007KT 10SM BKN060 OVC080 06/M08 A3008 RMK AO2 SLP185 T00561078 10061 20050 53015 (PAS)","FM-15","7",,,,,,,,,,,,,,,,,,,,,,,,,,,,
"72503014732","2020-04-23T07:00:00","FM-12","4",,,,,,,,,,,,,,,,,,,,,,,,,,,,,,,,,,,,,,,"18","42",,,"-0.04","3","38","30.08","57","30.04","9.94","33","320",,"8",,,,,,,,,,,,,,,,,,,,,,,,,,,,,,,,,,,,,"SYN08072503 32766 83207 10056 21078 30172 40185 53015 91151 333 10106 20050 555 92312=","FM-12","4",,,,,,,,,,,,,,,,,,,,,,,,,,,,
"72503014732","2020-04-23T07:51:00","FM-15","7",,,,,,,,,,,,,,,,,,,,,,,,,,,,,,,,,,,,,,"30.11","19","42","T",,,,"40","30.10","OVC:08 50","30.08","10.00","34","300",,"8",,,,,,,,,,,,,,,,,,,,,,,,,,,,,,,,,,,,,"MET10004/23/20 07:51:02 METAR KLGA 231251Z 30007KT 10SM OVC050 06/M07 A3011 RMK AO2 SLP194 T00561072 (PAS)","FM-15","7",,,,,,,,,,,,,,,,,,,,,,,,,,,,
"72503014732","2020-04-23T08:14:00","FM-16","7",,,,,,,,,,,,,,,,,,,,,,,,,,,,,,,,,,,,,,"30.11","18","42","T","-SN:03 PL:06 |SN PL |PL",,,"38",,"SCT:04 50 BKN:07 60 OVC:08 80","30.08","9.00","33","260",,"7",,,,,,,,,,,,,,,,,,,,,,,,,,,,,,,,,,,,,"MET15604/23/20 08:14:02 SPECI KLGA 231314Z 26006KT 9SM -SNPL SCT050 BKN060 OVC080 06/M08 A3011 RMK AO2 RAB1259E03SNB1259PLB13 CIG 050 R22 SW P0000 T00561078 (PAS)","FM-16","7",,,,,,,,,,,,,,,,,,,,,,,,,,,,
"72503014732","2020-04-23T08:51:00","FM-15","7",,,,,,,,,,,,,,,,,,,,,,,,,,,,,,,,,,,,,,"30.10","21","42","T","-SN:03 PL:06 |SN PL |PL",,,"43","30.10","FEW:02 65 OVC:08 85","30.07","9.00","34","310",,"6",,,,,,,,,,,,,,,,,,,,,,,,,,,,,,,,,,,,,"MET14104/23/20 08:51:02 METAR KLGA 231351Z 31005KT 9SM -SNPL FEW065 OVC085 06/M06 A3010 RMK AO2 RAB1259E03SNB1259PLB13 SLP193 P0000 T00561061 (PAS)","FM-15","7",,,,,,,,,,,,,,,,,,,,,,,,,,,,
"72503014732","2020-04-23T09:05:00","FM-16","7",,,,,,,,,,,,,,,,,,,,,,,,,,,,,,,,,,,,,,"30.10","21","42","T","-RA:02 |RA |RA",,,"43",,"FEW:02 60 OVC:08 85","30.07","9.00","34","310",,"5",,,,,,,,,,,,,,,,,,,,,,,,,,,,,,,,,,,,,"MET12504/23/20 09:05:02 SPECI KLGA 231405Z 31004KT 9SM -RA FEW060 OVC085 06/M06 A3010 RMK AO2 RAB04SNE04PLE04 P0000 T00561061 (PAS)","FM-16","7",,,,,,,,,,,,,,,,,,,,,,,,,,,,
"72503014732","2020-04-23T09:51:00","FM-15","7",,,,,,,,,,,,,,,,,,,,,,,,,,,,,,,,,,,,,,"30.10","20","44","T",,"-0.01","0","38","30.09","BKN:07 70 BKN:07 100 OVC:08 140","30.07","10.00","35","320",,"5",,,,,,,,,,,,,,,,,,,,,,,,,,,,,,,,,,,,,"MET15104/23/20 09:51:02 METAR KLGA 231451Z 32004KT 10SM BKN070 BKN100 OVC140 07/M07 A3010 RMK AO2 RAB04E08SNE04PLE04 SLP191 P0000 60000 T00671067 50005 (PAS)","FM-15","7",,,,,,,,,,,,,,,,,,,,,,,,,,,,
"72503014732","2020-04-23T10:00:00","FM-12","4",,,,,,,,,,,,,,,,,,,,,,,,,,,,,,,,,,,,,,,"20","44",,,"0.01","9","38","30.09","74","30.06","9.94","35","320",,"5",,,,,,,,,,,,,,,,,,,,,,,,,,,,,,,,,,,,,"SYN07072503 12866 83204 10067 21067 30179 40191 50005 69907 91451 555 92315=","FM-12","4",,,,,,,,,,,,,,,,,,,,,,,,,,,,
"72503014732","2020-04-23T10:51:00","FM-15","7",,,,,,,,,,,,,,,,,,,,,,,,,,,,,,,,,,,,,,"30.10","20","45","0.00",,,,"37","30.10","SCT:04 70 BKN:07 95 OVC:08 160","30.07","10.00","36","330",,"6",,,,,,,,,,,,,,,,,,,,,,,,,,,,,,,,,,,,,"MET11404/23/20 10:51:02 METAR KLGA 231551Z 33005KT 10SM SCT070 BKN095 OVC160 07/M07 A3010 RMK AO2 SLP192 T00721067 (PAS)","FM-15","7",,,,,,,,,,,,,,,,,,,,,,,,,,,,
"72503014732","2020-04-23T11:51:00","FM-15","7",,,,,,,,,,,,,,,,,,,,,,,,,,,,,,,,,,,,,,"30.06","20","48","0.00",,,,"33","30.06","FEW:02 90 BKN:07 160","30.03","10.00","37","350",,"5",,,,,,,,,,,,,,,,,,,,,,,,,,,,,,,,,,,,,"MET10704/23/20 11:51:02 METAR KLGA 231651Z 35004KT 10SM FEW090 BKN160 09/M07 A3006 RMK AO2 SLP180 T00891067 (PAS)","FM-15","7",,,,,,,,,,,,,,,,,,,,,,,,,,,,
"72503014732","2020-04-23T12:51:00","FM-15","7",,,,,,,,,,,,,,,,,,,,,,,,,,,,,,,,,,,,,,"30.04","20","49","0.00",,"+0.06","8","32","30.04","FEW:02 90 BKN:07 140 OVC:08 250","30.01","10.00","38","070",,"6",,,,,,,,,,,,,,,,,,,,,,,,,,,,,,,,,,,,,"MET14504/23/20 12:51:02 METAR KLGA 231751Z 07005KT 10SM FEW090 BKN140 OVC250 09/M07 A3004 RMK AO2 SLP172 931000 60000 T00941067 10094 20056 58019 (PAS)","FM-15","7",,,,,,,,,,,,,,,,,,,,,,,,,,,,
"72503014732","2020-04-23T13:00:00","FM-12","4",,,,,,,,,,,,,,,,,,,,,,,,,,,,,,,,,,,,,,,"20","49",,,"+0.06","8","32","30.04",,"30.00","9.94","38","070",,"6",,,,,,,,,,,,,,,,,,,,,,,,,,,,,,,,,,,,,"SYN08672503 12966 80705 10094 21067 30159 40172 58019 69901 91751 333 10094 20056 555 92318=","FM-12","4",,,,,,,,,,,,,,,,,,,,,,,,,,,,
"72503014732","2020-04-23T13:51:00","FM-15","7",,,,,,,,,,,,,,,,,,,,,,,,,,,,,,,,,,,,,,"30.04","22","48","0.00",,,,"36","30.03","FEW:02 60 BKN:07 130 BKN:07 250","30.01","10.00","38","070",,"6",,,,,,,,,,,,,,,,,,,,,,,,,,,,,,,,,,,,,"MET11304/23/20 13:51:02 METAR KLGA 231851Z 07005KT 10SM FEW060 BKN130 BKN250 09/M06 A3004 RMK AO2 SLP171 T00891056 (ML)","FM-15","7",,,,,,,,,,,,,,,,,,,,,,,,,,,,
"72503014732","2020-04-23T14:51:00","FM-15","7",,,,,,,,,,,,,,,,,,,,,,,,,,,,,,,,,,,,,,"30.02","23","49","0.00",,,,"36","30.02","FEW:02 60 BKN:07 130 BKN:07 250","29.99","10.00","39","050",,"7",,,,,,,,,,,,,,,,,,,,,,,,,,,,,,,,,,,,,"MET11304/23/20 14:51:02 METAR KLGA 231951Z 05006KT 10SM FEW060 BKN130 BKN250 09/M05 A3002 RMK AO2 SLP165 T00941050 (ML)","FM-15","7",,,,,,,,,,,,,,,,,,,,,,,,,,,,
"72503014732","2020-04-23T15:51:00","FM-15","7",,,,,,,,,,,,,,,,,,,,,,,,,,,,,,,,,,,,,,"30.01","23","49","0.00",,"+0.03","8","36","30.01","FEW:02 60 SCT:04 100 SCT:04 130","29.98","10.00","39","070",,"7",,,,,,,,,,,,,,,,,,,,,,,,,,,,,,,,,,,,,"MET11904/23/20 15:51:02 METAR KLGA 232051Z 07006KT 10SM FEW060 SCT100 SCT130 09/M05 A3001 RMK AO2 SLP161 T00941050 58011 (ML)","FM-15","7",,,,,,,,,,,,,,,,,,,,,,,,,,,,
"72503014732","2020-04-23T16:00:00","FM-12","4",,,,,,,,,,,,,,,,,,,,,,,,,,,,,,,,,,,,,,,"23","49",,,"+0.03","8","36","30.01","57","29.97","9.94","39","070",,"7",,,,,,,,,,,,,,,,,,,,,,,,,,,,,,,,,,,,,"SYN06472503 32766 60706 10094 21050 30149 40161 58011 92051 555 92321=","FM-12","4",,,,,,,,,,,,,,,,,,,,,,,,,,,,
"72503014732","2020-04-23T16:51:00","FM-15","7",,,,,,,,,,,,,,,,,,,,,,,,,,,,,,,,,,,,,,"30.01","26","49","0.00",,,,"41","30.00","FEW:02 60 BKN:07 110 BKN:07 250","29.98","10.00","40","180",,"9",,,,,,,,,,,,,,,,,,,,,,,,,,,,,,,,,,,,,"MET11304/23/20 16:51:02 METAR KLGA 232151Z 18008KT 10SM FEW060 BKN110 BKN250 09/M03 A3001 RMK AO2 SLP160 T00941033 (ML)","FM-15","7",,,,,,,,,,,,,,,,,,,,,,,,,,,,
"72503014732","2020-04-23T17:51:00","FM-15","7",,,,,,,,,,,,,,,,,,,,,,,,,,,,,,,,,,,,,,"29.99","24","49","0.00",,,,"38","29.99","FEW:02 60 BKN:07 100 OVC:08 250","29.96","10.00","39","170",,"8",,,,,,,,,,,,,,,,,,,,,,,,,,,,,,,,,,,,,"MET11304/23/20 17:51:02 METAR KLGA 232251Z 17007KT 10SM FEW060 BKN100 OVC250 09/M04 A2999 RMK AO2 SLP155 T00941044 (ML)","FM-15","7",,,,,,,,,,,,,,,,,,,,,,,,,,,,
"72503014732","2020-04-23T18:51:00","FM-15","7",,,,,,,,,,,,,,,,,,,,,,,,,,,,,,,,,,,,,,"29.98","24","48","0.00",,"+0.03","8","39","29.98","FEW:02 60 FEW:02 100 OVC:08 150","29.95","10.00","38","160",,"9",,,,,,,,,,,,,,,,,,,,,,,,,,,,,,,,,,,,,"MET13104/23/20 18:51:02 METAR KLGA 232351Z 16008KT 10SM FEW060 FEW100 OVC150 09/M04 A2998 RMK AO2 SLP151 T00891044 10100 20089 58010 (ML)","FM-15","7",,,,,,,,,,,,,,,,,,,,,,,,,,,,
"72503014732","2020-04-23T19:00:00","FM-12","4",,,,,,,,,,,,,,,,,,,,,,,,,,,,,,,,,,,,,,,"24","48",,,"+0.03","8","39","29.98","57","29.94","9.94","38","160",,"9",,,,,,,,,,,,,,,,,,,,,,,,,,,,,,,,,,,,,"SYN08072503 32766 81608 10089 21044 30139 40151 58010 92351 333 10100 20050 555 92400=","FM-12","4",,,,,,,,,,,,,,,,,,,,,,,,,,,,
"72503014732","2020-04-23T19:51:00","FM-15","7",,,,,,,,,,,,,,,,,,,,,,,,,,,,,,,,,,,,,,"29.97","23","48","0.00",,,,"37","29.96","FEW:02 60 SCT:04 120 BKN:07 160","29.94","10.00","38","130",,"7",,,,,,,,,,,,,,,,,,,,,,,,,,,,,,,,,,,,,"MET10804/23/20 19:51:01 METAR KLGA 240051Z 13006KT 10SM FEW060 SCT120 BKN160 09/M05 A2997 RMK AO2 SLP147 T00891050","FM-15","7",,,,,,,,,,,,,,,,,,,,,,,,,,,,
"72503014732","2020-04-23T20:51:00","FM-15","7",,,,,,,,,,,,,,,,,,,,,,,,,,,,,,,,,,,,,,"29.96","27","47","T","-RA:02 |RA |RA",,,"46","29.96","SCT:04 70 OVC:08 85","29.93","10.00","39","130",,"6",,,,,,,,,,,,,,,,,,,,,,,,,,,,,,,,,,,,,"MET11704/23/20 20:51:01 METAR KLGA 240151Z 13005KT 10SM -RA SCT070 OVC085 08/M03 A2996 RMK AO2 RAB24 SLP146 P0000 T00831028","FM-15","7",,,,,,,,,,,,,,,,,,,,,,,,,,,,
"72503014732","2020-04-23T21:51:00","FM-15","7",,,,,,,,,,,,,,,,,,,,,,,,,,,,,,,,,,,,,,"29.95","32","46","0.01","-RA:02 |RA |RA","+0.03","8","58","29.94","FEW:02 50 SCT:04 60 OVC:08 80","29.92","10.00","40","110",,"6",,,,,,,,,,,,,,,,,,,,,,,,,,,,,,,,,,,,,"MET12904/23/20 21:51:01 METAR KLGA 240251Z 11005KT 10SM -RA FEW050 SCT060 OVC080 08/00 A2995 RMK AO2 SLP140 P0001 60001 T00780000 58010","FM-15","7",,,,,,,,,,,,,,,,,,,,,,,,,,,,
"72503014732","2020-04-23T22:00:00","FM-12","4",,,,,,,,,,,,,,,,,,,,,,,,,,,,,,,,,,,,,,,"32","46",,"||RA","+0.03","8","58","29.94","57","29.91","9.94","40","110",,"6",,,,,,,,,,,,,,,,,,,,,,,,,,,,,,,,,,,,,"SYN07672503 11766 81105 10078 20000 30129 40140 58010 69937 761// 90251 555 92403=","FM-12","4",,,,,,,,,,,,,,,,,,,,,,,,,,,,
"72503014732","2020-04-23T22:51:00","FM-15","7",,,,,,,,,,,,,,,,,,,,,,,,,,,,,,,,,,,,,,"29.95","33","45","0.03","-RA:02 |RA |RA",,,"63","29.94","SCT:04 34 BKN:07 55 OVC:08 70","29.92","9.00","40","120",,"8",,,,,,,,,,,,,,,,,,,,,,,,,,,,,,,,,,,,,"MET11604/23/20 22:51:02 METAR KLGA 240351Z 12007KT 9SM -RA SCT034 BKN055 OVC070 07/01 A2995 RMK AO2 SLP140 P0003 T00720006","FM-15","7",,,,,,,,,,,,,,,,,,,,,,,,,,,,
"72503014732","2020-04-23T23:38:00","FM-16","7",,,,,,,,,,,,,,,,,,,,,,,,,,,,,,,,,,,,,,"29.93","37","44","0.06","RA:02 |RA |RA",,,"76",,"BKN:07 26 OVC:08 65","29.90","6.00","41","090",,"7",,,,,,,,,,,,,,,,,,,,,,,,,,,,,,,,,,,,,"MET10104/23/20 23:38:02 SPECI KLGA 240438Z 09006KT 6SM RA BKN026 OVC065 07/03 A2993 RMK AO2 P0006 T00670028","FM-16","7",,,,,,,,,,,,,,,,,,,,,,,,,,,,
"72503014732","2020-04-23T23:51:00","FM-15","7",,,,,,,,,,,,,,,,,,,,,,,,,,,,,,,,,,,,,,"29.91","37","43","0.09","-RA:02 |RA |RA",,,"80","29.90","BKN:07 26 BKN:07 39 OVC:08 70","29.88","6.00","40","070",,"9",,,,,,,,,,,,,,,,,,,,,,,,,,,,,,,,,,,,,"MET12604/23/20 23:51:02 METAR KLGA 240451Z 07008KT 6SM -RA BKN026 BKN039 OVC070 06/03 A2991 RMK AO2 SLP126 P0008 T00610028 401000050","FM-15","7",,,,,,,,,,,,,,,,,,,,,,,,,,,,
"72503014732","2020-04-23T23:59:00","SOD  ","6",,,,,,,,,,,,,,,,"46",,,"30.00",,"7.9","0","-9.3","19","50","41","310","24","0.13","0","T","310","18","RA SN PL",,,,,,,,,,,,,,,,,,,,,,,,,,,,,,,,,,,,,,,,,,,,,,,,,,,,,,,,"SOD75624 HR PRECIPITATION (IN): 0.13 SNOW DEPTH (IN):0     24 HR SNOWFALL (IN):T    WEATHER(CODE):4  24 HR MAX TEMP (F): 5024 HR MIN TEMP (F): 41AVERAGE STATION PRESSURE:30.000 MINIMUM SEA LEVEL PRESSURE:29.90 TIME OF OCCURRENCE:2354 PEAK WIND SPEED (MPH): 24 PEAK WIND DIR (DEG):310 PEAK WIND TIME (LST):      FASTEST 2MIN SPEED (MPH): 18FASTEST 2MIN DIR (DEG):310 FASTEST 2MIN TIME (LST):     AVERAGE WIND SPEED (MPH): 7.9 24 HR AVG TEMP (F): 46DEPART FROM NORMAL: -9  HEATING DEGREE DAYS: 19 COOLING DEGREE DAYS:  0 LATEST DAY MAX TEMP (0700-1900 LST):50  LATEST NIGHT MIN TEMP(1900-0800 LST):41 HOURLY INCREMENTAL PRECIPITATION VALUES (IN):.00 0.00 0.00 0.00 0.00 0.00 0.00 T    T    T    0.00 0.00 0.00 0.00 0.00 0.00 0.00 0.00 0.00 0.00 T    0.01 0.03 0.09","SOD  ","6",,,,,,,,,,,,,,,,,,,,,,,,,"0504","1844",,
"72503014732","2020-04-24T00:31:00","FM-16","7",,,,,,,,,,,,,,,,,,,,,,,,,,,,,,,,,,,,,,"29.89","38","43","0.05","RA:02 |RA |RA",,,"82",,"OVC:08 10","29.86","6.00","41","070",,"9",,,,,,,,,,,,,,,,,,,,,,,,,,,,,,,,,,,,,"MET09904/24/20 00:31:02 SPECI KLGA 240531Z 07008KT 6SM RA OVC010 06/03 A2989 RMK AO2 P0005 T00610033 (RZ)","FM-16","7",,,,,,,,,,,,,,,,,,,,,,,,,,,,
"72503014732","2020-04-24T00:49:00","FM-16","6",,,,,,,,,,,,,,,,,,,,,,,,,,,,,,,,,,,,,,"29.86","39","43",,"RA:02 BR:1 |RA |RA",,,"87",,"OVC:08 9","29.83","5.00","41","050",,"16",,,,,,,,,,,,,,,,,,,,,,,,,,,,,,,,,,,,,"MET10404/24/20 00:49:02 SPECI KLGA 240549Z 05014KT 5SM RA BR OVC009 06/04 A2986 RMK AO2 PRESFR P0008 FIBI (RZ)","FM-16","6",,,,,,,,,,,,,,,,,,,,,,,,,,,,
"72503014732","2020-04-24T00:51:00","FM-15","7",,,,,,,,,,,,,,,,,,,,,,,,,,,,,,,,,,,,,,"29.85","39","43","0.08","RA:02 BR:1 |RA |RA","+0.10","8","86","29.85","OVC:08 9","29.82","5.00","41","050",,"16",,,,,,,,,,,,,,,,,,,,,,,,,,,,,,,,,,,,,"MET14004/24/20 00:51:02 METAR KLGA 240551Z 05014KT 5SM RA BR OVC009 06/04 A2985 RMK AO2 PRESFR SLP108 P0009 60021 T00610039 10089 20061 58033 (RZ)","FM-15","7",,,,,,,,,,,,,,,,,,,,,,,,,,,,
"72503014732","2020-04-24T01:00:00","FM-12","4",,,,,,,,,,,,,,,,,,,,,,,,,,,,,,,,,,,,,,,"39","43",,"||RA","+0.10","8","86","29.85","8","29.81","4.97","41","050",,"16",,,,,,,,,,,,,,,,,,,,,,,,,,,,,,,,,,,,,"SYN09872503 11358 80514 10061 20039 30095 40108 58033 60051 763// 90551 333 10089 20050 96010 555 92406=","FM-12","4",,,,,,,,,,,,,,,,,,,,,,,,,,,,
"72503014732","2020-04-24T01:22:00","FM-16","7",,,,,,,,,,,,,,,,,,,,,,,,,,,,,,,,,,,,,,"29.84","40","44","0.03","-RA:02 BR:1 |RA |RA",,,"85",,"OVC:08 7","29.81","6.00","42","050",,"13",,,,,,,,,,,,,,,,,,,,,,,,,,,,,,,,,,,,,"MET10304/24/20 01:22:02 SPECI KLGA 240622Z 05011KT 6SM -RA BR OVC007 07/04 A2984 RMK AO2 P0003 T00670044 (RZ)","FM-16","7",,,,,,,,,,,,,,,,,,,,,,,,,,,,
"72503014732","2020-04-24T01:48:00","FM-16","7",,,,,,,,,,,,,,,,,,,,,,,,,,,,,,,,,,,,,,"29.82","39","45","0.06","RA:02 BR:1 |RA |RA",,,"81",,"OVC:08 6","29.79","4.00","42","050",,"16",,,,,,,,,,,,,,,,,,,,,,,,,,,,,,,,,,,,,"MET09204/24/20 01:48:02 SPECI KLGA 240648Z 05014KT 4SM RA BR OVC006 07/04 A2982 RMK AO2 P0006 (RZ)","FM-16","7",,,,,,,,,,,,,,,,,,,,,,,,,,,,
"72503014732","2020-04-24T01:51:00","FM-15","7",,,,,,,,,,,,,,,,,,,,,,,,,,,,,,,,,,,,,,"29.82","40","44","0.09","RA:02 BR:1 |RA |RA",,,"85","29.82","OVC:08 6","29.79","4.00","42","050",,"14",,,,,,,,,,,,,,,,,,,,,,,,,,,,,,,,,,,,,"MET10904/24/20 01:51:02 METAR KLGA 240651Z 05012KT 4SM RA BR OVC006 07/04 A2982 RMK AO2 SLP099 P0007 T00670044 (RZ)","FM-15","7",,,,,,,,,,,,,,,,,,,,,,,,,,,,
"72503014732","2020-04-24T02:51:00","FM-15","7",,,,,,,,,,,,,,,,,,,,,,,,,,,,,,,,,,,,,,"29.79","40","44","0.04","-RA:02 BR:1 |RA |RA",,,"85","29.78","OVC:08 6","29.76","5.00","42","050",,"15",,,,,,,,,,,,,,,,,,,,,,,,,,,,,,,,,,,,,"MET11004/24/20 02:51:02 METAR KLGA 240751Z 05013KT 5SM -RA BR OVC006 07/04 A2979 RMK AO2 SLP086 P0005 T00670044 (RZ)","FM-15","7",,,,,,,,,,,,,,,,,,,,,,,,,,,,
"72503014732","2020-04-24T03:08:00","FM-16","7",,,,,,,,,,,,,,,,,,,,,,,,,,,,,,,,,,,,,,"29.79","41","44","0.01","-RA:02 BR:1 |RA |RA",,,"89",,"OVC:08 5","29.76","4.00","43","040",,"15",,,,,,,,,,,,,,,,,,,,,,,,,,,,,,,,,,,,,"MET10304/24/20 03:08:02 SPECI KLGA 240808Z 04013KT 4SM -RA BR OVC005 07/05 A2979 RMK AO2 P0001 T00670050 (RZ)","FM-16","7",,,,,,,,,,,,,,,,,,,,,,,,,,,,
"72503014732","2020-04-24T03:28:00","FM-16","7",,,,,,,,,,,,,,,,,,,,,,,,,,,,,,,,,,,,,,"29.78","41","44","0.03","RA:02 BR:1 |RA |RA",,,"89",,"OVC:08 5","29.75","2.50","43","050",,"16",,,,,,,,,,,,,,,,,,,,,,,,,,,,,,,,,,,,,"MET10604/24/20 03:28:02 SPECI KLGA 240828Z 05014KT 2 1/2SM RA BR OVC005 07/05 A2978 RMK AO2 P0003 T00670050 (RZ)","FM-16","7",,,,,,,,,,,,,,,,,,,,,,,,,,,,
"72503014732","2020-04-24T03:44:00","FM-16","7",,,,,,,,,,,,,,,,,,,,,,,,,,,,,,,,,,,,,,"29.78","41","44","0.06","-RA:02 BR:1 |RA |RA",,,"89",,"OVC:08 5","29.75","4.00","43","050",,"18",,,,,,,,,,,,,,,,,,,,,,,,,,,,,,,,,,,,,"MET10304/24/20 03:44:02 SPECI KLGA 240844Z 05016KT 4SM -RA BR OVC005 07/05 A2978 RMK AO2 P0006 T00670050 (RZ)","FM-16","7",,,,,,,,,,,,,,,,,,,,,,,,,,,,
"72503014732","2020-04-24T03:51:00","FM-15","7",,,,,,,,,,,,,,,,,,,,,,,,,,,,,,,,,,,,,,"29.78","41","44","0.05","-RA:02 BR:1 |RA |RA","+0.05","8","89","29.78","OVC:08 5","29.75","5.00","43","050",,"20",,,,,,,,,,,,,,,,,,,,,,,,,,,,,,,,,,,,,"MET12204/24/20 03:51:02 METAR KLGA 240851Z 05017KT 5SM -RA BR OVC005 07/05 A2978 RMK AO2 SLP083 P0006 60018 T00670050 58016 (RZ)","FM-15","7",,,,,,,,,,,,,,,,,,,,,,,,,,,,
"72503014732","2020-04-24T04:00:00","FM-12","4",,,,,,,,,,,,,,,,,,,,,,,,,,,,,,,,,,,,,,,"41","44",,"||RA","+0.05","8","89","29.78","5","29.74","4.97","43","050",,"20",,,,,,,,,,,,,,,,,,,,,,,,,,,,,,,,,,,,,"SYN08672503 11258 80517 10067 20050 30071 40083 58016 60057 761// 90851 333 96010 555 92409=","FM-12","4",,,,,,,,,,,,,,,,,,,,,,,,,,,,
"72503014732","2020-04-24T04:51:00","FM-15","7",,,,,,,,,,,,,,,,,,,,,,,,,,,,,,,,,,,,,,"29.74","41","44","0.01",,,,"89","29.74","OVC:08 5","29.71","8.00","43","050",,"20",,,,,,,,,,,,,,,,,,,,,,,,,,,,,,,,,,,,,"MET10904/24/20 04:51:02 METAR KLGA 240951Z 05017KT 8SM OVC005 07/05 A2974 RMK AO2 RAE48 SLP070 P0001 T00670050 (RZ)","FM-15","7",,,,,,,,,,,,,,,,,,,,,,,,,,,,
"72503014732","2020-04-24T05:51:00","FM-15","7",,,,,,,,,,,,,,,,,,,,,,,,,,,,,,,,,,,,,,"29.73","41","44","T",,,,"89","29.73","OVC:08 5","29.70","7.00","43","040",,"20",,,,,,,,,,,,,,,,,,,,,,,,,,,,,,,,,,,,,"MET11504/24/20 05:51:02 METAR KLGA 241051Z 04017KT 7SM OVC005 07/05 A2973 RMK AO2 RAB0953E06 SLP068 P0000 T00670050 (PAS)","FM-15","7",,,,,,,,,,,,,,,,,,,,,,,,,,,,
"72503014732","2020-04-24T06:49:00","FM-16","6",,,,,,,,,,,,,,,,,,,,,,,,,,,,,,,,,,,,,,"29.71","43","45",,"-RA:02 BR:1 |RA |RA",,,"93",,"OVC:08 5","29.68","2.00","44","040","24","17",,,,,,,,,,,,,,,,,,,,,,,,,,,,,,,,,,,,,"MET12204/24/20 06:49:02 SPECI KLGA 241149Z 04015G21KT 2SM -RA BR OVC005 07/06 A2971 RMK AO2 SFC VIS 2 1/2 RAB21 P0000 FIBI (PAS)","FM-16","6",,,,,,,,,,,,,,,,,,,,,,,,,,,,
"72503014732","2020-04-24T06:51:00","FM-15","7",,,,,,,,,,,,,,,,,,,,,,,,,,,,,,,,,,,,,,"29.71","42","45","0.01","-RA:02 BR:1 |RA |RA","+0.06","6","90","29.71","OVC:08 5","29.68","2.00","44","050","24","18",,,,,,,,,,,,,,,,,,,,,,,,,,,,,,,,,,,,,"MET16404/24/20 06:51:02 METAR KLGA 241151Z 05016G21KT 2SM -RA BR OVC005 07/06 A2971 RMK AO2 SFC VIS 2 1/2 RAB21 SLP060 P0001 60020 70041 T00720056 10072 20061 56022 (PAS)","FM-15","7",,,,,,,,,,,,,,,,,,,,,,,,,,,,
"72503014732","2020-04-24T07:00:00","FM-12","4",,,,,,,,,,,,,,,,,,,,,,,,,,,,,,,,,,,,,,,"42","45",,"||RA","+0.06","6","90","29.71","5","29.67","1.99","44","050",,"18",,,,,,,,,,,,,,,,,,,,,,,,,,,,,,,,,,,,,"SYN11072503 11232 80516 10072 20056 30047 40060 56022 60051 761// 91151 333 10100 20061 70104 91021 96010 555 92412=","FM-12","4",,,,,,,,,,,,,,,,,,,,,,,,,,,,
"72503014732","2020-04-24T07:49:00","FM-16","6",,,,,,,,,,,,,,,,,,,,,,,,,,,,,,,,,,,,,,"29.70","43","46",,"BR:1 ||",,,"87",,"OVC:08 5","29.67","4.00","45","030","23","17",,,,,,,,,,,,,,,,,,,,,,,,,,,,,,,,,,,,,"MET10404/24/20 07:49:02 SPECI KLGA 241249Z 03015G20KT 4SM BR OVC005 08/06 A2970 RMK AO2 RAE19 P0000 FIBI (PAS)","FM-16","6",,,,,,,,,,,,,,,,,,,,,,,,,,,,
"72503014732","2020-04-24T07:51:00","FM-15","7",,,,,,,,,,,,,,,,,,,,,,,,,,,,,,,,,,,,,,"29.71","43","46","T","BR:1 ||",,,"89","29.70","OVC:08 5","29.68","4.00","45","030","23","14",,,,,,,,,,,,,,,,,,,,,,,,,,,,,,,,,,,,,"MET11604/24/20 07:51:02 METAR KLGA 241251Z 03012G20KT 4SM BR OVC005 08/06 A2971 RMK AO2 RAE19 SLP059 P0000 T00780061 (PAS)","FM-15","7",,,,,,,,,,,,,,,,,,,,,,,,,,,,
"72503014732","2020-04-24T08:26:00","FM-16","6",,,,,,,,,,,,,,,,,,,,,,,,,,,,,,,,,,,,,,"29.71","43","46",,"RA:02 BR:1 |RA |RA",,,"89",,"OVC:08 6","29.68","2.50","45","040",,"15",,,,,,,,,,,,,,,,,,,,,,,,,,,,,,,,,,,,,"MET11304/24/20 08:26:02 SPECI KLGA 241326Z 04013KT 2 1/2SM RA BR OVC006 08/06 A2971 RMK AO2 RAB02 P0005 T00780061 (PAS)","FM-16","6",,,,,,,,,,,,,,,,,,,,,,,,,,,,
"72503014732","2020-04-24T08:51:00","FM-15","6",,,,,,,,,,,,,,,,,,,,,,,,,,,,,,,,,,,,,,"29.71","43","46","0.12","RA:02 BR:1 |RA |RA",,,"89","29.70","OVC:08 7","29.68","2.50","45","050",,"15",,,,,,,,,,,,,,,,,,,,,,,,,,,,,,,,,,,,,"MET13004/24/20 08:51:02 METAR KLGA 241351Z 05013KT 2 1/2SM RA BR OVC007 08/06 A2971 RMK AO2 SFC VIS 3 RAB02 SLP059 P0010 T00780061 (PAS)","FM-15","6",,,,,,,,,,,,,,,,,,,,,,,,,,,,
"72503014732","2020-04-24T09:31:00","FM-16","6",,,,,,,,,,,,,,,,,,,,,,,,,,,,,,,,,,,,,,"29.70","43","46",,"-RA:02 BR:1 |RA |RA",,,"89",,"BKN:07 7 OVC:08 11","29.67","6.00","45","060",,"15",,,,,,,,,,,,,,,,,,,,,,,,,,,,,,,,,,,,,"MET11104/24/20 09:31:02 SPECI KLGA 241431Z 06013KT 6SM -RA BR BKN007 OVC011 08/06 A2970 RMK AO2 P0004 T00780061 (PAS)","FM-16","6",,,,,,,,,,,,,,,,,,,,,,,,,,,,
"72503014732","2020-04-24T09:51:00","SY-MT","7",,,,,,,,,,,,,,,,,,,,,,,,,,,,,,,,,,,,,,"29.67","43","47","0.05","-RA:02 BR:1 |RA |RA","+0.04","8","86","29.67","OVC:08 7","29.64","5.00","45","050",,"21",,,,,,,,,,,,,,,,,,,,,,,,,,,,,,,,,,,,,"SYN08672503 11358 80518 10083 20061 30034 40047 58014 60047 761// 91451 333 96010 555 92415=MET13004/24/20 09:51:02 METAR KLGA 241451Z 05018KT 5SM -RA BR OVC007 08/06 A2967 RMK AO2 PRESFR SLP047 P0006 60016 T00830061 58014 (PAS)","SY-MT","7",,,,,,,,,,,,,,,,,,,,,,,,,,,,
"72503014732","2020-04-24T10:07:00","FM-16","7",,,,,,,,,,,,,,,,,,,,,,,,,,,,,,,,,,,,,,"29.68","44","47","0.01","-RA:02 BR:1 |RA |RA",,,"90",,"OVC:08 6","29.65","6.00","46","050",,"16",,,,,,,,,,,,,,,,,,,,,,,,,,,,,,,,,,,,,"MET10404/24/20 10:07:02 SPECI KLGA 241507Z 05014KT 6SM -RA BR OVC006 08/07 A2968 RMK AO2 P0001 T00830067 (PAS)","FM-16","7",,,,,,,,,,,,,,,,,,,,,,,,,,,,
"72503014732","2020-04-24T10:49:00","FM-16","6",,,,,,,,,,,,,,,,,,,,,,,,,,,,,,,,,,,,,,"29.68","45","46",,"-RA:02 |RA |RA",,,"93",,"OVC:08 7","29.65","8.00","46","050",,"15",,,,,,,,,,,,,,,,,,,,,,,,,,,,,,,,,,,,,"MET09604/24/20 10:49:02 SPECI KLGA 241549Z 05013KT 8SM -RA OVC007 08/07 A2968 RMK AO2 P0001 FIBI (PAS)","FM-16","6",,,,,,,,,,,,,,,,,,,,,,,,,,,,
"72503014732","2020-04-24T10:51:00","FM-15","7",,,,,,,,,,,,,,,,,,,,,,,,,,,,,,,,,,,,,,"29.69","44","47","T","-RA:02 |RA |RA",,,"90","29.68","BKN:07 7 OVC:08 10","29.66","8.00","46","050",,"16",,,,,,,,,,,,,,,,,,,,,,,,,,,,,,,,,,,,,"MET11504/24/20 10:51:02 METAR KLGA 241551Z 05014KT 8SM -RA BKN007 OVC010 08/07 A2969 RMK AO2 SLP052 P0001 T00830067 (PAS)","FM-15","7",,,,,,,,,,,,,,,,,,,,,,,,,,,,
"72503014732","2020-04-24T11:22:00","FM-16","7",,,,,,,,,,,,,,,,,,,,,,,,,,,,,,,,,,,,,,"29.69","44","48","T","-RA:02 |RA |RA",,,"86",,"OVC:08 9","29.66","9.00","46","040","24","14",,,,,,,,,,,,,,,,,,,,,,,,,,,,,,,,,,,,,"MET10404/24/20 11:22:02 SPECI KLGA 241622Z 04012G21KT 9SM -RA OVC009 09/07 A2969 RMK AO2 P0000 T00890067 (PAS)","FM-16","7",,,,,,,,,,,,,,,,,,,,,,,,,,,,
"72503014732","2020-04-24T11:51:00","FM-15","7",,,,,,,,,,,,,,,,,,,,,,,,,,,,,,,,,,,,,,"29.69","44","49","T","-RA:02 |RA |RA",,,"83","29.69","OVC:08 11","29.66","9.00","47","040",,"14",,,,,,,,,,,,,,,,,,,,,,,,,,,,,,,,,,,,,"MET10804/24/20 11:51:02 METAR KLGA 241651Z 04012KT 9SM -RA OVC011 09/07 A2969 RMK AO2 SLP053 P0000 T00940067 (PAS)","FM-15","7",,,,,,,,,,,,,,,,,,,,,,,,,,,,
"72503014732","2020-04-24T12:51:00","FM-15","7",,,,,,,,,,,,,,,,,,,,,,,,,,,,,,,,,,,,,,"29.69","45","50","0.02","-RA:02 |RA |RA","-0.01","0","83","29.68","OVC:08 12","29.66","10.00","48","020",,"14",,,,,,,,,,,,,,,,,,,,,,,,,,,,,,,,,,,,,"MET13304/24/20 12:51:02 METAR KLGA 241751Z 02012KT 10SM -RA OVC012 10/07 A2969 RMK AO2 SLP052 P0002 60019 T01000072 10100 20072 50005 (PAS)","FM-15","7",,,,,,,,,,,,,,,,,,,,,,,,,,,,
"72503014732","2020-04-24T13:00:00","FM-12","4",,,,,,,,,,,,,,,,,,,,,,,,,,,,,,,,,,,,,,,"45","50",,"||RA","0.01","9","83","29.68","15","29.65","9.94","48","020",,"14",,,,,,,,,,,,,,,,,,,,,,,,,,,,,,,,,,,,,"SYN09272503 11466 80212 10100 20072 30041 40052 50005 60051 761// 91751 333 10100 20072 555 92418=","FM-12","4",,,,,,,,,,,,,,,,,,,,,,,,,,,,
"72503014732","2020-04-24T13:51:00","FM-15","7",,,,,,,,,,,,,,,,,,,,,,,,,,,,,,,,,,,,,,"29.71","45","50","T",,,,"83","29.70","OVC:08 13","29.68","10.00","48","010",,"10",,,,,,,,,,,,,,,,,,,,,,,,,,,,,,,,,,,,,"MET11004/24/20 13:51:02 METAR KLGA 241851Z 01009KT 10SM OVC013 10/07 A2971 RMK AO2 RAE32 SLP059 P0000 T01000072 (WL)","FM-15","7",,,,,,,,,,,,,,,,,,,,,,,,,,,,
"72503014732","2020-04-24T14:51:00","FM-15","7",,,,,,,,,,,,,,,,,,,,,,,,,,,,,,,,,,,,,,"29.72","45","50","T",,,,"83","29.72","OVC:08 13","29.69","8.00","48","040",,"9",,,,,,,,,,,,,,,,,,,,,,,,,,,,,,,,,,,,,"MET11204/24/20 14:51:02 METAR KLGA 241951Z 04008KT 8SM OVC013 10/07 A2972 RMK AO2 RAB01E42 SLP065 P0000 T01000072 (WL)","FM-15","7",,,,,,,,,,,,,,,,,,,,,,,,,,,,
"72503014732","2020-04-24T15:42:00","FM-16","7",,,,,,,,,,,,,,,,,,,,,,,,,,,,,,,,,,,,,,"29.74","46","50","T","-RA:02 BR:1 |RA |RA",,,"86",,"SCT:04 7 OVC:08 12","29.71","4.00","48","350",,"8",,,,,,,,,,,,,,,,,,,,,,,,,,,,,,,,,,,,,"MET11604/24/20 15:42:02 SPECI KLGA 242042Z 35007KT 4SM -RA BR SCT007 OVC012 10/08 A2974 RMK AO2 RAB18 P0000 T01000078 (WL)","FM-16","7",,,,,,,,,,,,,,,,,,,,,,,,,,,,
"72503014732","2020-04-24T15:49:00","FM-16","6",,,,,,,,,,,,,,,,,,,,,,,,,,,,,,,,,,,,,,"29.74","45","50",,"-RA:02 |RA |RA",,,"82",,"BKN:07 7 OVC:08 14","29.71","4.00","48","360",,"8",,,,,,,,,,,,,,,,,,,,,,,,,,,,,,,,,,,,,"MET10804/24/20 15:49:02 SPECI KLGA 242049Z 36007KT 4SM -RA BKN007 OVC014 10/07 A2974 RMK AO2 RAB18 P0000 FIBI (WL)","FM-16","6",,,,,,,,,,,,,,,,,,,,,,,,,,,,
"72503014732","2020-04-24T15:51:00","FM-15","7",,,,,,,,,,,,,,,,,,,,,,,,,,,,,,,,,,,,,,"29.74","45","50","T","-RA:02 |RA |RA","-0.03","1","83","29.74","BKN:07 7 OVC:08 14","29.71","4.00","48","360",,"10",,,,,,,,,,,,,,,,,,,,,,,,,,,,,,,,,,,,,"MET13204/24/20 15:51:02 METAR KLGA 242051Z 36009KT 4SM -RA BKN007 OVC014 10/07 A2974 RMK AO2 RAB18 SLP070 P0000 60000 T01000072 51011 (WL)","FM-15","7",,,,,,,,,,,,,,,,,,,,,,,,,,,,
"72503014732","2020-04-24T15:57:00","FM-16","7",,,,,,,,,,,,,,,,,,,,,,,,,,,,,,,,,,,,,,"29.74","45","49","T","-RA:02 BR:1 |RA |RA",,,"86",,"FEW:02 6 OVC:08 11","29.71","4.00","47","350",,"11",,,,,,,,,,,,,,,,,,,,,,,,,,,,,,,,,,,,,"MET11004/24/20 15:57:02 SPECI KLGA 242057Z 35010KT 4SM -RA BR FEW006 OVC011 09/07 A2974 RMK AO2 P0000 T00940072 (WL)","FM-16","7",,,,,,,,,,,,,,,,,,,,,,,,,,,,
"72503014732","2020-04-24T16:00:00","FM-12","4",,,,,,,,,,,,,,,,,,,,,,,,,,,,,,,,,,,,,,,"45","50",,"||RA","-0.03","1","83","29.74","8","29.70","3.73","48","360",,"10",,,,,,,,,,,,,,,,,,,,,,,,,,,,,,,,,,,,,"SYN07672503 11356 83609 10100 20072 30057 40070 51011 69907 761// 92051 555 92421=","FM-12","4",,,,,,,,,,,,,,,,,,,,,,,,,,,,
"72503014732","2020-04-24T16:04:00","FM-16","7",,,,,,,,,,,,,,,,,,,,,,,,,,,,,,,,,,,,,,"29.74","45","50","0.01","-RA:02 |RA |RA",,,"83",,"BKN:07 8 OVC:08 14","29.71","4.00","48","010",,"9",,,,,,,,,,,,,,,,,,,,,,,,,,,,,,,,,,,,,"MET10704/24/20 16:04:02 SPECI KLGA 242104Z 01008KT 4SM -RA BKN008 OVC014 10/07 A2974 RMK AO2 P0001 T01000072 (WL)","FM-16","7",,,,,,,,,,,,,,,,,,,,,,,,,,,,
"72503014732","2020-04-24T16:14:00","FM-16","7",,,,,,,,,,,,,,,,,,,,,,,,,,,,,,,,,,,,,,"29.75","46","50","0.01","BR:1 ||",,,"86",,"SCT:04 9 OVC:08 14","29.72","4.00","48","350",,"8",,,,,,,,,,,,,,,,,,,,,,,,,,,,,,,,,,,,,"MET12704/24/20 16:14:02 SPECI KLGA 242114Z 35007KT 4SM BR SCT009 OVC014 10/08 A2975 RMK AO2 RAE10 CIG 010 R22 SW P0001 T01000078 (WL)","FM-16","7",,,,,,,,,,,,,,,,,,,,,,,,,,,,
"72503014732","2020-04-24T16:49:00","FM-16","6",,,,,,,,,,,,,,,,,,,,,,,,,,,,,,,,,,,,,,"29.76","45","50",,"HZ:7 ||HZ",,,"82",,"FEW:02 10 OVC:08 16","29.73","4.00","48","360",,"10",,,,,,,,,,,,,,,,,,,,,,,,,,,,,,,,,,,,,"MET11304/24/20 16:49:02 SPECI KLGA 242149Z 36009KT 4SM HZ FEW010 OVC016 10/07 A2976 RMK AO2 RAE10B35E46 P0001 FIBI (WL)","FM-16","6",,,,,,,,,,,,,,,,,,,,,,,,,,,,
"72503014732","2020-04-24T16:51:00","FM-15","7",,,,,,,,,,,,,,,,,,,,,,,,,,,,,,,,,,,,,,"29.76","45","50","0.01","HZ:7 |FU |HZ",,,"83","29.76","FEW:02 10 OVC:08 16","29.73","4.00","48","350",,"10",,,,,,,,,,,,,,,,,,,,,,,,,,,,,,,,,,,,,"MET14004/24/20 16:51:02 METAR KLGA 242151Z 35009KT 4SM HZ FEW010 OVC016 10/07 A2976 RMK AO2 RAE10B35E46 CIG 011 R22 SW SLP077 P0001 T01000072 (WL)","FM-15","7",,,,,,,,,,,,,,,,,,,,,,,,,,,,
"72503014732","2020-04-24T17:51:00","FM-15","7",,,,,,,,,,,,,,,,,,,,,,,,,,,,,,,,,,,,,,"29.78","45","50","T","-RA:02 |RA |RA",,,"83","29.78","FEW:02 16 OVC:08 25","29.75","10.00","48","010",,"10",,,,,,,,,,,,,,,,,,,,,,,,,,,,,,,,,,,,,"MET12104/24/20 17:51:02 METAR KLGA 242251Z 01009KT 10SM -RA FEW016 OVC025 10/07 A2978 RMK AO2 RAB47 SLP083 P0000 T01000072 (WL)","FM-15","7",,,,,,,,,,,,,,,,,,,,,,,,,,,,
"72503014732","2020-04-24T18:16:00","FM-16","7",,,,,,,,,,,,,,,,,,,,,,,,,,,,,,,,,,,,,,"29.79","44","50","T",,,,"80",,"SCT:04 16 OVC:08 30","29.76","10.00","47","030",,"9",,,,,,,,,,,,,,,,,,,,,,,,,,,,,,,,,,,,,"MET11204/24/20 18:16:02 SPECI KLGA 242316Z 03008KT 10SM SCT016 OVC030 10/07 A2979 RMK AO2 RAE2257 P0000 T01000067 (WL)","FM-16","7",,,,,,,,,,,,,,,,,,,,,,,,,,,,
"72503014732","2020-04-24T18:51:00","FM-15","7",,,,,,,,,,,,,,,,,,,,,,,,,,,,,,,,,,,,,,"29.81","43","50","T",,"-0.07","3","77","29.81","BKN:07 36 BKN:07 55 OVC:08 75","29.78","10.00","47","040",,"7",,,,,,,,,,,,,,,,,,,,,,,,,,,,,,,,,,,,,"MET15004/24/20 18:51:02 METAR KLGA 242351Z 04006KT 10SM BKN036 BKN055 OVC075 10/06 A2981 RMK AO2 RAE2257 SLP095 P0000 60001 T01000061 10100 20094 53024 (WL)","FM-15","7",,,,,,,,,,,,,,,,,,,,,,,,,,,,
"72503014732","2020-04-24T19:00:00","FM-12","4",,,,,,,,,,,,,,,,,,,,,,,,,,,,,,,,,,,,,,,"43","50",,,"-0.07","3","77","29.81","41","29.77","9.94","47","040",,"7",,,,,,,,,,,,,,,,,,,,,,,,,,,,,,,,,,,,,"SYN08672503 12666 80406 10100 20061 30081 40095 53024 69931 92351 333 10100 20061 555 92500=","FM-12","4",,,,,,,,,,,,,,,,,,,,,,,,,,,,
"72503014732","2020-04-24T19:51:00","FM-15","7",,,,,,,,,,,,,,,,,,,,,,,,,,,,,,,,,,,,,,"29.83","43","49","T",,,,"80","29.83","SCT:04 15 BKN:07 41 OVC:08 85","29.80","10.00","46","040",,"5",,,,,,,,,,,,,,,,,,,,,,,,,,,,,,,,,,,,,"MET12404/24/20 19:51:01 METAR KLGA 250051Z 04004KT 10SM SCT015 BKN041 OVC085 09/06 A2983 RMK AO2 RAB2353E02 SLP102 P0000 T00940061","FM-15","7",,,,,,,,,,,,,,,,,,,,,,,,,,,,
"72503014732","2020-04-24T20:02:00","FM-16","7",,,,,,,,,,,,,,,,,,,,,,,,,,,,,,,,,,,,,,"29.84","44","50",,,,,"80",,"SCT:04 13 BKN:07 18 OVC:08 85","29.81","10.00","47","350",,"7",,,,,,,,,,,,,,,,,,,,,,,,,,,,,,,,,,,,,"MET10004/24/20 20:02:01 SPECI KLGA 250102Z 35006KT 10SM SCT013 BKN018 OVC085 10/07 A2984 RMK AO2 T01000067","FM-16","7",,,,,,,,,,,,,,,,,,,,,,,,,,,,
"72503014732","2020-04-24T20:21:00","FM-16","7",,,,,,,,,,,,,,,,,,,,,,,,,,,,,,,,,,,,,,"29.86","43","49",,,,,"80",,"FEW:02 13 SCT:04 19 SCT:04 80","29.83","10.00","46","350",,"8",,,,,,,,,,,,,,,,,,,,,,,,,,,,,,,,,,,,,"MET10004/24/20 20:21:01 SPECI KLGA 250121Z 35007KT 10SM FEW013 SCT019 SCT080 09/06 A2986 RMK AO2 T00940061","FM-16","7",,,,,,,,,,,,,,,,,,,,,,,,,,,,
"72503014732","2020-04-24T20:51:00","FM-15","7",,,,,,,,,,,,,,,,,,,,,,,,,,,,,,,,,,,,,,"29.87","43","49","0.00",,,,"80","29.87","FEW:02 13 SCT:04 19 SCT:04 80","29.84","10.00","46","330",,"5",,,,,,,,,,,,,,,,,,,,,,,,,,,,,,,,,,,,,"MET10704/24/20 20:51:01 METAR KLGA 250151Z 33004KT 10SM FEW013 SCT019 SCT080 09/06 A2987 RMK AO2 SLP115 T00940061","FM-15","7",,,,,,,,,,,,,,,,,,,,,,,,,,,,
"72503014732","2020-04-24T21:51:00","FM-15","7",,,,,,,,,,,,,,,,,,,,,,,,,,,,,,,,,,,,,,"29.88","43","49","0.00",,"-0.07","1","80","29.88","FEW:02 16","29.85","10.00","46","340",,"3",,,,,,,,,,,,,,,,,,,,,,,,,,,,,,,,,,,,,"MET10504/24/20 21:51:02 METAR KLGA 250251Z 34003KT 10SM FEW016 09/06 A2988 RMK AO2 SLP118 60000 T00940061 51023","FM-15","7",,,,,,,,,,,,,,,,,,,,,,,,,,,,
"72503014732","2020-04-24T22:00:00","FM-12","4",,,,,,,,,,,,,,,,,,,,,,,,,,,,,,,,,,,,,,,"43","49",,,"-0.07","1","80","29.88","15","29.84","9.94","46","340",,"3",,,,,,,,,,,,,,,,,,,,,,,,,,,,,,,,,,,,,"SYN07072503 12466 23403 10094 20061 30105 40118 51023 69907 90251 555 92503=","FM-12","4",,,,,,,,,,,,,,,,,,,,,,,,,,,,
"72503014732","2020-04-24T22:51:00","FM-15","7",,,,,,,,,,,,,,,,,,,,,,,,,,,,,,,,,,,,,,"29.89","42","48","0.00",,,,"80","29.89","FEW:02 16","29.86","10.00","45","350",,"3",,,,,,,,,,,,,,,,,,,,,,,,,,,,,,,,,,,,,"MET09304/24/20 22:51:02 METAR KLGA 250351Z 35003KT 10SM FEW016 09/06 A2989 RMK AO2 SLP122 T00890056","FM-15","7",,,,,,,,,,,,,,,,,,,,,,,,,,,,
"72503014732","2020-04-24T23:51:00","FM-15","7",,,,,,,,,,,,,,,,,,,,,,,,,,,,,,,,,,,,,,"29.91","42","47","0.00",,,,"83","29.91","CLR:00","29.88","10.00","45","000",,"0",,,,,,,,,,,,,,,,,,,,,,,,,,,,,,,,,,,,,"MET10004/24/20 23:51:02 METAR KLGA 250451Z 00000KT 10SM CLR 08/06 A2991 RMK AO2 SLP127 T00830056 401000061","FM-15","7",,,,,,,,,,,,,,,,,,,,,,,,,,,,
"72503014732","2020-04-24T23:59:00","SOD  ","6",,,,,,,,,,,,,,,,"47",,,"29.72",,"12.0","0","-8.7","18","50","43","050","29","0.48","0","0.0","050","24","RA BR HZ",,,,,,,,,,,,,,,,,,,,,,,,,,,,,,,,,,,,,,,,,,,,,,,,,,,,,,,,"SOD75724 HR PRECIPITATION (IN): 0.48 SNOW DEPTH (IN):0     24 HR SNOWFALL (IN):0.0  WEATHER(CODE):18  24 HR MAX TEMP (F): 5024 HR MIN TEMP (F): 43AVERAGE STATION PRESSURE:29.725 MINIMUM SEA LEVEL PRESSURE:29.67 TIME OF OCCURRENCE:1001 PEAK WIND SPEED (MPH): 29 PEAK WIND DIR (DEG): 50 PEAK WIND TIME (LST):      FASTEST 2MIN SPEED (MPH): 24FASTEST 2MIN DIR (DEG): 50 FASTEST 2MIN TIME (LST):     AVERAGE WIND SPEED (MPH):12.0 24 HR AVG TEMP (F): 47DEPART FROM NORMAL: -9  HEATING DEGREE DAYS: 18 COOLING DEGREE DAYS:  0 LATEST DAY MAX TEMP (0700-1900 LST):50  LATEST NIGHT MIN TEMP(1900-0800 LST):43 HOURLY INCREMENTAL PRECIPITATION VALUES (IN):.08 0.09 0.04 0.05 0.01 T    0.01 T    0.12 0.05 T    T    0.02 T    T    T    0.01 T    T    T    0.00 0.00 0.00 0.00","SOD  ","6",,,,,,,,,,,,,,,,,,,,,,,,,"0502","1845",,
"72503014732","2020-04-25T00:51:00","FM-15","7",,,,,,,,,,,,,,,,,,,,,,,,,,,,,,,,,,,,,,"29.92","41","45","0.00",,"-0.04","1","86","29.92","FEW:02 50","29.89","10.00","43","000",,"0",,,,,,,,,,,,,,,,,,,,,,,,,,,,,,,,,,,,,"MET12204/25/20 00:51:02 METAR KLGA 250551Z 00000KT 10SM FEW050 07/05 A2992 RMK AO2 SLP132 60000 T00720050 10100 20072 51014 (RZ)","FM-15","7",,,,,,,,,,,,,,,,,,,,,,,,,,,,
"72503014732","2020-04-25T01:00:00","FM-12","4",,,,,,,,,,,,,,,,,,,,,,,,,,,,,,,,,,,,,,,"41","45",,,"-0.04","1","86","29.92","57","29.88","9.94","43","000",,"0",,,,,,,,,,,,,,,,,,,,,,,,,,,,,,,,,,,,,"SYN08672503 12766 20000 10072 20050 30118 40132 51014 69901 90551 333 10100 20061 555 92506=","FM-12","4",,,,,,,,,,,,,,,,,,,,,,,,,,,,
"72503014732","2020-04-25T01:51:00","FM-15","7",,,,,,,,,,,,,,,,,,,,,,,,,,,,,,,,,,,,,,"29.92","41","46","0.00",,,,"83","29.92","FEW:02 50","29.89","10.00","44","000",,"0",,,,,,,,,,,,,,,,,,,,,,,,,,,,,,,,,,,,,"MET09804/25/20 01:51:02 METAR KLGA 250651Z 00000KT 10SM FEW050 08/05 A2992 RMK AO2 SLP132 T00780050 (RZ)","FM-15","7",,,,,,,,,,,,,,,,,,,,,,,,,,,,
"72503014732","2020-04-25T02:51:00","FM-15","7",,,,,,,,,,,,,,,,,,,,,,,,,,,,,,,,,,,,,,"29.94","41","45","0.00",,,,"86","29.93","FEW:02 50","29.91","10.00","43","000",,"0",,,,,,,,,,,,,,,,,,,,,,,,,,,,,,,,,,,,,"MET09804/25/20 02:51:02 METAR KLGA 250751Z 00000KT 10SM FEW050 07/05 A2994 RMK AO2 SLP137 T00720050 (RZ)","FM-15","7",,,,,,,,,,,,,,,,,,,,,,,,,,,,
"72503014732","2020-04-25T03:51:00","FM-15","7",,,,,,,,,,,,,,,,,,,,,,,,,,,,,,,,,,,,,,"29.96","40","44","0.00",,"-0.04","3","85","29.96","FEW:02 60","29.93","8.00","42","000",,"0",,,,,,,,,,,,,,,,,,,,,,,,,,,,,,,,,,,,,"MET10304/25/20 03:51:02 METAR KLGA 250851Z 00000KT 8SM FEW060 07/04 A2996 RMK AO2 SLP146 T00670044 53014 (RZ)","FM-15","7",,,,,,,,,,,,,,,,,,,,,,,,,,,,
"72503014732","2020-04-25T04:00:00","FM-12","4",,,,,,,,,,,,,,,,,,,,,,,,,,,,,,,,,,,,,,,"40","44",,,"-0.04","3","85","29.96","57","29.92","7.46","42","000",,"0",,,,,,,,,,,,,,,,,,,,,,,,,,,,,,,,,,,,,"SYN06472503 32762 20000 10067 20044 30132 40146 53014 90851 555 92509=","FM-12","4",,,,,,,,,,,,,,,,,,,,,,,,,,,,
"72503014732","2020-04-25T04:51:00","FM-15","7",,,,,,,,,,,,,,,,,,,,,,,,,,,,,,,,,,,,,,"29.98","41","45","0.00",,,,"86","29.98","FEW:02 50","29.95","9.00","43","000",,"0",,,,,,,,,,,,,,,,,,,,,,,,,,,,,,,,,,,,,"MET09704/25/20 04:51:02 METAR KLGA 250951Z 00000KT 9SM FEW050 07/05 A2998 RMK AO2 SLP153 T00720050 (RZ)","FM-15","7",,,,,,,,,,,,,,,,,,,,,,,,,,,,
"72503014732","2020-04-25T05:51:00","FM-15","7",,,,,,,,,,,,,,,,,,,,,,,,,,,,,,,,,,,,,,"30.01","43","47","0.00",,,,"86","30.01","FEW:02 25 SCT:04 60","29.98","10.00","45","000",,"0",,,,,,,,,,,,,,,,,,,,,,,,,,,,,,,,,,,,,"MET10504/25/20 05:51:02 METAR KLGA 251051Z 00000KT 10SM FEW025 SCT060 08/06 A3001 RMK AO2 SLP161 T00830061 (ML)","FM-15","7",,,,,,,,,,,,,,,,,,,,,,,,,,,,
"72503014732","2020-04-25T06:51:00","FM-15","7",,,,,,,,,,,,,,,,,,,,,,,,,,,,,,,,,,,,,,"30.03","45","50","0.00",,"-0.07","3","83","30.03","FEW:02 25 SCT:04 60","30.00","10.00","48","000",,"0",,,,,,,,,,,,,,,,,,,,,,,,,,,,,,,,,,,,,"MET12904/25/20 06:51:02 METAR KLGA 251151Z 00000KT 10SM FEW025 SCT060 10/07 A3003 RMK AO2 SLP169 70020 T01000072 10100 20061 53023 (ML)","FM-15","7",,,,,,,,,,,,,,,,,,,,,,,,,,,,
"72503014732","2020-04-25T07:00:00","FM-12","4",,,,,,,,,,,,,,,,,,,,,,,,,,,,,,,,,,,,,,,"45","50",,,"-0.07","3","83","30.03","26","29.99","9.94","48","000",,"0",,,,,,,,,,,,,,,,,,,,,,,,,,,,,,,,,,,,,"SYN08672503 32566 40000 10100 20072 30156 40169 53023 91151 333 10100 20061 70051 555 92512=","FM-12","4",,,,,,,,,,,,,,,,,,,,,,,,,,,,
"72503014732","2020-04-25T07:51:00","FM-15","7",,,,,,,,,,,,,,,,,,,,,,,,,,,,,,,,,,,,,,"30.04","42","51","0.00",,,,"71","30.04","FEW:02 25 FEW:02 60 SCT:04 250","30.01","10.00","47","060",,"3",,,,,,,,,,,,,,,,,,,,,,,,,,,,,,,,,,,,,"MET11204/25/20 07:51:02 METAR KLGA 251251Z 06003KT 10SM FEW025 FEW060 SCT250 11/06 A3004 RMK AO2 SLP173 T01060056 (ML)","FM-15","7",,,,,,,,,,,,,,,,,,,,,,,,,,,,
"72503014732","2020-04-25T08:16:00","FM-16","7",,,,,,,,,,,,,,,,,,,,,,,,,,,,,,,,,,,,,,"30.05","44","54",,,,,"69",,"BKN:07 22 BKN:07 60 BKN:07 250","30.02","10.00","49","000",,"0",,,,,,,,,,,,,,,,,,,,,,,,,,,,,,,,,,,,,"MET10504/25/20 08:16:02 SPECI KLGA 251316Z 00000KT 10SM BKN022 BKN060 BKN250 12/07 A3005 RMK AO2 T01220067 (ML)","FM-16","7",,,,,,,,,,,,,,,,,,,,,,,,,,,,
"72503014732","2020-04-25T08:51:00","FM-15","7",,,,,,,,,,,,,,,,,,,,,,,,,,,,,,,,,,,,,,"30.05","42","54","0.00",,,,"64","30.05","BKN:07 26 BKN:07 60 BKN:07 250","30.02","10.00","48","000",,"0",,,,,,,,,,,,,,,,,,,,,,,,,,,,,,,,,,,,,"MET11204/25/20 08:51:02 METAR KLGA 251351Z 00000KT 10SM BKN026 BKN060 BKN250 12/06 A3005 RMK AO2 SLP175 T01220056 (ML)","FM-15","7",,,,,,,,,,,,,,,,,,,,,,,,,,,,
"72503014732","2020-04-25T09:34:00","FM-16","7",,,,,,,,,,,,,,,,,,,,,,,,,,,,,,,,,,,,,,"30.05","42","57",,,,,"58",,"FEW:02 25 FEW:02 60 SCT:04 250","30.02","10.00","50","040",,"5",,,,,,,,,,,,,,,,,,,,,,,,,,,,,,,,,,,,,"MET10504/25/20 09:34:02 SPECI KLGA 251434Z 04004KT 10SM FEW025 FEW060 SCT250 14/06 A3005 RMK AO2 T01390056 (ML)","FM-16","7",,,,,,,,,,,,,,,,,,,,,,,,,,,,
"72503014732","2020-04-25T09:51:00","FM-15","7",,,,,,,,,,,,,,,,,,,,,,,,,,,,,,,,,,,,,,"30.06","42","58","0.00",,"-0.03","1","56","30.06","FEW:02 35 SCT:04 60 SCT:04 250","30.03","10.00","50","VRB",,"3",,,,,,,,,,,,,,,,,,,,,,,,,,,,,,,,,,,,,"MET11804/25/20 09:51:02 METAR KLGA 251451Z VRB03KT 10SM FEW035 SCT060 SCT250 14/06 A3006 RMK AO2 SLP179 T01440056 51010 (ML)","FM-15","7",,,,,,,,,,,,,,,,,,,,,,,,,,,,
"72503014732","2020-04-25T10:00:00","FM-12","4",,,,,,,,,,,,,,,,,,,,,,,,,,,,,,,,,,,,,,,"42","58",,,"-0.03","1","56","30.06","41","30.02","9.94","50",,,"3",,,,,,,,,,,,,,,,,,,,,,,,,,,,,,,,,,,,,"SYN06472503 32666 4//03 10144 20056 30166 40179 51010 91451 555 92515=","FM-12","4",,,,,,,,,,,,,,,,,,,,,,,,,,,,
"72503014732","2020-04-25T10:51:00","FM-15","7",,,,,,,,,,,,,,,,,,,,,,,,,,,,,,,,,,,,,,"30.05","40","60","0.00",,,,"47","30.05","FEW:02 35 FEW:02 60 SCT:04 250","30.02","10.00","50","070",,"6",,,,,,,,,,,,,,,,,,,,,,,,,,,,,,,,,,,,,"MET11204/25/20 10:51:02 METAR KLGA 251551Z 07005KT 10SM FEW035 FEW060 SCT250 16/04 A3005 RMK AO2 SLP176 T01560044 (ML)","FM-15","7",,,,,,,,,,,,,,,,,,,,,,,,,,,,
"72503014732","2020-04-25T11:51:00","FM-15","7",,,,,,,,,,,,,,,,,,,,,,,,,,,,,,,,,,,,,,"30.06","40","61","0.00",,,,"46","30.06","SCT:04 40 SCT:04 250","30.03","10.00","51","070",,"6",,,,,,,,,,,,,,,,,,,,,,,,,,,,,,,,,,,,,"MET10504/25/20 11:51:02 METAR KLGA 251651Z 07005KT 10SM SCT040 SCT250 16/04 A3006 RMK AO2 SLP179 T01610044 (ML)","FM-15","7",,,,,,,,,,,,,,,,,,,,,,,,,,,,
"72503014732","2020-04-25T12:51:00","FM-15","7",,,,,,,,,,,,,,,,,,,,,,,,,,,,,,,,,,,,,,"30.06","40","63","0.00",,"-0.00","3","43","30.06","BKN:07 46 BKN:07 250","30.03","10.00","52","160",,"13",,,,,,,,,,,,,,,,,,,,,,,,,,,,,,,,,,,,,"MET12304/25/20 12:51:02 METAR KLGA 251751Z 16011KT 10SM BKN046 BKN250 17/04 A3006 RMK AO2 SLP180 T01720044 10178 20106 53001 (ML)","FM-15","7",,,,,,,,,,,,,,,,,,,,,,,,,,,,
"72503014732","2020-04-25T13:00:00","FM-12","4",,,,,,,,,,,,,,,,,,,,,,,,,,,,,,,,,,,,,,,"40","63",,,"-0.00","3","43","30.06","41","30.02","9.94","52","160",,"13",,,,,,,,,,,,,,,,,,,,,,,,,,,,,,,,,,,,,"SYN08072503 32666 61611 10172 20044 30166 40180 53001 91751 333 10178 20094 555 92518=","FM-12","4",,,,,,,,,,,,,,,,,,,,,,,,,,,,
"72503014732","2020-04-25T13:51:00","FM-15","7",,,,,,,,,,,,,,,,,,,,,,,,,,,,,,,,,,,,,,"30.06","36","62","0.00",,,,"38","30.06","FEW:02 45 SCT:04 65 BKN:07 90","30.03","10.00","50","160","17","11",,,,,,,,,,,,,,,,,,,,,,,,,,,,,,,,,,,,,"MET11504/25/20 13:51:02 METAR KLGA 251851Z 16010G15KT 10SM FEW045 SCT065 BKN090 17/02 A3006 RMK AO2 SLP179 T01670022 (JG)","FM-15","7",,,,,,,,,,,,,,,,,,,,,,,,,,,,
"72503014732","2020-04-25T14:51:00","FM-15","7",,,,,,,,,,,,,,,,,,,,,,,,,,,,,,,,,,,,,,"30.04","31","62","0.00",,,,"31","30.04","FEW:02 45 SCT:04 65 SCT:04 90","30.01","10.00","48","150",,"10",,,,,,,,,,,,,,,,,,,,,,,,,,,,,,,,,,,,,"MET11304/25/20 14:51:02 METAR KLGA 251951Z 15009KT 10SM FEW045 SCT065 SCT090 17/M01 A3004 RMK AO2 SLP173 T01671006 (JG)","FM-15","7",,,,,,,,,,,,,,,,,,,,,,,,,,,,
"72503014732","2020-04-25T15:51:00","FM-15","7",,,,,,,,,,,,,,,,,,,,,,,,,,,,,,,,,,,,,,"30.04","33","60","0.00",,"+0.03","8","36","30.03","FEW:02 60 FEW:02 90 BKN:07 250","30.01","10.00","48","180",,"11",,,,,,,,,,,,,,,,,,,,,,,,,,,,,,,,,,,,,"MET11804/25/20 15:51:02 METAR KLGA 252051Z 18010KT 10SM FEW060 FEW090 BKN250 16/01 A3004 RMK AO2 SLP171 T01560006 58009 (JG)","FM-15","7",,,,,,,,,,,,,,,,,,,,,,,,,,,,
"72503014732","2020-04-25T16:00:00","FM-12","4",,,,,,,,,,,,,,,,,,,,,,,,,,,,,,,,,,,,,,,"33","60",,,"+0.03","8","36","30.03","57","30.00","9.94","48","180",,"11",,,,,,,,,,,,,,,,,,,,,,,,,,,,,,,,,,,,,"SYN06472503 32766 61810 10156 20006 30159 40171 58009 92051 555 92521=","FM-12","4",,,,,,,,,,,,,,,,,,,,,,,,,,,,
"72503014732","2020-04-25T16:51:00","FM-15","7",,,,,,,,,,,,,,,,,,,,,,,,,,,,,,,,,,,,,,"30.05","21","59","0.00",,,,"23","30.05","FEW:02 60 FEW:02 90 BKN:07 230","30.02","10.00","43","170","21","14",,,,,,,,,,,,,,,,,,,,,,,,,,,,,,,,,,,,,"MET11604/25/20 16:51:02 METAR KLGA 252151Z 17012G18KT 10SM FEW060 FEW090 BKN230 15/M06 A3005 RMK AO2 SLP176 T01501061 (JG)","FM-15","7",,,,,,,,,,,,,,,,,,,,,,,,,,,,
"72503014732","2020-04-25T17:51:00","FM-15","7",,,,,,,,,,,,,,,,,,,,,,,,,,,,,,,,,,,,,,"30.06","21","55","0.00",,,,"26","30.06","FEW:02 80 SCT:04 210 BKN:07 250","30.03","10.00","41","180",,"9",,,,,,,,,,,,,,,,,,,,,,,,,,,,,,,,,,,,,"MET11304/25/20 17:51:02 METAR KLGA 252251Z 18008KT 10SM FEW080 SCT210 BKN250 13/M06 A3006 RMK AO2 SLP178 T01281061 (JG)","FM-15","7",,,,,,,,,,,,,,,,,,,,,,,,,,,,
"72503014732","2020-04-25T18:51:00","FM-15","7",,,,,,,,,,,,,,,,,,,,,,,,,,,,,,,,,,,,,,"30.07","21","53","0.00",,"-0.03","1","28","30.07","FEW:02 80 SCT:04 190 BKN:07 250","30.04","10.00","40","180",,"9",,,,,,,,,,,,,,,,,,,,,,,,,,,,,,,,,,,,,"MET13104/25/20 18:51:02 METAR KLGA 252351Z 18008KT 10SM FEW080 SCT190 BKN250 12/M06 A3007 RMK AO2 SLP182 T01171061 10178 20117 51011 (JG)","FM-15","7",,,,,,,,,,,,,,,,,,,,,,,,,,,,
"72503014732","2020-04-25T19:00:00","FM-12","4",,,,,,,,,,,,,,,,,,,,,,,,,,,,,,,,,,,,,,,"21","53",,,"-0.03","1","28","30.07","74","30.03","9.94","40","180",,"9",,,,,,,,,,,,,,,,,,,,,,,,,,,,,,,,,,,,,"SYN08072503 32866 61808 10117 21061 30169 40182 51011 92351 333 10178 20061 555 92600=","FM-12","4",,,,,,,,,,,,,,,,,,,,,,,,,,,,
"72503014732","2020-04-25T19:51:00","FM-15","7",,,,,,,,,,,,,,,,,,,,,,,,,,,,,,,,,,,,,,"30.08","25","52","0.00",,,,"35","30.08","BKN:07 190 BKN:07 250","30.05","10.00","41","160",,"14",,,,,,,,,,,,,,,,,,,,,,,,,,,,,,,,,,,,,"MET10104/25/20 19:51:01 METAR KLGA 260051Z 16012KT 10SM BKN190 BKN250 11/M04 A3008 RMK AO2 SLP187 T01111039","FM-15","7",,,,,,,,,,,,,,,,,,,,,,,,,,,,
"72503014732","2020-04-25T20:51:00","FM-15","7",,,,,,,,,,,,,,,,,,,,,,,,,,,,,,,,,,,,,,"30.09","33","51","0.00",,,,"50","30.09","BKN:07 180 OVC:08 250","30.06","10.00","43","160",,"9",,,,,,,,,,,,,,,,,,,,,,,,,,,,,,,,,,,,,"MET10004/25/20 20:51:01 METAR KLGA 260151Z 16008KT 10SM BKN180 OVC250 11/01 A3009 RMK AO2 SLP190 T01060006","FM-15","7",,,,,,,,,,,,,,,,,,,,,,,,,,,,
"72503014732","2020-04-25T21:51:00","FM-15","7",,,,,,,,,,,,,,,,,,,,,,,,,,,,,,,,,,,,,,"30.09","37","51","0.00",,"-0.02","0","59","30.08","BKN:07 180 OVC:08 250","30.06","10.00","45","170",,"8",,,,,,,,,,,,,,,,,,,,,,,,,,,,,,,,,,,,,"MET10604/25/20 21:51:01 METAR KLGA 260251Z 17007KT 10SM BKN180 OVC250 11/03 A3009 RMK AO2 SLP187 T01060028 50006","FM-15","7",,,,,,,,,,,,,,,,,,,,,,,,,,,,
"72503014732","2020-04-25T22:00:00","FM-12","4",,,,,,,,,,,,,,,,,,,,,,,,,,,,,,,,,,,,,,,"37","51",,,"0.02","9","59","30.08",,"30.05","9.94","45","170",,"8",,,,,,,,,,,,,,,,,,,,,,,,,,,,,,,,,,,,,"SYN06472503 32966 81707 10106 20028 30176 40187 50006 90251 555 92603=","FM-12","4",,,,,,,,,,,,,,,,,,,,,,,,,,,,
"72503014732","2020-04-25T22:51:00","FM-15","7",,,,,,,,,,,,,,,,,,,,,,,,,,,,,,,,,,,,,,"30.09","38","51","0.00",,,,"61","30.09","BKN:07 180","30.06","10.00","45","140",,"7",,,,,,,,,,,,,,,,,,,,,,,,,,,,,,,,,,,,,"MET09304/25/20 22:51:02 METAR KLGA 260351Z 14006KT 10SM BKN180 11/03 A3009 RMK AO2 SLP189 T01060033","FM-15","7",,,,,,,,,,,,,,,,,,,,,,,,,,,,
"72503014732","2020-04-25T23:51:00","FM-15","7",,,,,,,,,,,,,,,,,,,,,,,,,,,,,,,,,,,,,,"30.08","38","50","0.00",,,,"63","30.08","BKN:07 160","30.05","10.00","44","080",,"5",,,,,,,,,,,,,,,,,,,,,,,,,,,,,,,,,,,,,"MET10304/25/20 23:51:02 METAR KLGA 260451Z 08004KT 10SM BKN160 10/03 A3008 RMK AO2 SLP186 T01000033 401780061","FM-15","7",,,,,,,,,,,,,,,,,,,,,,,,,,,,
"72503014732","2020-04-25T23:59:00","SOD  ","6",,,,,,,,,,,,,,,,"54",,,"29.98",,"5.8","0","-2.0","11","64","43","170","24","0.00","0","0.0","160","18",,,,,,,,,,,,,,,,,,,,,,,,,,,,,,,,,,,,,,,,,,,,,,,,,,,,,,,,,"SOD73924 HR PRECIPITATION (IN): 0.00 SNOW DEPTH (IN):0     24 HR SNOWFALL (IN):0.0  24 HR MAX TEMP (F): 6424 HR MIN TEMP (F): 43AVERAGE STATION PRESSURE:29.985 MINIMUM SEA LEVEL PRESSURE:29.91 TIME OF OCCURRENCE:0123 PEAK WIND SPEED (MPH): 24 PEAK WIND DIR (DEG):170 PEAK WIND TIME (LST):      FASTEST 2MIN SPEED (MPH): 18FASTEST 2MIN DIR (DEG):160 FASTEST 2MIN TIME (LST):     AVERAGE WIND SPEED (MPH): 5.8 24 HR AVG TEMP (F): 54DEPART FROM NORMAL: -2  HEATING DEGREE DAYS: 11 COOLING DEGREE DAYS:  0 LATEST DAY MAX TEMP (0700-1900 LST):64  LATEST NIGHT MIN TEMP(1900-0800 LST):43 HOURLY INCREMENTAL PRECIPITATION VALUES (IN):.00 0.00 0.00 0.00 0.00 0.00 0.00 0.00 0.00 0.00 0.00 0.00 0.00 0.00 0.00 0.00 0.00 0.00 0.00 0.00 0.00 0.00 0.00 0.00","SOD  ","6",,,,,,,,,,,,,,,,,,,,,,,,,"0501","1846",,
"72503014732","2020-04-26T00:51:00","FM-15","7",,,,,,,,,,,,,,,,,,,,,,,,,,,,,,,,,,,,,,"30.07","39","50","0.00",,"+0.01","8","66","30.07","OVC:08 150","30.04","10.00","45","060",,"7",,,,,,,,,,,,,,,,,,,,,,,,,,,,,,,,,,,,,"MET11604/26/20 00:51:02 METAR KLGA 260551Z 06006KT 10SM OVC150 10/04 A3007 RMK AO2 SLP182 T01000039 10117 20100 58005 (WL)","FM-15","7",,,,,,,,,,,,,,,,,,,,,,,,,,,,
"72503014732","2020-04-26T01:00:00","FM-12","4",,,,,,,,,,,,,,,,,,,,,,,,,,,,,,,,,,,,,,,"39","50",,,"+0.01","8","66","30.07",,"30.03","9.94","45","060",,"7",,,,,,,,,,,,,,,,,,,,,,,,,,,,,,,,,,,,,"SYN08072503 32966 80606 10100 20039 30169 40182 58005 90551 333 10117 20061 555 92606=","FM-12","4",,,,,,,,,,,,,,,,,,,,,,,,,,,,
"72503014732","2020-04-26T01:51:00","FM-15","7",,,,,,,,,,,,,,,,,,,,,,,,,,,,,,,,,,,,,,"30.04","41","49","T","-RA:02 |RA |RA",,,"74","30.04","FEW:02 70 BKN:07 90 OVC:08 110","30.01","10.00","45","050",,"10",,,,,,,,,,,,,,,,,,,,,,,,,,,,,,,,,,,,,"MET12804/26/20 01:51:02 METAR KLGA 260651Z 05009KT 10SM -RA FEW070 BKN090 OVC110 09/05 A3004 RMK AO2 RAB05 SLP172 P0000 T00940050 (WL)","FM-15","7",,,,,,,,,,,,,,,,,,,,,,,,,,,,
"72503014732","2020-04-26T02:51:00","FM-15","7",,,,,,,,,,,,,,,,,,,,,,,,,,,,,,,,,,,,,,"30.01","41","49","T",,,,"74","30.01","BKN:07 80 OVC:08 100","29.98","10.00","45","070",,"11",,,,,,,,,,,,,,,,,,,,,,,,,,,,,,,,,,,,,"MET11704/26/20 02:51:02 METAR KLGA 260751Z 07010KT 10SM BKN080 OVC100 09/05 A3001 RMK AO2 RAE26 SLP163 P0000 T00940050 (WL)","FM-15","7",,,,,,,,,,,,,,,,,,,,,,,,,,,,
"72503014732","2020-04-26T03:51:00","FM-15","7",,,,,,,,,,,,,,,,,,,,,,,,,,,,,,,,,,,,,,"30.02","41","49","0.00",,"+0.05","5","74","30.01","OVC:08 85","29.99","10.00","45","080",,"8",,,,,,,,,,,,,,,,,,,,,,,,,,,,,,,,,,,,,"MET11004/26/20 03:51:02 METAR KLGA 260851Z 08007KT 10SM OVC085 09/05 A3002 RMK AO2 SLP164 60000 T00940050 55017 (WL)","FM-15","7",,,,,,,,,,,,,,,,,,,,,,,,,,,,
"72503014732","2020-04-26T04:00:00","FM-12","4",,,,,,,,,,,,,,,,,,,,,,,,,,,,,,,,,,,,,,,"41","49",,,"+0.05","5","74","30.01",,"29.98","9.94","45","080",,"8",,,,,,,,,,,,,,,,,,,,,,,,,,,,,,,,,,,,,"SYN07072503 12966 80807 10094 20050 30152 40164 55017 69907 90851 555 92609=","FM-12","4",,,,,,,,,,,,,,,,,,,,,,,,,,,,
"72503014732","2020-04-26T04:51:00","FM-15","7",,,,,,,,,,,,,,,,,,,,,,,,,,,,,,,,,,,,,,"30.00","40","49","T","-RA:02 |RA |RA",,,"71","30.00","OVC:08 65","29.97","10.00","45","070",,"10",,,,,,,,,,,,,,,,,,,,,,,,,,,,,,,,,,,,,"MET11404/26/20 04:51:02 METAR KLGA 260951Z 07009KT 10SM -RA OVC065 09/04 A3000 RMK AO2 RAB23 SLP159 P0000 T00940044 (WL)","FM-15","7",,,,,,,,,,,,,,,,,,,,,,,,,,,,
"72503014732","2020-04-26T05:51:00","FM-15","7",,,,,,,,,,,,,,,,,,,,,,,,,,,,,,,,,,,,,,"29.99","38","49","0.00",,,,"66","29.99","FEW:02 23 OVC:08 60","29.96","10.00","44","060",,"11",,,,,,,,,,,,,,,,,,,,,,,,,,,,,,,,,,,,,"MET12004/26/20 05:51:02 METAR KLGA 261051Z 06010KT 10SM FEW023 OVC060 09/03 A2999 RMK AO2 RAE0959 SLP155 P0000 T00940033 (ATK)","FM-15","7",,,,,,,,,,,,,,,,,,,,,,,,,,,,
"72503014732","2020-04-26T06:51:00","FM-15","7",,,,,,,,,,,,,,,,,,,,,,,,,,,,,,,,,,,,,,"29.99","36","49","0.00",,"+0.03","6","61","29.99","FEW:02 24 OVC:08 60","29.96","10.00","43","080",,"11",,,,,,,,,,,,,,,,,,,,,,,,,,,,,,,,,,,,,"MET13004/26/20 06:51:02 METAR KLGA 261151Z 08010KT 10SM FEW024 OVC060 09/02 A2999 RMK AO2 SLP155 60000 T00940022 10100 20089 56009 (ATK)","FM-15","7",,,,,,,,,,,,,,,,,,,,,,,,,,,,
"72503014732","2020-04-26T07:00:00","FM-12","4",,,,,,,,,,,,,,,,,,,,,,,,,,,,,,,,,,,,,,,"36","49",,,"+0.03","6","61","29.99","26","29.95","9.94","43","080",,"11",,,,,,,,,,,,,,,,,,,,,,,,,,,,,,,,,,,,,"SYN08672503 12566 80810 10094 20022 30142 40155 56009 69901 91151 333 10178 20089 555 92612=","FM-12","4",,,,,,,,,,,,,,,,,,,,,,,,,,,,
"72503014732","2020-04-26T07:51:00","FM-15","7",,,,,,,,,,,,,,,,,,,,,,,,,,,,,,,,,,,,,,"29.96","36","49","T",,,,"61","29.96","FEW:02 28 BKN:07 60 BKN:07 80","29.93","10.00","43","060",,"13",,,,,,,,,,,,,,,,,,,,,,,,,,,,,,,,,,,,,"MET12804/26/20 07:51:02 METAR KLGA 261251Z 06011KT 10SM FEW028 BKN060 BKN080 09/02 A2996 RMK AO2 RAB29E47 SLP145 P0000 T00940022 (ATK)","FM-15","7",,,,,,,,,,,,,,,,,,,,,,,,,,,,
"72503014732","2020-04-26T08:51:00","FM-15","7",,,,,,,,,,,,,,,,,,,,,,,,,,,,,,,,,,,,,,"29.93","40","49","0.00",,,,"71","29.93","FEW:02 25 BKN:07 45 OVC:08 150","29.90","10.00","45","060",,"18",,,,,,,,,,,,,,,,,,,,,,,,,,,,,,,,,,,,,"MET11304/26/20 08:51:02 METAR KLGA 261351Z 06016KT 10SM FEW025 BKN045 OVC150 09/04 A2993 RMK AO2 SLP134 T00940044 (ATK)","FM-15","7",,,,,,,,,,,,,,,,,,,,,,,,,,,,
"72503014732","2020-04-26T09:51:00","FM-15","7",,,,,,,,,,,,,,,,,,,,,,,,,,,,,,,,,,,,,,"29.91","40","50","T","-RA:02 |RA |RA","+0.08","6","68","29.91","FEW:02 20 BKN:07 41 OVC:08 120","29.88","7.00","45","060",,"18",,,,,,,,,,,,,,,,,,,,,,,,,,,,,,,,,,,,,"MET14004/26/20 09:51:02 METAR KLGA 261451Z 06016KT 7SM -RA FEW020 BKN041 OVC120 10/04 A2991 RMK AO2 RAB46 SLP127 P0000 60000 T01000044 56028 (ATK)","FM-15","7",,,,,,,,,,,,,,,,,,,,,,,,,,,,
"72503014732","2020-04-26T10:00:00","FM-12","4",,,,,,,,,,,,,,,,,,,,,,,,,,,,,,,,,,,,,,,"40","50",,"||RA","+0.08","6","68","29.91","26","29.87","6.84","45","060",,"18",,,,,,,,,,,,,,,,,,,,,,,,,,,,,,,,,,,,,"SYN07672503 11561 80616 10100 20044 30115 40127 56028 69907 761// 91451 555 92615=","FM-12","4",,,,,,,,,,,,,,,,,,,,,,,,,,,,
"72503014732","2020-04-26T10:20:00","FM-16","7",,,,,,,,,,,,,,,,,,,,,,,,,,,,,,,,,,,,,,"29.89","41","49","T",,,,"74",,"BKN:07 29 OVC:08 35","29.86","8.00","45","050",,"20",,,,,,,,,,,,,,,,,,,,,,,,,,,,,,,,,,,,,"MET11004/26/20 10:20:02 SPECI KLGA 261520Z 05017KT 8SM BKN029 OVC035 09/05 A2989 RMK AO2 RAE19 P0000 T00940050 (ATK)","FM-16","7",,,,,,,,,,,,,,,,,,,,,,,,,,,,
"72503014732","2020-04-26T10:51:00","FM-15","7",,,,,,,,,,,,,,,,,,,,,,,,,,,,,,,,,,,,,,"29.88","42","49","T",,,,"77","29.88","BKN:07 29 OVC:08 35","29.85","8.00","46","050",,"20",,,,,,,,,,,,,,,,,,,,,,,,,,,,,,,,,,,,,"MET11704/26/20 10:51:02 METAR KLGA 261551Z 05017KT 8SM BKN029 OVC035 09/06 A2988 RMK AO2 RAE19 SLP118 P0000 T00940056 (ATK)","FM-15","7",,,,,,,,,,,,,,,,,,,,,,,,,,,,
"72503014732","2020-04-26T11:01:00","FM-16","7",,,,,,,,,,,,,,,,,,,,,,,,,,,,,,,,,,,,,,"29.88","43","49",,,,,"80",,"FEW:02 20 OVC:08 30","29.85","8.00","46","050",,"18",,,,,,,,,,,,,,,,,,,,,,,,,,,,,,,,,,,,,"MET09804/26/20 11:01:02 SPECI KLGA 261601Z 05016KT 8SM FEW020 OVC030 09/06 A2988 RMK AO2 T00940061 (ATK)","FM-16","7",,,,,,,,,,,,,,,,,,,,,,,,,,,,
"72503014732","2020-04-26T11:51:00","FM-15","7",,,,,,,,,,,,,,,,,,,,,,,,,,,,,,,,,,,,,,"29.86","43","48","T","-RA:02 |RA |RA",,,"83","29.85","FEW:02 17 OVC:08 28","29.83","5.00","46","050",,"23",,,,,,,,,,,,,,,,,,,,,,,,,,,,,,,,,,,,,"MET12104/26/20 11:51:02 METAR KLGA 261651Z 05020KT 5SM -RA FEW017 OVC028 09/06 A2986 RMK AO2 RAB25 SLP110 P0000 T00890061 (ATK)","FM-15","7",,,,,,,,,,,,,,,,,,,,,,,,,,,,
"72503014732","2020-04-26T12:28:00","FM-16","7",,,,,,,,,,,,,,,,,,,,,,,,,,,,,,,,,,,,,,"29.83","44","48","0.01","-RA:02 BR:1 |RA |RA",,,"86",,"FEW:02 7 BKN:07 20 OVC:08 28","29.80","3.00","46","050","31","26",,,,,,,,,,,,,,,,,,,,,,,,,,,,,,,,,,,,,"MET14904/26/20 12:28:02 SPECI KLGA 261728Z 05023G27KT 3SM -RA BR FEW007 BKN020 OVC028 09/07 A2983 RMK AO2 PK WND 05028/1727 SFC VIS 4 P0001 T00890067 (ATK)","FM-16","7",,,,,,,,,,,,,,,,,,,,,,,,,,,,
"72503014732","2020-04-26T12:46:00","FM-16","7",,,,,,,,,,,,,,,,,,,,,,,,,,,,,,,,,,,,,,"29.82","45","48","0.01","-RA:02 BR:1 |RA |RA",,,"87",,"BKN:07 6 BKN:07 17 OVC:08 22","29.79","2.50","47","050","34","29",,,,,,,,,,,,,,,,,,,,,,,,,,,,,,,,,,,,,"MET14304/26/20 12:46:02 SPECI KLGA 261746Z 05025G30KT 2 1/2SM -RA BR BKN006 BKN017 OVC022 09/07 A2982 RMK AO2 PK WND 06030/1738 SFC VIS 3 P0001 (ATK)","FM-16","7",,,,,,,,,,,,,,,,,,,,,,,,,,,,
"72503014732","2020-04-26T12:51:00","FM-15","7",,,,,,,,,,,,,,,,,,,,,,,,,,,,,,,,,,,,,,"29.82","44","47","0.01","-RA:02 BR:1 |RA |RA","+0.09","8","90","29.82","BKN:07 6 BKN:07 17 OVC:08 22","29.79","2.50","46","050","38","30",,,,,,,,,,,,,,,,,,,,,,,,,,,,,,,,,,,,,"MET18404/26/20 12:51:02 METAR KLGA 261751Z 05026G33KT 2 1/2SM -RA BR BKN006 BKN017 OVC022 08/07 A2982 RMK AO2 PK WND 05033/1751 SFC VIS 3 SLP097 P0001 60001 T00830067 10100 20083 58031 (ATK)","FM-15","7",,,,,,,,,,,,,,,,,,,,,,,,,,,,
"72503014732","2020-04-26T13:00:00","FM-12","4",,,,,,,,,,,,,,,,,,,,,,,,,,,,,,,,,,,,,,,"44","47",,"||RA","+0.09","8","90","29.82","5","29.78","2.49","46","050",,"30",,,,,,,,,,,,,,,,,,,,,,,,,,,,,,,,,,,,,"SYN10472503 11240 80526 10083 20067 30085 40097 58031 69931 761// 91751 333 10100 20083 91033 96010 555 92618=","FM-12","4",,,,,,,,,,,,,,,,,,,,,,,,,,,,
"72503014732","2020-04-26T13:51:00","FM-15","7",,,,,,,,,,,,,,,,,,,,,,,,,,,,,,,,,,,,,,"29.77","44","47","T","-RA:02 BR:1 |RA |RA",,,"90","29.77","OVC:08 6","29.74","2.50","46","060","37","28",,,,,,,,,,,,,,,,,,,,,,,,,,,,,,,,,,,,,"MET14504/26/20 13:51:02 METAR KLGA 261851Z 06024G32KT 2 1/2SM -RA BR OVC006 08/07 A2977 RMK AO2 PK WND 06035/1830 SFC VIS 3 SLP082 P0000 T00830067 (TC)","FM-15","7",,,,,,,,,,,,,,,,,,,,,,,,,,,,
"72503014732","2020-04-26T14:51:00","FM-15","7",,,,,,,,,,,,,,,,,,,,,,,,,,,,,,,,,,,,,,"29.76","44","47","0.01","-RA:02 BR:1 |RA |RA",,,"90","29.75","BKN:07 6 OVC:08 11","29.73","2.50","46","070","34","29",,,,,,,,,,,,,,,,,,,,,,,,,,,,,,,,,,,,,"MET15204/26/20 14:51:02 METAR KLGA 261951Z 07025G30KT 2 1/2SM -RA BR BKN006 OVC011 08/07 A2976 RMK AO2 PK WND 06033/1923 SFC VIS 4 SLP076 P0001 T00830067 (TC)","FM-15","7",,,,,,,,,,,,,,,,,,,,,,,,,,,,
"72503014732","2020-04-26T15:51:00","FM-15","7",,,,,,,,,,,,,,,,,,,,,,,,,,,,,,,,,,,,,,"29.73","43","47","T","-RA:02 BR:1 |RA |RA","+0.08","6","86","29.73","OVC:08 6","29.70","2.50","45","040","30","22",,,,,,,,,,,,,,,,,,,,,,,,,,,,,,,,,,,,,"MET15704/26/20 15:51:02 METAR KLGA 262051Z 04019G26KT 2 1/2SM -RA BR OVC006 08/06 A2973 RMK AO2 PK WND 07029/2002 SFC VIS 3 SLP069 P0000 60001 T00830061 56028 (TC)","FM-15","7",,,,,,,,,,,,,,,,,,,,,,,,,,,,
"72503014732","2020-04-26T16:00:00","FM-12","4",,,,,,,,,,,,,,,,,,,,,,,,,,,,,,,,,,,,,,,"43","47",,"||RA","+0.08","6","86","29.73","5","29.69","2.49","45","040",,"22",,,,,,,,,,,,,,,,,,,,,,,,,,,,,,,,,,,,,"SYN09272503 11240 80419 10083 20061 30054 40069 56028 69937 761// 92051 333 91026 96010 555 92621=","FM-12","4",,,,,,,,,,,,,,,,,,,,,,,,,,,,
"72503014732","2020-04-26T16:23:00","FM-16","7",,,,,,,,,,,,,,,,,,,,,,,,,,,,,,,,,,,,,,"29.74","44","47","T","BR:1 ||",,,"90",,"OVC:08 7","29.71","2.50","46","040","24","17",,,,,,,,,,,,,,,,,,,,,,,,,,,,,,,,,,,,,"MET14004/26/20 16:23:02 SPECI KLGA 262123Z 04015G21KT 2 1/2SM BR OVC007 08/07 A2974 RMK AO2 PK WND 04026/2054 SFC VIS 4 RAE17 P0000 T00830067 (TC)","FM-16","7",,,,,,,,,,,,,,,,,,,,,,,,,,,,
"72503014732","2020-04-26T16:39:00","FM-16","7",,,,,,,,,,,,,,,,,,,,,,,,,,,,,,,,,,,,,,"29.73","44","47","0.03","RA:02 BR:1 |RA |RA",,,"90",,"OVC:08 8","29.70","2.50","46","050",,"17",,,,,,,,,,,,,,,,,,,,,,,,,,,,,,,,,,,,,"MET13304/26/20 16:39:02 SPECI KLGA 262139Z 05015KT 2 1/2SM RA BR OVC008 08/07 A2973 RMK AO2 PK WND 04026/2054 RAE17B26 P0003 T00830067 (TC)","FM-16","7",,,,,,,,,,,,,,,,,,,,,,,,,,,,
"72503014732","2020-04-26T16:51:00","FM-15","7",,,,,,,,,,,,,,,,,,,,,,,,,,,,,,,,,,,,,,"29.72","44","47","0.04","-RA:02 BR:1 |RA |RA",,,"90","29.72","OVC:08 8","29.69","2.50","46","050","26","21",,,,,,,,,,,,,,,,,,,,,,,,,,,,,,,,,,,,,"MET15404/26/20 16:51:02 METAR KLGA 262151Z 05018G23KT 2 1/2SM -RA BR OVC008 08/07 A2972 RMK AO2 PK WND 04026/2054 SFC VIS 3 RAE17B26 SLP063 P0004 T00830067 (TC)","FM-15","7",,,,,,,,,,,,,,,,,,,,,,,,,,,,
"72503014732","2020-04-26T17:30:00","FM-16","7",,,,,,,,,,,,,,,,,,,,,,,,,,,,,,,,,,,,,,"29.72","44","47","T","BR:1 ||",,,"90",,"OVC:08 8","29.69","5.00","46","030",,"13",,,,,,,,,,,,,,,,,,,,,,,,,,,,,,,,,,,,,"MET10504/26/20 17:30:02 SPECI KLGA 262230Z 03011KT 5SM BR OVC008 08/07 A2972 RMK AO2 RAE20 P0000 T00830067 (TC)","FM-16","7",,,,,,,,,,,,,,,,,,,,,,,,,,,,
"72503014732","2020-04-26T17:44:00","FM-16","7",,,,,,,,,,,,,,,,,,,,,,,,,,,,,,,,,,,,,,"29.73","44","47","T","BR:1 ||",,,"90",,"OVC:08 7","29.70","6.00","46","030","18","11",,,,,,,,,,,,,,,,,,,,,,,,,,,,,,,,,,,,,"MET10804/26/20 17:44:02 SPECI KLGA 262244Z 03010G16KT 6SM BR OVC007 08/07 A2973 RMK AO2 RAE20 P0000 T00830067 (TC)","FM-16","7",,,,,,,,,,,,,,,,,,,,,,,,,,,,
"72503014732","2020-04-26T17:51:00","FM-15","7",,,,,,,,,,,,,,,,,,,,,,,,,,,,,,,,,,,,,,"29.73","44","47","T","-RA:02 BR:1 |RA |RA",,,"90","29.73","OVC:08 7","29.70","6.00","46","020",,"10",,,,,,,,,,,,,,,,,,,,,,,,,,,,,,,,,,,,,"MET11904/26/20 17:51:02 METAR KLGA 262251Z 02009KT 6SM -RA BR OVC007 08/07 A2973 RMK AO2 RAE20B51 SLP068 P0000 T00830067 (TC)","FM-15","7",,,,,,,,,,,,,,,,,,,,,,,,,,,,
"72503014732","2020-04-26T18:07:00","FM-16","7",,,,,,,,,,,,,,,,,,,,,,,,,,,,,,,,,,,,,,"29.73","44","47","T","-RA:02 BR:1 |RA |RA",,,"90",,"OVC:08 9","29.70","5.00","46","030",,"14",,,,,,,,,,,,,,,,,,,,,,,,,,,,,,,,,,,,,"MET10304/26/20 18:07:02 SPECI KLGA 262307Z 03012KT 5SM -RA BR OVC009 08/07 A2973 RMK AO2 P0000 T00830067 (TC)","FM-16","7",,,,,,,,,,,,,,,,,,,,,,,,,,,,
"72503014732","2020-04-26T18:19:00","FM-16","7",,,,,,,,,,,,,,,,,,,,,,,,,,,,,,,,,,,,,,"29.74","44","47","T","-RA:02 BR:1 |RA |RA",,,"90",,"OVC:08 10","29.71","6.00","46","010",,"14",,,,,,,,,,,,,,,,,,,,,,,,,,,,,,,,,,,,,"MET10304/26/20 18:19:02 SPECI KLGA 262319Z 01012KT 6SM -RA BR OVC010 08/07 A2974 RMK AO2 P0000 T00830067 (TC)","FM-16","7",,,,,,,,,,,,,,,,,,,,,,,,,,,,
"72503014732","2020-04-26T18:51:00","FM-15","7",,,,,,,,,,,,,,,,,,,,,,,,,,,,,,,,,,,,,,"29.74","43","47","0.01","-RA:02 BR:1 |RA |RA","-0.01","3","86","29.74","BKN:07 12 OVC:08 17","29.71","4.00","45","030",,"15",,,,,,,,,,,,,,,,,,,,,,,,,,,,,,,,,,,,,"MET14104/26/20 18:51:02 METAR KLGA 262351Z 03013KT 4SM -RA BR BKN012 OVC017 08/06 A2974 RMK AO2 SLP071 P0000 60005 T00830061 10089 20083 53002 (TC)","FM-15","7",,,,,,,,,,,,,,,,,,,,,,,,,,,,
"72503014732","2020-04-26T19:00:00","FM-12","4",,,,,,,,,,,,,,,,,,,,,,,,,,,,,,,,,,,,,,,"43","47",,"||RA","-0.01","3","86","29.74","15","29.70","3.73","45","030",,"15",,,,,,,,,,,,,,,,,,,,,,,,,,,,,,,,,,,,,"SYN09872503 11456 80313 10083 20061 30057 40071 53002 60011 761// 92351 333 10100 20083 96010 555 92700=","FM-12","4",,,,,,,,,,,,,,,,,,,,,,,,,,,,
"72503014732","2020-04-26T19:51:00","FM-15","7",,,,,,,,,,,,,,,,,,,,,,,,,,,,,,,,,,,,,,"29.74","42","46","T",,,,"86","29.73","BKN:07 12 OVC:08 17","29.71","10.00","44","020",,"13",,,,,,,,,,,,,,,,,,,,,,,,,,,,,,,,,,,,,"MET11204/26/20 19:51:01 METAR KLGA 270051Z 02011KT 10SM BKN012 OVC017 08/06 A2974 RMK AO2 RAE32 SLP069 P0001 T00780056","FM-15","7",,,,,,,,,,,,,,,,,,,,,,,,,,,,
"72503014732","2020-04-26T20:51:00","FM-15","7",,,,,,,,,,,,,,,,,,,,,,,,,,,,,,,,,,,,,,"29.76","40","45","0.00",,,,"83","29.76","OVC:08 14","29.73","10.00","43","040","25","18",,,,,,,,,,,,,,,,,,,,,,,,,,,,,,,,,,,,,"MET09604/26/20 20:51:01 METAR KLGA 270151Z 04016G22KT 10SM OVC014 07/04 A2976 RMK AO2 SLP078 T00720044","FM-15","7",,,,,,,,,,,,,,,,,,,,,,,,,,,,
"72503014732","2020-04-26T21:10:00","FM-16","7",,,,,,,,,,,,,,,,,,,,,,,,,,,,,,,,,,,,,,"29.77","40","45",,,,,"83",,"OVC:08 16","29.74","10.00","43","020",,"15",,,,,,,,,,,,,,,,,,,,,,,,,,,,,,,,,,,,,"MET08604/26/20 21:10:01 SPECI KLGA 270210Z 02013KT 10SM OVC016 07/04 A2977 RMK AO2 T00720044","FM-16","7",,,,,,,,,,,,,,,,,,,,,,,,,,,,
"72503014732","2020-04-26T21:51:00","FM-15","7",,,,,,,,,,,,,,,,,,,,,,,,,,,,,,,,,,,,,,"29.77","39","45","0.00",,"-0.03","3","80","29.77","OVC:08 15","29.74","10.00","42","020","22","13",,,,,,,,,,,,,,,,,,,,,,,,,,,,,,,,,,,,,"MET10804/26/20 21:51:01 METAR KLGA 270251Z 02011G19KT 10SM OVC015 07/04 A2977 RMK AO2 SLP081 60001 T00720039 53010","FM-15","7",,,,,,,,,,,,,,,,,,,,,,,,,,,,
"72503014732","2020-04-26T22:00:00","FM-12","4",,,,,,,,,,,,,,,,,,,,,,,,,,,,,,,,,,,,,,,"39","45",,,"-0.03","3","80","29.77","15","29.73","9.94","42","020",,"13",,,,,,,,,,,,,,,,,,,,,,,,,,,,,,,,,,,,,"SYN08072503 12466 80211 10072 20039 30068 40081 53010 69937 90251 333 91019 555 92703=","FM-12","4",,,,,,,,,,,,,,,,,,,,,,,,,,,,
"72503014732","2020-04-26T22:32:00","FM-16","7",,,,,,,,,,,,,,,,,,,,,,,,,,,,,,,,,,,,,,"29.78","39","44",,"HZ:7 |FU |HZ",,,"83",,"OVC:08 14","29.75","6.00","42","010",,"10",,,,,,,,,,,,,,,,,,,,,,,,,,,,,,,,,,,,,"MET08804/26/20 22:32:02 SPECI KLGA 270332Z 01009KT 6SM HZ OVC014 07/04 A2978 RMK AO2 T00670039","FM-16","7",,,,,,,,,,,,,,,,,,,,,,,,,,,,
"72503014732","2020-04-26T22:51:00","FM-15","7",,,,,,,,,,,,,,,,,,,,,,,,,,,,,,,,,,,,,,"29.78","40","44","0.00","BR:1 ||",,,"85","29.78","OVC:08 14","29.75","5.00","42","010",,"11",,,,,,,,,,,,,,,,,,,,,,,,,,,,,,,,,,,,,"MET09504/26/20 22:51:02 METAR KLGA 270351Z 01010KT 5SM BR OVC014 07/04 A2978 RMK AO2 SLP084 T00670044","FM-15","7",,,,,,,,,,,,,,,,,,,,,,,,,,,,
"72503014732","2020-04-26T23:08:00","FM-16","7",,,,,,,,,,,,,,,,,,,,,,,,,,,,,,,,,,,,,,"29.79","39","44","T","-RA:02 |RA |RA",,,"83",,"SCT:04 11 OVC:08 17","29.76","5.00","42","010",,"10",,,,,,,,,,,,,,,,,,,,,,,,,,,,,,,,,,,,,"MET10804/26/20 23:08:02 SPECI KLGA 270408Z 01009KT 5SM -RA SCT011 OVC017 07/04 A2979 RMK AO2 RAB03 P0000 T00670039","FM-16","7",,,,,,,,,,,,,,,,,,,,,,,,,,,,
"72503014732","2020-04-26T23:30:00","FM-16","7",,,,,,,,,,,,,,,,,,,,,,,,,,,,,,,,,,,,,,"29.79","39","43","T","BR:1 ||",,,"86",,"FEW:02 8 SCT:04 11 OVC:08 20","29.76","5.00","41","360",,"9",,,,,,,,,,,,,,,,,,,,,,,,,,,,,,,,,,,,,"MET13204/26/20 23:30:02 SPECI KLGA 270430Z 36008KT 5SM BR FEW008 SCT011 OVC020 06/04 A2979 RMK AO2 RAB03E15 CIG 014 R22 SW P0000 T00610039","FM-16","7",,,,,,,,,,,,,,,,,,,,,,,,,,,,
"72503014732","2020-04-26T23:37:00","FM-16","7",,,,,,,,,,,,,,,,,,,,,,,,,,,,,,,,,,,,,,"29.79","39","43","T","BR:1 ||",,,"86",,"SCT:04 8 BKN:07 13 OVC:08 20","29.76","5.00","41","020",,"10",,,,,,,,,,,,,,,,,,,,,,,,,,,,,,,,,,,,,"MET11704/26/20 23:37:02 SPECI KLGA 270437Z 02009KT 5SM BR SCT008 BKN013 OVC020 06/04 A2979 RMK AO2 RAB03E15 P0000 T00610039","FM-16","7",,,,,,,,,,,,,,,,,,,,,,,,,,,,
"72503014732","2020-04-26T23:51:00","FM-15","7",,,,,,,,,,,,,,,,,,,,,,,,,,,,,,,,,,,,,,"29.79","39","43","T",,,,"86","29.79","BKN:07 10 OVC:08 20","29.76","7.00","41","360",,"10",,,,,,,,,,,,,,,,,,,,,,,,,,,,,,,,,,,,,"MET12404/26/20 23:51:02 METAR KLGA 270451Z 36009KT 7SM BKN010 OVC020 06/04 A2979 RMK AO2 RAB03E15 SLP088 P0000 T00610039 401000061","FM-15","7",,,,,,,,,,,,,,,,,,,,,,,,,,,,
"72503014732","2020-04-26T23:59:00","SOD  ","6",,,,,,,,,,,,,,,,"47",,,"29.86",,"15.9","0","-9.3","18","50","43","060","41","0.07","0","0.0","060","33","RA BR HZ",,,,,,,,,,,,,,,,,,,,,,,,,,,,,,,,,,,,,,,,,,,,,,,,,,,,,,,,"SOD78124 HR PRECIPITATION (IN): 0.07 SNOW DEPTH (IN):0     24 HR SNOWFALL (IN):0.0  WEATHER(CODE):18  24 HR MAX TEMP (F): 5024 HR MIN TEMP (F): 43AVERAGE STATION PRESSURE:29.865 MINIMUM SEA LEVEL PRESSURE:29.71 TIME OF OCCURRENCE:1720 PEAK WIND SPEED (MPH): 41 PEAK WIND DIR (DEG): 60 PEAK WIND TIME (LST):      FASTEST 2MIN SPEED (MPH): 33FASTEST 2MIN DIR (DEG): 60 FASTEST 2MIN TIME (LST):     AVERAGE WIND SPEED (MPH):15.9 24 HR AVG TEMP (F): 47DEPART FROM NORMAL: -9  SKY COVER SR-SS (TENTHS): 1HEATING DEGREE DAYS: 18 COOLING DEGREE DAYS:  0 LATEST DAY MAX TEMP (0700-1900 LST):50  LATEST NIGHT MIN TEMP(1900-0800 LST):48 HOURLY INCREMENTAL PRECIPITATION VALUES (IN):.00 T    T    0.00 T    0.00 0.00 T    0.00 T    T    T    0.01 T    0.01 T    0.04 T    0.01 T    0.00 0.00 0.00 T","SOD  ","6",,,,,,,,,,,,,,,,,,,,,,,,,"0500","1847",,
"72503014732","2020-04-27T00:49:00","FM-16","6",,,,,,,,,,,,,,,,,,,,,,,,,,,,,,,,,,,,,,"29.79","39","43",,,,,"87",,"SCT:04 11 OVC:08 19","29.76","10.00","41","360",,"14",,,,,,,,,,,,,,,,,,,,,,,,,,,,,,,,,,,,,"MET10904/27/20 00:49:02 SPECI KLGA 270549Z 36012KT 10SM SCT011 OVC019 06/04 A2979 RMK AO2 CIG 013 R22 SW FIBI (TJC)","FM-16","6",,,,,,,,,,,,,,,,,,,,,,,,,,,,
"72503014732","2020-04-27T00:51:00","FM-15","7",,,,,,,,,,,,,,,,,,,,,,,,,,,,,,,,,,,,,,"29.79","38","43","0.00",,"-0.02","1","82","29.79","SCT:04 11 OVC:08 19","29.76","10.00","41","350",,"14",,,,,,,,,,,,,,,,,,,,,,,,,,,,,,,,,,,,,"MET14504/27/20 00:51:02 METAR KLGA 270551Z 35012KT 10SM SCT011 OVC019 06/03 A2979 RMK AO2 CIG 013 R22 SW SLP088 60001 T00610033 10083 20061 51007 (TJC)","FM-15","7",,,,,,,,,,,,,,,,,,,,,,,,,,,,
"72503014732","2020-04-27T01:00:00","FM-12","4",,,,,,,,,,,,,,,,,,,,,,,,,,,,,,,,,,,,,,,"38","43",,,"-0.02","1","82","29.79","15","29.75","9.94","41","350",,"14",,,,,,,,,,,,,,,,,,,,,,,,,,,,,,,,,,,,,"SYN08672503 12466 83512 10061 20033 30074 40088 51007 69931 90551 333 10100 20061 555 92706=","FM-12","4",,,,,,,,,,,,,,,,,,,,,,,,,,,,
"72503014732","2020-04-27T01:49:00","FM-16","6",,,,,,,,,,,,,,,,,,,,,,,,,,,,,,,,,,,,,,"29.80","37","43",,,,,"81",,"BKN:07 13 OVC:08 19","29.77","10.00","40","010",,"14",,,,,,,,,,,,,,,,,,,,,,,,,,,,,,,,,,,,,"MET09404/27/20 01:49:02 SPECI KLGA 270649Z 01012KT 10SM BKN013 OVC019 06/03 A2980 RMK AO2 FIBI (TJC)","FM-16","6",,,,,,,,,,,,,,,,,,,,,,,,,,,,
"72503014732","2020-04-27T01:51:00","FM-15","7",,,,,,,,,,,,,,,,,,,,,,,,,,,,,,,,,,,,,,"29.80","37","42","0.00",,,,"82","29.80","BKN:07 13 OVC:08 19","29.77","10.00","40","340",,"11",,,,,,,,,,,,,,,,,,,,,,,,,,,,,,,,,,,,,"MET10604/27/20 01:51:02 METAR KLGA 270651Z 34010KT 10SM BKN013 OVC019 06/03 A2980 RMK AO2 SLP090 T00560028 (TJC)","FM-15","7",,,,,,,,,,,,,,,,,,,,,,,,,,,,
"72503014732","2020-04-27T02:51:00","FM-15","7",,,,,,,,,,,,,,,,,,,,,,,,,,,,,,,,,,,,,,"29.80","36","41","0.00",,,,"82","29.80","BKN:07 14 OVC:08 24","29.77","10.00","39","350",,"13",,,,,,,,,,,,,,,,,,,,,,,,,,,,,,,,,,,,,"MET10604/27/20 02:51:02 METAR KLGA 270751Z 35011KT 10SM BKN014 OVC024 05/02 A2980 RMK AO2 SLP092 T00500022 (TJC)","FM-15","7",,,,,,,,,,,,,,,,,,,,,,,,,,,,
"72503014732","2020-04-27T03:49:00","FM-16","6",,,,,,,,,,,,,,,,,,,,,,,,,,,,,,,,,,,,,,"29.81","36","41",,,,,"81",,"OVC:08 17","29.78","10.00","39","010",,"15",,,,,,,,,,,,,,,,,,,,,,,,,,,,,,,,,,,,,"MET08704/27/20 03:49:02 SPECI KLGA 270849Z 01013KT 10SM OVC017 05/02 A2981 RMK AO2 FIBI (TJC)","FM-16","6",,,,,,,,,,,,,,,,,,,,,,,,,,,,
"72503014732","2020-04-27T03:51:00","FM-15","7",,,,,,,,,,,,,,,,,,,,,,,,,,,,,,,,,,,,,,"29.81","35","41","0.00",,"-0.01","1","79","29.80","OVC:08 17","29.78","10.00","38","360",,"11",,,,,,,,,,,,,,,,,,,,,,,,,,,,,,,,,,,,,"MET10504/27/20 03:51:02 METAR KLGA 270851Z 36010KT 10SM OVC017 05/02 A2981 RMK AO2 SLP093 T00500017 51005 (TJC)","FM-15","7",,,,,,,,,,,,,,,,,,,,,,,,,,,,
"72503014732","2020-04-27T04:00:00","FM-12","4",,,,,,,,,,,,,,,,,,,,,,,,,,,,,,,,,,,,,,,"35","41",,,"-0.01","1","79","29.80","15","29.77","9.94","38","360",,"11",,,,,,,,,,,,,,,,,,,,,,,,,,,,,,,,,,,,,"SYN06472503 32466 83610 10050 20017 30081 40093 51005 90851 555 92709=","FM-12","4",,,,,,,,,,,,,,,,,,,,,,,,,,,,
"72503014732","2020-04-27T04:51:00","FM-15","7",,,,,,,,,,,,,,,,,,,,,,,,,,,,,,,,,,,,,,"29.81","35","41","0.00",,,,"79","29.81","FEW:02 14 OVC:08 23","29.78","10.00","38","350","21","13",,,,,,,,,,,,,,,,,,,,,,,,,,,,,,,,,,,,,"MET10904/27/20 04:51:02 METAR KLGA 270951Z 35011G18KT 10SM FEW014 OVC023 05/02 A2981 RMK AO2 SLP095 T00500017 (TJC)","FM-15","7",,,,,,,,,,,,,,,,,,,,,,,,,,,,
"72503014732","2020-04-27T05:51:00","FM-15","7",,,,,,,,,,,,,,,,,,,,,,,,,,,,,,,,,,,,,,"29.84","35","42","0.00",,,,"76","29.83","BKN:07 18 OVC:08 24","29.81","10.00","39","360","23","14",,,,,,,,,,,,,,,,,,,,,,,,,,,,,,,,,,,,,"MET10904/27/20 05:51:02 METAR KLGA 271051Z 36012G20KT 10SM BKN018 OVC024 06/02 A2984 RMK AO2 SLP103 T00560017 (PAS)","FM-15","7",,,,,,,,,,,,,,,,,,,,,,,,,,,,
"72503014732","2020-04-27T06:51:00","FM-15","7",,,,,,,,,,,,,,,,,,,,,,,,,,,,,,,,,,,,,,"29.86","35","42","0.00",,"-0.05","3","76","29.85","OVC:08 19","29.83","10.00","39","350","21","14",,,,,,,,,,,,,,,,,,,,,,,,,,,,,,,,,,,,,"MET12604/27/20 06:51:02 METAR KLGA 271151Z 35012G18KT 10SM OVC019 06/02 A2986 RMK AO2 SLP109 70007 T00560017 10061 20044 53016 (PAS)","FM-15","7",,,,,,,,,,,,,,,,,,,,,,,,,,,,
"72503014732","2020-04-27T07:00:00","FM-12","4",,,,,,,,,,,,,,,,,,,,,,,,,,,,,,,,,,,,,,,"35","42",,,"-0.05","3","76","29.85","15","29.82","9.94","39","350",,"14",,,,,,,,,,,,,,,,,,,,,,,,,,,,,,,,,,,,,"SYN09272503 32466 83512 10056 20017 30098 40109 53016 91151 333 10100 20044 70018 91018 555 92712=","FM-12","4",,,,,,,,,,,,,,,,,,,,,,,,,,,,
"72503014732","2020-04-27T07:51:00","FM-15","7",,,,,,,,,,,,,,,,,,,,,,,,,,,,,,,,,,,,,,"29.87","36","42","T",,,,"79","29.87","SCT:04 13 BKN:07 22 OVC:08 27","29.84","10.00","39","350",,"14",,,,,,,,,,,,,,,,,,,,,,,,,,,,,,,,,,,,,"MET11304/27/20 07:51:02 METAR KLGA 271251Z 35012KT 10SM SCT013 BKN022 OVC027 06/02 A2987 RMK AO2 SLP115 T00560022 (PAS)","FM-15","7",,,,,,,,,,,,,,,,,,,,,,,,,,,,
"72503014732","2020-04-27T08:51:00","FM-15","7",,,,,,,,,,,,,,,,,,,,,,,,,,,,,,,,,,,,,,"29.87","36","45","T",,,,"71","29.87","BKN:07 17 OVC:08 35","29.84","10.00","41","350","23","15",,,,,,,,,,,,,,,,,,,,,,,,,,,,,,,,,,,,,"MET12604/27/20 08:51:02 METAR KLGA 271351Z 35013G20KT 10SM BKN017 OVC035 07/02 A2987 RMK AO2 RAB1252E32 SLP115 P0000 T00720022 (PAS)","FM-15","7",,,,,,,,,,,,,,,,,,,,,,,,,,,,
"72503014732","2020-04-27T09:51:00","FM-15","7",,,,,,,,,,,,,,,,,,,,,,,,,,,,,,,,,,,,,,"29.88","37","46","0.00",,"-0.03","1","71","29.88","BKN:07 20 OVC:08 35","29.85","10.00","42","010",,"11",,,,,,,,,,,,,,,,,,,,,,,,,,,,,,,,,,,,,"MET11804/27/20 09:51:02 METAR KLGA 271451Z 01010KT 10SM BKN020 OVC035 08/03 A2988 RMK AO2 SLP119 60000 T00780028 51010 (PAS)","FM-15","7",,,,,,,,,,,,,,,,,,,,,,,,,,,,
"72503014732","2020-04-27T10:00:00","FM-12","4",,,,,,,,,,,,,,,,,,,,,,,,,,,,,,,,,,,,,,,"37","46",,,"-0.03","1","71","29.88","26","29.84","9.94","42","010",,"11",,,,,,,,,,,,,,,,,,,,,,,,,,,,,,,,,,,,,"SYN07072503 12566 80110 10078 20028 30105 40119 51010 69907 91451 555 92715=","FM-12","4",,,,,,,,,,,,,,,,,,,,,,,,,,,,
"72503014732","2020-04-27T10:51:00","FM-15","7",,,,,,,,,,,,,,,,,,,,,,,,,,,,,,,,,,,,,,"29.89","35","47","0.00",,,,"63","29.89","BKN:07 29 OVC:08 36","29.86","10.00","42","360",,"14",,,,,,,,,,,,,,,,,,,,,,,,,,,,,,,,,,,,,"MET10604/27/20 10:51:02 METAR KLGA 271551Z 36012KT 10SM BKN029 OVC036 08/02 A2989 RMK AO2 SLP121 T00830017 (PAS)","FM-15","7",,,,,,,,,,,,,,,,,,,,,,,,,,,,
"72503014732","2020-04-27T11:23:00","FM-16","7",,,,,,,,,,,,,,,,,,,,,,,,,,,,,,,,,,,,,,"29.89","34","47",,,,,"61",,"SCT:04 28 OVC:08 32","29.86","10.00","41","010",,"14",,,,,,,,,,,,,,,,,,,,,,,,,,,,,,,,,,,,,"MET09904/27/20 11:23:02 SPECI KLGA 271623Z 01012KT 10SM SCT028 OVC032 08/01 A2989 RMK AO2 T00830011 (PAS)","FM-16","7",,,,,,,,,,,,,,,,,,,,,,,,,,,,
"72503014732","2020-04-27T11:51:00","FM-15","7",,,,,,,,,,,,,,,,,,,,,,,,,,,,,,,,,,,,,,"29.89","34","47","0.00",,,,"61","29.89","OVC:08 34","29.86","10.00","41","360",,"10",,,,,,,,,,,,,,,,,,,,,,,,,,,,,,,,,,,,,"MET09904/27/20 11:51:02 METAR KLGA 271651Z 36009KT 10SM OVC034 08/01 A2989 RMK AO2 SLP122 T00830011 (PAS)","FM-15","7",,,,,,,,,,,,,,,,,,,,,,,,,,,,
"72503014732","2020-04-27T12:51:00","FM-15","7",,,,,,,,,,,,,,,,,,,,,,,,,,,,,,,,,,,,,,"29.90","37","48","T","-RA:02 |RA |RA","-0.01","1","66","29.90","SCT:04 27 BKN:07 34 OVC:08 41","29.87","10.00","43","340",,"17",,,,,,,,,,,,,,,,,,,,,,,,,,,,,,,,,,,,,"MET15304/27/20 12:51:02 METAR KLGA 271751Z 34015KT 10SM -RA SCT027 BKN034 OVC041 09/03 A2990 RMK AO2 RAB39 SLP124 P0000 60000 T00890028 10089 20056 51004 (PAS)","FM-15","7",,,,,,,,,,,,,,,,,,,,,,,,,,,,
"72503014732","2020-04-27T12:57:00","FM-16","7",,,,,,,,,,,,,,,,,,,,,,,,,,,,,,,,,,,,,,"29.90","36","48","T","-RA:02 |RA |RA",,,"63",,"BKN:07 27 BKN:07 35 OVC:08 43","29.87","10.00","43","330","22","16",,,,,,,,,,,,,,,,,,,,,,,,,,,,,,,,,,,,,"MET11804/27/20 12:57:02 SPECI KLGA 271757Z 33014G19KT 10SM -RA BKN027 BKN035 OVC043 09/02 A2990 RMK AO2 P0000 T00890022 (WL)","FM-16","7",,,,,,,,,,,,,,,,,,,,,,,,,,,,
"72503014732","2020-04-27T13:00:00","FM-12","4",,,,,,,,,,,,,,,,,,,,,,,,,,,,,,,,,,,,,,,"37","48",,"||RA","-0.01","1","66","29.90","26","29.86","9.94","43","340",,"17",,,,,,,,,,,,,,,,,,,,,,,,,,,,,,,,,,,,,"SYN09272503 11566 83415 10089 20028 30112 40124 51004 69901 761// 91751 333 10089 20056 555 92718=","FM-12","4",,,,,,,,,,,,,,,,,,,,,,,,,,,,
"72503014732","2020-04-27T13:49:00","FM-16","6",,,,,,,,,,,,,,,,,,,,,,,,,,,,,,,,,,,,,,"29.92","36","48",,"-RA:02 |RA |RA",,,"62",,"BKN:07 30 OVC:08 50","29.89","10.00","43","010",,"16",,,,,,,,,,,,,,,,,,,,,,,,,,,,,,,,,,,,,"MET10304/27/20 13:49:02 SPECI KLGA 271849Z 01014KT 10SM -RA BKN030 OVC050 09/02 A2992 RMK AO2 P0000 FIBI (WL)","FM-16","6",,,,,,,,,,,,,,,,,,,,,,,,,,,,
"72503014732","2020-04-27T13:51:00","FM-15","7",,,,,,,,,,,,,,,,,,,,,,,,,,,,,,,,,,,,,,"29.92","36","49","T","-RA:02 |RA |RA",,,"61","29.92","BKN:07 30 OVC:08 50","29.89","10.00","43","350",,"16",,,,,,,,,,,,,,,,,,,,,,,,,,,,,,,,,,,,,"MET11504/27/20 13:51:02 METAR KLGA 271851Z 35014KT 10SM -RA BKN030 OVC050 09/02 A2992 RMK AO2 SLP132 P0000 T00940022 (WL)","FM-15","7",,,,,,,,,,,,,,,,,,,,,,,,,,,,
"72503014732","2020-04-27T14:51:00","FM-15","7",,,,,,,,,,,,,,,,,,,,,,,,,,,,,,,,,,,,,,"29.93","35","49","T",,,,"59","29.93","SCT:04 32 OVC:08 55","29.90","10.00","43","010","26","18",,,,,,,,,,,,,,,,,,,,,,,,,,,,,,,,,,,,,"MET12004/27/20 14:51:02 METAR KLGA 271951Z 01016G23KT 10SM SCT032 OVC055 09/02 A2993 RMK AO2 RAE47 SLP135 P0000 T00940017 (WL)","FM-15","7",,,,,,,,,,,,,,,,,,,,,,,,,,,,
"72503014732","2020-04-27T15:51:00","FM-15","7",,,,,,,,,,,,,,,,,,,,,,,,,,,,,,,,,,,,,,"29.95","35","49","0.00",,"-0.06","1","59","29.95","FEW:02 29 SCT:04 36 OVC:08 65","29.92","10.00","43","360","26","18",,,,,,,,,,,,,,,,,,,,,,,,,,,,,,,,,,,,,"MET12704/27/20 15:51:02 METAR KLGA 272051Z 36016G23KT 10SM FEW029 SCT036 OVC065 09/02 A2995 RMK AO2 SLP142 60000 T00940017 51019 (WL)","FM-15","7",,,,,,,,,,,,,,,,,,,,,,,,,,,,
"72503014732","2020-04-27T16:00:00","FM-12","4",,,,,,,,,,,,,,,,,,,,,,,,,,,,,,,,,,,,,,,"35","49",,,"-0.06","1","59","29.95","26","29.91","9.94","43","360",,"18",,,,,,,,,,,,,,,,,,,,,,,,,,,,,,,,,,,,,"SYN08072503 12566 83616 10094 20017 30129 40142 51019 69907 92051 333 91023 555 92721=","FM-12","4",,,,,,,,,,,,,,,,,,,,,,,,,,,,
"72503014732","2020-04-27T16:51:00","FM-15","7",,,,,,,,,,,,,,,,,,,,,,,,,,,,,,,,,,,,,,"29.98","35","48","T",,,,"61","29.98","FEW:02 31 BKN:07 60 OVC:08 75","29.95","10.00","42","360",,"17",,,,,,,,,,,,,,,,,,,,,,,,,,,,,,,,,,,,,"MET12704/27/20 16:51:02 METAR KLGA 272151Z 36015KT 10SM FEW031 BKN060 OVC075 09/02 A2998 RMK AO2 RAB28E40 SLP153 P0000 T00890017 (WL)","FM-15","7",,,,,,,,,,,,,,,,,,,,,,,,,,,,
"72503014732","2020-04-27T17:51:00","FM-15","7",,,,,,,,,,,,,,,,,,,,,,,,,,,,,,,,,,,,,,"30.01","35","47","T",,,,"63","30.00","FEW:02 30 OVC:08 100","29.98","10.00","42","360","29","18",,,,,,,,,,,,,,,,,,,,,,,,,,,,,,,,,,,,,"MET12304/27/20 17:51:02 METAR KLGA 272251Z 36016G25KT 10SM FEW030 OVC100 08/02 A3001 RMK AO2 RAB00E10 SLP160 P0000 T00830017 (WL)","FM-15","7",,,,,,,,,,,,,,,,,,,,,,,,,,,,
"72503014732","2020-04-27T18:51:00","FM-15","7",,,,,,,,,,,,,,,,,,,,,,,,,,,,,,,,,,,,,,"30.02","36","46","0.00",,"-0.07","1","68","30.02","FEW:02 25 BKN:07 90 OVC:08 110","29.99","10.00","42","360",,"13",,,,,,,,,,,,,,,,,,,,,,,,,,,,,,,,,,,,,"MET13604/27/20 18:51:02 METAR KLGA 272351Z 36011KT 10SM FEW025 BKN090 OVC110 08/02 A3002 RMK AO2 SLP166 60000 T00780022 10094 20078 51023 (WL)","FM-15","7",,,,,,,,,,,,,,,,,,,,,,,,,,,,
"72503014732","2020-04-27T19:00:00","FM-12","4",,,,,,,,,,,,,,,,,,,,,,,,,,,,,,,,,,,,,,,"36","46",,,"-0.07","1","68","30.02","26","29.98","9.94","42","360",,"13",,,,,,,,,,,,,,,,,,,,,,,,,,,,,,,,,,,,,"SYN08672503 12566 83611 10078 20022 30152 40166 51023 69901 92351 333 10094 20044 555 92800=","FM-12","4",,,,,,,,,,,,,,,,,,,,,,,,,,,,
"72503014732","2020-04-27T19:09:00","FM-16","7",,,,,,,,,,,,,,,,,,,,,,,,,,,,,,,,,,,,,,"30.03","36","46",,,,,"68",,"BKN:07 27 BKN:07 34 OVC:08 90","30.00","10.00","42","360","26","18",,,,,,,,,,,,,,,,,,,,,,,,,,,,,,,,,,,,,"MET10304/27/20 19:09:01 SPECI KLGA 280009Z 36016G23KT 10SM BKN027 BKN034 OVC090 08/02 A3003 RMK AO2 T00780022","FM-16","7",,,,,,,,,,,,,,,,,,,,,,,,,,,,
"72503014732","2020-04-27T19:20:00","FM-16","7",,,,,,,,,,,,,,,,,,,,,,,,,,,,,,,,,,,,,,"30.03","35","46",,,,,"66",,"SCT:04 27 SCT:04 32 BKN:07 85","30.00","10.00","41","350","26","17",,,,,,,,,,,,,,,,,,,,,,,,,,,,,,,,,,,,,"MET10304/27/20 19:20:01 SPECI KLGA 280020Z 35015G23KT 10SM SCT027 SCT032 BKN085 08/02 A3003 RMK AO2 T00780017","FM-16","7",,,,,,,,,,,,,,,,,,,,,,,,,,,,
"72503014732","2020-04-27T19:51:00","FM-15","7",,,,,,,,,,,,,,,,,,,,,,,,,,,,,,,,,,,,,,"30.05","35","46","0.00",,,,"66","30.05","FEW:02 27 SCT:04 70 BKN:07 170","30.02","10.00","41","350","24","17",,,,,,,,,,,,,,,,,,,,,,,,,,,,,,,,,,,,,"MET11004/27/20 19:51:01 METAR KLGA 280051Z 35015G21KT 10SM FEW027 SCT070 BKN170 08/02 A3005 RMK AO2 SLP175 T00780017","FM-15","7",,,,,,,,,,,,,,,,,,,,,,,,,,,,
"72503014732","2020-04-27T20:51:00","FM-15","7",,,,,,,,,,,,,,,,,,,,,,,,,,,,,,,,,,,,,,"30.06","35","45","0.00",,,,"68","30.06","SCT:04 65 BKN:07 170","30.03","10.00","41","340","24","16",,,,,,,,,,,,,,,,,,,,,,,,,,,,,,,,,,,,,"MET10304/27/20 20:51:01 METAR KLGA 280151Z 34014G21KT 10SM SCT065 BKN170 07/02 A3006 RMK AO2 SLP179 T00720017","FM-15","7",,,,,,,,,,,,,,,,,,,,,,,,,,,,
"72503014732","2020-04-27T21:51:00","FM-15","7",,,,,,,,,,,,,,,,,,,,,,,,,,,,,,,,,,,,,,"30.07","35","45","0.00",,"-0.04","1","68","30.06","BKN:07 55","30.04","10.00","41","350",,"15",,,,,,,,,,,,,,,,,,,,,,,,,,,,,,,,,,,,,"MET09904/27/20 21:51:01 METAR KLGA 280251Z 35013KT 10SM BKN055 07/02 A3007 RMK AO2 SLP181 T00720017 51015","FM-15","7",,,,,,,,,,,,,,,,,,,,,,,,,,,,
"72503014732","2020-04-27T22:00:00","FM-12","4",,,,,,,,,,,,,,,,,,,,,,,,,,,,,,,,,,,,,,,"35","45",,,"-0.04","1","68","30.06","57","30.03","9.94","41","350",,"15",,,,,,,,,,,,,,,,,,,,,,,,,,,,,,,,,,,,,"SYN06472503 32766 63513 10072 20017 30169 40181 51015 90251 555 92803=","FM-12","4",,,,,,,,,,,,,,,,,,,,,,,,,,,,
"72503014732","2020-04-27T22:51:00","FM-15","7",,,,,,,,,,,,,,,,,,,,,,,,,,,,,,,,,,,,,,"30.07","36","45","0.00",,,,"71","30.07","SCT:04 24 BKN:07 60","30.04","10.00","41","340",,"10",,,,,,,,,,,,,,,,,,,,,,,,,,,,,,,,,,,,,"MET10004/27/20 22:51:02 METAR KLGA 280351Z 34009KT 10SM SCT024 BKN060 07/02 A3007 RMK AO2 SLP182 T00720022","FM-15","7",,,,,,,,,,,,,,,,,,,,,,,,,,,,
"72503014732","2020-04-27T23:51:00","FM-15","7",,,,,,,,,,,,,,,,,,,,,,,,,,,,,,,,,,,,,,"30.08","35","45","0.00",,,,"68","30.08","FEW:02 25 SCT:04 35 BKN:07 55","30.05","10.00","41","350",,"13",,,,,,,,,,,,,,,,,,,,,,,,,,,,,,,,,,,,,"MET11704/27/20 23:51:02 METAR KLGA 280451Z 35011KT 10SM FEW025 SCT035 BKN055 07/02 A3008 RMK AO2 SLP186 T00720017 400940044","FM-15","7",,,,,,,,,,,,,,,,,,,,,,,,,,,,
"72503014732","2020-04-27T23:59:00","SOD  ","6",,,,,,,,,,,,,,,,"45",,,"29.88",,"14.3","0","-11.6","20","49","40","010","29","T","0","0.0","010","24","RA",,,,,,,,,,,,,,,,,,,,,,,,,,,,,,,,,,,,,,,,,,,,,,,,,,,,,,,,"SOD77024 HR PRECIPITATION (IN):    T SNOW DEPTH (IN):0     24 HR SNOWFALL (IN):0.0  24 HR MAX TEMP (F): 4924 HR MIN TEMP (F): 40AVERAGE STATION PRESSURE(D):29.885 MINIMUM SEA LEVEL PRESSURE:29.79 TIME OF OCCURRENCE:0134 PEAK WIND SPEED (MPH): 29 PEAK WIND DIR (DEG): 10 PEAK WIND TIME (LST):      FASTEST 2MIN SPEED (MPH): 24FASTEST 2MIN DIR (DEG): 10 FASTEST 2MIN TIME (LST):     AVERAGE WIND SPEED (MPH):14.3 24 HR AVG TEMP (F): 45DEPART FROM NORMAL:-12  SKY COVER SR-SS (TENTHS): 1HEATING DEGREE DAYS: 20 COOLING DEGREE DAYS:  0 LATEST DAY MAX TEMP (0700-1900 LST): 49 LATEST NIGHT MIN TEMP(1900-0800 LST):40 HOURLY INCREMENTAL PRECIPITATION VALUES (IN):0.00 0.00 0.00 0.00 0.00 0.00 0.00T    T     0.00 0.00 0.00T    T    T     0.00T    T     0.00 0.00 0.00 0.00 0.00 0.00","SOD  ","6",,,,,,,,,,,,,,,,,,,,,,,,,"0458","1848",,
"72503014732","2020-04-28T00:51:00","FM-15","7",,,,,,,,,,,,,,,,,,,,,,,,,,,,,,,,,,,,,,"30.08","35","45","0.00",,"-0.01","0","68","30.07","BKN:07 55","30.05","10.00","41","340",,"13",,,,,,,,,,,,,,,,,,,,,,,,,,,,,,,,,,,,,"MET11604/28/20 00:51:02 METAR KLGA 280551Z 34011KT 10SM BKN055 07/02 A3008 RMK AO2 SLP184 T00720017 10078 20072 50003 (RZ)","FM-15","7",,,,,,,,,,,,,,,,,,,,,,,,,,,,
"72503014732","2020-04-28T01:00:00","FM-12","4",,,,,,,,,,,,,,,,,,,,,,,,,,,,,,,,,,,,,,,"35","45",,,"0.01","9","68","30.07","57","30.04","9.94","41","340",,"13",,,,,,,,,,,,,,,,,,,,,,,,,,,,,,,,,,,,,"SYN08072503 32766 63411 10072 20017 30172 40184 50003 90551 333 10078 20044 555 92806=","FM-12","4",,,,,,,,,,,,,,,,,,,,,,,,,,,,
"72503014732","2020-04-28T01:51:00","FM-15","7",,,,,,,,,,,,,,,,,,,,,,,,,,,,,,,,,,,,,,"30.08","35","44","0.00",,,,"71","30.07","SCT:04 55","30.05","10.00","40","340",,"11",,,,,,,,,,,,,,,,,,,,,,,,,,,,,,,,,,,,,"MET09804/28/20 01:51:02 METAR KLGA 280651Z 34010KT 10SM SCT055 07/02 A3008 RMK AO2 SLP184 T00670017 (RZ)","FM-15","7",,,,,,,,,,,,,,,,,,,,,,,,,,,,
"72503014732","2020-04-28T02:51:00","FM-15","7",,,,,,,,,,,,,,,,,,,,,,,,,,,,,,,,,,,,,,"30.09","35","44","0.00",,,,"71","30.09","BKN:07 55","30.06","10.00","40","340",,"10",,,,,,,,,,,,,,,,,,,,,,,,,,,,,,,,,,,,,"MET09804/28/20 02:51:02 METAR KLGA 280751Z 34009KT 10SM BKN055 07/02 A3009 RMK AO2 SLP189 T00670017 (RZ)","FM-15","7",,,,,,,,,,,,,,,,,,,,,,,,,,,,
"72503014732","2020-04-28T03:51:00","FM-15","7",,,,,,,,,,,,,,,,,,,,,,,,,,,,,,,,,,,,,,"30.11","35","44","0.00",,"-0.03","3","71","30.11","BKN:07 55","30.08","10.00","40","330",,"11",,,,,,,,,,,,,,,,,,,,,,,,,,,,,,,,,,,,,"MET10404/28/20 03:51:02 METAR KLGA 280851Z 33010KT 10SM BKN055 07/02 A3011 RMK AO2 SLP195 T00670017 53011 (RZ)","FM-15","7",,,,,,,,,,,,,,,,,,,,,,,,,,,,
"72503014732","2020-04-28T04:00:00","FM-12","4",,,,,,,,,,,,,,,,,,,,,,,,,,,,,,,,,,,,,,,"35","44",,,"-0.03","3","71","30.11","57","30.07","9.94","40","330",,"11",,,,,,,,,,,,,,,,,,,,,,,,,,,,,,,,,,,,,"SYN06472503 32766 63310 10067 20017 30183 40195 53011 90851 555 92809=","FM-12","4",,,,,,,,,,,,,,,,,,,,,,,,,,,,
"72503014732","2020-04-28T04:51:00","FM-15","7",,,,,,,,,,,,,,,,,,,,,,,,,,,,,,,,,,,,,,"30.12","35","44","0.00",,,,"71","30.11","FEW:02 60","30.09","10.00","40","310",,"13",,,,,,,,,,,,,,,,,,,,,,,,,,,,,,,,,,,,,"MET09804/28/20 04:51:02 METAR KLGA 280951Z 31011KT 10SM FEW060 07/02 A3012 RMK AO2 SLP198 T00670017 (RZ)","FM-15","7",,,,,,,,,,,,,,,,,,,,,,,,,,,,
"72503014732","2020-04-28T05:51:00","FM-15","7",,,,,,,,,,,,,,,,,,,,,,,,,,,,,,,,,,,,,,"30.14","34","44","0.00",,,,"68","30.14","FEW:02 60 SCT:04 170","30.11","10.00","40","330",,"11",,,,,,,,,,,,,,,,,,,,,,,,,,,,,,,,,,,,,"MET10604/28/20 05:51:02 METAR KLGA 281051Z 33010KT 10SM FEW060 SCT170 07/01 A3014 RMK AO2 SLP206 T00670011 (PAS)","FM-15","7",,,,,,,,,,,,,,,,,,,,,,,,,,,,
"72503014732","2020-04-28T06:51:00","FM-15","7",,,,,,,,,,,,,,,,,,,,,,,,,,,,,,,,,,,,,,"30.15","35","45","0.00",,"-0.04","1","68","30.14","FEW:02 60 SCT:04 200","30.12","10.00","41","300",,"11",,,,,,,,,,,,,,,,,,,,,,,,,,,,,,,,,,,,,"MET12404/28/20 06:51:02 METAR KLGA 281151Z 30010KT 10SM FEW060 SCT200 07/02 A3015 RMK AO2 SLP208 T00720017 10072 20061 51013 (PAS)","FM-15","7",,,,,,,,,,,,,,,,,,,,,,,,,,,,
"72503014732","2020-04-28T07:00:00","FM-12","4",,,,,,,,,,,,,,,,,,,,,,,,,,,,,,,,,,,,,,,"35","45",,,"-0.04","1","68","30.14","57","30.11","9.94","41","300",,"11",,,,,,,,,,,,,,,,,,,,,,,,,,,,,,,,,,,,,"SYN08072503 32766 43010 10072 20017 30196 40208 51013 91151 333 10094 20061 555 92812=","FM-12","4",,,,,,,,,,,,,,,,,,,,,,,,,,,,
"72503014732","2020-04-28T07:51:00","FM-15","7",,,,,,,,,,,,,,,,,,,,,,,,,,,,,,,,,,,,,,"30.14","34","48","0.00",,,,"58","30.14","FEW:02 40 FEW:02 200","30.11","10.00","42","330",,"6",,,,,,,,,,,,,,,,,,,,,,,,,,,,,,,,,,,,,"MET10604/28/20 07:51:02 METAR KLGA 281251Z 33005KT 10SM FEW040 FEW200 09/01 A3014 RMK AO2 SLP206 T00890011 (PAS)","FM-15","7",,,,,,,,,,,,,,,,,,,,,,,,,,,,
"72503014732","2020-04-28T08:51:00","FM-15","7",,,,,,,,,,,,,,,,,,,,,,,,,,,,,,,,,,,,,,"30.14","33","50","0.00",,,,"52","30.14","FEW:02 40 FEW:02 200","30.11","10.00","43","340",,"11",,,,,,,,,,,,,,,,,,,,,,,,,,,,,,,,,,,,,"MET10604/28/20 08:51:02 METAR KLGA 281351Z 34010KT 10SM FEW040 FEW200 10/01 A3014 RMK AO2 SLP206 T01000006 (PAS)","FM-15","7",,,,,,,,,,,,,,,,,,,,,,,,,,,,
"72503014732","2020-04-28T09:51:00","FM-15","7",,,,,,,,,,,,,,,,,,,,,,,,,,,,,,,,,,,,,,"30.14","30","53","0.00",,"+0.01","6","41","30.14","FEW:02 43 FEW:02 250","30.11","10.00","43","330",,"9",,,,,,,,,,,,,,,,,,,,,,,,,,,,,,,,,,,,,"MET11304/28/20 09:51:02 METAR KLGA 281451Z 33008KT 10SM FEW043 FEW250 12/M01 A3014 RMK AO2 SLP205 T01171011 56003 (PAS)","FM-15","7",,,,,,,,,,,,,,,,,,,,,,,,,,,,
"72503014732","2020-04-28T10:00:00","FM-12","4",,,,,,,,,,,,,,,,,,,,,,,,,,,,,,,,,,,,,,,"30","53",,,"+0.01","6","41","30.14","41","30.10","9.94","43","330",,"9",,,,,,,,,,,,,,,,,,,,,,,,,,,,,,,,,,,,,"SYN06472503 32666 23308 10117 21011 30193 40205 56003 91451 555 92815=","FM-12","4",,,,,,,,,,,,,,,,,,,,,,,,,,,,
"72503014732","2020-04-28T10:51:00","FM-15","7",,,,,,,,,,,,,,,,,,,,,,,,,,,,,,,,,,,,,,"30.13","31","56","0.00",,,,"39","30.12","FEW:02 45","30.10","10.00","45","340",,"6",,,,,,,,,,,,,,,,,,,,,,,,,,,,,,,,,,,,,"MET10004/28/20 10:51:02 METAR KLGA 281551Z 34005KT 10SM FEW045 13/M01 A3013 RMK AO2 SLP201 T01331006 (PAS)","FM-15","7",,,,,,,,,,,,,,,,,,,,,,,,,,,,
"72503014732","2020-04-28T11:51:00","FM-15","7",,,,,,,,,,,,,,,,,,,,,,,,,,,,,,,,,,,,,,"30.10","30","58","0.00",,,,"35","30.10","FEW:02 55","30.07","10.00","46","310",,"9",,,,,,,,,,,,,,,,,,,,,,,,,,,,,,,,,,,,,"MET10004/28/20 11:51:02 METAR KLGA 281651Z 31008KT 10SM FEW055 14/M01 A3010 RMK AO2 SLP193 T01441011 (PAS)","FM-15","7",,,,,,,,,,,,,,,,,,,,,,,,,,,,
"72503014732","2020-04-28T12:51:00","FM-15","7",,,,,,,,,,,,,,,,,,,,,,,,,,,,,,,,,,,,,,"30.09","29","60","0.00",,"+0.05","8","31","30.09","FEW:02 55","30.06","10.00","46","320",,"5",,,,,,,,,,,,,,,,,,,,,,,,,,,,,,,,,,,,,"MET11804/28/20 12:51:02 METAR KLGA 281751Z 32004KT 10SM FEW055 16/M02 A3009 RMK AO2 SLP188 T01561017 10156 20072 58017 (PAS)","FM-15","7",,,,,,,,,,,,,,,,,,,,,,,,,,,,
"72503014732","2020-04-28T13:00:00","FM-12","4",,,,,,,,,,,,,,,,,,,,,,,,,,,,,,,,,,,,,,,"29","60",,,"+0.05","8","31","30.09","57","30.05","9.94","46","320",,"5",,,,,,,,,,,,,,,,,,,,,,,,,,,,,,,,,,,,,"SYN08072503 32766 23204 10156 21017 30176 40188 58017 91751 333 10156 20072 555 92818=","FM-12","4",,,,,,,,,,,,,,,,,,,,,,,,,,,,
"72503014732","2020-04-28T13:51:00","FM-15","7",,,,,,,,,,,,,,,,,,,,,,,,,,,,,,,,,,,,,,"30.07","28","62","0.00",,,,"28","30.07","FEW:02 55","30.04","10.00","47","310",,"10",,,,,,,,,,,,,,,,,,,,,,,,,,,,,,,,,,,,,"MET09904/28/20 13:51:02 METAR KLGA 281851Z 31009KT 10SM FEW055 17/M02 A3007 RMK AO2 SLP184 T01671022 (WL)","FM-15","7",,,,,,,,,,,,,,,,,,,,,,,,,,,,
"72503014732","2020-04-28T14:51:00","FM-15","7",,,,,,,,,,,,,,,,,,,,,,,,,,,,,,,,,,,,,,"30.06","27","64","0.00",,,,"25","30.06","FEW:02 55","30.03","10.00","48","320","17","11",,,,,,,,,,,,,,,,,,,,,,,,,,,,,,,,,,,,,"MET10204/28/20 14:51:02 METAR KLGA 281951Z 32010G15KT 10SM FEW055 18/M03 A3006 RMK AO2 SLP178 T01781028 (WL)","FM-15","7",,,,,,,,,,,,,,,,,,,,,,,,,,,,
"72503014732","2020-04-28T15:51:00","FM-15","7",,,,,,,,,,,,,,,,,,,,,,,,,,,,,,,,,,,,,,"30.05","22","65","0.00",,"+0.04","6","19","30.05","FEW:02 55","30.02","10.00","47","VRB",,"3",,,,,,,,,,,,,,,,,,,,,,,,,,,,,,,,,,,,,"MET10504/28/20 15:51:02 METAR KLGA 282051Z VRB03KT 10SM FEW055 18/M06 A3005 RMK AO2 SLP176 T01831056 56012 (WL)","FM-15","7",,,,,,,,,,,,,,,,,,,,,,,,,,,,
"72503014732","2020-04-28T16:00:00","FM-12","4",,,,,,,,,,,,,,,,,,,,,,,,,,,,,,,,,,,,,,,"22","65",,,"+0.04","6","19","30.05","57","30.01","9.94","47",,,"3",,,,,,,,,,,,,,,,,,,,,,,,,,,,,,,,,,,,,"SYN06472503 32766 2//03 10183 21056 30162 40176 56012 92051 555 92821=","FM-12","4",,,,,,,,,,,,,,,,,,,,,,,,,,,,
"72503014732","2020-04-28T16:51:00","FM-15","7",,,,,,,,,,,,,,,,,,,,,,,,,,,,,,,,,,,,,,"30.05","37","61","0.00",,,,"41","30.05","FEW:02 65 FEW:02 250","30.02","10.00","49","170",,"11",,,,,,,,,,,,,,,,,,,,,,,,,,,,,,,,,,,,,"MET10504/28/20 16:51:02 METAR KLGA 282151Z 17010KT 10SM FEW065 FEW250 16/03 A3005 RMK AO2 SLP176 T01610028 (WL)","FM-15","7",,,,,,,,,,,,,,,,,,,,,,,,,,,,
"72503014732","2020-04-28T17:51:00","FM-15","7",,,,,,,,,,,,,,,,,,,,,,,,,,,,,,,,,,,,,,"30.07","35","58","0.00",,,,"42","30.07","FEW:02 65 FEW:02 250","30.04","10.00","47","160",,"13",,,,,,,,,,,,,,,,,,,,,,,,,,,,,,,,,,,,,"MET10504/28/20 17:51:02 METAR KLGA 282251Z 16011KT 10SM FEW065 FEW250 14/02 A3007 RMK AO2 SLP183 T01440017 (WL)","FM-15","7",,,,,,,,,,,,,,,,,,,,,,,,,,,,
"72503014732","2020-04-28T18:51:00","FM-15","7",,,,,,,,,,,,,,,,,,,,,,,,,,,,,,,,,,,,,,"30.08","37","56","0.00",,"-0.02","3","49","30.07","FEW:02 65 SCT:04 250","30.05","10.00","47","170",,"10",,,,,,,,,,,,,,,,,,,,,,,,,,,,,,,,,,,,,"MET12304/28/20 18:51:02 METAR KLGA 282351Z 17009KT 10SM FEW065 SCT250 13/03 A3008 RMK AO2 SLP184 T01330028 10189 20133 53008 (WL)","FM-15","7",,,,,,,,,,,,,,,,,,,,,,,,,,,,
"72503014732","2020-04-28T19:00:00","FM-12","4",,,,,,,,,,,,,,,,,,,,,,,,,,,,,,,,,,,,,,,"37","56",,,"-0.02","3","49","30.07","57","30.04","9.94","47","170",,"10",,,,,,,,,,,,,,,,,,,,,,,,,,,,,,,,,,,,,"SYN08072503 32766 41709 10133 20028 30172 40184 53008 92351 333 10189 20061 555 92900=","FM-12","4",,,,,,,,,,,,,,,,,,,,,,,,,,,,
"72503014732","2020-04-28T19:51:00","FM-15","7",,,,,,,,,,,,,,,,,,,,,,,,,,,,,,,,,,,,,,"30.10","39","55","0.00",,,,"55","30.10","FEW:02 70 SCT:04 250","30.07","10.00","47","180",,"6",,,,,,,,,,,,,,,,,,,,,,,,,,,,,,,,,,,,,"MET10004/28/20 19:51:01 METAR KLGA 290051Z 18005KT 10SM FEW070 SCT250 13/04 A3010 RMK AO2 SLP193 T01280039","FM-15","7",,,,,,,,,,,,,,,,,,,,,,,,,,,,
"72503014732","2020-04-28T20:51:00","FM-15","7",,,,,,,,,,,,,,,,,,,,,,,,,,,,,,,,,,,,,,"30.12","40","53","0.00",,,,"61","30.12","FEW:02 70 FEW:02 250","30.09","10.00","47","120",,"7",,,,,,,,,,,,,,,,,,,,,,,,,,,,,,,,,,,,,"MET10004/28/20 20:51:01 METAR KLGA 290151Z 12006KT 10SM FEW070 FEW250 12/04 A3012 RMK AO2 SLP199 T01170044","FM-15","7",,,,,,,,,,,,,,,,,,,,,,,,,,,,
"72503014732","2020-04-28T21:51:00","FM-15","7",,,,,,,,,,,,,,,,,,,,,,,,,,,,,,,,,,,,,,"30.13","42","51","0.00",,"-0.05","1","71","30.13","FEW:02 250","30.10","10.00","47","130",,"6",,,,,,,,,,,,,,,,,,,,,,,,,,,,,,,,,,,,,"MET09904/28/20 21:51:01 METAR KLGA 290251Z 13005KT 10SM FEW250 11/06 A3013 RMK AO2 SLP202 T01060056 51018","FM-15","7",,,,,,,,,,,,,,,,,,,,,,,,,,,,
"72503014732","2020-04-28T22:00:00","FM-12","4",,,,,,,,,,,,,,,,,,,,,,,,,,,,,,,,,,,,,,,"42","51",,,"-0.05","1","71","30.13",,"30.09","9.94","47","130",,"6",,,,,,,,,,,,,,,,,,,,,,,,,,,,,,,,,,,,,"SYN06472503 32966 21305 10106 20056 30189 40202 51018 90251 555 92903=","FM-12","4",,,,,,,,,,,,,,,,,,,,,,,,,,,,
"72503014732","2020-04-28T22:51:00","FM-15","7",,,,,,,,,,,,,,,,,,,,,,,,,,,,,,,,,,,,,,"30.14","42","51","0.00",,,,"71","30.14","FEW:02 250","30.11","10.00","47","070",,"3",,,,,,,,,,,,,,,,,,,,,,,,,,,,,,,,,,,,,"MET09304/28/20 22:51:02 METAR KLGA 290351Z 07003KT 10SM FEW250 11/06 A3014 RMK AO2 SLP205 T01060056","FM-15","7",,,,,,,,,,,,,,,,,,,,,,,,,,,,
"72503014732","2020-04-28T23:51:00","FM-15","7",,,,,,,,,,,,,,,,,,,,,,,,,,,,,,,,,,,,,,"30.14","43","50","0.00",,,,"77","30.14","FEW:02 250","30.11","10.00","47","050",,"5",,,,,,,,,,,,,,,,,,,,,,,,,,,,,,,,,,,,,"MET10304/28/20 23:51:02 METAR KLGA 290451Z 05004KT 10SM FEW250 10/06 A3014 RMK AO2 SLP205 T01000061 401890061","FM-15","7",,,,,,,,,,,,,,,,,,,,,,,,,,,,
"72503014732","2020-04-28T23:59:00","SOD  ","6",,,,,,,,,,,,,,,,"55",,,"30.06",,"8.9","0","-2.0","10","66","43","320","22","0.00","0","0.0","320","17",,,,,,,,,,,,,,,,,,,,,,,,,,,,,,,,,,,,,,,,,,,,,,,,,,,,,,,,,"SOD73924 HR PRECIPITATION (IN): 0.00 SNOW DEPTH (IN):0     24 HR SNOWFALL (IN):0.0  24 HR MAX TEMP (F): 6624 HR MIN TEMP (F): 43AVERAGE STATION PRESSURE:30.060 MINIMUM SEA LEVEL PRESSURE:30.05 TIME OF OCCURRENCE:1720 PEAK WIND SPEED (MPH): 22 PEAK WIND DIR (DEG):320 PEAK WIND TIME (LST):      FASTEST 2MIN SPEED (MPH): 17FASTEST 2MIN DIR (DEG):320 FASTEST 2MIN TIME (LST):     AVERAGE WIND SPEED (MPH): 8.9 24 HR AVG TEMP (F): 55DEPART FROM NORMAL: -2  HEATING DEGREE DAYS: 10 COOLING DEGREE DAYS:  0 LATEST DAY MAX TEMP (0700-1900 LST):66  LATEST NIGHT MIN TEMP(1900-0800 LST):43 HOURLY INCREMENTAL PRECIPITATION VALUES (IN):.00 0.00 0.00 0.00 0.00 0.00 0.00 0.00 0.00 0.00 0.00 0.00 0.00 0.00 0.00 0.00 0.00 0.00 0.00 0.00 0.00 0.00 0.00 0.00","SOD  ","6",,,,,,,,,,,,,,,,,,,,,,,,,"0457","1849",,
"72503014732","2020-04-29T00:51:00","FM-15","7",,,,,,,,,,,,,,,,,,,,,,,,,,,,,,,,,,,,,,"30.14","43","49","0.00",,"-0.01","2","80","30.14","FEW:02 250","30.11","10.00","46","060",,"5",,,,,,,,,,,,,,,,,,,,,,,,,,,,,,,,,,,,,"MET11604/29/20 00:51:02 METAR KLGA 290551Z 06004KT 10SM FEW250 09/06 A3014 RMK AO2 SLP207 T00940061 10133 20094 52005 (RZ)","FM-15","7",,,,,,,,,,,,,,,,,,,,,,,,,,,,
"72503014732","2020-04-29T01:00:00","FM-12","4",,,,,,,,,,,,,,,,,,,,,,,,,,,,,,,,,,,,,,,"43","49",,,"-0.01","2","80","30.14",,"30.10","9.94","46","060",,"5",,,,,,,,,,,,,,,,,,,,,,,,,,,,,,,,,,,,,"SYN08072503 32966 20604 10094 20061 30193 40207 52005 90551 333 10133 20061 555 92906=","FM-12","4",,,,,,,,,,,,,,,,,,,,,,,,,,,,
"72503014732","2020-04-29T01:51:00","FM-15","7",,,,,,,,,,,,,,,,,,,,,,,,,,,,,,,,,,,,,,"30.14","43","48","0.00",,,,"83","30.14","FEW:02 250","30.11","10.00","46","060",,"7",,,,,,,,,,,,,,,,,,,,,,,,,,,,,,,,,,,,,"MET09804/29/20 01:51:02 METAR KLGA 290651Z 06006KT 10SM FEW250 09/06 A3014 RMK AO2 SLP205 T00890061 (RZ)","FM-15","7",,,,,,,,,,,,,,,,,,,,,,,,,,,,
"72503014732","2020-04-29T02:51:00","FM-15","7",,,,,,,,,,,,,,,,,,,,,,,,,,,,,,,,,,,,,,"30.14","44","48","0.00",,,,"86","30.14","FEW:02 250","30.11","10.00","46","050",,"5",,,,,,,,,,,,,,,,,,,,,,,,,,,,,,,,,,,,,"MET09804/29/20 02:51:02 METAR KLGA 290751Z 05004KT 10SM FEW250 09/07 A3014 RMK AO2 SLP207 T00890067 (RZ)","FM-15","7",,,,,,,,,,,,,,,,,,,,,,,,,,,,
"72503014732","2020-04-29T03:51:00","FM-15","7",,,,,,,,,,,,,,,,,,,,,,,,,,,,,,,,,,,,,,"30.16","43","48","0.00",,"-0.01","3","83","30.15","SCT:04 80 BKN:07 130","30.13","10.00","46","050",,"9",,,,,,,,,,,,,,,,,,,,,,,,,,,,,,,,,,,,,"MET11104/29/20 03:51:02 METAR KLGA 290851Z 05008KT 10SM SCT080 BKN130 09/06 A3016 RMK AO2 SLP211 T00890061 53004 (RZ)","FM-15","7",,,,,,,,,,,,,,,,,,,,,,,,,,,,
"72503014732","2020-04-29T04:00:00","FM-12","4",,,,,,,,,,,,,,,,,,,,,,,,,,,,,,,,,,,,,,,"43","48",,,"-0.01","3","83","30.15","74","30.12","9.94","46","050",,"9",,,,,,,,,,,,,,,,,,,,,,,,,,,,,,,,,,,,,"SYN06472503 32866 60508 10089 20061 30200 40211 53004 90851 555 92909=","FM-12","4",,,,,,,,,,,,,,,,,,,,,,,,,,,,
"72503014732","2020-04-29T04:51:00","FM-15","7",,,,,,,,,,,,,,,,,,,,,,,,,,,,,,,,,,,,,,"30.17","43","48","0.00",,,,"83","30.17","FEW:02 10 BKN:07 80","30.14","10.00","46","070",,"11",,,,,,,,,,,,,,,,,,,,,,,,,,,,,,,,,,,,,"MET10504/29/20 04:51:02 METAR KLGA 290951Z 07010KT 10SM FEW010 BKN080 09/06 A3017 RMK AO2 SLP217 T00890061 (RZ)","FM-15","7",,,,,,,,,,,,,,,,,,,,,,,,,,,,
"72503014732","2020-04-29T05:19:00","FM-16","7",,,,,,,,,,,,,,,,,,,,,,,,,,,,,,,,,,,,,,"30.17","43","47",,,,,"86",,"FEW:02 7 BKN:07 90","30.14","10.00","45","070",,"9",,,,,,,,,,,,,,,,,,,,,,,,,,,,,,,,,,,,,"MET09904/29/20 05:19:02 SPECI KLGA 291019Z 07008KT 10SM FEW007 BKN090 08/06 A3017 RMK AO2 T00830061 (PAS)","FM-16","7",,,,,,,,,,,,,,,,,,,,,,,,,,,,
"72503014732","2020-04-29T05:42:00","FM-16","7",,,,,,,,,,,,,,,,,,,,,,,,,,,,,,,,,,,,,,"30.17","43","47",,,,,"86",,"BKN:07 6 BKN:07 70","30.14","10.00","45","070",,"11",,,,,,,,,,,,,,,,,,,,,,,,,,,,,,,,,,,,,"MET09904/29/20 05:42:02 SPECI KLGA 291042Z 07010KT 10SM BKN006 BKN070 08/06 A3017 RMK AO2 T00830061 (PAS)","FM-16","7",,,,,,,,,,,,,,,,,,,,,,,,,,,,
"72503014732","2020-04-29T05:51:00","FM-15","7",,,,,,,,,,,,,,,,,,,,,,,,,,,,,,,,,,,,,,"30.18","42","47","0.00",,,,"83","30.18","BKN:07 6 OVC:08 70","30.15","10.00","45","080",,"10",,,,,,,,,,,,,,,,,,,,,,,,,,,,,,,,,,,,,"MET10604/29/20 05:51:02 METAR KLGA 291051Z 08009KT 10SM BKN006 OVC070 08/06 A3018 RMK AO2 SLP219 T00830056 (PAS)","FM-15","7",,,,,,,,,,,,,,,,,,,,,,,,,,,,
"72503014732","2020-04-29T06:14:00","FM-16","7",,,,,,,,,,,,,,,,,,,,,,,,,,,,,,,,,,,,,,"30.19","43","47",,,,,"86",,"OVC:08 5","30.16","7.00","45","060",,"10",,,,,,,,,,,,,,,,,,,,,,,,,,,,,,,,,,,,,"MET09104/29/20 06:14:02 SPECI KLGA 291114Z 06009KT 7SM OVC005 08/06 A3019 RMK AO2 T00830061 (PAS)","FM-16","7",,,,,,,,,,,,,,,,,,,,,,,,,,,,
"72503014732","2020-04-29T06:48:00","FM-16","7",,,,,,,,,,,,,,,,,,,,,,,,,,,,,,,,,,,,,,"30.21","43","46","T","-RA:02 |RA |RA",,,"87",,"OVC:08 7","30.18","7.00","45","060",,"11",,,,,,,,,,,,,,,,,,,,,,,,,,,,,,,,,,,,,"MET09704/29/20 06:48:02 SPECI KLGA 291148Z 06010KT 7SM -RA OVC007 08/06 A3021 RMK AO2 RAB42 P0000 (PAS)","FM-16","7",,,,,,,,,,,,,,,,,,,,,,,,,,,,
"72503014732","2020-04-29T06:51:00","FM-15","7",,,,,,,,,,,,,,,,,,,,,,,,,,,,,,,,,,,,,,"30.21","43","48","T",,"-0.04","1","83","30.21","OVC:08 7","30.18","7.00","46","060",,"13",,,,,,,,,,,,,,,,,,,,,,,,,,,,,,,,,,,,,"MET13704/29/20 06:51:02 METAR KLGA 291151Z 06011KT 7SM OVC007 09/06 A3021 RMK AO2 RAB42E51 SLP229 P0000 60000 T00890061 10094 20078 51012 (PAS)","FM-15","7",,,,,,,,,,,,,,,,,,,,,,,,,,,,
"72503014732","2020-04-29T07:00:00","FM-12","4",,,,,,,,,,,,,,,,,,,,,,,,,,,,,,,,,,,,,,,"43","48",,,"-0.04","1","83","30.21","8","30.17","6.84","46","060",,"13",,,,,,,,,,,,,,,,,,,,,,,,,,,,,,,,,,,,,"SYN08672503 12361 80611 10089 20061 30216 40229 51012 69901 91151 333 10189 20078 555 92912=","FM-12","4",,,,,,,,,,,,,,,,,,,,,,,,,,,,
"72503014732","2020-04-29T07:03:00","FM-16","7",,,,,,,,,,,,,,,,,,,,,,,,,,,,,,,,,,,,,,"30.21","43","48",,,,,"83",,"OVC:08 8","30.18","10.00","46","060",,"10",,,,,,,,,,,,,,,,,,,,,,,,,,,,,,,,,,,,,"MET09204/29/20 07:03:02 SPECI KLGA 291203Z 06009KT 10SM OVC008 09/06 A3021 RMK AO2 T00890061 (PAS)","FM-16","7",,,,,,,,,,,,,,,,,,,,,,,,,,,,
"72503014732","2020-04-29T07:51:00","FM-15","7",,,,,,,,,,,,,,,,,,,,,,,,,,,,,,,,,,,,,,"30.23","44","48","T","-RA:02 |RA |RA",,,"86","30.23","BKN:07 9 OVC:08 55","30.20","7.00","46","050",,"13",,,,,,,,,,,,,,,,,,,,,,,,,,,,,,,,,,,,,"MET12104/29/20 07:51:02 METAR KLGA 291251Z 05011KT 7SM -RA BKN009 OVC055 09/07 A3023 RMK AO2 RAB31 SLP236 P0000 T00890067 (PAS)","FM-15","7",,,,,,,,,,,,,,,,,,,,,,,,,,,,
"72503014732","2020-04-29T08:38:00","FM-16","7",,,,,,,,,,,,,,,,,,,,,,,,,,,,,,,,,,,,,,"30.22","44","48","T",,,,"86",,"SCT:04 6 OVC:08 50","30.19","10.00","46","060",,"14",,,,,,,,,,,,,,,,,,,,,,,,,,,,,,,,,,,,,"MET11104/29/20 08:38:02 SPECI KLGA 291338Z 06012KT 10SM SCT006 OVC050 09/07 A3022 RMK AO2 RAE23 P0000 T00890067 (PAS)","FM-16","7",,,,,,,,,,,,,,,,,,,,,,,,,,,,
"72503014732","2020-04-29T08:51:00","FM-15","7",,,,,,,,,,,,,,,,,,,,,,,,,,,,,,,,,,,,,,"30.22","44","48","T",,,,"86","30.22","FEW:02 6 BKN:07 50 OVC:08 70","30.19","10.00","46","050",,"14",,,,,,,,,,,,,,,,,,,,,,,,,,,,,,,,,,,,,"MET12504/29/20 08:51:02 METAR KLGA 291351Z 05012KT 10SM FEW006 BKN050 OVC070 09/07 A3022 RMK AO2 RAE23 SLP234 P0000 T00890067 (PAS)","FM-15","7",,,,,,,,,,,,,,,,,,,,,,,,,,,,
"72503014732","2020-04-29T09:51:00","FM-15","7",,,,,,,,,,,,,,,,,,,,,,,,,,,,,,,,,,,,,,"30.24","45","49","0.00",,"-0.03","1","86","30.23","OVC:08 48","30.21","10.00","47","050",,"9",,,,,,,,,,,,,,,,,,,,,,,,,,,,,,,,,,,,,"MET11104/29/20 09:51:02 METAR KLGA 291451Z 05008KT 10SM OVC048 09/07 A3024 RMK AO2 SLP238 60000 T00940072 51009 (PAS)","FM-15","7",,,,,,,,,,,,,,,,,,,,,,,,,,,,
"72503014732","2020-04-29T10:00:00","FM-12","4",,,,,,,,,,,,,,,,,,,,,,,,,,,,,,,,,,,,,,,"45","49",,,"-0.03","1","86","30.23","41","30.20","9.94","47","050",,"9",,,,,,,,,,,,,,,,,,,,,,,,,,,,,,,,,,,,,"SYN07072503 12666 80508 10094 20072 30227 40238 51009 69907 91451 555 92915=","FM-12","4",,,,,,,,,,,,,,,,,,,,,,,,,,,,
"72503014732","2020-04-29T10:51:00","FM-15","7",,,,,,,,,,,,,,,,,,,,,,,,,,,,,,,,,,,,,,"30.25","44","50","0.00",,,,"80","30.24","OVC:08 49","30.22","10.00","47","050",,"13",,,,,,,,,,,,,,,,,,,,,,,,,,,,,,,,,,,,,"MET09904/29/20 10:51:02 METAR KLGA 291551Z 05011KT 10SM OVC049 10/07 A3025 RMK AO2 SLP242 T01000067 (PAS)","FM-15","7",,,,,,,,,,,,,,,,,,,,,,,,,,,,
"72503014732","2020-04-29T11:51:00","FM-15","7",,,,,,,,,,,,,,,,,,,,,,,,,,,,,,,,,,,,,,"30.24","45","52","0.00",,,,"77","30.23","OVC:08 46","30.21","10.00","49","050",,"10",,,,,,,,,,,,,,,,,,,,,,,,,,,,,,,,,,,,,"MET09904/29/20 11:51:02 METAR KLGA 291651Z 05009KT 10SM OVC046 11/07 A3024 RMK AO2 SLP238 T01110072 (PAS)","FM-15","7",,,,,,,,,,,,,,,,,,,,,,,,,,,,
"72503014732","2020-04-29T12:51:00","FM-15","7",,,,,,,,,,,,,,,,,,,,,,,,,,,,,,,,,,,,,,"30.22","45","57","0.00",,"+0.02","8","64","30.22","OVC:08 44","30.19","10.00","51","110","21","15",,,,,,,,,,,,,,,,,,,,,,,,,,,,,,,,,,,,,"MET12604/29/20 12:51:02 METAR KLGA 291751Z 11013G18KT 10SM OVC044 14/07 A3022 RMK AO2 SLP232 60000 T01390072 10139 20089 58006 (PAS)","FM-15","7",,,,,,,,,,,,,,,,,,,,,,,,,,,,
"72503014732","2020-04-29T13:00:00","FM-12","4",,,,,,,,,,,,,,,,,,,,,,,,,,,,,,,,,,,,,,,"45","57",,,"+0.02","8","64","30.22","41","30.18","9.94","51","110",,"15",,,,,,,,,,,,,,,,,,,,,,,,,,,,,,,,,,,,,"SYN09272503 12666 81113 10139 20072 30220 40232 58006 69901 91751 333 10139 20089 91018 555 92918=","FM-12","4",,,,,,,,,,,,,,,,,,,,,,,,,,,,
"72503014732","2020-04-29T13:51:00","FM-15","7",,,,,,,,,,,,,,,,,,,,,,,,,,,,,,,,,,,,,,"30.24","41","56","0.00",,,,"57","30.24","OVC:08 45","30.21","10.00","49","120",,"15",,,,,,,,,,,,,,,,,,,,,,,,,,,,,,,,,,,,,"MET10904/29/20 13:51:02 METAR KLGA 291851Z 12013KT 10SM OVC045 13/05 A3024 RMK AO2 WSHFT 1748 SLP239 T01330050 (WL)","FM-15","7",,,,,,,,,,,,,,,,,,,,,,,,,,,,
"72503014732","2020-04-29T14:51:00","FM-15","7",,,,,,,,,,,,,,,,,,,,,,,,,,,,,,,,,,,,,,"30.23","41","55","0.00",,,,"59","30.23","OVC:08 44","30.20","10.00","48","110",,"18",,,,,,,,,,,,,,,,,,,,,,,,,,,,,,,,,,,,,"MET09804/29/20 14:51:02 METAR KLGA 291951Z 11016KT 10SM OVC044 13/05 A3023 RMK AO2 SLP236 T01280050 (WL)","FM-15","7",,,,,,,,,,,,,,,,,,,,,,,,,,,,
"72503014732","2020-04-29T15:51:00","FM-15","7",,,,,,,,,,,,,,,,,,,,,,,,,,,,,,,,,,,,,,"30.23","40","54","0.00",,"-0.01","1","59","30.23","OVC:08 45","30.20","10.00","47","100",,"16",,,,,,,,,,,,,,,,,,,,,,,,,,,,,,,,,,,,,"MET10404/29/20 15:51:02 METAR KLGA 292051Z 10014KT 10SM OVC045 12/04 A3023 RMK AO2 SLP236 T01220044 51004 (WL)","FM-15","7",,,,,,,,,,,,,,,,,,,,,,,,,,,,
"72503014732","2020-04-29T16:00:00","FM-12","4",,,,,,,,,,,,,,,,,,,,,,,,,,,,,,,,,,,,,,,"40","54",,,"-0.01","1","59","30.23","41","30.19","9.94","47","100",,"16",,,,,,,,,,,,,,,,,,,,,,,,,,,,,,,,,,,,,"SYN06472503 32666 81014 10122 20044 30223 40236 51004 92051 555 92921=","FM-12","4",,,,,,,,,,,,,,,,,,,,,,,,,,,,
"72503014732","2020-04-29T16:51:00","FM-15","7",,,,,,,,,,,,,,,,,,,,,,,,,,,,,,,,,,,,,,"30.23","41","54","0.00",,,,"62","30.22","OVC:08 40","30.20","10.00","48","090",,"14",,,,,,,,,,,,,,,,,,,,,,,,,,,,,,,,,,,,,"MET09804/29/20 16:51:02 METAR KLGA 292151Z 09012KT 10SM OVC040 12/05 A3023 RMK AO2 SLP235 T01220050 (WL)","FM-15","7",,,,,,,,,,,,,,,,,,,,,,,,,,,,
"72503014732","2020-04-29T17:51:00","FM-15","7",,,,,,,,,,,,,,,,,,,,,,,,,,,,,,,,,,,,,,"30.23","43","52","0.01","-RA:02 |RA |RA",,,"72","30.22","OVC:08 35","30.20","10.00","48","110",,"16",,,,,,,,,,,,,,,,,,,,,,,,,,,,,,,,,,,,,"MET11404/29/20 17:51:02 METAR KLGA 292251Z 11014KT 10SM -RA OVC035 11/06 A3023 RMK AO2 RAB44 SLP235 P0001 T01110061 (WL)","FM-15","7",,,,,,,,,,,,,,,,,,,,,,,,,,,,
"72503014732","2020-04-29T18:51:00","FM-15","7",,,,,,,,,,,,,,,,,,,,,,,,,,,,,,,,,,,,,,"30.23","43","51","T",,"+0.01","6","74","30.22","OVC:08 32","30.20","10.00","47","100","21","14",,,,,,,,,,,,,,,,,,,,,,,,,,,,,,,,,,,,,"MET13704/29/20 18:51:02 METAR KLGA 292351Z 10012G18KT 10SM OVC032 11/06 A3023 RMK AO2 RAE19 SLP235 P0000 60001 T01060061 10139 20106 56002 (WL)","FM-15","7",,,,,,,,,,,,,,,,,,,,,,,,,,,,
"72503014732","2020-04-29T19:00:00","FM-12","4",,,,,,,,,,,,,,,,,,,,,,,,,,,,,,,,,,,,,,,"43","51",,,"+0.01","6","74","30.22","26","30.19","9.94","47","100",,"14",,,,,,,,,,,,,,,,,,,,,,,,,,,,,,,,,,,,,"SYN09272503 12566 81012 10106 20061 30223 40235 56002 69931 92351 333 10139 20078 91018 555 93000=","FM-12","4",,,,,,,,,,,,,,,,,,,,,,,,,,,,
"72503014732","2020-04-29T19:51:00","FM-15","7",,,,,,,,,,,,,,,,,,,,,,,,,,,,,,,,,,,,,,"30.23","41","51","0.00",,,,"69","30.22","OVC:08 31","30.20","10.00","46","100","23","15",,,,,,,,,,,,,,,,,,,,,,,,,,,,,,,,,,,,,"MET10104/29/20 19:51:03 METAR KLGA 300051Z 10013G20KT 10SM OVC031 11/05 A3023 RMK AO2 SLP235 T01060050 (WL)","FM-15","7",,,,,,,,,,,,,,,,,,,,,,,,,,,,
"72503014732","2020-04-29T20:51:00","FM-15","7",,,,,,,,,,,,,,,,,,,,,,,,,,,,,,,,,,,,,,"30.22","41","51","0.00",,,,"69","30.22","OVC:08 31","30.19","10.00","46","100",,"18",,,,,,,,,,,,,,,,,,,,,,,,,,,,,,,,,,,,,"MET09804/29/20 20:51:03 METAR KLGA 300151Z 10016KT 10SM OVC031 11/05 A3022 RMK AO2 SLP232 T01060050 (WL)","FM-15","7",,,,,,,,,,,,,,,,,,,,,,,,,,,,
"72503014732","2020-04-29T21:30:00","FM-16","7",,,,,,,,,,,,,,,,,,,,,,,,,,,,,,,,,,,,,,"30.21","41","51","T","-RA:02 |RA |RA",,,"69",,"OVC:08 28","30.18","10.00","46","120","28","18",,,,,,,,,,,,,,,,,,,,,,,,,,,,,,,,,,,,,"MET11004/29/20 21:30:03 SPECI KLGA 300230Z 12016G24KT 10SM -RA OVC028 11/05 A3021 RMK AO2 RAB00 P0000 T01060050 (WL)","FM-16","7",,,,,,,,,,,,,,,,,,,,,,,,,,,,
"72503014732","2020-04-29T21:51:00","FM-15","7",,,,,,,,,,,,,,,,,,,,,,,,,,,,,,,,,,,,,,"30.22","42","51","T","-RA:02 |RA |RA","+0.01","8","71","30.21","OVC:08 29","30.19","10.00","47","100",,"11",,,,,,,,,,,,,,,,,,,,,,,,,,,,,,,,,,,,,"MET12604/29/20 21:51:03 METAR KLGA 300251Z 10010KT 10SM -RA OVC029 11/06 A3022 RMK AO2 RAB00 SLP231 P0000 60000 T01060056 58003 (WL)","FM-15","7",,,,,,,,,,,,,,,,,,,,,,,,,,,,
"72503014732","2020-04-29T22:00:00","FM-12","4",,,,,,,,,,,,,,,,,,,,,,,,,,,,,,,,,,,,,,,"42","51",,"||RA","+0.01","8","71","30.21","26","30.18","9.94","47","100",,"11",,,,,,,,,,,,,,,,,,,,,,,,,,,,,,,,,,,,,"SYN07672503 11566 81010 10106 20056 30220 40231 58003 69907 761// 90251 555 93003=","FM-12","4",,,,,,,,,,,,,,,,,,,,,,,,,,,,
"72503014732","2020-04-29T22:51:00","FM-15","7",,,,,,,,,,,,,,,,,,,,,,,,,,,,,,,,,,,,,,"30.20","41","52","0.00",,,,"66","30.20","OVC:08 28","30.17","10.00","47","120",,"13",,,,,,,,,,,,,,,,,,,,,,,,,,,,,,,,,,,,,"MET11204/29/20 22:51:03 METAR KLGA 300351Z 12011KT 10SM OVC028 11/05 A3020 RMK AO2 RAE0252 SLP228 P0000 T01110050 (RZ)","FM-15","7",,,,,,,,,,,,,,,,,,,,,,,,,,,,
"72503014732","2020-04-29T23:51:00","FM-15","7",,,,,,,,,,,,,,,,,,,,,,,,,,,,,,,,,,,,,,"30.19","42","52","T",,,,"69","30.19","OVC:08 25","30.16","10.00","47","110",,"16",,,,,,,,,,,,,,,,,,,,,,,,,,,,,,,,,,,,,"MET12304/29/20 23:51:03 METAR KLGA 300451Z 11014KT 10SM OVC025 11/06 A3019 RMK AO2 RAB33E43 SLP223 P0000 T01110056 401390078 (RZ)","FM-15","7",,,,,,,,,,,,,,,,,,,,,,,,,,,,
"72503014732","2020-04-29T23:59:00","SOD  ","6",,,,,,,,,,,,,,,,"52",,,"30.16",,"12.5","0","-5.3","13","57","46","120","28","0.01","0","0.0","100","22","RA",,,,,,,,,,,,,,,,,,,,,,,,,,,,,,,,,,,,,,,,,,,,,,,,,,,,,,,,"SOD73624 HR PRECIPITATION (IN): 0.01 SNOW DEPTH (IN):0     24 HR SNOWFALL (IN):0.0  24 HR MAX TEMP (F): 5724 HR MIN TEMP (F): 46AVERAGE STATION PRESSURE:30.160 MINIMUM SEA LEVEL PRESSURE:30.13 TIME OF OCCURRENCE:0208 PEAK WIND SPEED (MPH): 28 PEAK WIND DIR (DEG):120 PEAK WIND TIME (LST):      FASTEST 2MIN SPEED (MPH): 22FASTEST 2MIN DIR (DEG):100 FASTEST 2MIN TIME (LST):     AVERAGE WIND SPEED (MPH):12.5 24 HR AVG TEMP (F): 52DEPART FROM NORMAL: -5  HEATING DEGREE DAYS: 13 COOLING DEGREE DAYS:  0 LATEST DAY MAX TEMP (0700-1900 LST):57  LATEST NIGHT MIN TEMP(1900-0800 LST):46 HOURLY INCREMENTAL PRECIPITATION VALUES (IN):.00 0.00 0.00 0.00 0.00 0.00 T    T    T    0.00 0.00 0.00 0.00 0.00 0.00 0.00 0.00 0.01 T    0.00 0.00 T    0.00 T","SOD  ","6",,,,,,,,,,,,,,,,,,,,,,,,,"0456","1851",,
"72503014732","2020-04-30T00:51:00","FM-15","7",,,,,,,,,,,,,,,,,,,,,,,,,,,,,,,,,,,,,,"30.17","44","51","T","-RA:02 |RA |RA","+0.04","8","77","30.17","OVC:08 21","30.14","10.00","48","120",,"13",,,,,,,,,,,,,,,,,,,,,,,,,,,,,,,,,,,,,"MET14604/30/20 00:51:02 METAR KLGA 300551Z 12011KT 10SM -RA OVC021 11/07 A3017 RMK AO2 RAB0458E15B38 SLP216 P0000 60000 T01060067 10111 20106 58015 (RZ)","FM-15","7",,,,,,,,,,,,,,,,,,,,,,,,,,,,
"72503014732","2020-04-30T01:00:00","FM-12","4",,,,,,,,,,,,,,,,,,,,,,,,,,,,,,,,,,,,,,,"44","51",,"||RA","+0.04","8","77","30.17","26","30.13","9.94","48","120",,"13",,,,,,,,,,,,,,,,,,,,,,,,,,,,,,,,,,,,,"SYN09272503 11566 81211 10106 20067 30203 40216 58015 69901 761// 90551 333 10111 20078 555 93006=","FM-12","4",,,,,,,,,,,,,,,,,,,,,,,,,,,,
"72503014732","2020-04-30T01:51:00","FM-15","7",,,,,,,,,,,,,,,,,,,,,,,,,,,,,,,,,,,,,,"30.15","45","51","0.02",,,,"80","30.15","OVC:08 16","30.12","10.00","48","090",,"10",,,,,,,,,,,,,,,,,,,,,,,,,,,,,,,,,,,,,"MET11004/30/20 01:51:02 METAR KLGA 300651Z 09009KT 10SM OVC016 11/07 A3015 RMK AO2 RAE38 SLP210 P0002 T01060072 (RZ)","FM-15","7",,,,,,,,,,,,,,,,,,,,,,,,,,,,
"72503014732","2020-04-30T02:12:00","FM-16","7",,,,,,,,,,,,,,,,,,,,,,,,,,,,,,,,,,,,,,"30.15","45","50",,,,,"83",,"OVC:08 12","30.12","10.00","48","100",,"11",,,,,,,,,,,,,,,,,,,,,,,,,,,,,,,,,,,,,"MET09104/30/20 02:12:02 SPECI KLGA 300712Z 10010KT 10SM OVC012 10/07 A3015 RMK AO2 T01000072 (RZ)","FM-16","7",,,,,,,,,,,,,,,,,,,,,,,,,,,,
"72503014732","2020-04-30T02:51:00","FM-15","7",,,,,,,,,,,,,,,,,,,,,,,,,,,,,,,,,,,,,,"30.14","45","50","0.01","-RA:02 |RA |RA",,,"83","30.14","OVC:08 12","30.11","9.00","48","100",,"11",,,,,,,,,,,,,,,,,,,,,,,,,,,,,,,,,,,,,"MET11304/30/20 02:51:02 METAR KLGA 300751Z 10010KT 9SM -RA OVC012 10/07 A3014 RMK AO2 RAB17 SLP205 P0000 T01000072 (RZ)","FM-15","7",,,,,,,,,,,,,,,,,,,,,,,,,,,,
"72503014732","2020-04-30T03:35:00","FM-16","7",,,,,,,,,,,,,,,,,,,,,,,,,,,,,,,,,,,,,,"30.14","46","50","0.06","-RA:02 |RA |RA",,,"86",,"OVC:08 9","30.11","7.00","48","070",,"9",,,,,,,,,,,,,,,,,,,,,,,,,,,,,,,,,,,,,"MET10004/30/20 03:35:02 SPECI KLGA 300835Z 07008KT 7SM -RA OVC009 10/08 A3014 RMK AO2 P0006 T01000078 (RZ)","FM-16","7",,,,,,,,,,,,,,,,,,,,,,,,,,,,
"72503014732","2020-04-30T03:51:00","FM-15","7",,,,,,,,,,,,,,,,,,,,,,,,,,,,,,,,,,,,,,"30.13","46","50","0.09","RA:02 BR:1 |RA |RA","+0.04","6","86","30.13","OVC:08 8","30.10","6.00","48","080",,"8",,,,,,,,,,,,,,,,,,,,,,,,,,,,,,,,,,,,,"MET12104/30/20 03:51:02 METAR KLGA 300851Z 08007KT 6SM RA BR OVC008 10/08 A3013 RMK AO2 SLP202 P0009 60011 T01000078 56014 (RZ)","FM-15","7",,,,,,,,,,,,,,,,,,,,,,,,,,,,
"72503014732","2020-04-30T04:00:00","FM-12","4",,,,,,,,,,,,,,,,,,,,,,,,,,,,,,,,,,,,,,,"46","50",,"||RA","+0.04","6","86","30.13","8","30.09","5.59","48","080",,"8",,,,,,,,,,,,,,,,,,,,,,,,,,,,,,,,,,,,,"SYN08672503 11359 80807 10100 20078 30189 40202 56014 60037 763// 90851 333 96010 555 93009=","FM-12","4",,,,,,,,,,,,,,,,,,,,,,,,,,,,
"72503014732","2020-04-30T04:42:00","FM-16","7",,,,,,,,,,,,,,,,,,,,,,,,,,,,,,,,,,,,,,"30.11","46","49","0.08","-RA:02 BR:1 |RA |RA",,,"90",,"OVC:08 7","30.08","6.00","48","060",,"16",,,,,,,,,,,,,,,,,,,,,,,,,,,,,,,,,,,,,"MET10304/30/20 04:42:02 SPECI KLGA 300942Z 06014KT 6SM -RA BR OVC007 09/08 A3011 RMK AO2 P0008 T00940078 (RZ)","FM-16","7",,,,,,,,,,,,,,,,,,,,,,,,,,,,
"72503014732","2020-04-30T04:51:00","FM-15","7",,,,,,,,,,,,,,,,,,,,,,,,,,,,,,,,,,,,,,"30.12","46","49","0.09","RA:02 BR:1 |RA |RA",,,"90","30.12","OVC:08 7","30.09","6.00","48","050",,"11",,,,,,,,,,,,,,,,,,,,,,,,,,,,,,,,,,,,,"MET10904/30/20 04:51:02 METAR KLGA 300951Z 05010KT 6SM RA BR OVC007 09/08 A3012 RMK AO2 SLP201 P0010 T00940078 (RZ)","FM-15","7",,,,,,,,,,,,,,,,,,,,,,,,,,,,
"72503014732","2020-04-30T05:11:00","FM-16","7",,,,,,,,,,,,,,,,,,,,,,,,,,,,,,,,,,,,,,"30.12","46","49","0.01","-RA:02 BR:1 |RA |RA",,,"90",,"OVC:08 6","30.09","6.00","48","050",,"14",,,,,,,,,,,,,,,,,,,,,,,,,,,,,,,,,,,,,"MET10404/30/20 05:11:02 SPECI KLGA 301011Z 05012KT 6SM -RA BR OVC006 09/08 A3012 RMK AO2 P0001 T00940078 (PAS)","FM-16","7",,,,,,,,,,,,,,,,,,,,,,,,,,,,
"72503014732","2020-04-30T05:51:00","FM-15","7",,,,,,,,,,,,,,,,,,,,,,,,,,,,,,,,,,,,,,"30.11","47","50","0.01","BR:1 ||",,,"89","30.11","OVC:08 6","30.08","6.00","49","050",,"14",,,,,,,,,,,,,,,,,,,,,,,,,,,,,,,,,,,,,"MET11304/30/20 05:51:02 METAR KLGA 301051Z 05012KT 6SM BR OVC006 10/08 A3011 RMK AO2 RAE12 SLP195 P0001 T01000083 (PAS)","FM-15","7",,,,,,,,,,,,,,,,,,,,,,,,,,,,
"72503014732","2020-04-30T05:59:00","FM-16","7",,,,,,,,,,,,,,,,,,,,,,,,,,,,,,,,,,,,,,"30.11","47","50",,"BR:1 ||",,,"89",,"OVC:08 5","30.08","4.00","49","050",,"13",,,,,,,,,,,,,,,,,,,,,,,,,,,,,,,,,,,,,"MET09404/30/20 05:59:02 SPECI KLGA 301059Z 05011KT 4SM BR OVC005 10/08 A3011 RMK AO2 T01000083 (PAS)","FM-16","7",,,,,,,,,,,,,,,,,,,,,,,,,,,,
"72503014732","2020-04-30T06:28:00","FM-16","7",,,,,,,,,,,,,,,,,,,,,,,,,,,,,,,,,,,,,,"30.10","48","51","T","BR:1 ||",,,"89",,"OVC:08 4","30.07","4.00","49","090",,"9",,,,,,,,,,,,,,,,,,,,,,,,,,,,,,,,,,,,,"MET10904/30/20 06:28:02 SPECI KLGA 301128Z 09008KT 4SM BR OVC004 11/09 A3010 RMK AO2 RAB00E10 P0000 T01060089 (PAS)","FM-16","7",,,,,,,,,,,,,,,,,,,,,,,,,,,,
"72503014732","2020-04-30T06:51:00","FM-15","7",,,,,,,,,,,,,,,,,,,,,,,,,,,,,,,,,,,,,,"30.09","50","53","0.01","-RA:02 BR:1 |RA |RA","+0.04","8","89","30.09","OVC:08 4","30.06","5.00","51","100",,"8",,,,,,,,,,,,,,,,,,,,,,,,,,,,,,,,,,,,,"MET15304/30/20 06:51:02 METAR KLGA 301151Z 10007KT 5SM -RA BR OVC004 12/10 A3009 RMK AO2 RAB00E10B51 SLP189 P0000 60022 70023 T01170100 10117 20094 58014 (PAS)","FM-15","7",,,,,,,,,,,,,,,,,,,,,,,,,,,,
"72503014732","2020-04-30T07:00:00","FM-16","7",,,,,,,,,,,,,,,,,,,,,,,,,,,,,,,,,,,,,,"30.09","50","53",,"-RA:02 BR:1 |RA |RA","+0.04","8","89","30.09","OVC:08 5","30.06","5.00","51","120",,"10",,,,,,,,,,,,,,,,,,,,,,,,,,,,,,,,,,,,,"SYN10472503 11258 81007 10117 20100 30176 40189 58014 60061 761// 91151 333 10139 20094 70058 96010 555 93012=MET10404/30/20 07:00:02 SPECI KLGA 301200Z 12009KT 5SM -RA BR OVC005 12/10 A3009 RMK AO2 P0001 T01170100 (PAS)","FM-16","7",,,,,,,,,,,,,,,,,,,,,,,,,,,,
"72503014732","2020-04-30T07:17:00","FM-16","7",,,,,,,,,,,,,,,,,,,,,,,,,,,,,,,,,,,,,,"30.08","50","53","0.05","+RA:02 BR:1 |RA |RA",,,"89",,"OVC:08 6","30.05","2.00","51","120",,"15",,,,,,,,,,,,,,,,,,,,,,,,,,,,,,,,,,,,,"MET10404/30/20 07:17:02 SPECI KLGA 301217Z 12013KT 2SM +RA BR OVC006 12/10 A3008 RMK AO2 P0005 T01170100 (PAS)","FM-16","7",,,,,,,,,,,,,,,,,,,,,,,,,,,,
"72503014732","2020-04-30T07:49:00","FM-16","6",,,,,,,,,,,,,,,,,,,,,,,,,,,,,,,,,,,,,,"30.07","52","54",,"+RA:02 BR:1 |RA |RA",,,"94",,"OVC:08 7","30.04","2.00","53","130","24","15",,,,,,,,,,,,,,,,,,,,,,,,,,,,,,,,,,,,,"MET10204/30/20 07:49:02 SPECI KLGA 301249Z 13013G21KT 2SM +RA BR OVC007 12/11 A3007 RMK AO2 P0023 FIBI (PAS)","FM-16","6",,,,,,,,,,,,,,,,,,,,,,,,,,,,
"72503014732","2020-04-30T07:51:00","FM-15","7",,,,,,,,,,,,,,,,,,,,,,,,,,,,,,,,,,,,,,"30.07","51","54","0.26","+RA:02 BR:1 |RA |RA",,,"90","30.07","OVC:08 7","30.04","2.00","52","140","24","18",,,,,,,,,,,,,,,,,,,,,,,,,,,,,,,,,,,,,"MET11404/30/20 07:51:02 METAR KLGA 301251Z 14016G21KT 2SM +RA BR OVC007 12/11 A3007 RMK AO2 SLP182 P0025 T01220106 (PAS)","FM-15","7",,,,,,,,,,,,,,,,,,,,,,,,,,,,
"72503014732","2020-04-30T08:06:00","FM-16","7",,,,,,,,,,,,,,,,,,,,,,,,,,,,,,,,,,,,,,"30.06","52","55","0.02","-RA:02 BR:1 |RA |RA",,,"90",,"OVC:08 7","30.03","5.00","53","140","24","15",,,,,,,,,,,,,,,,,,,,,,,,,,,,,,,,,,,,,"MET10704/30/20 08:06:02 SPECI KLGA 301306Z 14013G21KT 5SM -RA BR OVC007 13/11 A3006 RMK AO2 P0002 T01280111 (PAS)","FM-16","7",,,,,,,,,,,,,,,,,,,,,,,,,,,,
"72503014732","2020-04-30T08:18:00","FM-16","7",,,,,,,,,,,,,,,,,,,,,,,,,,,,,,,,,,,,,,"30.06","52","55","0.05","+RA:02 BR:1 |RA |RA",,,"90",,"OVC:08 6","30.03","3.00","53","140","25","17",,,,,,,,,,,,,,,,,,,,,,,,,,,,,,,,,,,,,"MET10704/30/20 08:18:02 SPECI KLGA 301318Z 14015G22KT 3SM +RA BR OVC006 13/11 A3006 RMK AO2 P0005 T01280111 (PAS)","FM-16","7",,,,,,,,,,,,,,,,,,,,,,,,,,,,
"72503014732","2020-04-30T08:49:00","FM-16","6",,,,,,,,,,,,,,,,,,,,,,,,,,,,,,,,,,,,,,"30.05","54","57",,"-RA:02 BR:1 |RA |RA",,,"88",,"OVC:08 7","30.02","6.00","55","140","28","20",,,,,,,,,,,,,,,,,,,,,,,,,,,,,,,,,,,,,"MET10204/30/20 08:49:02 SPECI KLGA 301349Z 14017G24KT 6SM -RA BR OVC007 14/12 A3005 RMK AO2 P0007 FIBI (PAS)","FM-16","6",,,,,,,,,,,,,,,,,,,,,,,,,,,,
"72503014732","2020-04-30T08:51:00","FM-15","7",,,,,,,,,,,,,,,,,,,,,,,,,,,,,,,,,,,,,,"30.05","53","57","0.05","-RA:02 |RA |RA",,,"87","30.05","OVC:08 7","30.02","7.00","55","160","28","20",,,,,,,,,,,,,,,,,,,,,,,,,,,,,,,,,,,,,"MET11104/30/20 08:51:02 METAR KLGA 301351Z 16017G24KT 7SM -RA OVC007 14/12 A3005 RMK AO2 SLP176 P0007 T01390117 (PAS)","FM-15","7",,,,,,,,,,,,,,,,,,,,,,,,,,,,
"72503014732","2020-04-30T09:23:00","FM-16","7",,,,,,,,,,,,,,,,,,,,,,,,,,,,,,,,,,,,,,"30.04","54","58","T",,,,"87",,"BKN:07 9 BKN:07 13 OVC:08 45","30.01","8.00","56","140","29","18",,,,,,,,,,,,,,,,,,,,,,,,,,,,,,,,,,,,,"MET13804/30/20 09:23:02 SPECI KLGA 301423Z 14016G25KT 8SM BKN009 BKN013 OVC045 14/12 A3004 RMK AO2 PK WND 14029/1356 RAE09 P0000 T01440122 (PAS)","FM-16","7",,,,,,,,,,,,,,,,,,,,,,,,,,,,
"72503014732","2020-04-30T09:51:00","FM-15","7",,,,,,,,,,,,,,,,,,,,,,,,,,,,,,,,,,,,,,"30.04","54","58","T","-RA:02 |RA |RA","+0.03","6","87","30.04","BKN:07 9 BKN:07 13 OVC:08 60","30.01","7.00","56","150","31","20",,,,,,,,,,,,,,,,,,,,,,,,,,,,,,,,,,,,,"MET16404/30/20 09:51:02 METAR KLGA 301451Z 15017G27KT 7SM -RA BKN009 BKN013 OVC060 14/12 A3004 RMK AO2 PK WND 14031/1425 RAE09B43 SLP172 P0000 60032 T01440122 56010 (PAS)","FM-15","7",,,,,,,,,,,,,,,,,,,,,,,,,,,,
"72503014732","2020-04-30T10:00:00","FM-12","4",,,,,,,,,,,,,,,,,,,,,,,,,,,,,,,,,,,,,,,"54","58",,"||RA","+0.03","6","87","30.04","8","30.00","6.84","56","150",,"20",,,,,,,,,,,,,,,,,,,,,,,,,,,,,,,,,,,,,"SYN08672503 11361 81517 10144 20122 30159 40172 56010 60087 761// 91451 333 91027 555 93015=","FM-12","4",,,,,,,,,,,,,,,,,,,,,,,,,,,,
"72503014732","2020-04-30T10:51:00","FM-15","7",,,,,,,,,,,,,,,,,,,,,,,,,,,,,,,,,,,,,,"30.03","54","58","0.06","-RA:02 |RA |RA",,,"87","30.03","BKN:07 9 BKN:07 29 OVC:08 45","30.00","7.00","56","140","32","22",,,,,,,,,,,,,,,,,,,,,,,,,,,,,,,,,,,,,"MET14304/30/20 10:51:02 METAR KLGA 301551Z 14019G28KT 7SM -RA BKN009 BKN029 OVC045 14/12 A3003 RMK AO2 PK WND 16030/1456 SLP168 P0006 T01440122 (PAS)","FM-15","7",,,,,,,,,,,,,,,,,,,,,,,,,,,,
"72503014732","2020-04-30T11:38:00","FM-16","7",,,,,,,,,,,,,,,,,,,,,,,,,,,,,,,,,,,,,,"30.01","54","60","T",,,,"80",,"SCT:04 14 SCT:04 32 OVC:08 65","29.98","10.00","57","150","36","22",,,,,,,,,,,,,,,,,,,,,,,,,,,,,,,,,,,,,"MET14104/30/20 11:38:02 SPECI KLGA 301638Z 15019G31KT 10SM SCT014 SCT032 OVC065 16/12 A3001 RMK AO2 PK WND 14034/1605 RAE1556 P0000 T01560122 (PAS)","FM-16","7",,,,,,,,,,,,,,,,,,,,,,,,,,,,
"72503014732","2020-04-30T11:51:00","FM-15","7",,,,,,,,,,,,,,,,,,,,,,,,,,,,,,,,,,,,,,"30.00","55","60","T","-RA:02 |RA |RA",,,"84","30.00","FEW:02 14 SCT:04 34 OVC:08 60","29.97","10.00","57","140","36","25",,,,,,,,,,,,,,,,,,,,,,,,,,,,,,,,,,,,,"MET15504/30/20 11:51:02 METAR KLGA 301651Z 14022G31KT 10SM -RA FEW014 SCT034 OVC060 16/13 A3000 RMK AO2 PK WND 14034/1605 RAE1556B42 SLP159 P0000 T01560128 (PAS)","FM-15","7",,,,,,,,,,,,,,,,,,,,,,,,,,,,
"72503014732","2020-04-30T12:51:00","FM-15","7",,,,,,,,,,,,,,,,,,,,,,,,,,,,,,,,,,,,,,"29.98","54","61","0.00",,"+0.06","8","78","29.98","FEW:02 15 BKN:07 70 OVC:08 80","29.95","10.00","57","150","39","22",,,,,,,,,,,,,,,,,,,,,,,,,,,,,,,,,,,,,"MET17204/30/20 12:51:02 METAR KLGA 301751Z 15019G34KT 10SM FEW015 BKN070 OVC080 16/12 A2998 RMK AO2 PK WND 14038/1730 RAE1653 SLP152 P0000 60038 T01610122 10167 20117 58020 (PAS)","FM-15","7",,,,,,,,,,,,,,,,,,,,,,,,,,,,
"72503014732","2020-04-30T13:00:00","FM-12","4",,,,,,,,,,,,,,,,,,,,,,,,,,,,,,,,,,,,,,,"54","61",,,"+0.06","8","78","29.98","15","29.94","9.94","57","150",,"22",,,,,,,,,,,,,,,,,,,,,,,,,,,,,,,,,,,,,"SYN09272503 12466 81519 10161 20122 30139 40152 58020 60101 91751 333 10167 20106 91034 555 93018=","FM-12","4",,,,,,,,,,,,,,,,,,,,,,,,,,,,
"72503014732","2020-04-30T13:51:00","FM-15","7",,,,,,,,,,,,,,,,,,,,,,,,,,,,,,,,,,,,,,"29.95","53","61","0.00",,,,"75","29.95","FEW:02 13 FEW:02 50 OVC:08 60","29.92","10.00","57","150","38","29",,,,,,,,,,,,,,,,,,,,,,,,,,,,,,,,,,,,,"MET13404/30/20 13:51:02 METAR KLGA 301851Z 15025G33KT 10SM FEW013 FEW050 OVC060 16/12 A2995 RMK AO2 PK WND 17034/1836 SLP143 T01610117 (PAS)","FM-15","7",,,,,,,,,,,,,,,,,,,,,,,,,,,,
"72503014732","2020-04-30T14:51:00","FM-15","7",,,,,,,,,,,,,,,,,,,,,,,,,,,,,,,,,,,,,,"29.93","53","62","0.00",,,,"73","29.93","FEW:02 13 FEW:02 45 OVC:08 65","29.90","10.00","57","140","38","23",,,,,,,,,,,,,,,,,,,,,,,,,,,,,,,,,,,,,"MET13304/30/20 14:51:02 METAR KLGA 301951Z 14020G33KT 10SM FEW013 FEW045 OVC065 17/12 A2993 RMK AO2 PK WND 15045/1937 SLP134 T01670117 (DM)","FM-15","7",,,,,,,,,,,,,,,,,,,,,,,,,,,,
"72503014732","2020-04-30T15:51:00","FM-15","7",,,,,,,,,,,,,,,,,,,,,,,,,,,,,,,,,,,,,,"29.91","52","61","0.00",,"+0.07","6","72","29.91","SCT:04 14 SCT:04 40 OVC:08 70","29.88","10.00","56","140","37","25",,,,,,,,,,,,,,,,,,,,,,,,,,,,,,,,,,,,,"MET13904/30/20 15:51:02 METAR KLGA 302051Z 14022G32KT 10SM SCT014 SCT040 OVC070 16/11 A2991 RMK AO2 PK WND 13039/1957 SLP127 T01610111 56025 (DM)","FM-15","7",,,,,,,,,,,,,,,,,,,,,,,,,,,,
"72503014732","2020-04-30T16:00:00","FM-12","4",,,,,,,,,,,,,,,,,,,,,,,,,,,,,,,,,,,,,,,"52","61",,,"+0.07","6","72","29.91","15","29.87","9.94","56","140",,"25",,,,,,,,,,,,,,,,,,,,,,,,,,,,,,,,,,,,,"SYN07472503 32466 81422 10161 20111 30115 40127 56025 92051 333 91032 555 93021=","FM-12","4",,,,,,,,,,,,,,,,,,,,,,,,,,,,
"72503014732","2020-04-30T16:51:00","FM-15","7",,,,,,,,,,,,,,,,,,,,,,,,,,,,,,,,,,,,,,"29.90","52","59","0.00",,,,"78","29.89","SCT:04 14 SCT:04 50 OVC:08 70","29.87","10.00","55","140","37","24",,,,,,,,,,,,,,,,,,,,,,,,,,,,,,,,,,,,,"MET13304/30/20 16:51:02 METAR KLGA 302151Z 14021G32KT 10SM SCT014 SCT050 OVC070 15/11 A2990 RMK AO2 PK WND 14036/2119 SLP123 T01500111 (DM)","FM-15","7",,,,,,,,,,,,,,,,,,,,,,,,,,,,
"72503014732","2020-04-30T17:51:00","FM-15","7",,,,,,,,,,,,,,,,,,,,,,,,,,,,,,,,,,,,,,"29.86","52","59","0.00",,,,"78","29.86","SCT:04 14 SCT:04 50 OVC:08 65","29.83","10.00","55","140","37","20",,,,,,,,,,,,,,,,,,,,,,,,,,,,,,,,,,,,,"MET13304/30/20 17:51:02 METAR KLGA 302251Z 14017G32KT 10SM SCT014 SCT050 OVC065 15/11 A2986 RMK AO2 PK WND 12034/2204 SLP112 T01500111 (DM)","FM-15","7",,,,,,,,,,,,,,,,,,,,,,,,,,,,
"72503014732","2020-04-30T18:51:00","FM-15","7",,,,,,,,,,,,,,,,,,,,,,,,,,,,,,,,,,,,,,"29.84","53","60","0.00",,"+0.07","8","78","29.83","SCT:04 12 SCT:04 45 OVC:08 70","29.81","10.00","56","130","39","28",,,,,,,,,,,,,,,,,,,,,,,,,,,,,,,,,,,,,"MET15104/30/20 18:51:02 METAR KLGA 302351Z 13024G34KT 10SM SCT012 SCT045 OVC070 16/12 A2984 RMK AO2 PK WND 14037/2320 SLP103 T01560117 10172 20150 58024 (DM)","FM-15","7",,,,,,,,,,,,,,,,,,,,,,,,,,,,
"72503014732","2020-04-30T19:00:00","FM-12","4",,,,,,,,,,,,,,,,,,,,,,,,,,,,,,,,,,,,,,,"53","60",,,"+0.07","8","78","29.83","15","29.80","9.94","56","130",,"28",,,,,,,,,,,,,,,,,,,,,,,,,,,,,,,,,,,,,"SYN08672503 32466 81324 10156 20117 30091 40103 58024 92351 333 10172 20117 91034 555 90100=","FM-12","4",,,,,,,,,,,,,,,,,,,,,,,,,,,,
"72503014732","2020-04-30T19:51:00","FM-15","7",,,,,,,,,,,,,,,,,,,,,,,,,,,,,,,,,,,,,,"29.81","53","59","0.04","RA:02 |RA |RA",,,"81","29.80","SCT:04 12 BKN:07 34 OVC:08 50","29.78","5.00","56","130","39","26",,,,,,,,,,,,,,,,,,,,,,,,,,,,,,,,,,,,,"MET14704/30/20 19:51:03 METAR KLGA 010051Z 13023G34KT 5SM RA SCT012 BKN034 OVC050 15/12 A2981 RMK AO2 PK WND 14038/0030 RAB10 SLP093 P0004 T01500117 (DM)","FM-15","7",,,,,,,,,,,,,,,,,,,,,,,,,,,,
"72503014732","2020-04-30T20:34:00","FM-16","7",,,,,,,,,,,,,,,,,,,,,,,,,,,,,,,,,,,,,,"29.80","53","58","0.08","+RA:02 |RA |RA",,,"84",,"SCT:04 12 BKN:07 27 OVC:08 50","29.77","2.00","55","140","40","23",,,,,,,,,,,,,,,,,,,,,,,,,,,,,,,,,,,,,"MET13504/30/20 20:34:03 SPECI KLGA 010134Z 14020G35KT 2SM +RA SCT012 BKN027 OVC050 14/12 A2980 RMK AO2 PK WND 14035/0128 P0008 T01440117 (DM)","FM-16","7",,,,,,,,,,,,,,,,,,,,,,,,,,,,
"72503014732","2020-04-30T20:49:00","FM-16","6",,,,,,,,,,,,,,,,,,,,,,,,,,,,,,,,,,,,,,"29.80","54","57",,"-RA:02 |RA |RA",,,"88",,"SCT:04 12 BKN:07 24 OVC:08 40","29.77","3.00","55","130","52","22",,,,,,,,,,,,,,,,,,,,,,,,,,,,,,,,,,,,,"MET13004/30/20 20:49:03 SPECI KLGA 010149Z 13019G45KT 3SM -RA SCT012 BKN024 OVC040 14/12 A2980 RMK AO2 PK WND 16045/0142 P0015 FIBI (DM)","FM-16","6",,,,,,,,,,,,,,,,,,,,,,,,,,,,
"72503014732","2020-04-30T20:51:00","FM-15","7",,,,,,,,,,,,,,,,,,,,,,,,,,,,,,,,,,,,,,"29.80","53","58","0.16","RA:02 |RA |RA",,,"84","29.80","SCT:04 12 BKN:07 24 OVC:08 40","29.77","3.00","55","140","52","24",,,,,,,,,,,,,,,,,,,,,,,,,,,,,,,,,,,,,"MET14104/30/20 20:51:03 METAR KLGA 010151Z 14021G45KT 3SM RA SCT012 BKN024 OVC040 14/12 A2980 RMK AO2 PK WND 16045/0142 SLP091 P0015 T01440117 (DM)","FM-15","7",,,,,,,,,,,,,,,,,,,,,,,,,,,,
"72503014732","2020-04-30T21:34:00","FM-16","7",,,,,,,,,,,,,,,,,,,,,,,,,,,,,,,,,,,,,,"29.80","53","57","0.04","-RA:02 BR:1 |RA |RA",,,"87",,"SCT:04 16 SCT:04 55 OVC:08 75","29.77","6.00","55","150","31","23",,,,,,,,,,,,,,,,,,,,,,,,,,,,,,,,,,,,,"MET13804/30/20 21:34:03 SPECI KLGA 010234Z 15020G27KT 6SM -RA BR SCT016 SCT055 OVC075 14/12 A2980 RMK AO2 PK WND 16037/0212 P0004 T01390117 (RZ)","FM-16","7",,,,,,,,,,,,,,,,,,,,,,,,,,,,
"72503014732","2020-04-30T21:51:00","FM-15","7",,,,,,,,,,,,,,,,,,,,,,,,,,,,,,,,,,,,,,"29.79","53","57","0.03",,"+0.05","6","87","29.79","FEW:02 15 OVC:08 75","29.76","10.00","55","140","30","17",,,,,,,,,,,,,,,,,,,,,,,,,,,,,,,,,,,,,"MET15004/30/20 21:51:03 METAR KLGA 010251Z 14015G26KT 10SM FEW015 OVC075 14/12 A2979 RMK AO2 PK WND 16037/0212 RAE51 SLP087 P0004 60023 T01390117 56017 (RZ)","FM-15","7",,,,,,,,,,,,,,,,,,,,,,,,,,,,
"72503014732","2020-04-30T22:00:00","FM-12","4",,,,,,,,,,,,,,,,,,,,,,,,,,,,,,,,,,,,,,,"53","57",,,"+0.05","6","87","29.79","15","29.75","9.94","55","140",,"17",,,,,,,,,,,,,,,,,,,,,,,,,,,,,,,,,,,,,"SYN08072503 12466 81415 10139 20117 30074 40087 56017 60067 90251 333 91026 555 90103=","FM-12","4",,,,,,,,,,,,,,,,,,,,,,,,,,,,
"72503014732","2020-04-30T22:32:00","FM-16","7",,,,,,,,,,,,,,,,,,,,,,,,,,,,,,,,,,,,,,"29.80","52","57","0.01","-RA:02 |RA |RA",,,"83",,"BKN:07 9 OVC:08 14","29.77","7.00","54","150","23","15",,,,,,,,,,,,,,,,,,,,,,,,,,,,,,,,,,,,,"MET11604/30/20 22:32:03 SPECI KLGA 010332Z 15013G20KT 7SM -RA BKN009 OVC014 14/11 A2980 RMK AO2 RAB14 P0001 T01390111 (RZ)","FM-16","7",,,,,,,,,,,,,,,,,,,,,,,,,,,,
"72503014732","2020-04-30T22:51:00","FM-15","7",,,,,,,,,,,,,,,,,,,,,,,,,,,,,,,,,,,,,,"29.79","53","57","0.03","-RA:02 |RA |RA",,,"87","29.79","OVC:08 8","29.76","7.00","55","160","24","18",,,,,,,,,,,,,,,,,,,,,,,,,,,,,,,,,,,,,"MET11604/30/20 22:51:03 METAR KLGA 010351Z 16016G21KT 7SM -RA OVC008 14/12 A2979 RMK AO2 RAB14 SLP087 P0003 T01390117 (RZ)","FM-15","7",,,,,,,,,,,,,,,,,,,,,,,,,,,,
"72503014732","2020-04-30T23:44:00","FM-16","7",,,,,,,,,,,,,,,,,,,,,,,,,,,,,,,,,,,,,,"29.76","52","56","0.01","-RA:02 |RA |RA",,,"87",,"SCT:04 15 OVC:08 85","29.73","8.00","54","120",,"10",,,,,,,,,,,,,,,,,,,,,,,,,,,,,,,,,,,,,"MET10704/30/20 23:44:03 SPECI KLGA 010444Z 12009KT 8SM -RA SCT015 OVC085 13/11 A2976 RMK AO2 P0001 T01330111 (RZ)","FM-16","7",,,,,,,,,,,,,,,,,,,,,,,,,,,,
"72503014732","2020-04-30T23:51:00","FM-15","7",,,,,,,,,,,,,,,,,,,,,,,,,,,,,,,,,,,,,,"29.76","52","56","0.01","-RA:02 |RA |RA",,,"87","29.75","FEW:02 17 BKN:07 90 OVC:08 110","29.73","9.00","54","120",,"11",,,,,,,,,,,,,,,,,,,,,,,,,,,,,,,,,,,,,"MET13104/30/20 23:51:03 METAR KLGA 010451Z 12010KT 9SM -RA FEW017 BKN090 OVC110 13/11 A2976 RMK AO2 SLP076 P0001 T01330111 401720094 (RZ)","FM-15","7",,,,,,,,,,,,,,,,,,,,,,,,,,,,
"72503014732","2020-04-30T23:59:00","SOD  ","6",,,,,,,,,,,,,,,,"56",,,"29.98",,"18.7","0","-1.6","9","63","49","150","52","0.87","0","0.0","140","32","RA BR",,,,,,,,,,,,,,,,,,,,,,,,,,,,,,,,,,,,,,,,,,,,,,,,,,,,,,,,"SOD78324 HR PRECIPITATION (IN): 0.87 SNOW DEPTH (IN):0     24 HR SNOWFALL (IN):0.0  WEATHER(CODE):1  24 HR MAX TEMP (F): 6324 HR MIN TEMP (F): 49AVERAGE STATION PRESSURE:29.980 MINIMUM SEA LEVEL PRESSURE:29.75 TIME OF OCCURRENCE:2352 PEAK WIND SPEED (MPH): 52 PEAK WIND DIR (DEG):150 PEAK WIND TIME (LST):      FASTEST 2MIN SPEED (MPH): 32FASTEST 2MIN DIR (DEG):140 FASTEST 2MIN TIME (LST):     AVERAGE WIND SPEED (MPH):18.7 24 HR AVG TEMP (F): 56DEPART FROM NORMAL: -2  SKY COVER SR-SS (TENTHS): 1HEATING DEGREE DAYS:  9 COOLING DEGREE DAYS:  0 LATEST DAY MAX TEMP (0700-1900 LST):63  LATEST NIGHT MIN TEMP(1900-0800 LST):49 HOURLY INCREMENTAL PRECIPITATION VALUES (IN):    0.02 0.01 0.09 0.09 0.01 0.01 0.26 0.05 T    0.06 T    0.00 0.00 0.00 0.00 0.00 0.00 0.00 0.04 0.16 0.03 0.03 0.01","SOD  ","6",,,,,,,,,,,,,,,,,,,,,,,,,"0454","1852",,
"72503014732","2020-04-30T23:59:00","SOM  ","6","12.8",,,,,,,,,,,"0","0","0",,,,,,,,,,,,,,,,,,,,,"4072","433",,,,,,,,,,,,,,,,,,,"14","8","0","0","0","0","-2.1","-8","55","-3.6","-0.5","0.50s",,"1.72","13-13",,,"*","23-23","30.33","17","0646","57.3","50.6","29.13","09","1255","43.9","29.87","29.83","4.50s","T",,"8","378","SOM878PCP MTOT:4.50 DEPNRM:+0.50 PCP GT 24HRS:1.72 DATE(S):13 DAYS W/PCP >=.01:14 DAYS W/PCP >=.10:8  DAYS W/ PCP >=.50:2 DAYS W/PCP >=1.00:1 MSDP AMTS W/DATE-TIME TAGS:MIN:5 0.08  30/2036 MIN:10 0.13  21/1354 MIN:15 0.16  21/1358 MIN:20 0.18  21/1405 MIN:30 0.21  30/0743 MIN:45 0.26  30/0757 MIN:60 0.27  30/0812 MIN:80 0.35  13/0842 MIN:100 0.43  13/0838 MIN:120 0.48  13/1011 MIN:150 0.60  13/1011 MIN:180 0.72  13/1011 SN GT DP ON GRND:0 SN GT IN 24HRS:T DATE(S): 23SN MTOT:T AVG DLY MIN:43.9  AVG DLY MAX:57.3  AVG MLY TMP:50.6  DEP NORM:-2.1  MIN TMP:38 DATE(S):22 01 MAX TMP:69  DATE(S):13 DAYS MAX <=32:0 DAYS MAX >=90:0  DAYS MIN <=32:0  DAYS MIN  <=0:0  AVG STP:29.830 LWST SLP:29.13 DATE/TIME:091255 HGST SLP:30.33 DATE/TIME:170646 HDD MTH TOT:425 DEP NORM:-2553 SEASON(JUL 1-JUN 30):1413 DEP NORM:-25536 CDD MTH TOT:0 DEP NORM:-2553 SEASON(JAN 1-DEC 31):0 DEP NORM:-25536","SOM  ","6","2020-04-30 20:36","2020-04-21 13:54","2020-04-21 13:58","2020-04-21 14:05","2020-04-30 07:43","2020-04-30 07:57","2020-04-30 08:12","2020-04-13 08:42","2020-04-13 08:38","2020-04-13 10:11","2020-04-13 10:11","2020-04-13 10:11","0.08","0.13","0.16","0.18","0.21","0.26","0.27","0.35","0.43","0.48","0.60","0.72",,,,
