"STATION","DATE","REPORT_TYPE","SOURCE","AWND","BackupDirection","BackupDistance","BackupDistanceUnit","BackupElements","BackupElevation","BackupElevationUnit","BackupEquipment","BackupLatitude","BackupLongitude","BackupName","CDSD","CLDD","DSNW","DailyAverageDewPointTemperature","DailyAverageDryBulbTemperature","DailyAverageRelativeHumidity","DailyAverageSeaLevelPressure","DailyAverageStationPressure","DailyAverageWetBulbTemperature","DailyAverageWindSpeed","DailyCoolingDegreeDays","DailyDepartureFromNormalAverageTemperature","DailyHeatingDegreeDays","DailyMaximumDryBulbTemperature","DailyMinimumDryBulbTemperature","DailyPeakWindDirection","DailyPeakWindSpeed","DailyPrecipitation","DailySnowDepth","DailySnowfall","DailySustainedWindDirection","DailySustainedWindSpeed","DailyWeather","HDSD","HTDD","HeavyFog","HourlyAltimeterSetting","HourlyDewPointTemperature","HourlyDryBulbTemperature","HourlyPrecipitation","HourlyPresentWeatherType","HourlyPressureChange","HourlyPressureTendency","HourlyRelativeHumidity","HourlySeaLevelPressure","HourlySkyConditions","HourlyStationPressure","HourlyVisibility","HourlyWetBulbTemperature","HourlyWindDirection","HourlyWindGustSpeed","HourlyWindSpeed","MonthlyAverageRH","MonthlyDaysWithGT001Precip","MonthlyDaysWithGT010Precip","MonthlyDaysWithGT32Temp","MonthlyDaysWithGT90Temp","MonthlyDaysWithLT0Temp","MonthlyDaysWithLT32Temp","MonthlyDepartureFromNormalAverageTemperature","MonthlyDepartureFromNormalCoolingDegreeDays","MonthlyDepartureFromNormalHeatingDegreeDays","MonthlyDepartureFromNormalMaximumTemperature","MonthlyDepartureFromNormalMinimumTemperature","MonthlyDepartureFromNormalPrecipitation","MonthlyDewpointTemperature","MonthlyGreatestPrecip","MonthlyGreatestPrecipDate","MonthlyGreatestSnowDepth","MonthlyGreatestSnowDepthDate","MonthlyGreatestSnowfall","MonthlyGreatestSnowfallDate","MonthlyMaxSeaLevelPressureValue","MonthlyMaxSeaLevelPressureValueDate","MonthlyMaxSeaLevelPressureValueTime","MonthlyMaximumTemperature","MonthlyMeanTemperature","MonthlyMinSeaLevelPressureValue","MonthlyMinSeaLevelPressureValueDate","MonthlyMinSeaLevelPressureValueTime","MonthlyMinimumTemperature","MonthlySeaLevelPressure","MonthlyStationPressure","MonthlyTotalLiquidPrecipitation","MonthlyTotalSnowfall","MonthlyWetBulb","NormalsCoolingDegreeDay","NormalsHeatingDegreeDay","REM","REPORT_TYPE","SOURCE","ShortDurationEndDate005","ShortDurationEndDate010","ShortDurationEndDate015","ShortDurationEndDate020","ShortDurationEndDate030","ShortDurationEndDate045","ShortDurationEndDate060","ShortDurationEndDate080","ShortDurationEndDate100","ShortDurationEndDate120","ShortDurationEndDate150","ShortDurationEndDate180","ShortDurationPrecipitationValue005","ShortDurationPrecipitationValue010","ShortDurationPrecipitationValue015","ShortDurationPrecipitationValue020","ShortDurationPrecipitationValue030","ShortDurationPrecipitationValue045","ShortDurationPrecipitationValue060","ShortDurationPrecipitationValue080","ShortDurationPrecipitationValue100","ShortDurationPrecipitationValue120","ShortDurationPrecipitationValue150","ShortDurationPrecipitationValue180","Sunrise","Sunset","TStorms","WindEquipmentChangeDate"
"74486454787","2020-03-12T00:53:00","FM-15","7",,,,,,,,,,,,,,,,,,,,,,,,,,,,,,,,,,,,,,"30.09","28","40","0.00",,"+0.01","5","63","30.09","CLR:00","30.00","10.00","35","000",,"0",,,,,,,,,,,,,,,,,,,,,,,,,,,,,,,,,,,,,"MET10903/12/20 00:53:02 METAR KFRG 120553Z 00000KT 10SM CLR 04/M02 A3009 RMK AO2 SLP190 T00441022 10100 20033 55002","FM-15","7",,,,,,,,,,,,,,,,,,,,,,,,,,,,"2009-05-18"
"74486454787","2020-03-12T01:53:00","FM-15","7",,,,,,,,,,,,,,,,,,,,,,,,,,,,,,,,,,,,,,"30.07","27","36","0.00",,,,"70","30.07","CLR:00","29.98","10.00","33","000",,"0",,,,,,,,,,,,,,,,,,,,,,,,,,,,,,,,,,,,,"MET09103/12/20 01:53:02 METAR KFRG 120653Z 00000KT 10SM CLR 02/M03 A3007 RMK AO2 SLP184 T00221028","FM-15","7",,,,,,,,,,,,,,,,,,,,,,,,,,,,"2009-05-18"
"74486454787","2020-03-12T02:53:00","FM-15","7",,,,,,,,,,,,,,,,,,,,,,,,,,,,,,,,,,,,,,"30.08","29","39","0.00",,,,"67","30.08","CLR:00","29.99","10.00","35","000",,"0",,,,,,,,,,,,,,,,,,,,,,,,,,,,,,,,,,,,,"MET09103/12/20 02:53:02 METAR KFRG 120753Z 00000KT 10SM CLR 04/M02 A3008 RMK AO2 SLP187 T00391017","FM-15","7",,,,,,,,,,,,,,,,,,,,,,,,,,,,"2009-05-18"
"74486454787","2020-03-12T03:53:00","FM-15","7",,,,,,,,,,,,,,,,,,,,,,,,,,,,,,,,,,,,,,"30.10","29","38","0.00",,"-0.01","3","70","30.10","CLR:00","30.01","10.00","34","030",,"3",,,,,,,,,,,,,,,,,,,,,,,,,,,,,,,,,,,,,"MET09703/12/20 03:53:02 METAR KFRG 120853Z 03003KT 10SM CLR 03/M02 A3010 RMK AO2 SLP192 T00331017 53002","FM-15","7",,,,,,,,,,,,,,,,,,,,,,,,,,,,"2009-05-18"
"74486454787","2020-03-12T04:53:00","FM-15","7",,,,,,,,,,,,,,,,,,,,,,,,,,,,,,,,,,,,,,"30.13","29","36","0.00",,,,"76","30.12","CLR:00","30.04","10.00","33","010",,"6",,,,,,,,,,,,,,,,,,,,,,,,,,,,,,,,,,,,,"MET09103/12/20 04:53:02 METAR KFRG 120953Z 01005KT 10SM CLR 02/M02 A3013 RMK AO2 SLP201 T00221017","FM-15","7",,,,,,,,,,,,,,,,,,,,,,,,,,,,"2009-05-18"
"74486454787","2020-03-12T05:53:00","FM-15","7",,,,,,,,,,,,,,,,,,,,,,,,,,,,,,,,,,,,,,"30.13","32","38","0.00",,,,"79","30.13","BKN:07 60","30.04","10.00","36","060",,"6",,,,,,,,,,,,,,,,,,,,,,,,,,,,,,,,,,,,,"MET09303/12/20 05:53:02 METAR KFRG 121053Z 06005KT 10SM BKN060 03/00 A3013 RMK AO2 SLP202 T00330000","FM-15","7",,,,,,,,,,,,,,,,,,,,,,,,,,,,"2009-05-18"
"74486454787","2020-03-12T06:53:00","FM-15","7",,,,,,,,,,,,,,,,,,,,,,,,,,,,,,,,,,,,,,"30.14","35","40","0.00",,"-0.04","1","83","30.14","BKN:07 60 BKN:07 95 BKN:07 110","30.05","10.00","38","090",,"6",,,,,,,,,,,,,,,,,,,,,,,,,,,,,,,,,,,,,"MET12503/12/20 06:53:02 METAR KFRG 121153Z 09005KT 10SM BKN060 BKN095 BKN110 04/02 A3014 RMK AO2 SLP207 T00440017 10050 20017 51015","FM-15","7",,,,,,,,,,,,,,,,,,,,,,,,,,,,"2009-05-18"
"74486454787","2020-03-12T07:37:00","FM-16","7",,,,,,,,,,,,,,,,,,,,,,,,,,,,,,,,,,,,,,"30.16","38","44",,,,,"79",,"FEW:02 6 SCT:04 120","30.07","10.00","41","090",,"6",,,,,,,,,,,,,,,,,,,,,,,,,,,,,,,,,,,,,"MET09303/12/20 07:37:02 SPECI KFRG 121237Z 09005KT 10SM FEW006 SCT120 07/03 A3016 RMK AO2 T00670033","FM-16","7",,,,,,,,,,,,,,,,,,,,,,,,,,,,"2009-05-18"
"74486454787","2020-03-12T07:46:00","FM-16","7",,,,,,,,,,,,,,,,,,,,,,,,,,,,,,,,,,,,,,"30.16","39","44",,,,,"83",,"BKN:07 6","30.07","10.00","42","110",,"9",,,,,,,,,,,,,,,,,,,,,,,,,,,,,,,,,,,,,"MET09103/12/20 07:46:02 SPECI KFRG 121246Z 11008KT 10SM BKN006 07/04 A3016 RMK AO2 T00670039 (NC)","FM-16","7",,,,,,,,,,,,,,,,,,,,,,,,,,,,"2009-05-18"
"74486454787","2020-03-12T07:53:00","FM-15","7",,,,,,,,,,,,,,,,,,,,,,,,,,,,,,,,,,,,,,"30.16","39","44","0.00",,,,"83","30.16","BKN:07 6","30.07","10.00","42","110",,"10",,,,,,,,,,,,,,,,,,,,,,,,,,,,,,,,,,,,,"MET09803/12/20 07:53:02 METAR KFRG 121253Z 11009KT 10SM BKN006 07/04 A3016 RMK AO2 SLP214 T00670039 (NC)","FM-15","7",,,,,,,,,,,,,,,,,,,,,,,,,,,,"2009-05-18"
"74486454787","2020-03-12T08:31:00","FM-16","7",,,,,,,,,,,,,,,,,,,,,,,,,,,,,,,,,,,,,,"30.18","39","45",,,,,"80",,"OVC:08 10","30.09","10.00","42","120",,"11",,,,,,,,,,,,,,,,,,,,,,,,,,,,,,,,,,,,,"MET10303/12/20 08:31:02 SPECI KFRG 121331Z 12010KT 10SM OVC010 07/04 A3018 RMK AO2 CIG 007V013 T00720039 (NC)","FM-16","7",,,,,,,,,,,,,,,,,,,,,,,,,,,,"2009-05-18"
"74486454787","2020-03-12T08:51:00","FM-16","6",,,,,,,,,,,,,,,,,,,,,,,,,,,,,,,,,,,,,,"30.19","39","45",,,,,"81",,"OVC:08 7","30.10","10.00","42","110",,"13",,,,,,,,,,,,,,,,,,,,,,,,,,,,,,,,,,,,,"MET08603/12/20 08:51:02 SPECI KFRG 121351Z 11011KT 10SM OVC007 07/04 A3019 RMK AO2 FIBI (NC)","FM-16","6",,,,,,,,,,,,,,,,,,,,,,,,,,,,"2009-05-18"
"74486454787","2020-03-12T08:53:00","FM-15","7",,,,,,,,,,,,,,,,,,,,,,,,,,,,,,,,,,,,,,"30.19","39","45","0.00",,,,"80","30.19","OVC:08 7","30.10","10.00","42","110",,"11",,,,,,,,,,,,,,,,,,,,,,,,,,,,,,,,,,,,,"MET09803/12/20 08:53:02 METAR KFRG 121353Z 11010KT 10SM OVC007 07/04 A3019 RMK AO2 SLP223 T00720039 (NC)","FM-15","7",,,,,,,,,,,,,,,,,,,,,,,,,,,,"2009-05-18"
"74486454787","2020-03-12T09:44:00","FM-16","7",,,,,,,,,,,,,,,,,,,,,,,,,,,,,,,,,,,,,,"30.20","39","46",,,,,"77",,"BKN:07 11 OVC:08 65","30.11","10.00","43","100",,"11",,,,,,,,,,,,,,,,,,,,,,,,,,,,,,,,,,,,,"MET09803/12/20 09:44:02 SPECI KFRG 121444Z 10010KT 10SM BKN011 OVC065 08/04 A3020 RMK AO2 T00780039 (KM)","FM-16","7",,,,,,,,,,,,,,,,,,,,,,,,,,,,"2009-05-18"
"74486454787","2020-03-12T09:53:00","FM-15","7",,,,,,,,,,,,,,,,,,,,,,,,,,,,,,,,,,,,,,"30.19","39","46","0.00",,"-0.05","1","77","30.19","BKN:07 11 OVC:08 60","30.10","10.00","43","100",,"10",,,,,,,,,,,,,,,,,,,,,,,,,,,,,,,,,,,,,"MET11103/12/20 09:53:02 METAR KFRG 121453Z 10009KT 10SM BKN011 OVC060 08/04 A3019 RMK AO2 SLP224 T00780039 51017 (KM)","FM-15","7",,,,,,,,,,,,,,,,,,,,,,,,,,,,"2009-05-18"
"74486454787","2020-03-12T10:15:00","FM-16","7",,,,,,,,,,,,,,,,,,,,,,,,,,,,,,,,,,,,,,"30.19","39","46",,,,,"77",,"SCT:04 11 OVC:08 60","30.10","10.00","43","100",,"9",,,,,,,,,,,,,,,,,,,,,,,,,,,,,,,,,,,,,"MET09803/12/20 10:15:02 SPECI KFRG 121515Z 10008KT 10SM SCT011 OVC060 08/04 A3019 RMK AO2 T00780039 (KM)","FM-16","7",,,,,,,,,,,,,,,,,,,,,,,,,,,,"2009-05-18"
"74486454787","2020-03-12T10:53:00","FM-15","7",,,,,,,,,,,,,,,,,,,,,,,,,,,,,,,,,,,,,,"30.20","38","47","0.00",,,,"71","30.19","BKN:07 11 OVC:08 60","30.11","10.00","43","120",,"9",,,,,,,,,,,,,,,,,,,,,,,,,,,,,,,,,,,,,"MET10503/12/20 10:53:02 METAR KFRG 121553Z 12008KT 10SM BKN011 OVC060 08/03 A3020 RMK AO2 SLP225 T00830033 (KM)","FM-15","7",,,,,,,,,,,,,,,,,,,,,,,,,,,,"2009-05-18"
"74486454787","2020-03-12T11:15:00","FM-16","7",,,,,,,,,,,,,,,,,,,,,,,,,,,,,,,,,,,,,,"30.20","38","48",,,,,"68",,"OVC:08 55","30.11","10.00","43","120",,"9",,,,,,,,,,,,,,,,,,,,,,,,,,,,,,,,,,,,,"MET09103/12/20 11:15:02 SPECI KFRG 121615Z 12008KT 10SM OVC055 09/03 A3020 RMK AO2 T00890033 (KM)","FM-16","7",,,,,,,,,,,,,,,,,,,,,,,,,,,,"2009-05-18"
"74486454787","2020-03-12T11:53:00","FM-15","7",,,,,,,,,,,,,,,,,,,,,,,,,,,,,,,,,,,,,,"30.20","37","48","0.00",,,,"66","30.20","OVC:08 55","30.11","10.00","43","120",,"11",,,,,,,,,,,,,,,,,,,,,,,,,,,,,,,,,,,,,"MET09803/12/20 11:53:02 METAR KFRG 121653Z 12010KT 10SM OVC055 09/03 A3020 RMK AO2 SLP227 T00890028 (KM)","FM-15","7",,,,,,,,,,,,,,,,,,,,,,,,,,,,"2009-05-18"
"74486454787","2020-03-12T12:53:00","FM-15","7",,,,,,,,,,,,,,,,,,,,,,,,,,,,,,,,,,,,,,"30.19","37","47","0.00",,"-0.00","0","69","30.19","OVC:08 55","30.10","10.00","43","110",,"9",,,,,,,,,,,,,,,,,,,,,,,,,,,,,,,,,,,,,"MET11603/12/20 12:53:02 METAR KFRG 121753Z 11008KT 10SM OVC055 08/03 A3019 RMK AO2 SLP224 T00830028 10094 20067 50000 (KM)","FM-15","7",,,,,,,,,,,,,,,,,,,,,,,,,,,,"2009-05-18"
"74486454787","2020-03-12T13:53:00","FM-15","7",,,,,,,,,,,,,,,,,,,,,,,,,,,,,,,,,,,,,,"30.17","39","49","0.00",,,,"69","30.17","OVC:08 55","30.08","10.00","44","090",,"10",,,,,,,,,,,,,,,,,,,,,,,,,,,,,,,,,,,,,"MET09803/12/20 13:53:02 METAR KFRG 121853Z 09009KT 10SM OVC055 09/04 A3017 RMK AO2 SLP216 T00940039 (KM)","FM-15","7",,,,,,,,,,,,,,,,,,,,,,,,,,,,"2009-05-18"
"74486454787","2020-03-12T14:49:00","FM-16","7",,,,,,,,,,,,,,,,,,,,,,,,,,,,,,,,,,,,,,"30.17","37","48",,,,,"66",,"BKN:07 20 OVC:08 50","30.08","10.00","43","110",,"10",,,,,,,,,,,,,,,,,,,,,,,,,,,,,,,,,,,,,"MET08803/12/20 14:49:02 SPECI KFRG 121949Z 11009KT 10SM BKN020 OVC050 09/03 A3017 RMK AO2 (JM)","FM-16","7",,,,,,,,,,,,,,,,,,,,,,,,,,,,"2009-05-18"
"74486454787","2020-03-12T14:53:00","FM-15","7",,,,,,,,,,,,,,,,,,,,,,,,,,,,,,,,,,,,,,"30.17","39","48","0.00",,,,"71","30.17","BKN:07 20 OVC:08 49","30.08","10.00","44","110",,"10",,,,,,,,,,,,,,,,,,,,,,,,,,,,,,,,,,,,,"MET10503/12/20 14:53:02 METAR KFRG 121953Z 11009KT 10SM BKN020 OVC049 09/04 A3017 RMK AO2 SLP217 T00890039 (JM)","FM-15","7",,,,,,,,,,,,,,,,,,,,,,,,,,,,"2009-05-18"
"74486454787","2020-03-12T15:35:00","FM-16","7",,,,,,,,,,,,,,,,,,,,,,,,,,,,,,,,,,,,,,"30.17","40","47",,,,,"77",,"BKN:07 13 BKN:07 20 OVC:08 50","30.08","10.00","44","110",,"13",,,,,,,,,,,,,,,,,,,,,,,,,,,,,,,,,,,,,"MET10503/12/20 15:35:02 SPECI KFRG 122035Z 11011KT 10SM BKN013 BKN020 OVC050 08/04 A3017 RMK AO2 T00830044 (JM)","FM-16","7",,,,,,,,,,,,,,,,,,,,,,,,,,,,"2009-05-18"
"74486454787","2020-03-12T15:53:00","FM-15","7",,,,,,,,,,,,,,,,,,,,,,,,,,,,,,,,,,,,,,"30.17","40","47","0.00",,"-0.00","0","77","30.17","BKN:07 12 OVC:08 55","30.08","10.00","44","110",,"10",,,,,,,,,,,,,,,,,,,,,,,,,,,,,,,,,,,,,"MET11103/12/20 15:53:02 METAR KFRG 122053Z 11009KT 10SM BKN012 OVC055 08/04 A3017 RMK AO2 SLP216 T00830044 50000 (JM)","FM-15","7",,,,,,,,,,,,,,,,,,,,,,,,,,,,"2009-05-18"
"74486454787","2020-03-12T16:53:00","FM-15","7",,,,,,,,,,,,,,,,,,,,,,,,,,,,,,,,,,,,,,"30.15","40","47","0.00",,,,"77","30.15","BKN:07 12 BKN:07 28 OVC:08 55","30.06","10.00","44","100",,"14",,,,,,,,,,,,,,,,,,,,,,,,,,,,,,,,,,,,,"MET11203/12/20 16:53:02 METAR KFRG 122153Z 10012KT 10SM BKN012 BKN028 OVC055 08/04 A3015 RMK AO2 SLP211 T00830044 (JM)","FM-15","7",,,,,,,,,,,,,,,,,,,,,,,,,,,,"2009-05-18"
"74486454787","2020-03-12T17:53:00","FM-15","7",,,,,,,,,,,,,,,,,,,,,,,,,,,,,,,,,,,,,,"30.14","40","47","0.00",,,,"77","30.14","OVC:08 12","30.05","10.00","44","090",,"13",,,,,,,,,,,,,,,,,,,,,,,,,,,,,,,,,,,,,"MET09803/12/20 17:53:02 METAR KFRG 122253Z 09011KT 10SM OVC012 08/04 A3014 RMK AO2 SLP207 T00830044 (JM)","FM-15","7",,,,,,,,,,,,,,,,,,,,,,,,,,,,"2009-05-18"
"74486454787","2020-03-12T18:53:00","FM-15","7",,,,,,,,,,,,,,,,,,,,,,,,,,,,,,,,,,,,,,"30.15","40","47","0.00",,"+0.02","5","77","30.15","OVC:08 11","30.06","10.00","44","110",,"8",,,,,,,,,,,,,,,,,,,,,,,,,,,,,,,,,,,,,"MET11603/12/20 18:53:02 METAR KFRG 122353Z 11007KT 10SM OVC011 08/04 A3015 RMK AO2 SLP209 T00830044 10094 20083 55006 (JM)","FM-15","7",,,,,,,,,,,,,,,,,,,,,,,,,,,,"2009-05-18"
"74486454787","2020-03-12T19:53:00","FM-15","7",,,,,,,,,,,,,,,,,,,,,,,,,,,,,,,,,,,,,,"30.16","41","47","0.00",,,,"80","30.16","OVC:08 12","30.07","10.00","44","090",,"11",,,,,,,,,,,,,,,,,,,,,,,,,,,,,,,,,,,,,"MET09303/12/20 19:53:01 METAR KFRG 130053Z 09010KT 10SM OVC012 08/05 A3016 RMK AO2 SLP213 T00830050","FM-15","7",,,,,,,,,,,,,,,,,,,,,,,,,,,,"2009-05-18"
"74486454787","2020-03-12T20:53:00","FM-15","7",,,,,,,,,,,,,,,,,,,,,,,,,,,,,,,,,,,,,,"30.13","41","47","0.00",,,,"80","30.13","BKN:07 10 OVC:08 15","30.04","10.00","44","100",,"13",,,,,,,,,,,,,,,,,,,,,,,,,,,,,,,,,,,,,"MET10003/12/20 20:53:01 METAR KFRG 130153Z 10011KT 10SM BKN010 OVC015 08/05 A3013 RMK AO2 SLP204 T00830050","FM-15","7",,,,,,,,,,,,,,,,,,,,,,,,,,,,"2009-05-18"
"74486454787","2020-03-12T21:53:00","FM-15","7",,,,,,,,,,,,,,,,,,,,,,,,,,,,,,,,,,,,,,"30.12","41","47","0.00",,"+0.02","8","80","30.12","BKN:07 10 OVC:08 36","30.03","10.00","44","100","25","18",,,,,,,,,,,,,,,,,,,,,,,,,,,,,,,,,,,,,"MET10903/12/20 21:53:01 METAR KFRG 130253Z 10016G22KT 10SM BKN010 OVC036 08/05 A3012 RMK AO2 SLP201 T00830050 58008","FM-15","7",,,,,,,,,,,,,,,,,,,,,,,,,,,,"2009-05-18"
"74486454787","2020-03-12T22:16:00","FM-16","7",,,,,,,,,,,,,,,,,,,,,,,,,,,,,,,,,,,,,,"30.12","42","47","T","-RA:02 |RA |RA",,,"83",,"OVC:08 9","30.03","9.00","45","100","23","14",,,,,,,,,,,,,,,,,,,,,,,,,,,,,,,,,,,,,"MET10403/12/20 22:16:01 SPECI KFRG 130316Z 10012G20KT 9SM -RA OVC009 08/06 A3012 RMK AO2 RAB16 P0000 T00830056","FM-16","7",,,,,,,,,,,,,,,,,,,,,,,,,,,,"2009-05-18"
"74486454787","2020-03-12T22:53:00","FM-15","7",,,,,,,,,,,,,,,,,,,,,,,,,,,,,,,,,,,,,,"30.10","42","47","0.14","+RA:02 |RA |RA",,,"83","30.10","OVC:08 8","30.01","4.00","45","090","23","13",,,,,,,,,,,,,,,,,,,,,,,,,,,,,,,,,,,,,"MET11103/12/20 22:53:02 METAR KFRG 130353Z 09011G20KT 4SM +RA OVC008 08/06 A3010 RMK AO2 RAB16 SLP193 P0011 T00830056","FM-15","7",,,,,,,,,,,,,,,,,,,,,,,,,,,,"2009-05-18"
"74486454787","2020-03-12T23:15:00","FM-16","7",,,,,,,,,,,,,,,,,,,,,,,,,,,,,,,,,,,,,,"30.11","43","47","0.12","+RA:02 BR:1 |RA |RA",,,"86",,"BKN:07 7 OVC:08 20","30.02","2.50","45","090",,"10",,,,,,,,,,,,,,,,,,,,,,,,,,,,,,,,,,,,,"MET10903/12/20 23:15:02 SPECI KFRG 130415Z 09009KT 2 1/2SM +RA BR BKN007 OVC020 08/06 A3011 RMK AO2 P0012 T00830061","FM-16","7",,,,,,,,,,,,,,,,,,,,,,,,,,,,"2009-05-18"
"74486454787","2020-03-12T23:22:00","FM-16","7",,,,,,,,,,,,,,,,,,,,,,,,,,,,,,,,,,,,,,"30.11","44","47","0.12","-RA:02 BR:1 |RA |RA",,,"90",,"BKN:07 7 OVC:08 20","30.02","6.00","46","070","16","6",,,,,,,,,,,,,,,,,,,,,,,,,,,,,,,,,,,,,"MET10803/12/20 23:22:02 SPECI KFRG 130422Z 07005G14KT 6SM -RA BR BKN007 OVC020 08/07 A3011 RMK AO2 P0012 T00830067","FM-16","7",,,,,,,,,,,,,,,,,,,,,,,,,,,,"2009-05-18"
"74486454787","2020-03-12T23:53:00","FM-15","6",,,,,,,,,,,,,,,,,,,,,,,,,,,,,,,,,,,,,,"30.09","44","48","0.15",,,,"86","30.09","OVC:08 8","30.00","10.00","46","090",,"13",,,,,,,,,,,,,,,,,,,,,,,,,,,,,,,,,,,,,"MET11503/12/20 23:53:02 METAR KFRG 130453Z 09011KT 10SM OVC008 09/07 A3009 RMK AO2 RAE48 SLP190 P0018 T00890067 400940017","FM-15","6",,,,,,,,,,,,,,,,,,,,,,,,,,,,"2009-05-18"
"74486454787","2020-03-12T23:59:00","SOD  ","6",,,,,,,,,,,,,,,,"42",,,"30.05",,"9.4","0","2.9","23","49","35","090","26","0.29",,,"100","20","RA BR",,,,,,,,,,,,,,,,,,,,,,,,,,,,,,,,,,,,,,,,,,,,,,,,,,,,,,,,"SOD73024 HR PRECIPITATION (IN):0.29  24 HR MAX TEMP (F):49 24 HR MAX TEMP TIME (LST):1443 24 HR MIN TEMP (F):35 24 HR MIN TEMP TIME (LST):0519 AVERAGE STATION PRESSURE:30.050 MINIMUM SEA LEVEL PRESSURE:30.07 TIME OF OCCURRENCE:0154 PEAK WIND SPEED (MPH):26  PEAK WIND DIR (DEG):90  PEAK WIND TIME (LST):2239  FASTEST 2MIN SPEED (MPH):20 FASTEST 2MIN DIR (DEG):100 FASTEST 2MIN TIME (LST):2139 AVERAGE WIND SPEED (MPH):9.4  24 HR AVG TEMP (F):42 HEATING DEGREE DAYS:23  COOLING DEGREE DAYS:0   LATEST DAY MAX TEMP (0700-1900 LST):49  LATEST NIGHT MIN TEMP(1900-0800 LST):35 HOURLY INCREMENTAL PRECIPITATION VALUES (IN):.00 0.00 0.00 0.00 0.00 0.00 0.00 0.00 0.00 0.00 0.00 0.00 0.00 0.00 0.00 0.00 0.00 0.00 0.00 0.00 0.00 0.00 0.14 0.15","SOD  ","6",,,,,,,,,,,,,,,,,,,,,,,,,"0609","1758",,"2009-05-18"
"74486454787","2020-03-13T00:28:00","FM-16","6",,,,,,,,,,,,,,,,,,,,,,,,,,,,,,,,,,,,,,"30.07","44","48",,,,,"86",,"SCT:04 7 BKN:07 10 OVC:08 18","29.98","10.00","46","100",,"10",,,,,,,,,,,,,,,,,,,,,,,,,,,,,,,,,,,,,"MET11703/13/20 00:28:02 SPECI KFRG 130528Z 10009KT 10SM SCT007 BKN010 OVC018 09/07 A3007 RMK AO2 RAB0457E28 P0001 T00890067","FM-16","6",,,,,,,,,,,,,,,,,,,,,,,,,,,,"2009-05-18"
"74486454787","2020-03-13T00:53:00","FM-15","6",,,,,,,,,,,,,,,,,,,,,,,,,,,,,,,,,,,,,,"30.05","44","48","0.01",,"+0.07","8","86","30.05","BKN:07 10 OVC:08 14","29.96","10.00","46","090",,"11",,,,,,,,,,,,,,,,,,,,,,,,,,,,,,,,,,,,,"MET15303/13/20 00:53:02 METAR KFRG 130553Z 09010KT 10SM BKN010 OVC014 09/07 A3005 RMK AO2 RAB0457E28 CIG 005V010 SLP176 P0001 60030 T00890067 10089 20078 58025","FM-15","6",,,,,,,,,,,,,,,,,,,,,,,,,,,,"2009-05-18"
"74486454787","2020-03-13T01:07:00","FM-16","6",,,,,,,,,,,,,,,,,,,,,,,,,,,,,,,,,,,,,,"30.05","44","48",,,,,"86",,"BKN:07 8 OVC:08 12","29.96","10.00","46","090",,"13",,,,,,,,,,,,,,,,,,,,,,,,,,,,,,,,,,,,,"MET10503/13/20 01:07:02 SPECI KFRG 130607Z 09011KT 10SM BKN008 OVC012 09/07 A3005 RMK AO2 CIG 007V010 T00890067","FM-16","6",,,,,,,,,,,,,,,,,,,,,,,,,,,,"2009-05-18"
"74486454787","2020-03-13T01:53:00","FM-15","7",,,,,,,,,,,,,,,,,,,,,,,,,,,,,,,,,,,,,,"30.02","45","48","0.00",,,,"89","30.02","OVC:08 5","29.93","9.00","47","110",,"11",,,,,,,,,,,,,,,,,,,,,,,,,,,,,,,,,,,,,"MET09203/13/20 01:53:02 METAR KFRG 130653Z 11010KT 9SM OVC005 09/07 A3002 RMK AO2 SLP166 T00890072","FM-15","7",,,,,,,,,,,,,,,,,,,,,,,,,,,,"2009-05-18"
"74486454787","2020-03-13T02:32:00","FM-16","7",,,,,,,,,,,,,,,,,,,,,,,,,,,,,,,,,,,,,,"30.00","45","49",,,,,"86",,"OVC:08 4","29.91","7.00","47","110",,"10",,,,,,,,,,,,,,,,,,,,,,,,,,,,,,,,,,,,,"MET08503/13/20 02:32:02 SPECI KFRG 130732Z 11009KT 7SM OVC004 09/07 A3000 RMK AO2 T00940072","FM-16","7",,,,,,,,,,,,,,,,,,,,,,,,,,,,"2009-05-18"
"74486454787","2020-03-13T02:53:00","FM-15","7",,,,,,,,,,,,,,,,,,,,,,,,,,,,,,,,,,,,,,"29.98","46","49","T","BR:1 ||",,,"90","29.98","OVC:08 4","29.89","6.00","48","110",,"9",,,,,,,,,,,,,,,,,,,,,,,,,,,,,,,,,,,,,"MET11003/13/20 02:53:02 METAR KFRG 130753Z 11008KT 6SM BR OVC004 09/08 A2998 RMK AO2 RAB34E45 SLP152 P0000 T00940078","FM-15","7",,,,,,,,,,,,,,,,,,,,,,,,,,,,"2009-05-18"
"74486454787","2020-03-13T03:44:00","FM-16","7",,,,,,,,,,,,,,,,,,,,,,,,,,,,,,,,,,,,,,"29.94","47","50",,"BR:1 ||",,,"89",,"OVC:08 3","29.85","1.75","48","130",,"16",,,,,,,,,,,,,,,,,,,,,,,,,,,,,,,,,,,,,"MET09203/13/20 03:44:02 SPECI KFRG 130844Z 13014KT 1 3/4SM BR OVC003 10/08 A2994 RMK AO2 T01000083","FM-16","7",,,,,,,,,,,,,,,,,,,,,,,,,,,,"2009-05-18"
"74486454787","2020-03-13T03:51:00","FM-16","6",,,,,,,,,,,,,,,,,,,,,,,,,,,,,,,,,,,,,,"29.94","46","50",,"-RA:02 BR:1 |RA |RA",,,"88",,"OVC:08 2","29.85","1.50","48","140",,"17",,,,,,,,,,,,,,,,,,,,,,,,,,,,,,,,,,,,,"MET10303/13/20 03:51:02 SPECI KFRG 130851Z 14015KT 1 1/2SM -RA BR OVC002 10/08 A2994 RMK AO2 RAB49 P0000 FIBI","FM-16","6",,,,,,,,,,,,,,,,,,,,,,,,,,,,"2009-05-18"
"74486454787","2020-03-13T03:53:00","FM-15","7",,,,,,,,,,,,,,,,,,,,,,,,,,,,,,,,,,,,,,"29.93","47","50","T","-RA:02 BR:1 |RA |RA","+0.12","8","89","29.93","OVC:08 2","29.84","1.50","48","140","26","20",,,,,,,,,,,,,,,,,,,,,,,,,,,,,,,,,,,,,"MET13003/13/20 03:53:02 METAR KFRG 130853Z 14017G23KT 1 1/2SM -RA BR OVC002 10/08 A2993 RMK AO2 RAB49 SLP136 P0000 60000 T01000083 58040","FM-15","7",,,,,,,,,,,,,,,,,,,,,,,,,,,,"2009-05-18"
"74486454787","2020-03-13T04:53:00","FM-15","7",,,,,,,,,,,,,,,,,,,,,,,,,,,,,,,,,,,,,,"29.91","48","51","T","BR:1 ||",,,"89","29.91","OVC:08 2","29.82","1.50","49","150","33","22",,,,,,,,,,,,,,,,,,,,,,,,,,,,,,,,,,,,,"MET13203/13/20 04:53:02 METAR KFRG 130953Z 15019G29KT 1 1/2SM BR OVC002 11/09 A2991 RMK AO2 PK WND 14029/0945 RAE00 SLP129 P0000 T01060089","FM-15","7",,,,,,,,,,,,,,,,,,,,,,,,,,,,"2009-05-18"
"74486454787","2020-03-13T05:49:00","FM-16","7",,,,,,,,,,,,,,,,,,,,,,,,,,,,,,,,,,,,,,"29.88","48","52",,"BR:1 ||",,,"88",,"OVC:08 2","29.79","0.75","50","150","31","25",,,,,,,,,,,,,,,,,,,,,,,,,,,,,,,,,,,,,"MET12003/13/20 05:49:02 SPECI KFRG 131049Z 15022G27KT 3/4SM BR OVC002 11/09 A2988 RMK AO2 PK WND 15031/1017 SFC VIS 1 1/2 (RP)","FM-16","7",,,,,,,,,,,,,,,,,,,,,,,,,,,,"2009-05-18"
"74486454787","2020-03-13T05:53:00","FM-15","7",,,,,,,,,,,,,,,,,,,,,,,,,,,,,,,,,,,,,,"29.88","49","52","0.00","BR:1 ||",,,"89","29.88","OVC:08 2","29.79","0.75","50","150","31","22",,,,,,,,,,,,,,,,,,,,,,,,,,,,,,,,,,,,,"MET13703/13/20 05:53:02 METAR KFRG 131053Z 15019G27KT 3/4SM BR OVC002 11/09 A2988 RMK AO2 PK WND 15031/1017 SFC VIS 1 1/4 SLP119 T01110094 (RP)","FM-15","7",,,,,,,,,,,,,,,,,,,,,,,,,,,,"2009-05-18"
"74486454787","2020-03-13T06:50:00","FM-16","6",,,,,,,,,,,,,,,,,,,,,,,,,,,,,,,,,,,,,,"29.85","50","54",,"RA:02 BR:1 |RA |RA",,,"88",,"OVC:08 2","29.76","1.75","52","160","39","24",,,,,,,,,,,,,,,,,,,,,,,,,,,,,,,,,,,,,"MET13303/13/20 06:50:02 SPECI KFRG 131150Z 16021G34KT 1 3/4SM RA BR OVC002 12/10 A2985 RMK AO2 PK WND 16034/1145 SFC VIS 3 RAB06 P0006 (RP)","FM-16","6",,,,,,,,,,,,,,,,,,,,,,,,,,,,"2009-05-18"
"74486454787","2020-03-13T06:53:00","FM-15","6",,,,,,,,,,,,,,,,,,,,,,,,,,,,,,,,,,,,,,"29.85","50","53","0.09s","RA:02 BR:1 |RA |RA","+0.03","6","89","29.85","OVC:08 2","29.76","1.75","51","160","39","22",,,,,,,,,,,,,,,,,,,,,,,,,,,,,,,,,,,,,"MET18003/13/20 06:53:02 METAR KFRG 131153Z 16019G34KT 1 3/4SM RA BR OVC002 12/10 A2985 RMK AO2 PK WND 16034/1145 SFC VIS 3 RAB06 SLP109 P0007 60007 70037 T01170100 10117 20089 56011 (RP)","FM-15","6",,,,,,,,,,,,,,,,,,,,,,,,,,,,"2009-05-18"
"74486454787","2020-03-13T07:01:00","FM-16","6",,,,,,,,,,,,,,,,,,,,,,,,,,,,,,,,,,,,,,"29.86","50","53",,"RA:02 BR:1 |RA |RA",,,"89",,"OVC:08 3","29.77","1.75","51","180","30","20",,,,,,,,,,,,,,,,,,,,,,,,,,,,,,,,,,,,,"MET11903/13/20 07:01:02 SPECI KFRG 131201Z 18017G26KT 1 3/4SM RA BR OVC003 12/10 A2986 RMK AO2 SFC VIS 3 P0002 T01170100 (RP)","FM-16","6",,,,,,,,,,,,,,,,,,,,,,,,,,,,"2009-05-18"
"74486454787","2020-03-13T07:19:00","FM-16","6",,,,,,,,,,,,,,,,,,,,,,,,,,,,,,,,,,,,,,"29.83","51","54",,"-RA:02 BR:1 |RA |RA",,,"90",,"OVC:08 3","29.74","5.00","52","160","37","26",,,,,,,,,,,,,,,,,,,,,,,,,,,,,,,,,,,,,"MET12403/13/20 07:19:02 SPECI KFRG 131219Z 16023G32KT 5SM -RA BR OVC003 12/11 A2983 RMK AO2 PK WND 17032/1213 P0007 T01220106 (RP)","FM-16","6",,,,,,,,,,,,,,,,,,,,,,,,,,,,"2009-05-18"
"74486454787","2020-03-13T07:53:00","FM-15","6",,,,,,,,,,,,,,,,,,,,,,,,,,,,,,,,,,,,,,"29.84","51","54","0.05","-RA:02 BR:1 |RA |RA",,,"90","29.83","OVC:08 4","29.75","6.00","52","170","36","21",,,,,,,,,,,,,,,,,,,,,,,,,,,,,,,,,,,,,"MET13103/13/20 07:53:02 METAR KFRG 131253Z 17018G31KT 6SM -RA BR OVC004 12/11 A2984 RMK AO2 PK WND 18034/1234 SLP103 P0007 T01220106 (RP)","FM-15","6",,,,,,,,,,,,,,,,,,,,,,,,,,,,"2009-05-18"
"74486454787","2020-03-13T08:53:00","FM-15","7",,,,,,,,,,,,,,,,,,,,,,,,,,,,,,,,,,,,,,"29.82","52","54","0.01","-RA:02 BR:1 |RA |RA",,,"93","29.82","OVC:08 3","29.73","4.00","53","180",,"16",,,,,,,,,,,,,,,,,,,,,,,,,,,,,,,,,,,,,"MET12803/13/20 08:53:02 METAR KFRG 131353Z 18014KT 4SM -RA BR OVC003 12/11 A2982 RMK AO2 PK WND 18028/1259 SLP097 P0001 T01220111 (RP)","FM-15","7",,,,,,,,,,,,,,,,,,,,,,,,,,,,"2009-05-18"
"74486454787","2020-03-13T09:51:00","FM-16","7",,,,,,,,,,,,,,,,,,,,,,,,,,,,,,,,,,,,,,"29.78","52","55","T","-RA:02 BR:1 |RA |RA",,,"88",,"OVC:08 2","29.69","3.00","53","190",,"15",,,,,,,,,,,,,,,,,,,,,,,,,,,,,,,,,,,,,"MET10403/13/20 09:51:02 SPECI KFRG 131451Z 19013KT 3SM -RA BR OVC002 13/11 A2978 RMK AO2 RAE1357B24 P0000 (RP)","FM-16","7",,,,,,,,,,,,,,,,,,,,,,,,,,,,"2009-05-18"
"74486454787","2020-03-13T09:53:00","FM-15","7",,,,,,,,,,,,,,,,,,,,,,,,,,,,,,,,,,,,,,"29.78","52","55","T","-RA:02 BR:1 |RA |RA","+0.05","6","90","29.78","OVC:08 2","29.69","4.00","53","180",,"17",,,,,,,,,,,,,,,,,,,,,,,,,,,,,,,,,,,,,"MET13303/13/20 09:53:02 METAR KFRG 131453Z 18015KT 4SM -RA BR OVC002 13/11 A2978 RMK AO2 RAE1357B24 SLP085 P0000 60008 T01280111 56018 (RP)","FM-15","7",,,,,,,,,,,,,,,,,,,,,,,,,,,,"2009-05-18"
"74486454787","2020-03-13T10:21:00","FM-16","7",,,,,,,,,,,,,,,,,,,,,,,,,,,,,,,,,,,,,,"29.77","51","54","T","BR:1 ||",,,"90",,"OVC:08 2","29.68","1.75V","52","210","29","20",,,,,,,,,,,,,,,,,,,,,,,,,,,,,,,,,,,,,"MET12403/13/20 10:21:02 SPECI KFRG 131521Z 21017G25KT 1 3/4SM BR OVC002 12/11 A2977 RMK AO2 VIS 1 1/4V3 RAE03 P0000 T01220106 (RP)","FM-16","7",,,,,,,,,,,,,,,,,,,,,,,,,,,,"2009-05-18"
"74486454787","2020-03-13T10:50:00","FM-16","7",,,,,,,,,,,,,,,,,,,,,,,,,,,,,,,,,,,,,,"29.76","52","54","T","BR:1 ||",,,"94",,"OVC:08 2","29.67","3.00","53","220",,"13",,,,,,,,,,,,,,,,,,,,,,,,,,,,,,,,,,,,,"MET09503/13/20 10:50:02 SPECI KFRG 131550Z 22011KT 3SM BR OVC002 12/11 A2976 RMK AO2 RAE03 P0000 (RP)","FM-16","7",,,,,,,,,,,,,,,,,,,,,,,,,,,,"2009-05-18"
"74486454787","2020-03-13T10:53:00","FM-15","7",,,,,,,,,,,,,,,,,,,,,,,,,,,,,,,,,,,,,,"29.76","52","54","T","BR:1 ||",,,"93","29.76","OVC:08 2","29.67","3.00","53","220",,"14",,,,,,,,,,,,,,,,,,,,,,,,,,,,,,,,,,,,,"MET11203/13/20 10:53:02 METAR KFRG 131553Z 22012KT 3SM BR OVC002 12/11 A2976 RMK AO2 RAE03 SLP079 P0000 T01220111 (RP)","FM-15","7",,,,,,,,,,,,,,,,,,,,,,,,,,,,"2009-05-18"
"74486454787","2020-03-13T11:53:00","FM-15","7",,,,,,,,,,,,,,,,,,,,,,,,,,,,,,,,,,,,,,"29.77","52","54","0.00","BR:1 ||",,,"93","29.78","OVC:08 3","29.68","5.00","53","220",,"13",,,,,,,,,,,,,,,,,,,,,,,,,,,,,,,,,,,,,"MET10003/13/20 11:53:02 METAR KFRG 131653Z 22011KT 5SM BR OVC003 12/11 A2977 RMK AO2 SLP083 T01220111 (RP)","FM-15","7",,,,,,,,,,,,,,,,,,,,,,,,,,,,"2009-05-18"
"74486454787","2020-03-13T12:23:00","FM-16","7",,,,,,,,,,,,,,,,,,,,,,,,,,,,,,,,,,,,,,"29.78","52","55",,"BR:1 ||",,,"90",,"OVC:08 2","29.69","5.00","53","240",,"13",,,,,,,,,,,,,,,,,,,,,,,,,,,,,,,,,,,,,"MET09303/13/20 12:23:02 SPECI KFRG 131723Z 24011KT 5SM BR OVC002 13/11 A2978 RMK AO2 T01280111 (RP)","FM-16","7",,,,,,,,,,,,,,,,,,,,,,,,,,,,"2009-05-18"
"74486454787","2020-03-13T12:35:00","FM-16","7",,,,,,,,,,,,,,,,,,,,,,,,,,,,,,,,,,,,,,"29.77","53","56",,,,,"90",,"OVC:08 3","29.68","7.00","54","230",,"10",,,,,,,,,,,,,,,,,,,,,,,,,,,,,,,,,,,,,"MET09003/13/20 12:35:02 SPECI KFRG 131735Z 23009KT 7SM OVC003 13/12 A2977 RMK AO2 T01330117 (RP)","FM-16","7",,,,,,,,,,,,,,,,,,,,,,,,,,,,"2009-05-18"
"74486454787","2020-03-13T12:53:00","FM-15","7",,,,,,,,,,,,,,,,,,,,,,,,,,,,,,,,,,,,,,"29.76","54","58","0.00",,"+0.01","8","87","29.76","BKN:07 4","29.67","9.00","56","230",,"9",,,,,,,,,,,,,,,,,,,,,,,,,,,,,,,,,,,,,"MET13303/13/20 12:53:02 METAR KFRG 131753Z 23008KT 9SM BKN004 14/12 A2976 RMK AO2 CIG 003V008 SLP077 60008 T01440122 10144 20117 58003 (RP)","FM-15","7",,,,,,,,,,,,,,,,,,,,,,,,,,,,"2009-05-18"
"74486454787","2020-03-13T13:02:00","FM-16","7",,,,,,,,,,,,,,,,,,,,,,,,,,,,,,,,,,,,,,"29.75","55","61",,,,,"81",,"SCT:04 4","29.66","10.00","58","230","22","13",,,,,,,,,,,,,,,,,,,,,,,,,,,,,,,,,,,,,"MET09403/13/20 13:02:02 SPECI KFRG 131802Z 23011G19KT 10SM SCT004 16/13 A2975 RMK AO2 T01610128 (RP)","FM-16","7",,,,,,,,,,,,,,,,,,,,,,,,,,,,"2009-05-18"
"74486454787","2020-03-13T13:40:00","FM-16","7",,,,,,,,,,,,,,,,,,,,,,,,,,,,,,,,,,,,,,"29.74","54","66",,,,,"65",,"FEW:02 16 BKN:07 24","29.65","10.00","59","270","29","15",,,,,,,,,,,,,,,,,,,,,,,,,,,,,,,,,,,,,"MET10103/13/20 13:40:02 SPECI KFRG 131840Z 27013G25KT 10SM FEW016 BKN024 19/12 A2974 RMK AO2 T01890122 (RP)","FM-16","7",,,,,,,,,,,,,,,,,,,,,,,,,,,,"2009-05-18"
"74486454787","2020-03-13T13:51:00","FM-16","7",,,,,,,,,,,,,,,,,,,,,,,,,,,,,,,,,,,,,,"29.74","54","66",,,,,"64",,"FEW:02 19 SCT:04 26","29.65","10.00","59","250","28","21",,,,,,,,,,,,,,,,,,,,,,,,,,,,,,,,,,,,,"MET09103/13/20 13:51:02 SPECI KFRG 131851Z 25018G24KT 10SM FEW019 SCT026 19/12 A2974 RMK AO2 (RP)","FM-16","7",,,,,,,,,,,,,,,,,,,,,,,,,,,,"2009-05-18"
"74486454787","2020-03-13T13:53:00","FM-15","7",,,,,,,,,,,,,,,,,,,,,,,,,,,,,,,,,,,,,,"29.73","53","67","0.00",,,,"61","29.73","FEW:02 26","29.64","10.00","59","260","28","21",,,,,,,,,,,,,,,,,,,,,,,,,,,,,,,,,,,,,"MET10103/13/20 13:53:02 METAR KFRG 131853Z 26018G24KT 10SM FEW026 19/12 A2973 RMK AO2 SLP067 T01940117 (RP)","FM-15","7",,,,,,,,,,,,,,,,,,,,,,,,,,,,"2009-05-18"
"74486454787","2020-03-13T14:53:00","FM-15","7",,,,,,,,,,,,,,,,,,,,,,,,,,,,,,,,,,,,,,"29.74","48","71","0.00",,,,"44","29.74","FEW:02 36","29.65","10.00","58","270","30","18",,,,,,,,,,,,,,,,,,,,,,,,,,,,,,,,,,,,,"MET11403/13/20 14:53:02 METAR KFRG 131953Z 27016G26KT 10SM FEW036 22/09 A2974 RMK AO2 PK WND 28026/1947 SLP071 T02170089","FM-15","7",,,,,,,,,,,,,,,,,,,,,,,,,,,,"2009-05-18"
"74486454787","2020-03-13T15:53:00","FM-15","7",,,,,,,,,,,,,,,,,,,,,,,,,,,,,,,,,,,,,,"29.77","45","71","0.00",,"-0.03","3","39","29.76","CLR:00","29.68","10.00","57","280","36","20",,,,,,,,,,,,,,,,,,,,,,,,,,,,,,,,,,,,,"MET11703/13/20 15:53:02 METAR KFRG 132053Z 28017G31KT 10SM CLR 22/07 A2977 RMK AO2 PK WND 26033/2030 SLP079 T02170072 53010","FM-15","7",,,,,,,,,,,,,,,,,,,,,,,,,,,,"2009-05-18"
"74486454787","2020-03-13T16:53:00","FM-15","7",,,,,,,,,,,,,,,,,,,,,,,,,,,,,,,,,,,,,,"29.79","43","70","0.00",,,,"38","29.79","CLR:00","29.70","10.00","56","270","30","21",,,,,,,,,,,,,,,,,,,,,,,,,,,,,,,,,,,,,"MET11103/13/20 16:53:02 METAR KFRG 132153Z 27018G26KT 10SM CLR 21/06 A2979 RMK AO2 PK WND 26033/2111 SLP087 T02110061","FM-15","7",,,,,,,,,,,,,,,,,,,,,,,,,,,,"2009-05-18"
"74486454787","2020-03-13T17:53:00","FM-15","7",,,,,,,,,,,,,,,,,,,,,,,,,,,,,,,,,,,,,,"29.85","21","67","0.00",,,,"17","29.84","CLR:00","29.76","10.00","47","290","32","20",,,,,,,,,,,,,,,,,,,,,,,,,,,,,,,,,,,,,"MET11203/13/20 17:53:02 METAR KFRG 132253Z 29017G28KT 10SM CLR 19/M06 A2985 RMK AO2 PK WND 29030/2231 SLP106 T01941061","FM-15","7",,,,,,,,,,,,,,,,,,,,,,,,,,,,"2009-05-18"
"74486454787","2020-03-13T18:53:00","FM-15","7",,,,,,,,,,,,,,,,,,,,,,,,,,,,,,,,,,,,,,"29.90","16s","64","0.00",,"-0.13","3","15","29.90","CLR:00","29.81","10.00","45","VRB","28","15",,,,,,,,,,,,,,,,,,,,,,,,,,,,,,,,,,,,,"MET13703/13/20 18:53:02 METAR KFRG 132353Z 30013G24KT 10SM CLR 18/M09 A2990 RMK AO2 PK WND 28026/2258 PRESRR SLP124 T01781089 10222 20150 53045","FM-15","7",,,,,,,,,,,,,,,,,,,,,,,,,,,,"2009-05-18"
"74486454787","2020-03-13T19:53:00","FM-15","7",,,,,,,,,,,,,,,,,,,,,,,,,,,,,,,,,,,,,,"29.95","18s","62","0.00",,,,"18","29.95","CLR:00","29.86","10.00","44","290","24","15",,,,,,,,,,,,,,,,,,,,,,,,,,,,,,,,,,,,,"MET09403/13/20 19:53:01 METAR KFRG 140053Z 29013G21KT 10SM CLR 17/M08 A2995 RMK AO2 SLP141 T01671078","FM-15","7",,,,,,,,,,,,,,,,,,,,,,,,,,,,"2009-05-18"
"74486454787","2020-03-13T20:53:00","FM-15","7",,,,,,,,,,,,,,,,,,,,,,,,,,,,,,,,,,,,,,"29.99","18","60","0.00",,,,"19","29.99","CLR:00","29.90","10.00","43","290",,"13",,,,,,,,,,,,,,,,,,,,,,,,,,,,,,,,,,,,,"MET09103/13/20 20:53:01 METAR KFRG 140153Z 29011KT 10SM CLR 16/M08 A2999 RMK AO2 SLP156 T01561078","FM-15","7",,,,,,,,,,,,,,,,,,,,,,,,,,,,"2009-05-18"
"74486454787","2020-03-13T21:53:00","FM-15","7",,,,,,,,,,,,,,,,,,,,,,,,,,,,,,,,,,,,,,"30.04","19","57","0.00",,"-0.14","1","23","30.04","CLR:00","29.95","10.00","42","330",,"7",,,,,,,,,,,,,,,,,,,,,,,,,,,,,,,,,,,,,"MET10403/13/20 21:53:02 METAR KFRG 140253Z 33006KT 10SM CLR 14/M07 A3004 RMK AO2 PRESRR SLP172 T01391072 51047","FM-15","7",,,,,,,,,,,,,,,,,,,,,,,,,,,,"2009-05-18"
"74486454787","2020-03-13T22:53:00","FM-15","7",,,,,,,,,,,,,,,,,,,,,,,,,,,,,,,,,,,,,,"30.09","25","53","0.00",,,,"34","30.09","CLR:00","30.00","10.00","41","340","26","16",,,,,,,,,,,,,,,,,,,,,,,,,,,,,,,,,,,,,"MET09403/13/20 22:53:02 METAR KFRG 140353Z 34014G23KT 10SM CLR 12/M04 A3009 RMK AO2 SLP190 T01171039","FM-15","7",,,,,,,,,,,,,,,,,,,,,,,,,,,,"2009-05-18"
"74486454787","2020-03-13T23:53:00","FM-15","7",,,,,,,,,,,,,,,,,,,,,,,,,,,,,,,,,,,,,,"30.12","21","50","0.00",,,,"32","30.12","CLR:00","30.03","10.00","39","330","23","14",,,,,,,,,,,,,,,,,,,,,,,,,,,,,,,,,,,,,"MET10403/13/20 23:53:02 METAR KFRG 140453Z 33012G20KT 10SM CLR 10/M06 A3012 RMK AO2 SLP200 T01001061 402220089","FM-15","7",,,,,,,,,,,,,,,,,,,,,,,,,,,,"2009-05-18"
"74486454787","2020-03-13T23:59:00","SOD  ","6",,,,,,,,,,,,,,,,"60",,,"29.80",,"16.2","0","20.6","5","72","48","180","39","0.16",,,"260","29","RA BR",,,,,,,,,,,,,,,,,,,,,,,,,,,,,,,,,,,,,,,,,,,,,,,,,,,,,,,,"SOD73024 HR PRECIPITATION (IN):0.16  24 HR MAX TEMP (F):72 24 HR MAX TEMP TIME (LST):1519 24 HR MIN TEMP (F):48 24 HR MIN TEMP TIME (LST):0223 AVERAGE STATION PRESSURE:29.800 MINIMUM SEA LEVEL PRESSURE:29.73 TIME OF OCCURRENCE:1440 PEAK WIND SPEED (MPH):39  PEAK WIND DIR (DEG):180 PEAK WIND TIME (LST):0734  FASTEST 2MIN SPEED (MPH):29 FASTEST 2MIN DIR (DEG):260 FASTEST 2MIN TIME (LST):1612 AVERAGE WIND SPEED (MPH):16.2 24 HR AVG TEMP (F):60 HEATING DEGREE DAYS:5   COOLING DEGREE DAYS:0   LATEST DAY MAX TEMP (0700-1900 LST):72  LATEST NIGHT MIN TEMP(1900-0800 LST):46 HOURLY INCREMENTAL PRECIPITATION VALUES (IN):.01 0.00 T    T    T    0.00 0.09 0.05 0.01 T    T    0.00 0.00 0.00 0.00 0.00 0.00 0.00 0.00 0.00 0.00 0.00 0.00 0.00","SOD  ","6",,,,,,,,,,,,,,,,,,,,,,,,,"0607","1759",,"2009-05-18"
"74486454787","2020-03-14T00:53:00","FM-15","6",,,,,,,,,,,,,,,,,,,,,,,,,,,,,,,,,,,,,,"30.15","19","48","0.00",,"-0.11","1","32","30.15","CLR:00","30.06","10.00","37","330","25","18",,,,,,,,,,,,,,,,,,,,,,,,,,,,,,,,,,,,,"MET11203/14/20 00:53:02 METAR KFRG 140553Z 33016G22KT 10SM CLR 09/M07 A3015 RMK AO2 SLP209 T00891072 10178 20089 51036","FM-15","6",,,,,,,,,,,,,,,,,,,,,,,,,,,,"2009-05-18"
"74486454787","2020-03-14T01:53:00","FM-15","6",,,,,,,,,,,,,,,,,,,,,,,,,,,,,,,,,,,,,,"30.18","20","46","0.00",,,,"35","30.17","CLR:00","30.09","10.00","36","320","20","10",,,,,,,,,,,,,,,,,,,,,,,,,,,,,,,,,,,,,"MET09403/14/20 01:53:02 METAR KFRG 140653Z 32009G17KT 10SM CLR 08/M07 A3018 RMK AO2 SLP218 T00781067","FM-15","6",,,,,,,,,,,,,,,,,,,,,,,,,,,,"2009-05-18"
"74486454787","2020-03-14T02:53:00","FM-15","6",,,,,,,,,,,,,,,,,,,,,,,,,,,,,,,,,,,,,,"30.17","20","46","0.00",,,,"35","30.16","CLR:00","30.08","10.00","36","310","24","10",,,,,,,,,,,,,,,,,,,,,,,,,,,,,,,,,,,,,"MET09403/14/20 02:53:02 METAR KFRG 140753Z 31009G21KT 10SM CLR 08/M07 A3017 RMK AO2 SLP214 T00781067","FM-15","6",,,,,,,,,,,,,,,,,,,,,,,,,,,,"2009-05-18"
"74486454787","2020-03-14T03:53:00","FM-15","6",,,,,,,,,,,,,,,,,,,,,,,,,,,,,,,,,,,,,,"30.20","21","45","0.00",,"-0.06","3","39","30.20","CLR:00","30.11","10.00","36","300","16","8",,,,,,,,,,,,,,,,,,,,,,,,,,,,,,,,,,,,,"MET10003/14/20 03:53:02 METAR KFRG 140853Z 30007G14KT 10SM CLR 07/M06 A3020 RMK AO2 SLP227 T00721061 53019","FM-15","6",,,,,,,,,,,,,,,,,,,,,,,,,,,,"2009-05-18"
"74486454787","2020-03-14T04:53:00","FM-15","6",,,,,,,,,,,,,,,,,,,,,,,,,,,,,,,,,,,,,,"30.23","21","45","0.00",,,,"39","30.23","CLR:00","30.14","10.00","36","290","18","9",,,,,,,,,,,,,,,,,,,,,,,,,,,,,,,,,,,,,"MET09403/14/20 04:53:02 METAR KFRG 140953Z 29008G16KT 10SM CLR 07/M06 A3023 RMK AO2 SLP236 T00721061","FM-15","6",,,,,,,,,,,,,,,,,,,,,,,,,,,,"2009-05-18"
"74486454787","2020-03-14T05:53:00","FM-15","6",,,,,,,,,,,,,,,,,,,,,,,,,,,,,,,,,,,,,,"30.26","21","44","0.00",,,,"40","30.26","CLR:00","30.17","10.00","35","290","18","9",,,,,,,,,,,,,,,,,,,,,,,,,,,,,,,,,,,,,"MET09403/14/20 05:53:02 METAR KFRG 141053Z 29008G16KT 10SM CLR 07/M06 A3026 RMK AO2 SLP246 T00671061","FM-15","6",,,,,,,,,,,,,,,,,,,,,,,,,,,,"2009-05-18"
"74486454787","2020-03-14T06:53:00","FM-15","6",,,,,,,,,,,,,,,,,,,,,,,,,,,,,,,,,,,,,,"30.29","22","45","0.00",,"-0.08","3","40","30.29","CLR:00","30.20","10.00","36","290","18","14",,,,,,,,,,,,,,,,,,,,,,,,,,,,,,,,,,,,,"MET12303/14/20 06:53:02 METAR KFRG 141153Z 29012G16KT 10SM CLR 07/M06 A3029 RMK AO2 SLP256 70008 T00721056 10089 20061 53028 (CS)","FM-15","6",,,,,,,,,,,,,,,,,,,,,,,,,,,,"2009-05-18"
"74486454787","2020-03-14T07:53:00","FM-15","7",,,,,,,,,,,,,,,,,,,,,,,,,,,,,,,,,,,,,,"30.29","22","46","0.00",,,,"38","30.29","CLR:00","30.20","10.00","37","280",,"17",,,,,,,,,,,,,,,,,,,,,,,,,,,,,,,,,,,,,"MET09603/14/20 07:53:02 METAR KFRG 141253Z 28015KT 10SM CLR 08/M06 A3029 RMK AO2 SLP256 T00781056 (CS)","FM-15","7",,,,,,,,,,,,,,,,,,,,,,,,,,,,"2009-05-18"
"74486454787","2020-03-14T08:53:00","FM-15","7",,,,,,,,,,,,,,,,,,,,,,,,,,,,,,,,,,,,,,"30.28","22","48","0.00",,,,"36","30.28","CLR:00","30.19","10.00","38","300","23","9",,,,,,,,,,,,,,,,,,,,,,,,,,,,,,,,,,,,,"MET09903/14/20 08:53:02 METAR KFRG 141353Z 30008G20KT 10SM CLR 09/M06 A3028 RMK AO2 SLP255 T00891056 (CS)","FM-15","7",,,,,,,,,,,,,,,,,,,,,,,,,,,,"2009-05-18"
"74486454787","2020-03-14T09:53:00","FM-15","7",,,,,,,,,,,,,,,,,,,,,,,,,,,,,,,,,,,,,,"30.28","22","49","0.00",,"+0.00","5","35","30.28","CLR:00","30.19","10.00","39","310","23","14",,,,,,,,,,,,,,,,,,,,,,,,,,,,,,,,,,,,,"MET10503/14/20 09:53:02 METAR KFRG 141453Z 31012G20KT 10SM CLR 09/M06 A3028 RMK AO2 SLP255 T00941056 55000 (CS)","FM-15","7",,,,,,,,,,,,,,,,,,,,,,,,,,,,"2009-05-18"
"74486454787","2020-03-14T10:53:00","FM-15","7",,,,,,,,,,,,,,,,,,,,,,,,,,,,,,,,,,,,,,"30.30","22","51","0.00",,,,"32","30.30","CLR:00","30.21","10.00","40","330","21","8",,,,,,,,,,,,,,,,,,,,,,,,,,,,,,,,,,,,,"MET09903/14/20 10:53:02 METAR KFRG 141553Z 33007G18KT 10SM CLR 11/M06 A3030 RMK AO2 SLP261 T01061056 (CS)","FM-15","7",,,,,,,,,,,,,,,,,,,,,,,,,,,,"2009-05-18"
"74486454787","2020-03-14T11:53:00","FM-15","7",,,,,,,,,,,,,,,,,,,,,,,,,,,,,,,,,,,,,,"30.31","23","52","0.00",,,,"32","30.31","CLR:00","30.22","10.00","40","290","21","14",,,,,,,,,,,,,,,,,,,,,,,,,,,,,,,,,,,,,"MET09903/14/20 11:53:02 METAR KFRG 141653Z 29012G18KT 10SM CLR 11/M05 A3031 RMK AO2 SLP264 T01111050 (CS)","FM-15","7",,,,,,,,,,,,,,,,,,,,,,,,,,,,"2009-05-18"
"74486454787","2020-03-14T12:53:00","FM-15","7",,,,,,,,,,,,,,,,,,,,,,,,,,,,,,,,,,,,,,"30.30","23","54","0.00",,"-0.01","0","30","30.29","CLR:00","30.21","10.00","41","330",,"14",,,,,,,,,,,,,,,,,,,,,,,,,,,,,,,,,,,,,"MET11403/14/20 12:53:02 METAR KFRG 141753Z 33012KT 10SM CLR 12/M05 A3030 RMK AO2 SLP259 T01221050 10122 20072 50004 (CS)","FM-15","7",,,,,,,,,,,,,,,,,,,,,,,,,,,,"2009-05-18"
"74486454787","2020-03-14T13:53:00","FM-15","7",,,,,,,,,,,,,,,,,,,,,,,,,,,,,,,,,,,,,,"30.29","23","55","0.00",,,,"29","30.29","CLR:00","30.20","10.00","42","320",,"11",,,,,,,,,,,,,,,,,,,,,,,,,,,,,,,,,,,,,"MET09603/14/20 13:53:02 METAR KFRG 141853Z 32010KT 10SM CLR 13/M05 A3029 RMK AO2 SLP256 T01281050 (CS)","FM-15","7",,,,,,,,,,,,,,,,,,,,,,,,,,,,"2009-05-18"
"74486454787","2020-03-14T14:53:00","FM-15","7",,,,,,,,,,,,,,,,,,,,,,,,,,,,,,,,,,,,,,"30.28","23","56","0.00",,,,"28","30.28","CLR:00","30.19","10.00","42","330",,"10",,,,,,,,,,,,,,,,,,,,,,,,,,,,,,,,,,,,,"MET09603/14/20 14:53:02 METAR KFRG 141953Z 33009KT 10SM CLR 13/M05 A3028 RMK AO2 SLP253 T01331050 (CS)","FM-15","7",,,,,,,,,,,,,,,,,,,,,,,,,,,,"2009-05-18"
"74486454787","2020-03-14T15:53:00","FM-15","7",,,,,,,,,,,,,,,,,,,,,,,,,,,,,,,,,,,,,,"30.28","22","56","0.00",,"+0.01","5","27","30.28","CLR:00","30.19","10.00","42","330",,"11",,,,,,,,,,,,,,,,,,,,,,,,,,,,,,,,,,,,,"MET09703/14/20 15:53:02 METAR KFRG 142053Z 33010KT 10SM CLR 13/M06 A3028 RMK AO2 SLP255 T01331056 55004","FM-15","7",,,,,,,,,,,,,,,,,,,,,,,,,,,,"2009-05-18"
"74486454787","2020-03-14T16:53:00","FM-15","7",,,,,,,,,,,,,,,,,,,,,,,,,,,,,,,,,,,,,,"30.31","23","54","0.00",,,,"30","30.31","CLR:00","30.22","10.00","41","320",,"10",,,,,,,,,,,,,,,,,,,,,,,,,,,,,,,,,,,,,"MET09103/14/20 16:53:02 METAR KFRG 142153Z 32009KT 10SM CLR 12/M05 A3031 RMK AO2 SLP264 T01221050","FM-15","7",,,,,,,,,,,,,,,,,,,,,,,,,,,,"2009-05-18"
"74486454787","2020-03-14T17:53:00","FM-15","7",,,,,,,,,,,,,,,,,,,,,,,,,,,,,,,,,,,,,,"30.32","23","52","0.00",,,,"32","30.32","CLR:00","30.23","10.00","40","340",,"11",,,,,,,,,,,,,,,,,,,,,,,,,,,,,,,,,,,,,"MET09103/14/20 17:53:02 METAR KFRG 142253Z 34010KT 10SM CLR 11/M05 A3032 RMK AO2 SLP267 T01111050","FM-15","7",,,,,,,,,,,,,,,,,,,,,,,,,,,,"2009-05-18"
"74486454787","2020-03-14T18:53:00","FM-15","7",,,,,,,,,,,,,,,,,,,,,,,,,,,,,,,,,,,,,,"30.32","23","51","0.00",,"-0.04","0","33","30.32","CLR:00","30.23","10.00","40","340",,"9",,,,,,,,,,,,,,,,,,,,,,,,,,,,,,,,,,,,,"MET10903/14/20 18:53:02 METAR KFRG 142353Z 34008KT 10SM CLR 11/M05 A3032 RMK AO2 SLP267 T01061050 10133 20106 50012","FM-15","7",,,,,,,,,,,,,,,,,,,,,,,,,,,,"2009-05-18"
"74486454787","2020-03-14T19:53:00","FM-15","7",,,,,,,,,,,,,,,,,,,,,,,,,,,,,,,,,,,,,,"30.33","24","50","0.00",,,,"36","30.33","OVC:08 100","30.24","10.00","40","330",,"9",,,,,,,,,,,,,,,,,,,,,,,,,,,,,,,,,,,,,"MET09403/14/20 19:53:01 METAR KFRG 150053Z 33008KT 10SM OVC100 10/M04 A3033 RMK AO2 SLP271 T01001044","FM-15","7",,,,,,,,,,,,,,,,,,,,,,,,,,,,"2009-05-18"
"74486454787","2020-03-14T20:53:00","FM-15","7",,,,,,,,,,,,,,,,,,,,,,,,,,,,,,,,,,,,,,"30.35","24","50","0.00",,,,"36","30.35","OVC:08 95","30.26","10.00","40","330","18","13",,,,,,,,,,,,,,,,,,,,,,,,,,,,,,,,,,,,,"MET09703/14/20 20:53:01 METAR KFRG 150153Z 33011G16KT 10SM OVC095 10/M04 A3035 RMK AO2 SLP278 T01001044","FM-15","7",,,,,,,,,,,,,,,,,,,,,,,,,,,,"2009-05-18"
"74486454787","2020-03-14T21:53:00","FM-15","7",,,,,,,,,,,,,,,,,,,,,,,,,,,,,,,,,,,,,,"30.36","25","48","0.00",,"-0.04","1","41","30.35","OVC:08 90","30.27","10.00","39","340",,"9",,,,,,,,,,,,,,,,,,,,,,,,,,,,,,,,,,,,,"MET10003/14/20 21:53:01 METAR KFRG 150253Z 34008KT 10SM OVC090 09/M04 A3036 RMK AO2 SLP279 T00891039 51013","FM-15","7",,,,,,,,,,,,,,,,,,,,,,,,,,,,"2009-05-18"
"74486454787","2020-03-14T22:53:00","FM-15","7",,,,,,,,,,,,,,,,,,,,,,,,,,,,,,,,,,,,,,"30.36","25","48","0.00",,,,"41","30.36","SCT:04 70 OVC:08 90","30.27","10.00","39","340",,"10",,,,,,,,,,,,,,,,,,,,,,,,,,,,,,,,,,,,,"MET10103/14/20 22:53:02 METAR KFRG 150353Z 34009KT 10SM SCT070 OVC090 09/M04 A3036 RMK AO2 SLP281 T00891039","FM-15","7",,,,,,,,,,,,,,,,,,,,,,,,,,,,"2009-05-18"
"74486454787","2020-03-14T23:53:00","FM-15","7",,,,,,,,,,,,,,,,,,,,,,,,,,,,,,,,,,,,,,"30.37","25","47","0.00",,,,"42","30.37","BKN:07 70 OVC:08 85","30.28","10.00","38","340",,"9",,,,,,,,,,,,,,,,,,,,,,,,,,,,,,,,,,,,,"MET11103/14/20 23:53:02 METAR KFRG 150453Z 34008KT 10SM BKN070 OVC085 08/M04 A3037 RMK AO2 SLP285 T00831039 401330061","FM-15","7",,,,,,,,,,,,,,,,,,,,,,,,,,,,"2009-05-18"
"74486454787","2020-03-14T23:59:00","SOD  ","6",,,,,,,,,,,,,,,,"50",,,"30.17",,"11.3","0","10.4","15","56","43","320","29","0.00",,,"330","21",,,,,,,,,,,,,,,,,,,,,,,,,,,,,,,,,,,,,,,,,,,,,,,,,,,,,,,,,"SOD73024 HR PRECIPITATION (IN):0.00  24 HR MAX TEMP (F):56 24 HR MAX TEMP TIME (LST):1619 24 HR MIN TEMP (F):43 24 HR MIN TEMP TIME (LST):0612 AVERAGE STATION PRESSURE:30.170 MINIMUM SEA LEVEL PRESSURE:30.12 TIME OF OCCURRENCE:0013 PEAK WIND SPEED (MPH):29  PEAK WIND DIR (DEG):320 PEAK WIND TIME (LST):0025  FASTEST 2MIN SPEED (MPH):21 FASTEST 2MIN DIR (DEG):330 FASTEST 2MIN TIME (LST):0038 AVERAGE WIND SPEED (MPH):11.3 24 HR AVG TEMP (F):50 HEATING DEGREE DAYS:15  COOLING DEGREE DAYS:0   LATEST DAY MAX TEMP (0700-1900 LST):56  LATEST NIGHT MIN TEMP(1900-0800 LST):43 HOURLY INCREMENTAL PRECIPITATION VALUES (IN):.00 0.00 0.00 0.00 0.00 0.00 0.00 0.00 0.00 0.00 0.00 0.00 0.00 0.00 0.00 0.00 0.00 0.00 0.00 0.00 0.00 0.00 0.00 0.00","SOD  ","6",,,,,,,,,,,,,,,,,,,,,,,,,"0606","1800",,"2009-05-18"
"74486454787","2020-03-15T00:53:00","FM-15","7",,,,,,,,,,,,,,,,,,,,,,,,,,,,,,,,,,,,,,"30.39","27","45","0.00",,"-0.03","3","49","30.38","SCT:04 60 SCT:04 70 OVC:08 90","30.30","10.00","38","030",,"10",,,,,,,,,,,,,,,,,,,,,,,,,,,,,,,,,,,,,"MET12603/15/20 00:53:02 METAR KFRG 150553Z 03009KT 10SM SCT060 SCT070 OVC090 07/M03 A3039 RMK AO2 SLP289 T00721028 10106 20072 53010","FM-15","7",,,,,,,,,,,,,,,,,,,,,,,,,,,,"2009-05-18"
"74486454787","2020-03-15T01:53:00","FM-15","7",,,,,,,,,,,,,,,,,,,,,,,,,,,,,,,,,,,,,,"30.38","26","44","0.00",,,,"49","30.38","OVC:08 55","30.29","10.00","37","030",,"7",,,,,,,,,,,,,,,,,,,,,,,,,,,,,,,,,,,,,"MET09403/15/20 01:53:02 METAR KFRG 150653Z 03006KT 10SM OVC055 07/M03 A3038 RMK AO2 SLP287 T00671033","FM-15","7",,,,,,,,,,,,,,,,,,,,,,,,,,,,"2009-05-18"
"74486454787","2020-03-15T02:53:00","FM-15","7",,,,,,,,,,,,,,,,,,,,,,,,,,,,,,,,,,,,,,"30.36","24","44","0.00",,,,"45","30.36","SCT:04 75 OVC:08 100","30.27","10.00","36","010",,"6",,,,,,,,,,,,,,,,,,,,,,,,,,,,,,,,,,,,,"MET10103/15/20 02:53:02 METAR KFRG 150753Z 01005KT 10SM SCT075 OVC100 07/M04 A3036 RMK AO2 SLP280 T00671044","FM-15","7",,,,,,,,,,,,,,,,,,,,,,,,,,,,"2009-05-18"
"74486454787","2020-03-15T03:53:00","FM-15","7",,,,,,,,,,,,,,,,,,,,,,,,,,,,,,,,,,,,,,"30.37","24","43","0.00",,"+0.01","5","47","30.37","OVC:08 85","30.28","10.00","36","350",,"3",,,,,,,,,,,,,,,,,,,,,,,,,,,,,,,,,,,,,"MET10003/15/20 03:53:02 METAR KFRG 150853Z 35003KT 10SM OVC085 06/M04 A3037 RMK AO2 SLP285 T00611044 55005","FM-15","7",,,,,,,,,,,,,,,,,,,,,,,,,,,,"2009-05-18"
"74486454787","2020-03-15T04:53:00","FM-15","7",,,,,,,,,,,,,,,,,,,,,,,,,,,,,,,,,,,,,,"30.39","24","43","0.00",,,,"47","30.39","OVC:08 90","30.30","10.00","36","350",,"5",,,,,,,,,,,,,,,,,,,,,,,,,,,,,,,,,,,,,"MET09403/15/20 04:53:02 METAR KFRG 150953Z 35004KT 10SM OVC090 06/M04 A3039 RMK AO2 SLP292 T00611044","FM-15","7",,,,,,,,,,,,,,,,,,,,,,,,,,,,"2009-05-18"
"74486454787","2020-03-15T05:53:00","FM-15","7",,,,,,,,,,,,,,,,,,,,,,,,,,,,,,,,,,,,,,"30.41","25","43","0.00",,,,"49","30.41","OVC:08 95","30.32","10.00","36","010",,"6",,,,,,,,,,,,,,,,,,,,,,,,,,,,,,,,,,,,,"MET09903/15/20 05:53:02 METAR KFRG 151053Z 01005KT 10SM OVC095 06/M04 A3041 RMK AO2 SLP297 T00611039 (GI)","FM-15","7",,,,,,,,,,,,,,,,,,,,,,,,,,,,"2009-05-18"
"74486454787","2020-03-15T06:53:00","FM-15","7",,,,,,,,,,,,,,,,,,,,,,,,,,,,,,,,,,,,,,"30.43","25","43","0.00",,"-0.06","3","49","30.43","BKN:07 90 OVC:08 110","30.34","10.00","36","360",,"6",,,,,,,,,,,,,,,,,,,,,,,,,,,,,,,,,,,,,"MET12403/15/20 06:53:02 METAR KFRG 151153Z 36005KT 10SM BKN090 OVC110 06/M04 A3043 RMK AO2 SLP305 T00611039 10072 20056 53020 (GI)","FM-15","7",,,,,,,,,,,,,,,,,,,,,,,,,,,,"2009-05-18"
"74486454787","2020-03-15T07:53:00","FM-15","7",,,,,,,,,,,,,,,,,,,,,,,,,,,,,,,,,,,,,,"30.45","25","43","0.00",,,,"49","30.45","OVC:08 95","30.36","10.00","36","360",,"11",,,,,,,,,,,,,,,,,,,,,,,,,,,,,,,,,,,,,"MET09903/15/20 07:53:02 METAR KFRG 151253Z 36010KT 10SM OVC095 06/M04 A3045 RMK AO2 SLP311 T00611039 (GI)","FM-15","7",,,,,,,,,,,,,,,,,,,,,,,,,,,,"2009-05-18"
"74486454787","2020-03-15T08:53:00","FM-15","7",,,,,,,,,,,,,,,,,,,,,,,,,,,,,,,,,,,,,,"30.45","24","43","0.00",,,,"47","30.45","OVC:08 100","30.36","10.00","36","020",,"11",,,,,,,,,,,,,,,,,,,,,,,,,,,,,,,,,,,,,"MET09903/15/20 08:53:02 METAR KFRG 151353Z 02010KT 10SM OVC100 06/M04 A3045 RMK AO2 SLP312 T00611044 (GI)","FM-15","7",,,,,,,,,,,,,,,,,,,,,,,,,,,,"2009-05-18"
"74486454787","2020-03-15T09:53:00","FM-15","7",,,,,,,,,,,,,,,,,,,,,,,,,,,,,,,,,,,,,,"30.46","24","46","0.00",,"-0.02","1","42","30.45","SCT:04 100","30.37","10.00","37","020",,"14",,,,,,,,,,,,,,,,,,,,,,,,,,,,,,,,,,,,,"MET10503/15/20 09:53:02 METAR KFRG 151453Z 02012KT 10SM SCT100 08/M04 A3046 RMK AO2 SLP313 T00781044 51008 (GI)","FM-15","7",,,,,,,,,,,,,,,,,,,,,,,,,,,,"2009-05-18"
"74486454787","2020-03-15T10:53:00","FM-15","7",,,,,,,,,,,,,,,,,,,,,,,,,,,,,,,,,,,,,,"30.45","18","48","0.00",,,,"30","30.45","CLR:00","30.36","10.00","37","350","21","11",,,,,,,,,,,,,,,,,,,,,,,,,,,,,,,,,,,,,"MET09903/15/20 10:53:02 METAR KFRG 151553Z 35010G18KT 10SM CLR 09/M08 A3045 RMK AO2 SLP313 T00891078 (GI)","FM-15","7",,,,,,,,,,,,,,,,,,,,,,,,,,,,"2009-05-18"
"74486454787","2020-03-15T11:53:00","FM-15","7",,,,,,,,,,,,,,,,,,,,,,,,,,,,,,,,,,,,,,"30.45","21","49","0.00",,,,"33","30.45","CLR:00","30.36","10.00","38","VRB",,"5",,,,,,,,,,,,,,,,,,,,,,,,,,,,,,,,,,,,,"MET09603/15/20 11:53:02 METAR KFRG 151653Z VRB04KT 10SM CLR 09/M06 A3045 RMK AO2 SLP310 T00941061 (GI)","FM-15","7",,,,,,,,,,,,,,,,,,,,,,,,,,,,"2009-05-18"
"74486454787","2020-03-15T12:53:00","FM-15","7",,,,,,,,,,,,,,,,,,,,,,,,,,,,,,,,,,,,,,"30.43","21","52","0.00",,"+0.02","8","30","30.43","CLR:00","30.34","10.00","40","360","25","13",,,,,,,,,,,,,,,,,,,,,,,,,,,,,,,,,,,,,"MET11703/15/20 12:53:02 METAR KFRG 151753Z 36011G22KT 10SM CLR 11/M06 A3043 RMK AO2 SLP305 T01111061 10111 20061 58008 (GI)","FM-15","7",,,,,,,,,,,,,,,,,,,,,,,,,,,,"2009-05-18"
"74486454787","2020-03-15T13:53:00","FM-15","7",,,,,,,,,,,,,,,,,,,,,,,,,,,,,,,,,,,,,,"30.41","16","51","0.00",,,,"25","30.41","CLR:00","30.32","10.00","38","010","16","7",,,,,,,,,,,,,,,,,,,,,,,,,,,,,,,,,,,,,"MET09903/15/20 13:53:02 METAR KFRG 151853Z 01006G14KT 10SM CLR 11/M09 A3041 RMK AO2 SLP298 T01061089 (GI)","FM-15","7",,,,,,,,,,,,,,,,,,,,,,,,,,,,"2009-05-18"
"74486454787","2020-03-15T14:53:00","FM-15","7",,,,,,,,,,,,,,,,,,,,,,,,,,,,,,,,,,,,,,"30.40","17","53","0.00",,,,"24","30.40","CLR:00","30.31","10.00","39","010","21","14",,,,,,,,,,,,,,,,,,,,,,,,,,,,,,,,,,,,,"MET09903/15/20 14:53:02 METAR KFRG 151953Z 01012G18KT 10SM CLR 12/M08 A3040 RMK AO2 SLP296 T01171083 (KM)","FM-15","7",,,,,,,,,,,,,,,,,,,,,,,,,,,,"2009-05-18"
"74486454787","2020-03-15T15:53:00","FM-15","7",,,,,,,,,,,,,,,,,,,,,,,,,,,,,,,,,,,,,,"30.40","15","53","0.00",,"+0.03","6","22","30.40","CLR:00","30.31","10.00","39","VRB","21","11",,,,,,,,,,,,,,,,,,,,,,,,,,,,,,,,,,,,,"MET10503/15/20 15:53:02 METAR KFRG 152053Z 34010G18KT 10SM CLR 12/M09 A3040 RMK AO2 SLP296 T01171094 56009 (KM)","FM-15","7",,,,,,,,,,,,,,,,,,,,,,,,,,,,"2009-05-18"
"74486454787","2020-03-15T16:53:00","FM-15","7",,,,,,,,,,,,,,,,,,,,,,,,,,,,,,,,,,,,,,"30.42","12","52","0.00",,,,"20","30.42","CLR:00","30.33","10.00","38","VRB",,"7",,,,,,,,,,,,,,,,,,,,,,,,,,,,,,,,,,,,,"MET09603/15/20 16:53:02 METAR KFRG 152153Z VRB06KT 10SM CLR 11/M11 A3042 RMK AO2 SLP301 T01111111 (KM)","FM-15","7",,,,,,,,,,,,,,,,,,,,,,,,,,,,"2009-05-18"
"74486454787","2020-03-15T17:53:00","FM-15","7",,,,,,,,,,,,,,,,,,,,,,,,,,,,,,,,,,,,,,"30.43","12","48","0.00",,,,"23","30.43","CLR:00","30.34","10.00","36","050",,"7",,,,,,,,,,,,,,,,,,,,,,,,,,,,,,,,,,,,,"MET09603/15/20 17:53:02 METAR KFRG 152253Z 05006KT 10SM CLR 09/M11 A3043 RMK AO2 SLP304 T00891111 (KM)","FM-15","7",,,,,,,,,,,,,,,,,,,,,,,,,,,,"2009-05-18"
"74486454787","2020-03-15T18:53:00","FM-15","7",,,,,,,,,,,,,,,,,,,,,,,,,,,,,,,,,,,,,,"30.45","11","47","0.00",,"-0.04","3","23","30.45","CLR:00","30.36","10.00","35","050",,"3",,,,,,,,,,,,,,,,,,,,,,,,,,,,,,,,,,,,,"MET11403/15/20 18:53:02 METAR KFRG 152353Z 05003KT 10SM CLR 08/M12 A3045 RMK AO2 SLP311 T00831117 10122 20083 53015 (KM)","FM-15","7",,,,,,,,,,,,,,,,,,,,,,,,,,,,"2009-05-18"
"74486454787","2020-03-15T19:53:00","FM-15","7",,,,,,,,,,,,,,,,,,,,,,,,,,,,,,,,,,,,,,"30.48","13","45","0.00",,,,"27","30.47","CLR:00","30.39","10.00","34","000",,"0",,,,,,,,,,,,,,,,,,,,,,,,,,,,,,,,,,,,,"MET09103/15/20 19:53:01 METAR KFRG 160053Z 00000KT 10SM CLR 07/M11 A3048 RMK AO2 SLP320 T00721106","FM-15","7",,,,,,,,,,,,,,,,,,,,,,,,,,,,"2009-05-18"
"74486454787","2020-03-15T20:53:00","FM-15","7",,,,,,,,,,,,,,,,,,,,,,,,,,,,,,,,,,,,,,"30.49","14","44","0.00",,,,"30","30.49","CLR:00","30.40","10.00","34","020",,"5",,,,,,,,,,,,,,,,,,,,,,,,,,,,,,,,,,,,,"MET09103/15/20 20:53:01 METAR KFRG 160153Z 02004KT 10SM CLR 07/M10 A3049 RMK AO2 SLP324 T00671100","FM-15","7",,,,,,,,,,,,,,,,,,,,,,,,,,,,"2009-05-18"
"74486454787","2020-03-15T21:53:00","FM-15","7",,,,,,,,,,,,,,,,,,,,,,,,,,,,,,,,,,,,,,"30.50","15","42","0.00",,"-0.06","1","33","30.50","CLR:00","30.41","10.00","33","020",,"3",,,,,,,,,,,,,,,,,,,,,,,,,,,,,,,,,,,,,"MET09703/15/20 21:53:01 METAR KFRG 160253Z 02003KT 10SM CLR 06/M09 A3050 RMK AO2 SLP330 T00561094 51019","FM-15","7",,,,,,,,,,,,,,,,,,,,,,,,,,,,"2009-05-18"
"74486454787","2020-03-15T22:53:00","FM-15","7",,,,,,,,,,,,,,,,,,,,,,,,,,,,,,,,,,,,,,"30.52","16","41","0.00",,,,"36","30.52","CLR:00","30.43","10.00","32","360",,"7",,,,,,,,,,,,,,,,,,,,,,,,,,,,,,,,,,,,,"MET09103/15/20 22:53:02 METAR KFRG 160353Z 36006KT 10SM CLR 05/M09 A3052 RMK AO2 SLP334 T00501089","FM-15","7",,,,,,,,,,,,,,,,,,,,,,,,,,,,"2009-05-18"
"74486454787","2020-03-15T23:53:00","FM-15","7",,,,,,,,,,,,,,,,,,,,,,,,,,,,,,,,,,,,,,"30.53","18","38","0.00",,,,"44","30.53","CLR:00","30.44","10.00","31","020",,"8",,,,,,,,,,,,,,,,,,,,,,,,,,,,,,,,,,,,,"MET10103/15/20 23:53:02 METAR KFRG 160453Z 02007KT 10SM CLR 03/M08 A3053 RMK AO2 SLP337 T00331078 401220033","FM-15","7",,,,,,,,,,,,,,,,,,,,,,,,,,,,"2009-05-18"
"74486454787","2020-03-15T23:59:00","SOD  ","6",,,,,,,,,,,,,,,,"46",,,"30.33",,"7.5","0","6.1","19","54","37","010","25","0.00",,,"010","16",,,,,,,,,,,,,,,,,,,,,,,,,,,,,,,,,,,,,,,,,,,,,,,,,,,,,,,,,"SOD73024 HR PRECIPITATION (IN):0.00  24 HR MAX TEMP (F):54 24 HR MAX TEMP TIME (LST):1451 24 HR MIN TEMP (F):37 24 HR MIN TEMP TIME (LST):2359 AVERAGE STATION PRESSURE:30.330 MINIMUM SEA LEVEL PRESSURE:30.35 TIME OF OCCURRENCE:0329 PEAK WIND SPEED (MPH):25  PEAK WIND DIR (DEG):10  PEAK WIND TIME (LST):1251  FASTEST 2MIN SPEED (MPH):16 FASTEST 2MIN DIR (DEG):10  FASTEST 2MIN TIME (LST):1617 AVERAGE WIND SPEED (MPH):7.5  24 HR AVG TEMP (F):46 HEATING DEGREE DAYS:19  COOLING DEGREE DAYS:0   LATEST DAY MAX TEMP (0700-1900 LST):54  LATEST NIGHT MIN TEMP(1900-0800 LST):42 HOURLY INCREMENTAL PRECIPITATION VALUES (IN):.00 0.00 0.00 0.00 0.00 0.00 0.00 0.00 0.00 0.00 0.00 0.00 0.00 0.00 0.00 0.00 0.00 0.00 0.00 0.00 0.00 0.00 0.00 0.00","SOD  ","6",,,,,,,,,,,,,,,,,,,,,,,,,"0604","1801",,"2009-05-18"
"74486454787","2020-03-16T00:53:00","FM-15","7",,,,,,,,,,,,,,,,,,,,,,,,,,,,,,,,,,,,,,"30.54","17","38","0.00",,"-0.04","3","43","30.54","CLR:00","30.45","10.00","31","040",,"10",,,,,,,,,,,,,,,,,,,,,,,,,,,,,,,,,,,,,"MET10903/16/20 00:53:02 METAR KFRG 160553Z 04009KT 10SM CLR 03/M08 A3054 RMK AO2 SLP342 T00331083 10083 20028 53012","FM-15","7",,,,,,,,,,,,,,,,,,,,,,,,,,,,"2009-05-18"
"74486454787","2020-03-16T01:53:00","FM-15","7",,,,,,,,,,,,,,,,,,,,,,,,,,,,,,,,,,,,,,"30.54","11","38","0.00",,,,"33","30.54","CLR:00","30.45","10.00","29","040",,"11",,,,,,,,,,,,,,,,,,,,,,,,,,,,,,,,,,,,,"MET09103/16/20 01:53:02 METAR KFRG 160653Z 04010KT 10SM CLR 03/M12 A3054 RMK AO2 SLP342 T00331117","FM-15","7",,,,,,,,,,,,,,,,,,,,,,,,,,,,"2009-05-18"
"74486454787","2020-03-16T02:53:00","FM-15","7",,,,,,,,,,,,,,,,,,,,,,,,,,,,,,,,,,,,,,"30.54","14","36","0.00",,,,"40","30.55","CLR:00","30.45","10.00","29","050",,"8",,,,,,,,,,,,,,,,,,,,,,,,,,,,,,,,,,,,,"MET09103/16/20 02:53:02 METAR KFRG 160753Z 05007KT 10SM CLR 02/M10 A3054 RMK AO2 SLP344 T00221100","FM-15","7",,,,,,,,,,,,,,,,,,,,,,,,,,,,"2009-05-18"
"74486454787","2020-03-16T03:53:00","FM-15","7",,,,,,,,,,,,,,,,,,,,,,,,,,,,,,,,,,,,,,"30.55","14","35","0.00",,"-0.01","3","42","30.55","CLR:00","30.46","10.00","28","040",,"10",,,,,,,,,,,,,,,,,,,,,,,,,,,,,,,,,,,,,"MET09703/16/20 03:53:02 METAR KFRG 160853Z 04009KT 10SM CLR 02/M10 A3055 RMK AO2 SLP346 T00171100 53004","FM-15","7",,,,,,,,,,,,,,,,,,,,,,,,,,,,"2009-05-18"
"74486454787","2020-03-16T04:53:00","FM-15","7",,,,,,,,,,,,,,,,,,,,,,,,,,,,,,,,,,,,,,"30.57","13","34","0.00",,,,"42","30.57","CLR:00","30.48","10.00","27","040",,"8",,,,,,,,,,,,,,,,,,,,,,,,,,,,,,,,,,,,,"MET09103/16/20 04:53:02 METAR KFRG 160953Z 04007KT 10SM CLR 01/M11 A3057 RMK AO2 SLP352 T00111106","FM-15","7",,,,,,,,,,,,,,,,,,,,,,,,,,,,"2009-05-18"
"74486454787","2020-03-16T05:53:00","FM-15","7",,,,,,,,,,,,,,,,,,,,,,,,,,,,,,,,,,,,,,"30.59","12","33","0.00",,,,"42","30.59","CLR:00","30.50","10.00","27","050",,"10",,,,,,,,,,,,,,,,,,,,,,,,,,,,,,,,,,,,,"MET09603/16/20 05:53:02 METAR KFRG 161053Z 05009KT 10SM CLR 01/M11 A3059 RMK AO2 SLP358 T00061111 (JB)","FM-15","7",,,,,,,,,,,,,,,,,,,,,,,,,,,,"2009-05-18"
"74486454787","2020-03-16T06:53:00","FM-15","7",,,,,,,,,,,,,,,,,,,,,,,,,,,,,,,,,,,,,,"30.60","11","33","0.00",,"-0.05","1","40","30.60","CLR:00","30.51","10.00","26","060",,"9",,,,,,,,,,,,,,,,,,,,,,,,,,,,,,,,,,,,,"MET11403/16/20 06:53:02 METAR KFRG 161153Z 06008KT 10SM CLR 01/M12 A3060 RMK AO2 SLP361 T00061117 10039 20000 51016 (JB)","FM-15","7",,,,,,,,,,,,,,,,,,,,,,,,,,,,"2009-05-18"
"74486454787","2020-03-16T07:53:00","FM-15","7",,,,,,,,,,,,,,,,,,,,,,,,,,,,,,,,,,,,,,"30.61","11","35","0.00",,,,"37","30.61","CLR:00","30.52","10.00","28","060",,"11",,,,,,,,,,,,,,,,,,,,,,,,,,,,,,,,,,,,,"MET09603/16/20 07:53:02 METAR KFRG 161253Z 06010KT 10SM CLR 02/M12 A3061 RMK AO2 SLP367 T00171117 (JB)","FM-15","7",,,,,,,,,,,,,,,,,,,,,,,,,,,,"2009-05-18"
"74486454787","2020-03-16T08:53:00","FM-15","7",,,,,,,,,,,,,,,,,,,,,,,,,,,,,,,,,,,,,,"30.61","15","38","0.00",,,,"39","30.61","CLR:00","30.52","10.00","30","060",,"8",,,,,,,,,,,,,,,,,,,,,,,,,,,,,,,,,,,,,"MET09603/16/20 08:53:02 METAR KFRG 161353Z 06007KT 10SM CLR 03/M09 A3061 RMK AO2 SLP367 T00331094 (JB)","FM-15","7",,,,,,,,,,,,,,,,,,,,,,,,,,,,"2009-05-18"
"74486454787","2020-03-16T09:53:00","FM-15","7",,,,,,,,,,,,,,,,,,,,,,,,,,,,,,,,,,,,,,"30.62","18","41","0.00",,"-0.02","1","39","30.62","BKN:07 34","30.53","10.00","33","120",,"10",,,,,,,,,,,,,,,,,,,,,,,,,,,,,,,,,,,,,"MET10503/16/20 09:53:02 METAR KFRG 161453Z 12009KT 10SM BKN034 05/M08 A3062 RMK AO2 SLP369 T00501078 51007 (JB)","FM-15","7",,,,,,,,,,,,,,,,,,,,,,,,,,,,"2009-05-18"
"74486454787","2020-03-16T10:53:00","FM-15","7",,,,,,,,,,,,,,,,,,,,,,,,,,,,,,,,,,,,,,"30.62","21","42","0.00",,,,"43","30.62","OVC:08 36","30.53","10.00","34","120","17","8",,,,,,,,,,,,,,,,,,,,,,,,,,,,,,,,,,,,,"MET10203/16/20 10:53:02 METAR KFRG 161553Z 12007G15KT 10SM OVC036 06/M06 A3062 RMK AO2 SLP368 T00561061 (JB)","FM-15","7",,,,,,,,,,,,,,,,,,,,,,,,,,,,"2009-05-18"
"74486454787","2020-03-16T11:53:00","FM-15","7",,,,,,,,,,,,,,,,,,,,,,,,,,,,,,,,,,,,,,"30.61","28","44","0.00",,,,"53","30.61","BKN:07 38","30.52","10.00","38","130",,"13",,,,,,,,,,,,,,,,,,,,,,,,,,,,,,,,,,,,,"MET09903/16/20 11:53:02 METAR KFRG 161653Z 13011KT 10SM BKN038 07/M02 A3061 RMK AO2 SLP366 T00671022 (JB)","FM-15","7",,,,,,,,,,,,,,,,,,,,,,,,,,,,"2009-05-18"
"74486454787","2020-03-16T12:53:00","FM-15","7",,,,,,,,,,,,,,,,,,,,,,,,,,,,,,,,,,,,,,"30.57","28","44","0.00",,"+0.05","8","53","30.57","FEW:02 33","30.48","10.00","38","130",,"15",,,,,,,,,,,,,,,,,,,,,,,,,,,,,,,,,,,,,"MET11703/16/20 12:53:02 METAR KFRG 161753Z 13013KT 10SM FEW033 07/M02 A3057 RMK AO2 SLP353 T00671022 10072 20011 58016 (JB)","FM-15","7",,,,,,,,,,,,,,,,,,,,,,,,,,,,"2009-05-18"
"74486454787","2020-03-16T13:53:00","FM-15","7",,,,,,,,,,,,,,,,,,,,,,,,,,,,,,,,,,,,,,"30.54","29","45","0.00",,,,"54","30.54","FEW:02 31","30.45","10.00","38","130",,"14",,,,,,,,,,,,,,,,,,,,,,,,,,,,,,,,,,,,,"MET09903/16/20 13:53:02 METAR KFRG 161853Z 13012KT 10SM FEW031 07/M02 A3054 RMK AO2 SLP343 T00721017 (JB)","FM-15","7",,,,,,,,,,,,,,,,,,,,,,,,,,,,"2009-05-18"
"74486454787","2020-03-16T14:51:00","FM-16","6",,,,,,,,,,,,,,,,,,,,,,,,,,,,,,,,,,,,,,"30.53","28","43",,,,,"57",,"BKN:07 29 BKN:07 35","30.44","10.00","37","110",,"15",,,,,,,,,,,,,,,,,,,,,,,,,,,,,,,,,,,,,"MET08903/16/20 14:51:02 SPECI KFRG 161951Z 11013KT 10SM BKN029 BKN035 06/M02 A3053 RMK AO2 FIBI","FM-16","6",,,,,,,,,,,,,,,,,,,,,,,,,,,,"2009-05-18"
"74486454787","2020-03-16T14:53:00","FM-15","7",,,,,,,,,,,,,,,,,,,,,,,,,,,,,,,,,,,,,,"30.53","28","43","0.00",,,,"56","30.53","BKN:07 29 BKN:07 35","30.44","10.00","37","110",,"14",,,,,,,,,,,,,,,,,,,,,,,,,,,,,,,,,,,,,"MET10603/16/20 14:53:02 METAR KFRG 161953Z 11012KT 10SM BKN029 BKN035 06/M02 A3053 RMK AO2 SLP340 T00611022 (KM)","FM-15","7",,,,,,,,,,,,,,,,,,,,,,,,,,,,"2009-05-18"
"74486454787","2020-03-16T15:03:00","FM-16","7",,,,,,,,,,,,,,,,,,,,,,,,,,,,,,,,,,,,,,"30.53","28","42",,,,,"58",,"BKN:07 31","30.44","10.00","36","120",,"14",,,,,,,,,,,,,,,,,,,,,,,,,,,,,,,,,,,,,"MET09203/16/20 15:03:02 SPECI KFRG 162003Z 12012KT 10SM BKN031 06/M02 A3053 RMK AO2 T00561022 (KM)","FM-16","7",,,,,,,,,,,,,,,,,,,,,,,,,,,,"2009-05-18"
"74486454787","2020-03-16T15:44:00","FM-16","7",,,,,,,,,,,,,,,,,,,,,,,,,,,,,,,,,,,,,,"30.52","28","42",,,,,"58",,"BKN:07 29 OVC:08 36","30.43","10.00","36","140",,"14",,,,,,,,,,,,,,,,,,,,,,,,,,,,,,,,,,,,,"MET09903/16/20 15:44:02 SPECI KFRG 162044Z 14012KT 10SM BKN029 OVC036 06/M02 A3052 RMK AO2 T00561022 (KM)","FM-16","7",,,,,,,,,,,,,,,,,,,,,,,,,,,,"2009-05-18"
"74486454787","2020-03-16T15:53:00","FM-15","7",,,,,,,,,,,,,,,,,,,,,,,,,,,,,,,,,,,,,,"30.52","28","42","0.00",,"+0.05","6","58","30.52","BKN:07 29 OVC:08 38","30.43","10.00","36","140",,"16",,,,,,,,,,,,,,,,,,,,,,,,,,,,,,,,,,,,,"MET11203/16/20 15:53:02 METAR KFRG 162053Z 14014KT 10SM BKN029 OVC038 06/M02 A3052 RMK AO2 SLP334 T00561022 56018 (KM)","FM-15","7",,,,,,,,,,,,,,,,,,,,,,,,,,,,"2009-05-18"
"74486454787","2020-03-16T16:11:00","FM-16","7",,,,,,,,,,,,,,,,,,,,,,,,,,,,,,,,,,,,,,"30.51","28","42",,,,,"58",,"FEW:02 28 OVC:08 39","30.42","10.00","36","130",,"13",,,,,,,,,,,,,,,,,,,,,,,,,,,,,,,,,,,,,"MET09903/16/20 16:11:02 SPECI KFRG 162111Z 13011KT 10SM FEW028 OVC039 06/M02 A3051 RMK AO2 T00561022 (KM)","FM-16","7",,,,,,,,,,,,,,,,,,,,,,,,,,,,"2009-05-18"
"74486454787","2020-03-16T16:53:00","FM-15","7",,,,,,,,,,,,,,,,,,,,,,,,,,,,,,,,,,,,,,"30.51","28","42","0.00",,,,"58","30.51","BKN:07 32","30.42","10.00","36","120",,"16",,,,,,,,,,,,,,,,,,,,,,,,,,,,,,,,,,,,,"MET09903/16/20 16:53:02 METAR KFRG 162153Z 12014KT 10SM BKN032 06/M02 A3051 RMK AO2 SLP331 T00561022 (KM)","FM-15","7",,,,,,,,,,,,,,,,,,,,,,,,,,,,"2009-05-18"
"74486454787","2020-03-16T17:53:00","FM-15","7",,,,,,,,,,,,,,,,,,,,,,,,,,,,,,,,,,,,,,"30.50","28","41","0.00",,,,"60","30.50","FEW:02 27 BKN:07 38","30.41","10.00","36","130",,"11",,,,,,,,,,,,,,,,,,,,,,,,,,,,,,,,,,,,,"MET10603/16/20 17:53:02 METAR KFRG 162253Z 13010KT 10SM FEW027 BKN038 05/M02 A3050 RMK AO2 SLP329 T00501022 (KM)","FM-15","7",,,,,,,,,,,,,,,,,,,,,,,,,,,,"2009-05-18"
"74486454787","2020-03-16T18:53:00","FM-15","7",,,,,,,,,,,,,,,,,,,,,,,,,,,,,,,,,,,,,,"30.49","28","40","0.00",,"+0.02","6","63","30.49","BKN:07 36 OVC:08 80","30.40","10.00","35","140",,"15",,,,,,,,,,,,,,,,,,,,,,,,,,,,,,,,,,,,,"MET12403/16/20 18:53:02 METAR KFRG 162353Z 14013KT 10SM BKN036 OVC080 04/M02 A3049 RMK AO2 SLP326 T00441022 10072 20044 56008 (KM)","FM-15","7",,,,,,,,,,,,,,,,,,,,,,,,,,,,"2009-05-18"
"74486454787","2020-03-16T19:45:00","FM-16","7",,,,,,,,,,,,,,,,,,,,,,,,,,,,,,,,,,,,,,"30.49","29","41",,,,,"62",,"BKN:07 26 OVC:08 75","30.40","10.00","36","130",,"11",,,,,,,,,,,,,,,,,,,,,,,,,,,,,,,,,,,,,"MET09403/16/20 19:45:01 SPECI KFRG 170045Z 13010KT 10SM BKN026 OVC075 05/M02 A3049 RMK AO2 T00501017","FM-16","7",,,,,,,,,,,,,,,,,,,,,,,,,,,,"2009-05-18"
"74486454787","2020-03-16T19:53:00","FM-15","7",,,,,,,,,,,,,,,,,,,,,,,,,,,,,,,,,,,,,,"30.50","30","41","0.00",,,,"65","30.50","BKN:07 26 OVC:08 75","30.41","10.00","37","130",,"10",,,,,,,,,,,,,,,,,,,,,,,,,,,,,,,,,,,,,"MET10103/16/20 19:53:01 METAR KFRG 170053Z 13009KT 10SM BKN026 OVC075 05/M01 A3050 RMK AO2 SLP327 T00501011","FM-15","7",,,,,,,,,,,,,,,,,,,,,,,,,,,,"2009-05-18"
"74486454787","2020-03-16T20:53:00","FM-15","7",,,,,,,,,,,,,,,,,,,,,,,,,,,,,,,,,,,,,,"30.48","31","41","0.00",,,,"67","30.47","OVC:08 23","30.39","10.00","37","130",,"11",,,,,,,,,,,,,,,,,,,,,,,,,,,,,,,,,,,,,"MET09403/16/20 20:53:01 METAR KFRG 170153Z 13010KT 10SM OVC023 05/M01 A3048 RMK AO2 SLP320 T00501006","FM-15","7",,,,,,,,,,,,,,,,,,,,,,,,,,,,"2009-05-18"
"74486454787","2020-03-16T21:53:00","FM-15","7",,,,,,,,,,,,,,,,,,,,,,,,,,,,,,,,,,,,,,"30.46","31","41","0.00",,"+0.03","8","67","30.46","BKN:07 21 OVC:08 70","30.37","10.00","37","130",,"11",,,,,,,,,,,,,,,,,,,,,,,,,,,,,,,,,,,,,"MET10703/16/20 21:53:01 METAR KFRG 170253Z 13010KT 10SM BKN021 OVC070 05/M01 A3046 RMK AO2 SLP316 T00501006 58010","FM-15","7",,,,,,,,,,,,,,,,,,,,,,,,,,,,"2009-05-18"
"74486454787","2020-03-16T22:53:00","FM-15","7",,,,,,,,,,,,,,,,,,,,,,,,,,,,,,,,,,,,,,"30.43","32","42","0.00",,,,"68","30.43","BKN:07 24 BKN:07 28 OVC:08 70","30.34","10.00","38","130",,"10",,,,,,,,,,,,,,,,,,,,,,,,,,,,,,,,,,,,,"MET10703/16/20 22:53:02 METAR KFRG 170353Z 13009KT 10SM BKN024 BKN028 OVC070 06/00 A3043 RMK AO2 SLP305 T00560000","FM-15","7",,,,,,,,,,,,,,,,,,,,,,,,,,,,"2009-05-18"
"74486454787","2020-03-16T23:53:00","FM-15","7",,,,,,,,,,,,,,,,,,,,,,,,,,,,,,,,,,,,,,"30.41","33","42","T",,,,"71","30.41","OVC:08 19","30.32","10.00","38","130",,"13",,,,,,,,,,,,,,,,,,,,,,,,,,,,,,,,,,,,,"MET11803/16/20 23:53:02 METAR KFRG 170453Z 13011KT 10SM OVC019 06/01 A3041 RMK AO2 RAB13E22 SLP298 P0000 T00560006 400720000","FM-15","7",,,,,,,,,,,,,,,,,,,,,,,,,,,,"2009-05-18"
"74486454787","2020-03-16T23:59:00","SOD  ","6",,,,,,,,,,,,,,,,"39",,,"30.45",,"11.5","0","-1.1","26","45","32","040","23","T",,,"140","17",,,,,,,,,,,,,,,,,,,,,,,,,,,,,,,,,,,,,,,,,,,,,,,,,,,,,,,,,"SOD72724 HR PRECIPITATION (IN):T     24 HR MAX TEMP (F):45 24 HR MAX TEMP TIME (LST):1428 24 HR MIN TEMP (F):32 24 HR MIN TEMP TIME (LST):0628 AVERAGE STATION PRESSURE:30.455 MINIMUM SEA LEVEL PRESSURE:30.41 TIME OF OCCURRENCE:2359 PEAK WIND SPEED (MPH):23  PEAK WIND DIR (DEG):40  PEAK WIND TIME (LST):0112  FASTEST 2MIN SPEED (MPH):17 FASTEST 2MIN DIR (DEG):140 FASTEST 2MIN TIME (LST):1603 AVERAGE WIND SPEED (MPH):11.5 24 HR AVG TEMP (F):39 HEATING DEGREE DAYS:26  COOLING DEGREE DAYS:0   LATEST DAY MAX TEMP (0700-1900 LST):45  LATEST NIGHT MIN TEMP(1900-0800 LST):32 HOURLY INCREMENTAL PRECIPITATION VALUES (IN):.00 0.00 0.00 0.00 0.00 0.00 0.00 0.00 0.00 0.00 0.00 0.00 0.00 0.00 0.00 0.00 0.00 0.00 0.00 0.00 0.00 0.00 0.00 T","SOD  ","6",,,,,,,,,,,,,,,,,,,,,,,,,"0603","1802",,"2009-05-18"
"74486454787","2020-03-17T00:53:00","FM-15","7",,,,,,,,,,,,,,,,,,,,,,,,,,,,,,,,,,,,,,"30.37","34","42","0.00",,"+0.06","8","73","30.37","OVC:08 15","30.28","10.00","39","140",,"11",,,,,,,,,,,,,,,,,,,,,,,,,,,,,,,,,,,,,"MET11703/17/20 00:53:02 METAR KFRG 170553Z 14010KT 10SM OVC015 06/01 A3037 RMK AO2 SLP284 60000 T00560011 10056 20044 58021","FM-15","7",,,,,,,,,,,,,,,,,,,,,,,,,,,,"2009-05-18"
"74486454787","2020-03-17T01:16:00","FM-16","7",,,,,,,,,,,,,,,,,,,,,,,,,,,,,,,,,,,,,,"30.36","35","42",,,,,"76",,"OVC:08 13","30.27","10.00","39","130",,"9",,,,,,,,,,,,,,,,,,,,,,,,,,,,,,,,,,,,,"MET08603/17/20 01:16:02 SPECI KFRG 170616Z 13008KT 10SM OVC013 06/02 A3036 RMK AO2 T00560017","FM-16","7",,,,,,,,,,,,,,,,,,,,,,,,,,,,"2009-05-18"
"74486454787","2020-03-17T01:53:00","FM-15","7",,,,,,,,,,,,,,,,,,,,,,,,,,,,,,,,,,,,,,"30.34","36","42","0.00",,,,"79","30.34","OVC:08 13","30.25","10.00","39","130",,"9",,,,,,,,,,,,,,,,,,,,,,,,,,,,,,,,,,,,,"MET09303/17/20 01:53:02 METAR KFRG 170653Z 13008KT 10SM OVC013 06/02 A3034 RMK AO2 SLP275 T00560022","FM-15","7",,,,,,,,,,,,,,,,,,,,,,,,,,,,"2009-05-18"
"74486454787","2020-03-17T02:53:00","FM-15","7",,,,,,,,,,,,,,,,,,,,,,,,,,,,,,,,,,,,,,"30.31","36","42","0.00",,,,"79","30.31","OVC:08 12","30.22","10.00","39","140",,"11",,,,,,,,,,,,,,,,,,,,,,,,,,,,,,,,,,,,,"MET09303/17/20 02:53:02 METAR KFRG 170753Z 14010KT 10SM OVC012 06/02 A3031 RMK AO2 SLP263 T00560022","FM-15","7",,,,,,,,,,,,,,,,,,,,,,,,,,,,"2009-05-18"
"74486454787","2020-03-17T03:53:00","FM-15","7",,,,,,,,,,,,,,,,,,,,,,,,,,,,,,,,,,,,,,"30.29","37","42","T",,"+0.08","6","82","30.29","OVC:08 10","30.20","10.00","40","120",,"8",,,,,,,,,,,,,,,,,,,,,,,,,,,,,,,,,,,,,"MET13203/17/20 03:53:02 METAR KFRG 170853Z 12007KT 10SM OVC010 06/03 A3029 RMK AO2 RAB17E29 CIG 007V015 SLP257 P0000 60000 T00560028 56026","FM-15","7",,,,,,,,,,,,,,,,,,,,,,,,,,,,"2009-05-18"
"74486454787","2020-03-17T04:02:00","FM-16","7",,,,,,,,,,,,,,,,,,,,,,,,,,,,,,,,,,,,,,"30.29","37","42","T","-RA:02 |RA |RA",,,"82",,"BKN:07 8 OVC:08 12","30.20","10.00","40","120",,"8",,,,,,,,,,,,,,,,,,,,,,,,,,,,,,,,,,,,,"MET10903/17/20 04:02:02 SPECI KFRG 170902Z 12007KT 10SM -RA BKN008 OVC012 06/03 A3029 RMK AO2 RAB01 P0000 T00560028","FM-16","7",,,,,,,,,,,,,,,,,,,,,,,,,,,,"2009-05-18"
"74486454787","2020-03-17T04:10:00","FM-16","7",,,,,,,,,,,,,,,,,,,,,,,,,,,,,,,,,,,,,,"30.28","38","42","T","-RA:02 |RA |RA",,,"85",,"OVC:08 10","30.19","10.00","40","120",,"9",,,,,,,,,,,,,,,,,,,,,,,,,,,,,,,,,,,,,"MET11403/17/20 04:10:02 SPECI KFRG 170910Z 12008KT 10SM -RA OVC010 06/03 A3028 RMK AO2 RAB01 CIG 007V013 P0000 T00560033","FM-16","7",,,,,,,,,,,,,,,,,,,,,,,,,,,,"2009-05-18"
"74486454787","2020-03-17T04:23:00","FM-16","7",,,,,,,,,,,,,,,,,,,,,,,,,,,,,,,,,,,,,,"30.28","38","42","T","-RA:02 |RA |RA",,,"85",,"BKN:07 8 OVC:08 15","30.19","10.00","40","120",,"9",,,,,,,,,,,,,,,,,,,,,,,,,,,,,,,,,,,,,"MET12103/17/20 04:23:02 SPECI KFRG 170923Z 12008KT 10SM -RA BKN008 OVC015 06/03 A3028 RMK AO2 RAB01 CIG 006V012 P0000 T00560033","FM-16","7",,,,,,,,,,,,,,,,,,,,,,,,,,,,"2009-05-18"
"74486454787","2020-03-17T04:30:00","FM-16","7",,,,,,,,,,,,,,,,,,,,,,,,,,,,,,,,,,,,,,"30.27","38","42","T","-RA:02 |RA |RA",,,"85",,"OVC:08 10","30.18","10.00","40","120",,"9",,,,,,,,,,,,,,,,,,,,,,,,,,,,,,,,,,,,,"MET11403/17/20 04:30:02 SPECI KFRG 170930Z 12008KT 10SM -RA OVC010 06/03 A3027 RMK AO2 RAB01 CIG 006V014 P0000 T00560033","FM-16","7",,,,,,,,,,,,,,,,,,,,,,,,,,,,"2009-05-18"
"74486454787","2020-03-17T04:51:00","FM-16","6",,,,,,,,,,,,,,,,,,,,,,,,,,,,,,,,,,,,,,"30.26","37","43",,,,,"81",,"OVC:08 8","30.17","10.00","40","120",,"9",,,,,,,,,,,,,,,,,,,,,,,,,,,,,,,,,,,,,"MET10803/17/20 04:51:02 SPECI KFRG 170951Z 12008KT 10SM OVC008 06/03 A3026 RMK AO2 RAB01E42 CIG 006V012 P0000 FIBI","FM-16","6",,,,,,,,,,,,,,,,,,,,,,,,,,,,"2009-05-18"
"74486454787","2020-03-17T04:53:00","FM-15","7",,,,,,,,,,,,,,,,,,,,,,,,,,,,,,,,,,,,,,"30.26","38","42","T",,,,"85","30.26","OVC:08 8","30.17","10.00","40","120",,"9",,,,,,,,,,,,,,,,,,,,,,,,,,,,,,,,,,,,,"MET12003/17/20 04:53:02 METAR KFRG 170953Z 12008KT 10SM OVC008 06/03 A3026 RMK AO2 RAB01E42 CIG 006V012 SLP247 P0000 T00560033","FM-15","7",,,,,,,,,,,,,,,,,,,,,,,,,,,,"2009-05-18"
"74486454787","2020-03-17T05:53:00","FM-15","7",,,,,,,,,,,,,,,,,,,,,,,,,,,,,,,,,,,,,,"30.24","39","43","T","-RA:02 |RA |RA",,,"86","30.24","OVC:08 6","30.15","10.00","41","130",,"10",,,,,,,,,,,,,,,,,,,,,,,,,,,,,,,,,,,,,"MET10903/17/20 05:53:02 METAR KFRG 171053Z 13009KT 10SM -RA OVC006 06/04 A3024 RMK AO2 RAB39 SLP240 P0000 T00610039","FM-15","7",,,,,,,,,,,,,,,,,,,,,,,,,,,,"2009-05-18"
"74486454787","2020-03-17T06:53:00","FM-15","7",,,,,,,,,,,,,,,,,,,,,,,,,,,,,,,,,,,,,,"30.24","40","43","T","-RA:02 |RA |RA","+0.05","6","89","30.24","OVC:08 6","30.15","10.00","42","120",,"8",,,,,,,,,,,,,,,,,,,,,,,,,,,,,,,,,,,,,"MET13203/17/20 06:53:02 METAR KFRG 171153Z 12007KT 10SM -RA OVC006 06/04 A3024 RMK AO2 SLP240 P0000 60000 T00610044 10061 20056 56018 (EF)","FM-15","7",,,,,,,,,,,,,,,,,,,,,,,,,,,,"2009-05-18"
"74486454787","2020-03-17T07:53:00","FM-15","7",,,,,,,,,,,,,,,,,,,,,,,,,,,,,,,,,,,,,,"30.20","41","44","0.03","-RA:02 |RA |RA",,,"89","30.20","OVC:08 6","30.11","10.00","43","100",,"7",,,,,,,,,,,,,,,,,,,,,,,,,,,,,,,,,,,,,"MET10803/17/20 07:53:02 METAR KFRG 171253Z 10006KT 10SM -RA OVC006 07/05 A3020 RMK AO2 SLP227 P0003 T00670050 (EF)","FM-15","7",,,,,,,,,,,,,,,,,,,,,,,,,,,,"2009-05-18"
"74486454787","2020-03-17T08:53:00","FM-15","7",,,,,,,,,,,,,,,,,,,,,,,,,,,,,,,,,,,,,,"30.20","42","45","0.02","-RA:02 |RA |RA",,,"90","30.19","OVC:08 5","30.11","8.00","44","000",,"0",,,,,,,,,,,,,,,,,,,,,,,,,,,,,,,,,,,,,"MET10703/17/20 08:53:02 METAR KFRG 171353Z 00000KT 8SM -RA OVC005 07/06 A3020 RMK AO2 SLP225 P0001 T00720056 (EF)","FM-15","7",,,,,,,,,,,,,,,,,,,,,,,,,,,,"2009-05-18"
"74486454787","2020-03-17T09:53:00","FM-15","7",,,,,,,,,,,,,,,,,,,,,,,,,,,,,,,,,,,,,,"30.18","41","46","0.01","-RA:02 |RA |RA","+0.06","6","83","30.18","OVC:08 7","30.09","7.00","44","060",,"3",,,,,,,,,,,,,,,,,,,,,,,,,,,,,,,,,,,,,"MET14003/17/20 09:53:02 METAR KFRG 171453Z 06003KT 7SM -RA OVC007 08/05 A3018 RMK AO2 RAE17B44 CIG 005V009 SLP221 P0002 60006 T00780050 56019 (EF)","FM-15","7",,,,,,,,,,,,,,,,,,,,,,,,,,,,"2009-05-18"
"74486454787","2020-03-17T10:53:00","FM-15","7",,,,,,,,,,,,,,,,,,,,,,,,,,,,,,,,,,,,,,"30.15","43","48","0.01","-RA:02 |RA |RA",,,"83","30.14","BKN:07 7 OVC:08 26","30.06","10.00","46","000",,"0",,,,,,,,,,,,,,,,,,,,,,,,,,,,,,,,,,,,,"MET12403/17/20 10:53:02 METAR KFRG 171553Z 00000KT 10SM -RA BKN007 OVC026 09/06 A3015 RMK AO2 RAE29B50 SLP208 P0001 T00890061 (EF)","FM-15","7",,,,,,,,,,,,,,,,,,,,,,,,,,,,"2009-05-18"
"74486454787","2020-03-17T11:53:00","FM-15","7",,,,,,,,,,,,,,,,,,,,,,,,,,,,,,,,,,,,,,"30.13","43","49","T",,,,"80","30.13","BKN:07 9 BKN:07 15 OVC:08 25","30.04","10.00","46","000",,"0",,,,,,,,,,,,,,,,,,,,,,,,,,,,,,,,,,,,,"MET12403/17/20 11:53:02 METAR KFRG 171653Z 00000KT 10SM BKN009 BKN015 OVC025 09/06 A3013 RMK AO2 RAE08 SLP203 P0000 T00940061 (EF)","FM-15","7",,,,,,,,,,,,,,,,,,,,,,,,,,,,"2009-05-18"
"74486454787","2020-03-17T12:01:00","FM-16","7",,,,,,,,,,,,,,,,,,,,,,,,,,,,,,,,,,,,,,"30.12","45","51",,,,,"80",,"SCT:04 10 BKN:07 14 BKN:07 25","30.03","10.00","48","000",,"0",,,,,,,,,,,,,,,,,,,,,,,,,,,,,,,,,,,,,"MET11203/17/20 12:01:02 SPECI KFRG 171701Z 00000KT 10SM SCT010 BKN014 BKN025 11/07 A3012 RMK AO2 PRESFR T01060072 (EF)","FM-16","7",,,,,,,,,,,,,,,,,,,,,,,,,,,,"2009-05-18"
"74486454787","2020-03-17T12:09:00","FM-16","7",,,,,,,,,,,,,,,,,,,,,,,,,,,,,,,,,,,,,,"30.11","44","51",,,,,"77",,"FEW:02 10 SCT:04 14 BKN:07 23","30.02","10.00","48","190",,"3",,,,,,,,,,,,,,,,,,,,,,,,,,,,,,,,,,,,,"MET10503/17/20 12:09:02 SPECI KFRG 171709Z 19003KT 10SM FEW010 SCT014 BKN023 11/07 A3011 RMK AO2 T01060067 (EF)","FM-16","7",,,,,,,,,,,,,,,,,,,,,,,,,,,,"2009-05-18"
"74486454787","2020-03-17T12:23:00","FM-16","7",,,,,,,,,,,,,,,,,,,,,,,,,,,,,,,,,,,,,,"30.11","43","50",,,,,"77",,"BKN:07 14 BKN:07 23","30.02","10.00","47","000",,"0",,,,,,,,,,,,,,,,,,,,,,,,,,,,,,,,,,,,,"MET09803/17/20 12:23:02 SPECI KFRG 171723Z 00000KT 10SM BKN014 BKN023 10/06 A3011 RMK AO2 T01000061 (EF)","FM-16","7",,,,,,,,,,,,,,,,,,,,,,,,,,,,"2009-05-18"
"74486454787","2020-03-17T12:32:00","FM-16","7",,,,,,,,,,,,,,,,,,,,,,,,,,,,,,,,,,,,,,"30.11","43","50",,,,,"77",,"BKN:07 15 OVC:08 21","30.02","10.00","47","240",,"7",,,,,,,,,,,,,,,,,,,,,,,,,,,,,,,,,,,,,"MET09803/17/20 12:32:02 SPECI KFRG 171732Z 24006KT 10SM BKN015 OVC021 10/06 A3011 RMK AO2 T01000061 (EF)","FM-16","7",,,,,,,,,,,,,,,,,,,,,,,,,,,,"2009-05-18"
"74486454787","2020-03-17T12:53:00","FM-15","7",,,,,,,,,,,,,,,,,,,,,,,,,,,,,,,,,,,,,,"30.09","44","52","0.00",,"+0.09","8","75","30.09","BKN:07 15 OVC:08 65","30.00","10.00","48","250",,"8",,,,,,,,,,,,,,,,,,,,,,,,,,,,,,,,,,,,,"MET12903/17/20 12:53:02 METAR KFRG 171753Z 25007KT 10SM BKN015 OVC065 11/07 A3009 RMK AO2 SLP190 60007 T01110067 10111 20061 58030 (EF)","FM-15","7",,,,,,,,,,,,,,,,,,,,,,,,,,,,"2009-05-18"
"74486454787","2020-03-17T13:53:00","FM-15","7",,,,,,,,,,,,,,,,,,,,,,,,,,,,,,,,,,,,,,"30.07","41","53","0.00",,,,"64","30.07","OVC:08 23","29.98","10.00","47","270",,"9",,,,,,,,,,,,,,,,,,,,,,,,,,,,,,,,,,,,,"MET09803/17/20 13:53:02 METAR KFRG 171853Z 27008KT 10SM OVC023 12/05 A3007 RMK AO2 SLP183 T01170050 (EF)","FM-15","7",,,,,,,,,,,,,,,,,,,,,,,,,,,,"2009-05-18"
"74486454787","2020-03-17T14:53:00","FM-15","7",,,,,,,,,,,,,,,,,,,,,,,,,,,,,,,,,,,,,,"30.05","43","52","0.00",,,,"72","30.05","SCT:04 19 BKN:07 27 OVC:08 70","29.96","10.00","48","200",,"10",,,,,,,,,,,,,,,,,,,,,,,,,,,,,,,,,,,,,"MET11203/17/20 14:53:02 METAR KFRG 171953Z 20009KT 10SM SCT019 BKN027 OVC070 11/06 A3005 RMK AO2 SLP177 T01110061 (EF)","FM-15","7",,,,,,,,,,,,,,,,,,,,,,,,,,,,"2009-05-18"
"74486454787","2020-03-17T15:53:00","FM-15","7",,,,,,,,,,,,,,,,,,,,,,,,,,,,,,,,,,,,,,"30.06","42","53","0.00",,"+0.03","5","66","30.06","SCT:04 23 OVC:08 29","29.97","10.00","48","250",,"10",,,,,,,,,,,,,,,,,,,,,,,,,,,,,,,,,,,,,"MET10603/17/20 15:53:02 METAR KFRG 172053Z 25009KT 10SM SCT023 OVC029 12/06 A3006 RMK AO2 SLP180 T01170056 55010","FM-15","7",,,,,,,,,,,,,,,,,,,,,,,,,,,,"2009-05-18"
"74486454787","2020-03-17T16:13:00","FM-16","7",,,,,,,,,,,,,,,,,,,,,,,,,,,,,,,,,,,,,,"30.06","42","53",,,,,"66",,"OVC:08 31","29.97","10.00","48","250",,"9",,,,,,,,,,,,,,,,,,,,,,,,,,,,,,,,,,,,,"MET09103/17/20 16:13:02 SPECI KFRG 172113Z 25008KT 10SM OVC031 12/06 A3006 RMK AO2 T01170056 (SS)","FM-16","7",,,,,,,,,,,,,,,,,,,,,,,,,,,,"2009-05-18"
"74486454787","2020-03-17T16:53:00","FM-15","7",,,,,,,,,,,,,,,,,,,,,,,,,,,,,,,,,,,,,,"30.08","42","53","0.00",,,,"66","30.08","OVC:08 30","29.99","10.00","48","250",,"10",,,,,,,,,,,,,,,,,,,,,,,,,,,,,,,,,,,,,"MET09803/17/20 16:53:02 METAR KFRG 172153Z 25009KT 10SM OVC030 12/06 A3008 RMK AO2 SLP185 T01170056 (SS)","FM-15","7",,,,,,,,,,,,,,,,,,,,,,,,,,,,"2009-05-18"
"74486454787","2020-03-17T17:27:00","FM-16","7",,,,,,,,,,,,,,,,,,,,,,,,,,,,,,,,,,,,,,"30.10","42","52",,,,,"69",,"OVC:08 29","30.01","10.00","47","230",,"7",,,,,,,,,,,,,,,,,,,,,,,,,,,,,,,,,,,,,"MET09103/17/20 17:27:02 SPECI KFRG 172227Z 23006KT 10SM OVC029 11/06 A3010 RMK AO2 T01110056 (SS)","FM-16","7",,,,,,,,,,,,,,,,,,,,,,,,,,,,"2009-05-18"
"74486454787","2020-03-17T17:49:00","FM-16","7",,,,,,,,,,,,,,,,,,,,,,,,,,,,,,,,,,,,,,"30.11","43","52",,,,,"72",,"BKN:07 32 OVC:08 41","30.02","10.00","48","220",,"6",,,,,,,,,,,,,,,,,,,,,,,,,,,,,,,,,,,,,"MET08803/17/20 17:49:02 SPECI KFRG 172249Z 22005KT 10SM BKN032 OVC041 11/06 A3011 RMK AO2 (SS)","FM-16","7",,,,,,,,,,,,,,,,,,,,,,,,,,,,"2009-05-18"
"74486454787","2020-03-17T17:53:00","FM-15","7",,,,,,,,,,,,,,,,,,,,,,,,,,,,,,,,,,,,,,"30.11","42","52","0.00",,,,"69","30.11","BKN:07 35 OVC:08 41","30.02","10.00","47","210",,"6",,,,,,,,,,,,,,,,,,,,,,,,,,,,,,,,,,,,,"MET10503/17/20 17:53:02 METAR KFRG 172253Z 21005KT 10SM BKN035 OVC041 11/06 A3011 RMK AO2 SLP197 T01110056 (SS)","FM-15","7",,,,,,,,,,,,,,,,,,,,,,,,,,,,"2009-05-18"
"74486454787","2020-03-17T18:53:00","FM-15","7",,,,,,,,,,,,,,,,,,,,,,,,,,,,,,,,,,,,,,"30.14","41","48","0.00",,"-0.06","1","77","30.14","SCT:04 45","30.05","10.00","45","170",,"6",,,,,,,,,,,,,,,,,,,,,,,,,,,,,,,,,,,,,"MET11603/17/20 18:53:02 METAR KFRG 172353Z 17005KT 10SM SCT045 09/05 A3014 RMK AO2 SLP206 T00890050 10122 20089 51021 (SS)","FM-15","7",,,,,,,,,,,,,,,,,,,,,,,,,,,,"2009-05-18"
"74486454787","2020-03-17T19:53:00","FM-15","7",,,,,,,,,,,,,,,,,,,,,,,,,,,,,,,,,,,,,,"30.17","42","47","0.00",,,,"83","30.17","BKN:07 48","30.08","10.00","45","170",,"6",,,,,,,,,,,,,,,,,,,,,,,,,,,,,,,,,,,,,"MET09303/17/20 19:53:01 METAR KFRG 180053Z 17005KT 10SM BKN048 08/06 A3017 RMK AO2 SLP216 T00830056","FM-15","7",,,,,,,,,,,,,,,,,,,,,,,,,,,,"2009-05-18"
"74486454787","2020-03-17T20:53:00","FM-15","7",,,,,,,,,,,,,,,,,,,,,,,,,,,,,,,,,,,,,,"30.19","41","47","0.00",,,,"80","30.19","SCT:04 50","30.10","10.00","44","250",,"6",,,,,,,,,,,,,,,,,,,,,,,,,,,,,,,,,,,,,"MET09303/17/20 20:53:01 METAR KFRG 180153Z 25005KT 10SM SCT050 08/05 A3019 RMK AO2 SLP223 T00830050","FM-15","7",,,,,,,,,,,,,,,,,,,,,,,,,,,,"2009-05-18"
"74486454787","2020-03-17T21:53:00","FM-15","7",,,,,,,,,,,,,,,,,,,,,,,,,,,,,,,,,,,,,,"30.21","42","48","0.00",,"-0.07","1","80","30.22","OVC:08 47","30.12","10.00","45","260",,"5",,,,,,,,,,,,,,,,,,,,,,,,,,,,,,,,,,,,,"MET09903/17/20 21:53:01 METAR KFRG 180253Z 26004KT 10SM OVC047 09/06 A3021 RMK AO2 SLP232 T00890056 51025","FM-15","7",,,,,,,,,,,,,,,,,,,,,,,,,,,,"2009-05-18"
"74486454787","2020-03-17T22:53:00","FM-15","7",,,,,,,,,,,,,,,,,,,,,,,,,,,,,,,,,,,,,,"30.25","36","50","0.00",,,,"59","30.25","OVC:08 48","30.16","10.00","44","330",,"9",,,,,,,,,,,,,,,,,,,,,,,,,,,,,,,,,,,,,"MET09303/17/20 22:53:02 METAR KFRG 180353Z 33008KT 10SM OVC048 10/02 A3025 RMK AO2 SLP245 T01000022","FM-15","7",,,,,,,,,,,,,,,,,,,,,,,,,,,,"2009-05-18"
"74486454787","2020-03-17T23:53:00","FM-15","7",,,,,,,,,,,,,,,,,,,,,,,,,,,,,,,,,,,,,,"30.28","31","49","0.00",,,,"50","30.28","SCT:04 47","30.19","10.00","41","330",,"9",,,,,,,,,,,,,,,,,,,,,,,,,,,,,,,,,,,,,"MET10403/17/20 23:53:02 METAR KFRG 180453Z 33008KT 10SM SCT047 09/M01 A3028 RMK AO2 SLP254 T00941006 401220056","FM-15","7",,,,,,,,,,,,,,,,,,,,,,,,,,,,"2009-05-18"
"74486454787","2020-03-17T23:59:00","SOD  ","6",,,,,,,,,,,,,,,,"48",,,"30.11",,"7.2","0","7.6","17","54","42","130","20","0.07",,,"130","15","RA",,,,,,,,,,,,,,,,,,,,,,,,,,,,,,,,,,,,,,,,,,,,,,,,,,,,,,,,"SOD73024 HR PRECIPITATION (IN):0.07  24 HR MAX TEMP (F):54 24 HR MAX TEMP TIME (LST):1641 24 HR MIN TEMP (F):42 24 HR MIN TEMP TIME (LST):0520 AVERAGE STATION PRESSURE:30.115 MINIMUM SEA LEVEL PRESSURE:30.04 TIME OF OCCURRENCE:1501 PEAK WIND SPEED (MPH):20  PEAK WIND DIR (DEG):130 PEAK WIND TIME (LST):0002  FASTEST 2MIN SPEED (MPH):15 FASTEST 2MIN DIR (DEG):130 FASTEST 2MIN TIME (LST):0107 AVERAGE WIND SPEED (MPH):7.2  24 HR AVG TEMP (F):48 HEATING DEGREE DAYS:17  COOLING DEGREE DAYS:0   LATEST DAY MAX TEMP (0700-1900 LST):54  LATEST NIGHT MIN TEMP(1900-0800 LST):40 HOURLY INCREMENTAL PRECIPITATION VALUES (IN):.00 0.00 0.00 T    T    T    T    0.03 0.02 0.01 0.01 T    0.00 0.00 0.00 0.00 0.00 0.00 0.00 0.00 0.00 0.00 0.00 0.00","SOD  ","6",,,,,,,,,,,,,,,,,,,,,,,,,"0601","1803",,"2009-05-18"
"74486454787","2020-03-18T00:53:00","FM-15","7",,,,,,,,,,,,,,,,,,,,,,,,,,,,,,,,,,,,,,"30.31","29","47","0.00",,"-0.09","1","50","30.31","CLR:00","30.22","10.00","40","330",,"7",,,,,,,,,,,,,,,,,,,,,,,,,,,,,,,,,,,,,"MET10903/18/20 00:53:02 METAR KFRG 180553Z 33006KT 10SM CLR 08/M02 A3031 RMK AO2 SLP263 T00831017 10106 20083 51032","FM-15","7",,,,,,,,,,,,,,,,,,,,,,,,,,,,"2009-05-18"
"74486454787","2020-03-18T01:53:00","FM-15","7",,,,,,,,,,,,,,,,,,,,,,,,,,,,,,,,,,,,,,"30.32","28","45","0.00",,,,"52","30.32","CLR:00","30.23","10.00","38","320",,"6",,,,,,,,,,,,,,,,,,,,,,,,,,,,,,,,,,,,,"MET09103/18/20 01:53:02 METAR KFRG 180653Z 32005KT 10SM CLR 07/M02 A3032 RMK AO2 SLP269 T00721022","FM-15","7",,,,,,,,,,,,,,,,,,,,,,,,,,,,"2009-05-18"
"74486454787","2020-03-18T02:53:00","FM-15","7",,,,,,,,,,,,,,,,,,,,,,,,,,,,,,,,,,,,,,"30.33","28","44","0.00",,,,"53","30.33","CLR:00","30.24","10.00","38","330",,"7",,,,,,,,,,,,,,,,,,,,,,,,,,,,,,,,,,,,,"MET09103/18/20 02:53:02 METAR KFRG 180753Z 33006KT 10SM CLR 07/M02 A3033 RMK AO2 SLP272 T00671022","FM-15","7",,,,,,,,,,,,,,,,,,,,,,,,,,,,"2009-05-18"
"74486454787","2020-03-18T03:53:00","FM-15","7",,,,,,,,,,,,,,,,,,,,,,,,,,,,,,,,,,,,,,"30.35","27","41","0.00",,"-0.04","1","57","30.35","CLR:00","30.26","10.00","36","000",,"0",,,,,,,,,,,,,,,,,,,,,,,,,,,,,,,,,,,,,"MET09703/18/20 03:53:02 METAR KFRG 180853Z 00000KT 10SM CLR 05/M03 A3035 RMK AO2 SLP277 T00501028 51014","FM-15","7",,,,,,,,,,,,,,,,,,,,,,,,,,,,"2009-05-18"
"74486454787","2020-03-18T04:53:00","FM-15","7",,,,,,,,,,,,,,,,,,,,,,,,,,,,,,,,,,,,,,"30.38","27","38","0.00",,,,"65","30.38","CLR:00","30.29","10.00","34","000",,"0",,,,,,,,,,,,,,,,,,,,,,,,,,,,,,,,,,,,,"MET09103/18/20 04:53:02 METAR KFRG 180953Z 00000KT 10SM CLR 03/M03 A3038 RMK AO2 SLP287 T00331028","FM-15","7",,,,,,,,,,,,,,,,,,,,,,,,,,,,"2009-05-18"
"74486454787","2020-03-18T05:53:00","FM-15","7",,,,,,,,,,,,,,,,,,,,,,,,,,,,,,,,,,,,,,"30.43","28","38","0.00",,,,"68","30.42","CLR:00","30.34","10.00","34","000",,"0",,,,,,,,,,,,,,,,,,,,,,,,,,,,,,,,,,,,,"MET09103/18/20 05:53:02 METAR KFRG 181053Z 00000KT 10SM CLR 03/M02 A3043 RMK AO2 SLP303 T00331022","FM-15","7",,,,,,,,,,,,,,,,,,,,,,,,,,,,"2009-05-18"
"74486454787","2020-03-18T06:53:00","FM-15","7",,,,,,,,,,,,,,,,,,,,,,,,,,,,,,,,,,,,,,"30.45","30","38","0.00",,"-0.11","1","73","30.45","CLR:00","30.36","10.00","35","000",,"0",,,,,,,,,,,,,,,,,,,,,,,,,,,,,,,,,,,,,"MET11503/18/20 06:53:02 METAR KFRG 181153Z 00000KT 10SM CLR 03/M01 A3045 RMK AO2 SLP313 70007 T00331011 10083 20017 51036","FM-15","7",,,,,,,,,,,,,,,,,,,,,,,,,,,,"2009-05-18"
"74486454787","2020-03-18T07:53:00","FM-15","7",,,,,,,,,,,,,,,,,,,,,,,,,,,,,,,,,,,,,,"30.47","30","45","0.00",,,,"56","30.47","CLR:00","30.38","10.00","39","070",,"3",,,,,,,,,,,,,,,,,,,,,,,,,,,,,,,,,,,,,"MET09103/18/20 07:53:02 METAR KFRG 181253Z 07003KT 10SM CLR 07/M01 A3047 RMK AO2 SLP318 T00721011","FM-15","7",,,,,,,,,,,,,,,,,,,,,,,,,,,,"2009-05-18"
"74486454787","2020-03-18T08:53:00","FM-15","7",,,,,,,,,,,,,,,,,,,,,,,,,,,,,,,,,,,,,,"30.49","26","48","0.00",,,,"42","30.49","CLR:00","30.40","10.00","39","070",,"6",,,,,,,,,,,,,,,,,,,,,,,,,,,,,,,,,,,,,"MET09603/18/20 08:53:02 METAR KFRG 181353Z 07005KT 10SM CLR 09/M03 A3049 RMK AO2 SLP324 T00891033 (RP)","FM-15","7",,,,,,,,,,,,,,,,,,,,,,,,,,,,"2009-05-18"
"74486454787","2020-03-18T09:53:00","FM-15","7",,,,,,,,,,,,,,,,,,,,,,,,,,,,,,,,,,,,,,"30.50","23","50","0.00",,"-0.04","1","35","30.50","CLR:00","30.41","10.00","39","VRB",,"7",,,,,,,,,,,,,,,,,,,,,,,,,,,,,,,,,,,,,"MET10203/18/20 09:53:02 METAR KFRG 181453Z VRB06KT 10SM CLR 10/M05 A3050 RMK AO2 SLP328 T01001050 51015 (RP)","FM-15","7",,,,,,,,,,,,,,,,,,,,,,,,,,,,"2009-05-18"
"74486454787","2020-03-18T10:53:00","FM-15","7",,,,,,,,,,,,,,,,,,,,,,,,,,,,,,,,,,,,,,"30.50","18","51","0.00",,,,"27","30.50","CLR:00","30.41","10.00","39","VRB",,"7",,,,,,,,,,,,,,,,,,,,,,,,,,,,,,,,,,,,,"MET09603/18/20 10:53:02 METAR KFRG 181553Z VRB06KT 10SM CLR 11/M08 A3050 RMK AO2 SLP329 T01061078 (RP)","FM-15","7",,,,,,,,,,,,,,,,,,,,,,,,,,,,"2009-05-18"
"74486454787","2020-03-18T11:53:00","FM-15","7",,,,,,,,,,,,,,,,,,,,,,,,,,,,,,,,,,,,,,"30.50","19","52","0.00",,,,"27","30.50","CLR:00","30.41","10.00","39","090",,"5",,,,,,,,,,,,,,,,,,,,,,,,,,,,,,,,,,,,,"MET09603/18/20 11:53:02 METAR KFRG 181653Z 09004KT 10SM CLR 11/M07 A3050 RMK AO2 SLP328 T01111072 (RP)","FM-15","7",,,,,,,,,,,,,,,,,,,,,,,,,,,,"2009-05-18"
"74486454787","2020-03-18T12:53:00","FM-15","7",,,,,,,,,,,,,,,,,,,,,,,,,,,,,,,,,,,,,,"30.49","27","52","0.00",,"+0.01","8","38","30.49","CLR:00","30.40","10.00","42","180",,"10",,,,,,,,,,,,,,,,,,,,,,,,,,,,,,,,,,,,,"MET11403/18/20 12:53:02 METAR KFRG 181753Z 18009KT 10SM CLR 11/M03 A3049 RMK AO2 SLP325 T01111028 10117 20033 58002 (RP)","FM-15","7",,,,,,,,,,,,,,,,,,,,,,,,,,,,"2009-05-18"
"74486454787","2020-03-18T13:53:00","FM-15","7",,,,,,,,,,,,,,,,,,,,,,,,,,,,,,,,,,,,,,"30.48","28","52","0.00",,,,"40","30.47","CLR:00","30.39","10.00","42","190",,"11",,,,,,,,,,,,,,,,,,,,,,,,,,,,,,,,,,,,,"MET09603/18/20 13:53:02 METAR KFRG 181853Z 19010KT 10SM CLR 11/M02 A3048 RMK AO2 SLP320 T01111022 (RP)","FM-15","7",,,,,,,,,,,,,,,,,,,,,,,,,,,,"2009-05-18"
"74486454787","2020-03-18T14:53:00","FM-15","7",,,,,,,,,,,,,,,,,,,,,,,,,,,,,,,,,,,,,,"30.47","27","51","0.00",,,,"39","30.47","CLR:00","30.38","10.00","41","190",,"10",,,,,,,,,,,,,,,,,,,,,,,,,,,,,,,,,,,,,"MET09603/18/20 14:53:02 METAR KFRG 181953Z 19009KT 10SM CLR 11/M03 A3047 RMK AO2 SLP317 T01061028 (RP)","FM-15","7",,,,,,,,,,,,,,,,,,,,,,,,,,,,"2009-05-18"
"74486454787","2020-03-18T15:53:00","FM-15","7",,,,,,,,,,,,,,,,,,,,,,,,,,,,,,,,,,,,,,"30.45","29","50","0.00",,"+0.04","8","44","30.45","CLR:00","30.36","10.00","41","160",,"8",,,,,,,,,,,,,,,,,,,,,,,,,,,,,,,,,,,,,"MET10203/18/20 15:53:02 METAR KFRG 182053Z 16007KT 10SM CLR 10/M02 A3045 RMK AO2 SLP311 T01001017 58014 (RP)","FM-15","7",,,,,,,,,,,,,,,,,,,,,,,,,,,,"2009-05-18"
"74486454787","2020-03-18T16:53:00","FM-15","7",,,,,,,,,,,,,,,,,,,,,,,,,,,,,,,,,,,,,,"30.44","29","49","0.00",,,,"46","30.44","CLR:00","30.35","10.00","41","170",,"7",,,,,,,,,,,,,,,,,,,,,,,,,,,,,,,,,,,,,"MET09603/18/20 16:53:02 METAR KFRG 182153Z 17006KT 10SM CLR 09/M02 A3044 RMK AO2 SLP307 T00941017 (RP)","FM-15","7",,,,,,,,,,,,,,,,,,,,,,,,,,,,"2009-05-18"
"74486454787","2020-03-18T17:53:00","FM-15","7",,,,,,,,,,,,,,,,,,,,,,,,,,,,,,,,,,,,,,"30.46","28","46","0.00",,,,"50","30.46","CLR:00","30.37","10.00","39","180",,"8",,,,,,,,,,,,,,,,,,,,,,,,,,,,,,,,,,,,,"MET09103/18/20 17:53:02 METAR KFRG 182253Z 18007KT 10SM CLR 08/M02 A3046 RMK AO2 SLP315 T00781022","FM-15","7",,,,,,,,,,,,,,,,,,,,,,,,,,,,"2009-05-18"
"74486454787","2020-03-18T18:53:00","FM-15","7",,,,,,,,,,,,,,,,,,,,,,,,,,,,,,,,,,,,,,"30.46","29","45","0.00",,"-0.01","3","54","30.46","CLR:00","30.37","10.00","38","180",,"11",,,,,,,,,,,,,,,,,,,,,,,,,,,,,,,,,,,,,"MET11403/18/20 18:53:02 METAR KFRG 182353Z 18010KT 10SM CLR 07/M02 A3046 RMK AO2 SLP315 T00721017 10117 20072 53003 (JM)","FM-15","7",,,,,,,,,,,,,,,,,,,,,,,,,,,,"2009-05-18"
"74486454787","2020-03-18T19:53:00","FM-15","7",,,,,,,,,,,,,,,,,,,,,,,,,,,,,,,,,,,,,,"30.47","32","45","0.00",,,,"61","30.47","CLR:00","30.38","10.00","40","170",,"11",,,,,,,,,,,,,,,,,,,,,,,,,,,,,,,,,,,,,"MET09003/18/20 19:53:01 METAR KFRG 190053Z 17010KT 10SM CLR 07/00 A3047 RMK AO2 SLP317 T00720000","FM-15","7",,,,,,,,,,,,,,,,,,,,,,,,,,,,"2009-05-18"
"74486454787","2020-03-18T20:53:00","FM-15","7",,,,,,,,,,,,,,,,,,,,,,,,,,,,,,,,,,,,,,"30.45","33","45","0.00",,,,"63","30.45","CLR:00","30.36","10.00","40","160",,"10",,,,,,,,,,,,,,,,,,,,,,,,,,,,,,,,,,,,,"MET09003/18/20 20:53:01 METAR KFRG 190153Z 16009KT 10SM CLR 07/01 A3045 RMK AO2 SLP310 T00720006","FM-15","7",,,,,,,,,,,,,,,,,,,,,,,,,,,,"2009-05-18"
"74486454787","2020-03-18T21:53:00","FM-15","7",,,,,,,,,,,,,,,,,,,,,,,,,,,,,,,,,,,,,,"30.43","32","45","0.00",,"+0.04","8","61","30.42","SCT:04 60","30.34","10.00","40","150",,"9",,,,,,,,,,,,,,,,,,,,,,,,,,,,,,,,,,,,,"MET09903/18/20 21:53:01 METAR KFRG 190253Z 15008KT 10SM SCT060 07/00 A3043 RMK AO2 SLP303 T00720000 58012","FM-15","7",,,,,,,,,,,,,,,,,,,,,,,,,,,,"2009-05-18"
"74486454787","2020-03-18T22:53:00","FM-15","7",,,,,,,,,,,,,,,,,,,,,,,,,,,,,,,,,,,,,,"30.41","33","45","T",,,,"63","30.41","BKN:07 60 OVC:08 70","30.32","10.00","40","150",,"15",,,,,,,,,,,,,,,,,,,,,,,,,,,,,,,,,,,,,"MET10003/18/20 22:53:01 METAR KFRG 190353Z 15013KT 10SM BKN060 OVC070 07/01 A3041 RMK AO2 SLP297 T00720006","FM-15","7",,,,,,,,,,,,,,,,,,,,,,,,,,,,"2009-05-18"
"74486454787","2020-03-18T23:53:00","FM-15","7",,,,,,,,,,,,,,,,,,,,,,,,,,,,,,,,,,,,,,"30.39","37","45","T","-RA:02 |RA |RA",,,"74","30.39","OVC:08 48","30.30","10.00","41","140",,"9",,,,,,,,,,,,,,,,,,,,,,,,,,,,,,,,,,,,,"MET12703/18/20 23:53:01 METAR KFRG 190453Z 14008KT 10SM -RA OVC048 07/03 A3039 RMK AO2 RAB0355E09B38 SLP291 P0000 T00720028 401170017","FM-15","7",,,,,,,,,,,,,,,,,,,,,,,,,,,,"2009-05-18"
"74486454787","2020-03-18T23:59:00","SOD  ","6",,,,,,,,,,,,,,,,"44",,,"30.34",,"7.0","0","3.4","21","53","35","150","18","T",,,"150","14","RA",,,,,,,,,,,,,,,,,,,,,,,,,,,,,,,,,,,,,,,,,,,,,,,,,,,,,,,,"SOD72724 HR PRECIPITATION (IN):T     24 HR MAX TEMP (F):53 24 HR MAX TEMP TIME (LST):1431 24 HR MIN TEMP (F):35 24 HR MIN TEMP TIME (LST):0631 AVERAGE STATION PRESSURE:30.335 MINIMUM SEA LEVEL PRESSURE:30.28 TIME OF OCCURRENCE:0004 PEAK WIND SPEED (MPH):18  PEAK WIND DIR (DEG):150 PEAK WIND TIME (LST):2252  FASTEST 2MIN SPEED (MPH):14 FASTEST 2MIN DIR (DEG):150 FASTEST 2MIN TIME (LST):2254 AVERAGE WIND SPEED (MPH):7.0  24 HR AVG TEMP (F):44 HEATING DEGREE DAYS:21  COOLING DEGREE DAYS:0   LATEST DAY MAX TEMP (0700-1900 LST):53  LATEST NIGHT MIN TEMP(1900-0800 LST):35 HOURLY INCREMENTAL PRECIPITATION VALUES (IN):.00 0.00 0.00 0.00 0.00 0.00 0.00 0.00 0.00 0.00 0.00 0.00 0.00 0.00 0.00 0.00 0.00 0.00 0.00 0.00 0.00 0.00 T    T","SOD  ","6",,,,,,,,,,,,,,,,,,,,,,,,,"0559","1805",,"2009-05-18"
"74486454787","2020-03-19T00:53:00","FM-15","7",,,,,,,,,,,,,,,,,,,,,,,,,,,,,,,,,,,,,,"30.36","38","45","T","-RA:02 |RA |RA","+0.06","8","77","30.36","OVC:08 38","30.27","10.00","42","120",,"7",,,,,,,,,,,,,,,,,,,,,,,,,,,,,,,,,,,,,"MET13603/19/20 00:53:02 METAR KFRG 190553Z 12006KT 10SM -RA OVC038 07/03 A3036 RMK AO2 RAE15B44 SLP282 P0000 60000 T00720033 10078 20072 58021","FM-15","7",,,,,,,,,,,,,,,,,,,,,,,,,,,,"2009-05-18"
"74486454787","2020-03-19T01:53:00","FM-15","7",,,,,,,,,,,,,,,,,,,,,,,,,,,,,,,,,,,,,,"30.34","40","45","0.05","RA:02 |RA |RA",,,"83","30.34","OVC:08 37","30.25","7.00","43","080",,"7",,,,,,,,,,,,,,,,,,,,,,,,,,,,,,,,,,,,,"MET10103/19/20 01:53:02 METAR KFRG 190653Z 08006KT 7SM RA OVC037 07/04 A3034 RMK AO2 SLP274 P0004 T00720044","FM-15","7",,,,,,,,,,,,,,,,,,,,,,,,,,,,"2009-05-18"
"74486454787","2020-03-19T02:35:00","FM-16","7",,,,,,,,,,,,,,,,,,,,,,,,,,,,,,,,,,,,,,"30.32","40","44","0.06","RA:02 BR:1 |RA |RA",,,"85",,"FEW:02 8 BKN:07 24 OVC:08 33","30.23","6.00","42","080",,"6",,,,,,,,,,,,,,,,,,,,,,,,,,,,,,,,,,,,,"MET11103/19/20 02:35:02 SPECI KFRG 190735Z 08005KT 6SM RA BR FEW008 BKN024 OVC033 07/04 A3032 RMK AO2 P0006 T00670044","FM-16","7",,,,,,,,,,,,,,,,,,,,,,,,,,,,"2009-05-18"
"74486454787","2020-03-19T02:53:00","FM-15","7",,,,,,,,,,,,,,,,,,,,,,,,,,,,,,,,,,,,,,"30.30","40","44","0.09","RA:02 |RA |RA",,,"85","30.30","FEW:02 8 OVC:08 23","30.21","7.00","42","070",,"7",,,,,,,,,,,,,,,,,,,,,,,,,,,,,,,,,,,,,"MET10803/19/20 02:53:02 METAR KFRG 190753Z 07006KT 7SM RA FEW008 OVC023 07/04 A3030 RMK AO2 SLP262 P0009 T00670044","FM-15","7",,,,,,,,,,,,,,,,,,,,,,,,,,,,"2009-05-18"
"74486454787","2020-03-19T03:53:00","FM-15","7",,,,,,,,,,,,,,,,,,,,,,,,,,,,,,,,,,,,,,"30.27","40","44","0.12","RA:02 BR:1 |RA |RA","+0.10","8","85","30.27","FEW:02 6 BKN:07 22 OVC:08 35","30.18","5.00","42","070",,"10",,,,,,,,,,,,,,,,,,,,,,,,,,,,,,,,,,,,,"MET13003/19/20 03:53:02 METAR KFRG 190853Z 07009KT 5SM RA BR FEW006 BKN022 OVC035 07/04 A3027 RMK AO2 SLP249 P0012 60025 T00670044 58033","FM-15","7",,,,,,,,,,,,,,,,,,,,,,,,,,,,"2009-05-18"
"74486454787","2020-03-19T04:31:00","FM-16","7",,,,,,,,,,,,,,,,,,,,,,,,,,,,,,,,,,,,,,"30.26","41","44","0.17","+RA:02 BR:1 |RA |RA",,,"89",,"BKN:07 6 BKN:07 15 OVC:08 24","30.17","4.00","43","070",,"10",,,,,,,,,,,,,,,,,,,,,,,,,,,,,,,,,,,,,"MET11203/19/20 04:31:02 SPECI KFRG 190931Z 07009KT 4SM +RA BR BKN006 BKN015 OVC024 07/05 A3026 RMK AO2 P0017 T00670050","FM-16","7",,,,,,,,,,,,,,,,,,,,,,,,,,,,"2009-05-18"
"74486454787","2020-03-19T04:39:00","FM-16","7",,,,,,,,,,,,,,,,,,,,,,,,,,,,,,,,,,,,,,"30.26","41","44","0.21","+RA:02 BR:1 |RA |RA",,,"89",,"SCT:04 6 BKN:07 17 OVC:08 24","30.17","4.00","43","070",,"10",,,,,,,,,,,,,,,,,,,,,,,,,,,,,,,,,,,,,"MET11203/19/20 04:39:02 SPECI KFRG 190939Z 07009KT 4SM +RA BR SCT006 BKN017 OVC024 07/05 A3026 RMK AO2 P0021 T00670050","FM-16","7",,,,,,,,,,,,,,,,,,,,,,,,,,,,"2009-05-18"
"74486454787","2020-03-19T04:53:00","FM-15","7",,,,,,,,,,,,,,,,,,,,,,,,,,,,,,,,,,,,,,"30.25","41","44","0.28","+RA:02 BR:1 |RA |RA",,,"89","30.25","SCT:04 6 OVC:08 20","30.16","5.00","43","080",,"9",,,,,,,,,,,,,,,,,,,,,,,,,,,,,,,,,,,,,"MET11203/19/20 04:53:02 METAR KFRG 190953Z 08008KT 5SM +RA BR SCT006 OVC020 07/05 A3025 RMK AO2 SLP243 P0027 T00670050","FM-15","7",,,,,,,,,,,,,,,,,,,,,,,,,,,,"2009-05-18"
"74486454787","2020-03-19T05:00:00","FM-16","7",,,,,,,,,,,,,,,,,,,,,,,,,,,,,,,,,,,,,,"30.24","41","44","0.02","RA:02 BR:1 |RA |RA",,,"89",,"BKN:07 6 OVC:08 20","30.15","5.00","43","080",,"10",,,,,,,,,,,,,,,,,,,,,,,,,,,,,,,,,,,,,"MET10403/19/20 05:00:02 SPECI KFRG 191000Z 08009KT 5SM RA BR BKN006 OVC020 07/05 A3024 RMK AO2 P0002 T00670050","FM-16","7",,,,,,,,,,,,,,,,,,,,,,,,,,,,"2009-05-18"
"74486454787","2020-03-19T05:53:00","FM-15","7",,,,,,,,,,,,,,,,,,,,,,,,,,,,,,,,,,,,,,"30.24","42","45","0.20","RA:02 BR:1 |RA |RA",,,"90","30.24","OVC:08 6","30.15","5.00","44","090",,"8",,,,,,,,,,,,,,,,,,,,,,,,,,,,,,,,,,,,,"MET11603/19/20 05:53:02 METAR KFRG 191053Z 09007KT 5SM RA BR OVC006 07/06 A3024 RMK AO2 CIG 005V009 SLP239 P0020 T00720056","FM-15","7",,,,,,,,,,,,,,,,,,,,,,,,,,,,"2009-05-18"
"74486454787","2020-03-19T06:53:00","FM-15","7",,,,,,,,,,,,,,,,,,,,,,,,,,,,,,,,,,,,,,"30.24","42","46","0.14","-RA:02 BR:1 |RA |RA","+0.02","5","86","30.24","BKN:07 7 OVC:08 18","30.15","4.00","44","030",,"8",,,,,,,,,,,,,,,,,,,,,,,,,,,,,,,,,,,,,"MET14203/19/20 06:53:02 METAR KFRG 191153Z 03007KT 4SM -RA BR BKN007 OVC018 08/06 A3024 RMK AO2 SLP241 P0015 60087 70087 T00780056 10078 20067 55008","FM-15","7",,,,,,,,,,,,,,,,,,,,,,,,,,,,"2009-05-18"
"74486454787","2020-03-19T07:48:00","FM-16","7",,,,,,,,,,,,,,,,,,,,,,,,,,,,,,,,,,,,,,"30.24","41","45","0.01",,,,"87",,"FEW:02 6 BKN:07 12 OVC:08 18","30.15","10.00","43","040",,"13",,,,,,,,,,,,,,,,,,,,,,,,,,,,,,,,,,,,,"MET10203/19/20 07:48:02 SPECI KFRG 191248Z 04011KT 10SM FEW006 BKN012 OVC018 07/05 A3024 RMK AO2 RAE39 P0001","FM-16","7",,,,,,,,,,,,,,,,,,,,,,,,,,,,"2009-05-18"
"74486454787","2020-03-19T07:53:00","FM-15","7",,,,,,,,,,,,,,,,,,,,,,,,,,,,,,,,,,,,,,"30.24","41","45","T",,,,"86","30.24","SCT:04 6 BKN:07 11 OVC:08 18","30.15","10.00","43","030",,"13",,,,,,,,,,,,,,,,,,,,,,,,,,,,,,,,,,,,,"MET11903/19/20 07:53:02 METAR KFRG 191253Z 03011KT 10SM SCT006 BKN011 OVC018 07/05 A3024 RMK AO2 RAE39 SLP240 P0001 T00720050","FM-15","7",,,,,,,,,,,,,,,,,,,,,,,,,,,,"2009-05-18"
"74486454787","2020-03-19T08:09:00","FM-16","7",,,,,,,,,,,,,,,,,,,,,,,,,,,,,,,,,,,,,,"30.24","42","45",,,,,"90",,"BKN:07 8 OVC:08 13","30.15","7.00","44","030",,"15",,,,,,,,,,,,,,,,,,,,,,,,,,,,,,,,,,,,,"MET09203/19/20 08:09:02 SPECI KFRG 191309Z 03013KT 7SM BKN008 OVC013 07/06 A3024 RMK AO2 T00720056","FM-16","7",,,,,,,,,,,,,,,,,,,,,,,,,,,,"2009-05-18"
"74486454787","2020-03-19T08:53:00","FM-15","7",,,,,,,,,,,,,,,,,,,,,,,,,,,,,,,,,,,,,,"30.24","42","46","T","-RA:02 BR:1 |RA |RA",,,"86","30.24","OVC:08 5","30.15","6.00","44","040","23","13",,,,,,,,,,,,,,,,,,,,,,,,,,,,,,,,,,,,,"MET11403/19/20 08:53:02 METAR KFRG 191353Z 04011G20KT 6SM -RA BR OVC005 08/06 A3024 RMK AO2 RAB45 SLP240 P0000 T00780056","FM-15","7",,,,,,,,,,,,,,,,,,,,,,,,,,,,"2009-05-18"
"74486454787","2020-03-19T09:53:00","FM-15","7",,,,,,,,,,,,,,,,,,,,,,,,,,,,,,,,,,,,,,"30.24","42","46","0.00",,"-0.00","0","86","30.24","OVC:08 5","30.15","10.00","44","040",,"18",,,,,,,,,,,,,,,,,,,,,,,,,,,,,,,,,,,,,"MET11903/19/20 09:53:02 METAR KFRG 191453Z 04016KT 10SM OVC005 08/06 A3024 RMK AO2 RAE1354 SLP239 P0000 60001 T00780056 50000","FM-15","7",,,,,,,,,,,,,,,,,,,,,,,,,,,,"2009-05-18"
"74486454787","2020-03-19T10:53:00","FM-15","7",,,,,,,,,,,,,,,,,,,,,,,,,,,,,,,,,,,,,,"30.23","43","48","0.00",,,,"83","30.23","OVC:08 7","30.14","10.00","46","040","21","15",,,,,,,,,,,,,,,,,,,,,,,,,,,,,,,,,,,,,"MET10103/19/20 10:53:02 METAR KFRG 191553Z 04013G18KT 10SM OVC007 09/06 A3023 RMK AO2 SLP238 T00890061 (RP)","FM-15","7",,,,,,,,,,,,,,,,,,,,,,,,,,,,"2009-05-18"
"74486454787","2020-03-19T11:53:00","FM-15","7",,,,,,,,,,,,,,,,,,,,,,,,,,,,,,,,,,,,,,"30.23","42","50","0.00",,,,"74","30.23","OVC:08 9","30.14","10.00","46","040","22","13",,,,,,,,,,,,,,,,,,,,,,,,,,,,,,,,,,,,,"MET10103/19/20 11:53:02 METAR KFRG 191653Z 04011G19KT 10SM OVC009 10/06 A3023 RMK AO2 SLP236 T01000056 (RP)","FM-15","7",,,,,,,,,,,,,,,,,,,,,,,,,,,,"2009-05-18"
"74486454787","2020-03-19T12:06:00","FM-16","7",,,,,,,,,,,,,,,,,,,,,,,,,,,,,,,,,,,,,,"30.22","42","50",,,,,"74",,"OVC:08 10","30.13","10.00","46","040",,"18",,,,,,,,,,,,,,,,,,,,,,,,,,,,,,,,,,,,,"MET09103/19/20 12:06:02 SPECI KFRG 191706Z 04016KT 10SM OVC010 10/06 A3022 RMK AO2 T01000056 (RP)","FM-16","7",,,,,,,,,,,,,,,,,,,,,,,,,,,,"2009-05-18"
"74486454787","2020-03-19T12:53:00","FM-15","7",,,,,,,,,,,,,,,,,,,,,,,,,,,,,,,,,,,,,,"30.21","43","51","0.00",,"+0.02","8","74","30.21","OVC:08 12","30.12","10.00","47","050",,"9",,,,,,,,,,,,,,,,,,,,,,,,,,,,,,,,,,,,,"MET12203/19/20 12:53:02 METAR KFRG 191753Z 05008KT 10SM OVC012 11/06 A3021 RMK AO2 SLP231 60001 T01060061 10111 20072 58008 (RP)","FM-15","7",,,,,,,,,,,,,,,,,,,,,,,,,,,,"2009-05-18"
"74486454787","2020-03-19T13:53:00","FM-15","7",,,,,,,,,,,,,,,,,,,,,,,,,,,,,,,,,,,,,,"30.21","42","50","0.00",,,,"74","30.21","OVC:08 12","30.12","10.00","46","060",,"10",,,,,,,,,,,,,,,,,,,,,,,,,,,,,,,,,,,,,"MET09803/19/20 13:53:02 METAR KFRG 191853Z 06009KT 10SM OVC012 10/06 A3021 RMK AO2 SLP229 T01000056 (RP)","FM-15","7",,,,,,,,,,,,,,,,,,,,,,,,,,,,"2009-05-18"
"74486454787","2020-03-19T14:53:00","FM-15","7",,,,,,,,,,,,,,,,,,,,,,,,,,,,,,,,,,,,,,"30.20","43","51","0.00",,,,"74","30.20","OVC:08 13","30.11","10.00","47","020",,"11",,,,,,,,,,,,,,,,,,,,,,,,,,,,,,,,,,,,,"MET09803/19/20 14:53:02 METAR KFRG 191953Z 02010KT 10SM OVC013 11/06 A3020 RMK AO2 SLP228 T01060061 (RP)","FM-15","7",,,,,,,,,,,,,,,,,,,,,,,,,,,,"2009-05-18"
"74486454787","2020-03-19T15:53:00","FM-15","7",,,,,,,,,,,,,,,,,,,,,,,,,,,,,,,,,,,,,,"30.21","43","51","0.00",,"+0.00","5","74","30.21","OVC:08 14","30.12","10.00","47","030",,"5",,,,,,,,,,,,,,,,,,,,,,,,,,,,,,,,,,,,,"MET10403/19/20 15:53:02 METAR KFRG 192053Z 03004KT 10SM OVC014 11/06 A3021 RMK AO2 SLP230 T01060061 55001 (RP)","FM-15","7",,,,,,,,,,,,,,,,,,,,,,,,,,,,"2009-05-18"
"74486454787","2020-03-19T16:30:00","FM-16","7",,,,,,,,,,,,,,,,,,,,,,,,,,,,,,,,,,,,,,"30.21","43","52",,,,,"72",,"OVC:08 15","30.12","10.00","48","010",,"7",,,,,,,,,,,,,,,,,,,,,,,,,,,,,,,,,,,,,"MET09103/19/20 16:30:02 SPECI KFRG 192130Z 01006KT 10SM OVC015 11/06 A3021 RMK AO2 T01110061 (RP)","FM-16","7",,,,,,,,,,,,,,,,,,,,,,,,,,,,"2009-05-18"
"74486454787","2020-03-19T16:53:00","FM-15","7",,,,,,,,,,,,,,,,,,,,,,,,,,,,,,,,,,,,,,"30.22","42","51","0.00",,,,"71","30.22","OVC:08 15","30.13","10.00","47","020",,"6",,,,,,,,,,,,,,,,,,,,,,,,,,,,,,,,,,,,,"MET09803/19/20 16:53:02 METAR KFRG 192153Z 02005KT 10SM OVC015 11/06 A3022 RMK AO2 SLP232 T01060056 (RP)","FM-15","7",,,,,,,,,,,,,,,,,,,,,,,,,,,,"2009-05-18"
"74486454787","2020-03-19T17:53:00","FM-15","7",,,,,,,,,,,,,,,,,,,,,,,,,,,,,,,,,,,,,,"30.23","42","50","0.00",,,,"74","30.23","OVC:08 16","30.14","10.00","46","040",,"5",,,,,,,,,,,,,,,,,,,,,,,,,,,,,,,,,,,,,"MET09803/19/20 17:53:02 METAR KFRG 192253Z 04004KT 10SM OVC016 10/06 A3023 RMK AO2 SLP238 T01000056 (RP)","FM-15","7",,,,,,,,,,,,,,,,,,,,,,,,,,,,"2009-05-18"
"74486454787","2020-03-19T18:35:00","FM-16","7",,,,,,,,,,,,,,,,,,,,,,,,,,,,,,,,,,,,,,"30.24","42","50",,,,,"74",,"SCT:04 16 BKN:07 30","30.15","10.00","46","060",,"3",,,,,,,,,,,,,,,,,,,,,,,,,,,,,,,,,,,,,"MET09803/19/20 18:35:02 SPECI KFRG 192335Z 06003KT 10SM SCT016 BKN030 10/06 A3024 RMK AO2 T01000056 (RP)","FM-16","7",,,,,,,,,,,,,,,,,,,,,,,,,,,,"2009-05-18"
"74486454787","2020-03-19T18:53:00","FM-15","7",,,,,,,,,,,,,,,,,,,,,,,,,,,,,,,,,,,,,,"30.24","42","50","0.00",,"-0.03","3","74","30.24","OVC:08 30","30.15","10.00","46","060",,"5",,,,,,,,,,,,,,,,,,,,,,,,,,,,,,,,,,,,,"MET11603/19/20 18:53:02 METAR KFRG 192353Z 06004KT 10SM OVC030 10/06 A3024 RMK AO2 SLP241 T01000056 10111 20100 53011 (RP)","FM-15","7",,,,,,,,,,,,,,,,,,,,,,,,,,,,"2009-05-18"
"74486454787","2020-03-19T19:02:00","FM-16","7",,,,,,,,,,,,,,,,,,,,,,,,,,,,,,,,,,,,,,"30.24","42","50",,,,,"74",,"OVC:08 29","30.15","10.00","46","050",,"3",,,,,,,,,,,,,,,,,,,,,,,,,,,,,,,,,,,,,"MET08603/19/20 19:02:01 SPECI KFRG 200002Z 05003KT 10SM OVC029 10/06 A3024 RMK AO2 T01000056","FM-16","7",,,,,,,,,,,,,,,,,,,,,,,,,,,,"2009-05-18"
"74486454787","2020-03-19T19:53:00","FM-15","7",,,,,,,,,,,,,,,,,,,,,,,,,,,,,,,,,,,,,,"30.24","42","49","0.00",,,,"77","30.24","BKN:07 27","30.15","10.00","46","070",,"3",,,,,,,,,,,,,,,,,,,,,,,,,,,,,,,,,,,,,"MET09303/19/20 19:53:01 METAR KFRG 200053Z 07003KT 10SM BKN027 09/06 A3024 RMK AO2 SLP240 T00940056","FM-15","7",,,,,,,,,,,,,,,,,,,,,,,,,,,,"2009-05-18"
"74486454787","2020-03-19T20:04:00","FM-16","7",,,,,,,,,,,,,,,,,,,,,,,,,,,,,,,,,,,,,,"30.23","42","49",,,,,"77",,"FEW:02 18 SCT:04 27","30.14","10.00","46","070",,"5",,,,,,,,,,,,,,,,,,,,,,,,,,,,,,,,,,,,,"MET09303/19/20 20:04:01 SPECI KFRG 200104Z 07004KT 10SM FEW018 SCT027 09/06 A3023 RMK AO2 T00940056","FM-16","7",,,,,,,,,,,,,,,,,,,,,,,,,,,,"2009-05-18"
"74486454787","2020-03-19T20:27:00","FM-16","7",,,,,,,,,,,,,,,,,,,,,,,,,,,,,,,,,,,,,,"30.24","42","49",,,,,"77",,"SCT:04 18 BKN:07 24","30.15","10.00","46","000",,"0",,,,,,,,,,,,,,,,,,,,,,,,,,,,,,,,,,,,,"MET09303/19/20 20:27:01 SPECI KFRG 200127Z 00000KT 10SM SCT018 BKN024 09/06 A3024 RMK AO2 T00940056","FM-16","7",,,,,,,,,,,,,,,,,,,,,,,,,,,,"2009-05-18"
"74486454787","2020-03-19T20:53:00","FM-15","7",,,,,,,,,,,,,,,,,,,,,,,,,,,,,,,,,,,,,,"30.24","41","49","0.00",,,,"74","30.24","OVC:08 17","30.15","10.00","45","050",,"3",,,,,,,,,,,,,,,,,,,,,,,,,,,,,,,,,,,,,"MET09303/19/20 20:53:01 METAR KFRG 200153Z 05003KT 10SM OVC017 09/05 A3024 RMK AO2 SLP240 T00940050","FM-15","7",,,,,,,,,,,,,,,,,,,,,,,,,,,,"2009-05-18"
"74486454787","2020-03-19T21:53:00","FM-15","7",,,,,,,,,,,,,,,,,,,,,,,,,,,,,,,,,,,,,,"30.23","42","48","0.00",,"+0.01","8","80","30.23","OVC:08 16","30.14","10.00","45","000",,"0",,,,,,,,,,,,,,,,,,,,,,,,,,,,,,,,,,,,,"MET09903/19/20 21:53:02 METAR KFRG 200253Z 00000KT 10SM OVC016 09/06 A3023 RMK AO2 SLP237 T00890056 58004","FM-15","7",,,,,,,,,,,,,,,,,,,,,,,,,,,,"2009-05-18"
"74486454787","2020-03-19T22:27:00","FM-16","7",,,,,,,,,,,,,,,,,,,,,,,,,,,,,,,,,,,,,,"30.22","42","48",,,,,"80",,"SCT:04 16","30.13","10.00","45","100",,"3",,,,,,,,,,,,,,,,,,,,,,,,,,,,,,,,,,,,,"MET08603/19/20 22:27:02 SPECI KFRG 200327Z 10003KT 10SM SCT016 09/06 A3022 RMK AO2 T00890056","FM-16","7",,,,,,,,,,,,,,,,,,,,,,,,,,,,"2009-05-18"
"74486454787","2020-03-19T22:53:00","FM-15","7",,,,,,,,,,,,,,,,,,,,,,,,,,,,,,,,,,,,,,"30.21","42","48","0.00",,,,"80","30.21","SCT:04 15","30.12","10.00","45","150",,"5",,,,,,,,,,,,,,,,,,,,,,,,,,,,,,,,,,,,,"MET09303/19/20 22:53:02 METAR KFRG 200353Z 15004KT 10SM SCT015 09/06 A3021 RMK AO2 SLP231 T00890056","FM-15","7",,,,,,,,,,,,,,,,,,,,,,,,,,,,"2009-05-18"
"74486454787","2020-03-19T23:06:00","FM-16","7",,,,,,,,,,,,,,,,,,,,,,,,,,,,,,,,,,,,,,"30.21","42","48",,,,,"80",,"BKN:07 15 BKN:07 60","30.12","10.00","45","140",,"5",,,,,,,,,,,,,,,,,,,,,,,,,,,,,,,,,,,,,"MET09303/19/20 23:06:02 SPECI KFRG 200406Z 14004KT 10SM BKN015 BKN060 09/06 A3021 RMK AO2 T00890056","FM-16","7",,,,,,,,,,,,,,,,,,,,,,,,,,,,"2009-05-18"
"74486454787","2020-03-19T23:15:00","FM-16","7",,,,,,,,,,,,,,,,,,,,,,,,,,,,,,,,,,,,,,"30.20","42","48",,,,,"80",,"BKN:07 14 OVC:08 55","30.11","10.00","45","130",,"5",,,,,,,,,,,,,,,,,,,,,,,,,,,,,,,,,,,,,"MET09303/19/20 23:15:02 SPECI KFRG 200415Z 13004KT 10SM BKN014 OVC055 09/06 A3020 RMK AO2 T00890056","FM-16","7",,,,,,,,,,,,,,,,,,,,,,,,,,,,"2009-05-18"
"74486454787","2020-03-19T23:30:00","FM-16","7",,,,,,,,,,,,,,,,,,,,,,,,,,,,,,,,,,,,,,"30.20","42","48",,,,,"80",,"SCT:04 14 OVC:08 55","30.11","10.00","45","150",,"5",,,,,,,,,,,,,,,,,,,,,,,,,,,,,,,,,,,,,"MET09303/19/20 23:30:02 SPECI KFRG 200430Z 15004KT 10SM SCT014 OVC055 09/06 A3020 RMK AO2 T00890056","FM-16","7",,,,,,,,,,,,,,,,,,,,,,,,,,,,"2009-05-18"
"74486454787","2020-03-19T23:42:00","FM-16","7",,,,,,,,,,,,,,,,,,,,,,,,,,,,,,,,,,,,,,"30.19","42","48",,,,,"80",,"BKN:07 14 OVC:08 55","30.10","10.00","45","140",,"7",,,,,,,,,,,,,,,,,,,,,,,,,,,,,,,,,,,,,"MET09303/19/20 23:42:02 SPECI KFRG 200442Z 14006KT 10SM BKN014 OVC055 09/06 A3019 RMK AO2 T00890056","FM-16","7",,,,,,,,,,,,,,,,,,,,,,,,,,,,"2009-05-18"
"74486454787","2020-03-19T23:51:00","FM-16","6",,,,,,,,,,,,,,,,,,,,,,,,,,,,,,,,,,,,,,"30.19","43","48",,,,,"82",,"SCT:04 14 BKN:07 55","30.10","10.00","46","130",,"5",,,,,,,,,,,,,,,,,,,,,,,,,,,,,,,,,,,,,"MET08803/19/20 23:51:03 SPECI KFRG 200451Z 13004KT 10SM SCT014 BKN055 09/06 A3019 RMK AO2 FIBI","FM-16","6",,,,,,,,,,,,,,,,,,,,,,,,,,,,"2009-05-18"
"74486454787","2020-03-19T23:53:00","FM-15","7",,,,,,,,,,,,,,,,,,,,,,,,,,,,,,,,,,,,,,"30.19","42","48","0.00",,,,"80","30.19","SCT:04 14 BKN:07 55","30.10","10.00","45","140",,"3",,,,,,,,,,,,,,,,,,,,,,,,,,,,,,,,,,,,,"MET11003/19/20 23:53:02 METAR KFRG 200453Z 14003KT 10SM SCT014 BKN055 09/06 A3019 RMK AO2 SLP224 T00890056 401110067","FM-15","7",,,,,,,,,,,,,,,,,,,,,,,,,,,,"2009-05-18"
"74486454787","2020-03-19T23:59:00","SOD  ","6",,,,,,,,,,,,,,,,"48",,,"30.17",,"8.1","0","7.1","17","52","44","030","23","0.88",,,"030","18","RA BR",,,,,,,,,,,,,,,,,,,,,,,,,,,,,,,,,,,,,,,,,,,,,,,,,,,,,,,,"SOD73024 HR PRECIPITATION (IN):0.88  24 HR MAX TEMP (F):52 24 HR MAX TEMP TIME (LST):1633 24 HR MIN TEMP (F):44 24 HR MIN TEMP TIME (LST):0505 AVERAGE STATION PRESSURE:30.170 MINIMUM SEA LEVEL PRESSURE:30.19 TIME OF OCCURRENCE:2359 PEAK WIND SPEED (MPH):23  PEAK WIND DIR (DEG):30  PEAK WIND TIME (LST):0849  FASTEST 2MIN SPEED (MPH):18 FASTEST 2MIN DIR (DEG):30  FASTEST 2MIN TIME (LST):1218 AVERAGE WIND SPEED (MPH):8.1  24 HR AVG TEMP (F):48 HEATING DEGREE DAYS:17  COOLING DEGREE DAYS:0   LATEST DAY MAX TEMP (0700-1900 LST):52  LATEST NIGHT MIN TEMP(1900-0800 LST):44 HOURLY INCREMENTAL PRECIPITATION VALUES (IN):    0.05 0.09 0.12 0.28 0.20 0.14 T    T    0.00 0.00 0.00 0.00 0.00 0.00 0.00 0.00 0.00 0.00 0.00 0.00 0.00 0.00 0.00","SOD  ","6",,,,,,,,,,,,,,,,,,,,,,,,,"0558","1806",,"2009-05-18"
"74486454787","2020-03-20T00:53:00","FM-15","7",,,,,,,,,,,,,,,,,,,,,,,,,,,,,,,,,,,,,,"30.16","42","48","0.00",,"+0.06","8","80","30.16","OVC:08 46","30.07","10.00","45","150",,"7",,,,,,,,,,,,,,,,,,,,,,,,,,,,,,,,,,,,,"MET11103/20/20 00:53:02 METAR KFRG 200553Z 15006KT 10SM OVC046 09/06 A3016 RMK AO2 SLP215 T00890056 10100 20089 58022","FM-15","7",,,,,,,,,,,,,,,,,,,,,,,,,,,,"2009-05-18"
"74486454787","2020-03-20T01:53:00","FM-15","7",,,,,,,,,,,,,,,,,,,,,,,,,,,,,,,,,,,,,,"30.12","42","48","0.00",,,,"80","30.12","FEW:02 9 BKN:07 40 OVC:08 110","30.03","10.00","45","150",,"8",,,,,,,,,,,,,,,,,,,,,,,,,,,,,,,,,,,,,"MET10703/20/20 01:53:02 METAR KFRG 200653Z 15007KT 10SM FEW009 BKN040 OVC110 09/06 A3012 RMK AO2 SLP200 T00890056","FM-15","7",,,,,,,,,,,,,,,,,,,,,,,,,,,,"2009-05-18"
"74486454787","2020-03-20T02:16:00","FM-16","7",,,,,,,,,,,,,,,,,,,,,,,,,,,,,,,,,,,,,,"30.12","42","48",,,,,"80",,"BKN:07 10 OVC:08 35","30.03","10.00","45","160",,"7",,,,,,,,,,,,,,,,,,,,,,,,,,,,,,,,,,,,,"MET09303/20/20 02:16:02 SPECI KFRG 200716Z 16006KT 10SM BKN010 OVC035 09/06 A3012 RMK AO2 T00890056","FM-16","7",,,,,,,,,,,,,,,,,,,,,,,,,,,,"2009-05-18"
"74486454787","2020-03-20T02:32:00","FM-16","7",,,,,,,,,,,,,,,,,,,,,,,,,,,,,,,,,,,,,,"30.11","43","48",,,,,"83",,"OVC:08 9","30.02","10.00","46","160",,"8",,,,,,,,,,,,,,,,,,,,,,,,,,,,,,,,,,,,,"MET08603/20/20 02:32:02 SPECI KFRG 200732Z 16007KT 10SM OVC009 09/06 A3011 RMK AO2 T00890061","FM-16","7",,,,,,,,,,,,,,,,,,,,,,,,,,,,"2009-05-18"
"74486454787","2020-03-20T02:53:00","FM-15","7",,,,,,,,,,,,,,,,,,,,,,,,,,,,,,,,,,,,,,"30.09","43","48","0.00",,,,"83","30.09","OVC:08 9","30.00","10.00","46","170",,"7",,,,,,,,,,,,,,,,,,,,,,,,,,,,,,,,,,,,,"MET10503/20/20 02:53:02 METAR KFRG 200753Z 17006KT 10SM OVC009 09/06 A3009 RMK AO2 CIG 006V012 SLP191 T00890061","FM-15","7",,,,,,,,,,,,,,,,,,,,,,,,,,,,"2009-05-18"
"74486454787","2020-03-20T03:53:00","FM-15","7",,,,,,,,,,,,,,,,,,,,,,,,,,,,,,,,,,,,,,"30.07","43","48","0.00",,"+0.09","6","83","30.07","OVC:08 6","29.98","10.00","46","160",,"9",,,,,,,,,,,,,,,,,,,,,,,,,,,,,,,,,,,,,"MET09903/20/20 03:53:02 METAR KFRG 200853Z 16008KT 10SM OVC006 09/06 A3007 RMK AO2 SLP184 T00890061 56031","FM-15","7",,,,,,,,,,,,,,,,,,,,,,,,,,,,"2009-05-18"
"74486454787","2020-03-20T04:32:00","FM-16","7",,,,,,,,,,,,,,,,,,,,,,,,,,,,,,,,,,,,,,"30.06","44","48",,,,,"86",,"OVC:08 3","29.97","7.00","46","160",,"9",,,,,,,,,,,,,,,,,,,,,,,,,,,,,,,,,,,,,"MET08503/20/20 04:32:02 SPECI KFRG 200932Z 16008KT 7SM OVC003 09/07 A3006 RMK AO2 T00890067","FM-16","7",,,,,,,,,,,,,,,,,,,,,,,,,,,,"2009-05-18"
"74486454787","2020-03-20T04:49:00","FM-16","7",,,,,,,,,,,,,,,,,,,,,,,,,,,,,,,,,,,,,,"30.06","45","48",,"BR:1 ||",,,"87",,"OVC:08 3","29.97","2.00","47","170",,"10",,,,,,,,,,,,,,,,,,,,,,,,,,,,,,,,,,,,,"MET07803/20/20 04:49:02 SPECI KFRG 200949Z 17009KT 2SM BR OVC003 09/07 A3006 RMK AO2","FM-16","7",,,,,,,,,,,,,,,,,,,,,,,,,,,,"2009-05-18"
"74486454787","2020-03-20T04:53:00","FM-15","7",,,,,,,,,,,,,,,,,,,,,,,,,,,,,,,,,,,,,,"30.06","44","47","0.00","BR:1 ||",,,"90","30.06","OVC:08 3","29.97","2.00","46","170",,"9",,,,,,,,,,,,,,,,,,,,,,,,,,,,,,,,,,,,,"MET09503/20/20 04:53:02 METAR KFRG 200953Z 17008KT 2SM BR OVC003 08/07 A3006 RMK AO2 SLP178 T00830067","FM-15","7",,,,,,,,,,,,,,,,,,,,,,,,,,,,"2009-05-18"
"74486454787","2020-03-20T05:09:00","FM-16","7",,,,,,,,,,,,,,,,,,,,,,,,,,,,,,,,,,,,,,"30.05","44","48",,"BR:1 ||",,,"86",,"OVC:08 2","29.96","1.75","46","170",,"8",,,,,,,,,,,,,,,,,,,,,,,,,,,,,,,,,,,,,"MET09203/20/20 05:09:02 SPECI KFRG 201009Z 17007KT 1 3/4SM BR OVC002 09/07 A3005 RMK AO2 T00890067","FM-16","7",,,,,,,,,,,,,,,,,,,,,,,,,,,,"2009-05-18"
"74486454787","2020-03-20T05:45:00","FM-16","7",,,,,,,,,,,,,,,,,,,,,,,,,,,,,,,,,,,,,,"30.04","45","48",,"BR:1 ||",,,"89",,"VV:09 3","29.95","1.00","47","160",,"7",,,,,,,,,,,,,,,,,,,,,,,,,,,,,,,,,,,,,"MET09203/20/20 05:45:02 SPECI KFRG 201045Z 16006KT 1SM BR VV003 09/07 A3004 RMK AO2 T00890072 (RP)","FM-16","7",,,,,,,,,,,,,,,,,,,,,,,,,,,,"2009-05-18"
"74486454787","2020-03-20T05:51:00","FM-16","7",,,,,,,,,,,,,,,,,,,,,,,,,,,,,,,,,,,,,,"30.04","45","48",,"BR:1 s |s |",,,"87",,"VV:09 2","29.95","0.25s","47","180",,"7",,,,,,,,,,,,,,,,,,,,,,,,,,,,,,,,,,,,,"MET09403/20/20 05:51:02 SPECI KFRG 201051Z 18006KT 1/4SM BR VV002 09/07 A3004 RMK AO2 SFC VIS 1 (RP)","FM-16","7",,,,,,,,,,,,,,,,,,,,,,,,,,,,"2009-05-18"
"74486454787","2020-03-20T05:52:00","FM-15","7",,,,,,,,,,,,,,,,,,,,,,,,,,,,,,,,,,,,,,"30.04","45","48","0.00","BR:1 s |s |",,,"89","30.04","VV:09 2","29.95","0.25s","47","180",,"7",,,,,,,,,,,,,,,,,,,,,,,,,,,,,,,,,,,,,"MET11103/20/20 05:52:02 METAR KFRG 201052Z 18006KT 1/4SM BR VV002 09/07 A3004 RMK AO2 SFC VIS 1 SLP173 T00890072 (RP)","FM-15","7",,,,,,,,,,,,,,,,,,,,,,,,,,,,"2009-05-18"
"74486454787","2020-03-20T06:53:00","FM-15","7",,,,,,,,,,,,,,,,,,,,,,,,,,,,,,,,,,,,,,"30.03","46","48","0.00","FG:2 |FG |","+0.03","8","93","30.03","VV:09 2","29.94","0.25","47","190",,"3",,,,,,,,,,,,,,,,,,,,,,,,,,,,,,,,,,,,,"MET13703/20/20 06:53:02 METAR KFRG 201153Z 19003KT 1/4SM FG VV002 09/08 A3003 RMK AO2 TWR VIS 1/4 SLP168 70001 T00890078 10089 20083 58011 (MH)","FM-15","7",,,,,,,,,,,,,,,,,,,,,,,,,,,,"2009-05-18"
"74486454787","2020-03-20T07:53:00","FM-15","7",,,,,,,,,,,,,,,,,,,,,,,,,,,,,,,,,,,,,,"30.00","47","49","0.00","BR:1 s |s |",,,"93","30.00","VV:09 2","29.91","0.25s","48","170",,"5",,,,,,,,,,,,,,,,,,,,,,,,,,,,,,,,,,,,,"MET11103/20/20 07:53:02 METAR KFRG 201253Z 17004KT 1/4SM BR VV002 09/08 A3000 RMK AO2 SFC VIS 1 SLP160 T00940083 (MH)","FM-15","7",,,,,,,,,,,,,,,,,,,,,,,,,,,,"2009-05-18"
"74486454787","2020-03-20T08:16:00","FM-16","7",,,,,,,,,,,,,,,,,,,,,,,,,,,,,,,,,,,,,,"30.00","48","50",,"BR:1 ||",,,"93",,"OVC:08 2","29.91","1.00","49","190",,"6",,,,,,,,,,,,,,,,,,,,,,,,,,,,,,,,,,,,,"MET10303/20/20 08:16:02 SPECI KFRG 201316Z 19005KT 1SM BR OVC002 10/09 A3000 RMK AO2 SFC VIS 3 T01000089 (MH)","FM-16","7",,,,,,,,,,,,,,,,,,,,,,,,,,,,"2009-05-18"
"74486454787","2020-03-20T08:39:00","FM-16","7",,,,,,,,,,,,,,,,,,,,,,,,,,,,,,,,,,,,,,"29.99","48","51",,"BR:1 ||",,,"89",,"OVC:08 3","29.90","1.00","49","210",,"6",,,,,,,,,,,,,,,,,,,,,,,,,,,,,,,,,,,,,"MET10303/20/20 08:39:02 SPECI KFRG 201339Z 21005KT 1SM BR OVC003 11/09 A2999 RMK AO2 SFC VIS 5 T01060089 (MH)","FM-16","7",,,,,,,,,,,,,,,,,,,,,,,,,,,,"2009-05-18"
"74486454787","2020-03-20T08:53:00","FM-15","7",,,,,,,,,,,,,,,,,,,,,,,,,,,,,,,,,,,,,,"29.98","49","51","0.00",,,,"92","29.98","OVC:08 3","29.89","1.00","50","180",,"6",,,,,,,,,,,,,,,,,,,,,,,,,,,,,,,,,,,,,"MET10703/20/20 08:53:02 METAR KFRG 201353Z 18005KT 1SM OVC003 11/09 A2998 RMK AO2 SFC VIS 7 SLP152 T01060094 (MH)","FM-15","7",,,,,,,,,,,,,,,,,,,,,,,,,,,,"2009-05-18"
"74486454787","2020-03-20T09:53:00","FM-15","7",,,,,,,,,,,,,,,,,,,,,,,,,,,,,,,,,,,,,,"29.96","49","52","0.00",,"+0.07","7","89","29.96","OVC:08 4","29.87","1.00","50","190",,"7",,,,,,,,,,,,,,,,,,,,,,,,,,,,,,,,,,,,,"MET11303/20/20 09:53:02 METAR KFRG 201453Z 19006KT 1SM OVC004 11/09 A2996 RMK AO2 SFC VIS 7 SLP144 T01110094 57023 (MH)","FM-15","7",,,,,,,,,,,,,,,,,,,,,,,,,,,,"2009-05-18"
"74486454787","2020-03-20T10:01:00","FM-16","7",,,,,,,,,,,,,,,,,,,,,,,,,,,,,,,,,,,,,,"29.96","48","51",,,,,"89",,"OVC:08 4","29.87","8.00","49","180",,"7",,,,,,,,,,,,,,,,,,,,,,,,,,,,,,,,,,,,,"MET09003/20/20 10:01:02 SPECI KFRG 201501Z 18006KT 8SM OVC004 11/09 A2996 RMK AO2 T01060089 (MH)","FM-16","7",,,,,,,,,,,,,,,,,,,,,,,,,,,,"2009-05-18"
"74486454787","2020-03-20T10:51:00","FM-16","6",,,,,,,,,,,,,,,,,,,,,,,,,,,,,,,,,,,,,,"29.95","48","54",,,,,"82",,"OVC:08 5","29.86","10.00","51","230",,"8",,,,,,,,,,,,,,,,,,,,,,,,,,,,,,,,,,,,,"MET08603/20/20 10:51:02 SPECI KFRG 201551Z 23007KT 10SM OVC005 12/09 A2995 RMK AO2 FIBI (MH)","FM-16","6",,,,,,,,,,,,,,,,,,,,,,,,,,,,"2009-05-18"
"74486454787","2020-03-20T10:53:00","FM-15","7",,,,,,,,,,,,,,,,,,,,,,,,,,,,,,,,,,,,,,"29.95","48","53","0.00",,,,"83","29.95","OVC:08 5","29.86","10.00","50","230",,"7",,,,,,,,,,,,,,,,,,,,,,,,,,,,,,,,,,,,,"MET09803/20/20 10:53:02 METAR KFRG 201553Z 23006KT 10SM OVC005 12/09 A2995 RMK AO2 SLP142 T01170089 (MH)","FM-15","7",,,,,,,,,,,,,,,,,,,,,,,,,,,,"2009-05-18"
"74486454787","2020-03-20T11:51:00","FM-16","6",,,,,,,,,,,,,,,,,,,,,,,,,,,,,,,,,,,,,,"29.92","50","55",,,,,"82",,"SCT:04 6 BKN:07 120","29.83","10.00","52","230",,"6",,,,,,,,,,,,,,,,,,,,,,,,,,,,,,,,,,,,,"MET09303/20/20 11:51:02 SPECI KFRG 201651Z 23005KT 10SM SCT006 BKN120 13/10 A2992 RMK AO2 FIBI (MH)","FM-16","6",,,,,,,,,,,,,,,,,,,,,,,,,,,,"2009-05-18"
"74486454787","2020-03-20T11:53:00","FM-15","7",,,,,,,,,,,,,,,,,,,,,,,,,,,,,,,,,,,,,,"29.92","50","56","0.00",,,,"81","29.92","SCT:04 6 BKN:07 120","29.83","10.00","53","230",,"7",,,,,,,,,,,,,,,,,,,,,,,,,,,,,,,,,,,,,"MET10503/20/20 11:53:02 METAR KFRG 201653Z 23006KT 10SM SCT006 BKN120 13/10 A2992 RMK AO2 SLP131 T01330100 (MH)","FM-15","7",,,,,,,,,,,,,,,,,,,,,,,,,,,,"2009-05-18"
"74486454787","2020-03-20T12:53:00","FM-15","7",,,,,,,,,,,,,,,,,,,,,,,,,,,,,,,,,,,,,,"29.88","50","58","T",,"+0.07","8","75","29.88","SCT:04 100 BKN:07 110","29.79","10.00","54","190",,"8",,,,,,,,,,,,,,,,,,,,,,,,,,,,,,,,,,,,,"MET12303/20/20 12:53:02 METAR KFRG 201753Z 19007KT 10SM SCT100 BKN110 14/10 A2988 RMK AO2 SLP119 T01440100 10156 20089 58025 (MH)","FM-15","7",,,,,,,,,,,,,,,,,,,,,,,,,,,,"2009-05-18"
"74486454787","2020-03-20T13:53:00","FM-15","7",,,,,,,,,,,,,,,,,,,,,,,,,,,,,,,,,,,,,,"29.84","49","56","T",,,,"77","29.84","FEW:02 120","29.75","10.00","52","180",,"10",,,,,,,,,,,,,,,,,,,,,,,,,,,,,,,,,,,,,"MET11503/20/20 13:53:02 METAR KFRG 201853Z 18009KT 10SM FEW120 13/09 A2984 RMK AO2 RAB1756E07 SLP106 P0000 T01330094 (MH)","FM-15","7",,,,,,,,,,,,,,,,,,,,,,,,,,,,"2009-05-18"
"74486454787","2020-03-20T14:53:00","FM-15","7",,,,,,,,,,,,,,,,,,,,,,,,,,,,,,,,,,,,,,"29.81","52","60","0.00",,,,"75","29.81","CLR:00","29.72","10.00","56","200",,"10",,,,,,,,,,,,,,,,,,,,,,,,,,,,,,,,,,,,,"MET09503/20/20 14:53:02 METAR KFRG 201953Z 20009KT 10SM CLR 16/11 A2981 RMK AO2 SLP094 T01560111 (MH)","FM-15","7",,,,,,,,,,,,,,,,,,,,,,,,,,,,"2009-05-18"
"74486454787","2020-03-20T15:53:00","FM-15","7",,,,,,,,,,,,,,,,,,,,,,,,,,,,,,,,,,,,,,"29.80","52","62","0.00",,"+0.09","6","70","29.80","CLR:00","29.71","10.00","56","210",,"11",,,,,,,,,,,,,,,,,,,,,,,,,,,,,,,,,,,,,"MET10203/20/20 15:53:02 METAR KFRG 202053Z 21010KT 10SM CLR 17/11 A2980 RMK AO2 SLP090 60000 T01670111 56029","FM-15","7",,,,,,,,,,,,,,,,,,,,,,,,,,,,"2009-05-18"
"74486454787","2020-03-20T16:53:00","FM-15","7",,,,,,,,,,,,,,,,,,,,,,,,,,,,,,,,,,,,,,"29.79","52","63","0.00",,,,"68","29.79","BKN:07 70","29.70","10.00","57","200",,"8",,,,,,,,,,,,,,,,,,,,,,,,,,,,,,,,,,,,,"MET09803/20/20 16:53:02 METAR KFRG 202153Z 20007KT 10SM BKN070 17/11 A2979 RMK AO2 SLP089 T01720111 (SS)","FM-15","7",,,,,,,,,,,,,,,,,,,,,,,,,,,,"2009-05-18"
"74486454787","2020-03-20T17:53:00","FM-15","7",,,,,,,,,,,,,,,,,,,,,,,,,,,,,,,,,,,,,,"29.82","51","60","0.00",,,,"72","29.82","BKN:07 65","29.73","10.00","55","210",,"7",,,,,,,,,,,,,,,,,,,,,,,,,,,,,,,,,,,,,"MET09803/20/20 17:53:02 METAR KFRG 202253Z 21006KT 10SM BKN065 16/11 A2982 RMK AO2 SLP099 T01560106 (RJ)","FM-15","7",,,,,,,,,,,,,,,,,,,,,,,,,,,,"2009-05-18"
"74486454787","2020-03-20T18:53:00","FM-15","7",,,,,,,,,,,,,,,,,,,,,,,,,,,,,,,,,,,,,,"29.85","50","60","0.00",,"-0.05","3","70","29.85","FEW:02 50 BKN:07 65 OVC:08 80","29.76","10.00","55","VRB",,"7",,,,,,,,,,,,,,,,,,,,,,,,,,,,,,,,,,,,,"MET13603/20/20 18:53:02 METAR KFRG 202353Z VRB06KT 10SM FEW050 BKN065 OVC080 16/10 A2985 RMK AO2 SLP107 60000 T01560100 10178 20128 53017 (RJ)","FM-15","7",,,,,,,,,,,,,,,,,,,,,,,,,,,,"2009-05-18"
"74486454787","2020-03-20T19:53:00","FM-15","7",,,,,,,,,,,,,,,,,,,,,,,,,,,,,,,,,,,,,,"29.87","50","59","0.00",,,,"72","29.86","FEW:02 120","29.78","10.00","54","000",,"0",,,,,,,,,,,,,,,,,,,,,,,,,,,,,,,,,,,,,"MET09303/20/20 19:53:01 METAR KFRG 210053Z 00000KT 10SM FEW120 15/10 A2987 RMK AO2 SLP113 T01500100","FM-15","7",,,,,,,,,,,,,,,,,,,,,,,,,,,,"2009-05-18"
"74486454787","2020-03-20T20:53:00","FM-15","7",,,,,,,,,,,,,,,,,,,,,,,,,,,,,,,,,,,,,,"29.87","46","73","0.00",,,,"38","29.87","BKN:07 95 BKN:07 120","29.78","10.00","58","280","22","10",,,,,,,,,,,,,,,,,,,,,,,,,,,,,,,,,,,,,"MET10303/20/20 20:53:01 METAR KFRG 210153Z 28009G19KT 10SM BKN095 BKN120 23/08 A2987 RMK AO2 SLP114 T02280078","FM-15","7",,,,,,,,,,,,,,,,,,,,,,,,,,,,"2009-05-18"
"74486454787","2020-03-20T21:53:00","FM-15","7",,,,,,,,,,,,,,,,,,,,,,,,,,,,,,,,,,,,,,"29.89","46","70","0.00",,"-0.04","1","42","29.88","FEW:02 100","29.80","10.00","57","270",,"7",,,,,,,,,,,,,,,,,,,,,,,,,,,,,,,,,,,,,"MET09903/20/20 21:53:01 METAR KFRG 210253Z 27006KT 10SM FEW100 21/08 A2989 RMK AO2 SLP120 T02110078 51014","FM-15","7",,,,,,,,,,,,,,,,,,,,,,,,,,,,"2009-05-18"
"74486454787","2020-03-20T22:53:00","FM-15","7",,,,,,,,,,,,,,,,,,,,,,,,,,,,,,,,,,,,,,"29.91","47","71","0.00",,,,"42","29.90","BKN:07 95 BKN:07 110","29.82","10.00","58","290","21","16",,,,,,,,,,,,,,,,,,,,,,,,,,,,,,,,,,,,,"MET10303/20/20 22:53:02 METAR KFRG 210353Z 29014G18KT 10SM BKN095 BKN110 22/08 A2991 RMK AO2 SLP126 T02170083","FM-15","7",,,,,,,,,,,,,,,,,,,,,,,,,,,,"2009-05-18"
"74486454787","2020-03-20T23:53:00","FM-15","7",,,,,,,,,,,,,,,,,,,,,,,,,,,,,,,,,,,,,,"29.92","48","68","0.00",,,,"49","29.92","SCT:04 85 SCT:04 110","29.83","10.00","57","290",,"8",,,,,,,,,,,,,,,,,,,,,,,,,,,,,,,,,,,,,"MET11003/20/20 23:53:02 METAR KFRG 210453Z 29007KT 10SM SCT085 SCT110 20/09 A2992 RMK AO2 SLP132 T02000089 402330083","FM-15","7",,,,,,,,,,,,,,,,,,,,,,,,,,,,"2009-05-18"
"74486454787","2020-03-20T23:59:00","SOD  ","6",,,,,,,,,,,,,,,,"61",,,"29.88",,"7.7","0","19.9","4","74","47","280","25","T",,,"290","20","FG BR",,,,,,,,,,,,,,,,,,,,,,,,,,,,,,,,,,,,,,,,,,,,,,,,,,,,,,,,"SOD73024 HR PRECIPITATION (IN):T     24 HR MAX TEMP (F):74 24 HR MAX TEMP TIME (LST):2031 24 HR MIN TEMP (F):47 24 HR MIN TEMP TIME (LST):0506 AVERAGE STATION PRESSURE:29.885 MINIMUM SEA LEVEL PRESSURE:29.79 TIME OF OCCURRENCE:1656 PEAK WIND SPEED (MPH):25  PEAK WIND DIR (DEG):280 PEAK WIND TIME (LST):2026  FASTEST 2MIN SPEED (MPH):20 FASTEST 2MIN DIR (DEG):290 FASTEST 2MIN TIME (LST):2027 AVERAGE WIND SPEED (MPH):7.7  24 HR AVG TEMP (F):61 HEATING DEGREE DAYS:4   COOLING DEGREE DAYS:0   LATEST DAY MAX TEMP (0700-1900 LST):64  LATEST NIGHT MIN TEMP(1900-0800 LST):47 HOURLY INCREMENTAL PRECIPITATION VALUES (IN):.00 0.00 0.00 0.00 0.00 0.00 0.00 0.00 0.00 0.00 0.00 0.00 T    T    0.00 0.00 0.00 0.00 0.00 0.00 0.00 0.00 0.00 0.00","SOD  ","6",,,,,,,,,,,,,,,,,,,,,,,,,"0556","1807",,"2009-05-18"
"74486454787","2020-03-21T00:53:00","FM-15","7",,,,,,,,,,,,,,,,,,,,,,,,,,,,,,,,,,,,,,"29.96","46","63","0.00",,"-0.08","3","54","29.96","BKN:07 90","29.87","10.00","54","340","28","15",,,,,,,,,,,,,,,,,,,,,,,,,,,,,,,,,,,,,"MET11903/21/20 00:53:02 METAR KFRG 210553Z 34013G24KT 10SM BKN090 17/08 A2996 RMK AO2 SLP146 T01720078 10233 20150 53026 (RJ)","FM-15","7",,,,,,,,,,,,,,,,,,,,,,,,,,,,"2009-05-18"
"74486454787","2020-03-21T01:53:00","FM-15","7",,,,,,,,,,,,,,,,,,,,,,,,,,,,,,,,,,,,,,"29.99","42","59","0.00",,,,"54","29.99","CLR:00","29.90","10.00","51","340","24","14",,,,,,,,,,,,,,,,,,,,,,,,,,,,,,,,,,,,,"MET11603/21/20 01:53:02 METAR KFRG 210653Z 34012G21KT 10SM CLR 15/06 A2999 RMK AO2 PK WND 33026/0601 SLP155 T01500056 (RJ)","FM-15","7",,,,,,,,,,,,,,,,,,,,,,,,,,,,"2009-05-18"
"74486454787","2020-03-21T02:53:00","FM-15","7",,,,,,,,,,,,,,,,,,,,,,,,,,,,,,,,,,,,,,"30.04","37","54","0.00",,,,"53","30.04","SCT:04 100","29.95","10.00","46","340","24","16",,,,,,,,,,,,,,,,,,,,,,,,,,,,,,,,,,,,,"MET09603/21/20 02:53:02 METAR KFRG 210753Z 34014G21KT 10SM SCT100 12/03 A3004 RMK AO2 SLP172 T01220028","FM-15","7",,,,,,,,,,,,,,,,,,,,,,,,,,,,"2009-05-18"
"74486454787","2020-03-21T03:53:00","FM-15","7",,,,,,,,,,,,,,,,,,,,,,,,,,,,,,,,,,,,,,"30.07","35","52","0.00",,"-0.11","3","53","30.07","FEW:02 120","29.98","10.00","44","330","25","13",,,,,,,,,,,,,,,,,,,,,,,,,,,,,,,,,,,,,"MET10203/21/20 03:53:02 METAR KFRG 210853Z 33011G22KT 10SM FEW120 11/02 A3007 RMK AO2 SLP182 T01110017 53036","FM-15","7",,,,,,,,,,,,,,,,,,,,,,,,,,,,"2009-05-18"
"74486454787","2020-03-21T04:53:00","FM-15","7",,,,,,,,,,,,,,,,,,,,,,,,,,,,,,,,,,,,,,"30.13","31","50","0.00",,,,"48","30.12","FEW:02 90 SCT:04 110","30.04","10.00","42","350","18","11",,,,,,,,,,,,,,,,,,,,,,,,,,,,,,,,,,,,,"MET10403/21/20 04:53:02 METAR KFRG 210953Z 35010G16KT 10SM FEW090 SCT110 10/M01 A3013 RMK AO2 SLP201 T01001006","FM-15","7",,,,,,,,,,,,,,,,,,,,,,,,,,,,"2009-05-18"
"74486454787","2020-03-21T05:53:00","FM-15","7",,,,,,,,,,,,,,,,,,,,,,,,,,,,,,,,,,,,,,"30.17","30","47","0.00",,,,"52","30.17","FEW:02 40","30.08","10.00","40","020","24","20",,,,,,,,,,,,,,,,,,,,,,,,,,,,,,,,,,,,,"MET10203/21/20 05:53:02 METAR KFRG 211053Z 02017G21KT 10SM FEW040 08/M01 A3017 RMK AO2 SLP216 T00831011 (GI)","FM-15","7",,,,,,,,,,,,,,,,,,,,,,,,,,,,"2009-05-18"
"74486454787","2020-03-21T06:53:00","FM-15","7",,,,,,,,,,,,,,,,,,,,,,,,,,,,,,,,,,,,,,"30.23","29","44","0.00",,"-0.15","3","55","30.22","FEW:02 90","30.14","10.00","38","030",,"18",,,,,,,,,,,,,,,,,,,,,,,,,,,,,,,,,,,,,"MET11703/21/20 06:53:02 METAR KFRG 211153Z 03016KT 10SM FEW090 07/M02 A3023 RMK AO2 SLP235 T00671017 10172 20067 53052 (MH)","FM-15","7",,,,,,,,,,,,,,,,,,,,,,,,,,,,"2009-05-18"
"74486454787","2020-03-21T07:53:00","FM-15","7",,,,,,,,,,,,,,,,,,,,,,,,,,,,,,,,,,,,,,"30.25","23","44","0.00",,,,"43","30.25","FEW:02 90","30.16","10.00","36","010","25","18",,,,,,,,,,,,,,,,,,,,,,,,,,,,,,,,,,,,,"MET10203/21/20 07:53:02 METAR KFRG 211253Z 01016G22KT 10SM FEW090 07/M05 A3025 RMK AO2 SLP245 T00671050 (MH)","FM-15","7",,,,,,,,,,,,,,,,,,,,,,,,,,,,"2009-05-18"
"74486454787","2020-03-21T08:53:00","FM-15","7",,,,,,,,,,,,,,,,,,,,,,,,,,,,,,,,,,,,,,"30.29","24","44","0.00",,,,"45","30.28","CLR:00","30.20","10.00","36","350",,"14",,,,,,,,,,,,,,,,,,,,,,,,,,,,,,,,,,,,,"MET11403/21/20 08:53:02 METAR KFRG 211353Z 35012KT 10SM CLR 07/M04 A3029 RMK AO2 PK WND 01026/1307 SLP255 T00671044 (MH)","FM-15","7",,,,,,,,,,,,,,,,,,,,,,,,,,,,"2009-05-18"
"74486454787","2020-03-21T09:53:00","FM-15","7",,,,,,,,,,,,,,,,,,,,,,,,,,,,,,,,,,,,,,"30.31","23","46","0.00",,"-0.09","1","40","30.31","CLR:00","30.22","10.00","37","360",,"13",,,,,,,,,,,,,,,,,,,,,,,,,,,,,,,,,,,,,"MET10203/21/20 09:53:02 METAR KFRG 211453Z 36011KT 10SM CLR 08/M05 A3031 RMK AO2 SLP263 T00781050 51029 (MH)","FM-15","7",,,,,,,,,,,,,,,,,,,,,,,,,,,,"2009-05-18"
"74486454787","2020-03-21T10:53:00","FM-15","7",,,,,,,,,,,,,,,,,,,,,,,,,,,,,,,,,,,,,,"30.32","23","46","0.00",,,,"40","30.32","CLR:00","30.23","10.00","37","350",,"13",,,,,,,,,,,,,,,,,,,,,,,,,,,,,,,,,,,,,"MET09603/21/20 10:53:02 METAR KFRG 211553Z 35011KT 10SM CLR 08/M05 A3032 RMK AO2 SLP267 T00781050 (MH)","FM-15","7",,,,,,,,,,,,,,,,,,,,,,,,,,,,"2009-05-18"
"74486454787","2020-03-21T11:53:00","FM-15","7",,,,,,,,,,,,,,,,,,,,,,,,,,,,,,,,,,,,,,"30.32","24","49","0.00",,,,"38","30.32","CLR:00","30.23","10.00","39","010","22","18",,,,,,,,,,,,,,,,,,,,,,,,,,,,,,,,,,,,,"MET09903/21/20 11:53:02 METAR KFRG 211653Z 01016G19KT 10SM CLR 09/M04 A3032 RMK AO2 SLP266 T00941044 (MH)","FM-15","7",,,,,,,,,,,,,,,,,,,,,,,,,,,,"2009-05-18"
"74486454787","2020-03-21T12:53:00","FM-15","7",,,,,,,,,,,,,,,,,,,,,,,,,,,,,,,,,,,,,,"30.32","21","49","0.00",,"-0.01","0","33","30.32","CLR:00","30.23","10.00","38","360",,"14",,,,,,,,,,,,,,,,,,,,,,,,,,,,,,,,,,,,,"MET11403/21/20 12:53:02 METAR KFRG 211753Z 36012KT 10SM CLR 09/M06 A3032 RMK AO2 SLP267 T00941061 10100 20061 50003 (MH)","FM-15","7",,,,,,,,,,,,,,,,,,,,,,,,,,,,"2009-05-18"
"74486454787","2020-03-21T13:53:00","FM-15","7",,,,,,,,,,,,,,,,,,,,,,,,,,,,,,,,,,,,,,"30.31","21","51","0.00",,,,"31","30.31","CLR:00","30.22","10.00","39","010",,"10",,,,,,,,,,,,,,,,,,,,,,,,,,,,,,,,,,,,,"MET09603/21/20 13:53:02 METAR KFRG 211853Z 01009KT 10SM CLR 11/M06 A3031 RMK AO2 SLP263 T01061061 (MH)","FM-15","7",,,,,,,,,,,,,,,,,,,,,,,,,,,,"2009-05-18"
"74486454787","2020-03-21T14:53:00","FM-15","7",,,,,,,,,,,,,,,,,,,,,,,,,,,,,,,,,,,,,,"30.31","21","51","0.00",,,,"31","30.31","CLR:00","30.22","10.00","39","360",,"11",,,,,,,,,,,,,,,,,,,,,,,,,,,,,,,,,,,,,"MET09603/21/20 14:53:02 METAR KFRG 211953Z 36010KT 10SM CLR 11/M06 A3031 RMK AO2 SLP263 T01061061 (MH)","FM-15","7",,,,,,,,,,,,,,,,,,,,,,,,,,,,"2009-05-18"
"74486454787","2020-03-21T15:53:00","FM-15","7",,,,,,,,,,,,,,,,,,,,,,,,,,,,,,,,,,,,,,"30.30","19","51","0.00",,"+0.02","6","28","30.30","CLR:00","30.21","10.00","39","040",,"6",,,,,,,,,,,,,,,,,,,,,,,,,,,,,,,,,,,,,"MET09703/21/20 15:53:02 METAR KFRG 212053Z 04005KT 10SM CLR 11/M07 A3030 RMK AO2 SLP260 T01061072 56006","FM-15","7",,,,,,,,,,,,,,,,,,,,,,,,,,,,"2009-05-18"
"74486454787","2020-03-21T16:53:00","FM-15","7",,,,,,,,,,,,,,,,,,,,,,,,,,,,,,,,,,,,,,"30.32","19","51","0.00",,,,"28","30.32","CLR:00","30.23","10.00","39","360",,"7",,,,,,,,,,,,,,,,,,,,,,,,,,,,,,,,,,,,,"MET09103/21/20 16:53:02 METAR KFRG 212153Z 36006KT 10SM CLR 11/M07 A3032 RMK AO2 SLP266 T01061072","FM-15","7",,,,,,,,,,,,,,,,,,,,,,,,,,,,"2009-05-18"
"74486454787","2020-03-21T17:53:00","FM-15","7",,,,,,,,,,,,,,,,,,,,,,,,,,,,,,,,,,,,,,"30.34","18","49","0.00",,,,"29","30.34","CLR:00","30.25","10.00","37","360",,"8",,,,,,,,,,,,,,,,,,,,,,,,,,,,,,,,,,,,,"MET09103/21/20 17:53:02 METAR KFRG 212253Z 36007KT 10SM CLR 09/M08 A3034 RMK AO2 SLP274 T00941078","FM-15","7",,,,,,,,,,,,,,,,,,,,,,,,,,,,"2009-05-18"
"74486454787","2020-03-21T18:53:00","FM-15","7",,,,,,,,,,,,,,,,,,,,,,,,,,,,,,,,,,,,,,"30.36","17","47","0.00",,"-0.06","1","30","30.35","CLR:00","30.27","10.00","36","360",,"6",,,,,,,,,,,,,,,,,,,,,,,,,,,,,,,,,,,,,"MET11403/21/20 18:53:02 METAR KFRG 212353Z 36005KT 10SM CLR 08/M08 A3036 RMK AO2 SLP279 T00831083 10111 20083 51019 (SS)","FM-15","7",,,,,,,,,,,,,,,,,,,,,,,,,,,,"2009-05-18"
"74486454787","2020-03-21T19:53:00","FM-15","7",,,,,,,,,,,,,,,,,,,,,,,,,,,,,,,,,,,,,,"30.37","18","43","0.00",,,,"37","30.37","CLR:00","30.28","10.00","34","020",,"7",,,,,,,,,,,,,,,,,,,,,,,,,,,,,,,,,,,,,"MET09103/21/20 19:53:01 METAR KFRG 220053Z 02006KT 10SM CLR 06/M08 A3037 RMK AO2 SLP284 T00611078","FM-15","7",,,,,,,,,,,,,,,,,,,,,,,,,,,,"2009-05-18"
"74486454787","2020-03-21T20:53:00","FM-15","7",,,,,,,,,,,,,,,,,,,,,,,,,,,,,,,,,,,,,,"30.39","18","42","0.00",,,,"38","30.39","CLR:00","30.30","10.00","33","010",,"6",,,,,,,,,,,,,,,,,,,,,,,,,,,,,,,,,,,,,"MET09103/21/20 20:53:01 METAR KFRG 220153Z 01005KT 10SM CLR 06/M08 A3039 RMK AO2 SLP290 T00561078","FM-15","7",,,,,,,,,,,,,,,,,,,,,,,,,,,,"2009-05-18"
"74486454787","2020-03-21T21:53:00","FM-15","7",,,,,,,,,,,,,,,,,,,,,,,,,,,,,,,,,,,,,,"30.42","14","43","0.00",,"-0.07","3","31","30.42","BKN:07 80","30.33","10.00","33","010",,"14",,,,,,,,,,,,,,,,,,,,,,,,,,,,,,,,,,,,,"MET10003/21/20 21:53:01 METAR KFRG 220253Z 01012KT 10SM BKN080 06/M10 A3042 RMK AO2 SLP302 T00611100 53023","FM-15","7",,,,,,,,,,,,,,,,,,,,,,,,,,,,"2009-05-18"
"74486454787","2020-03-21T22:53:00","FM-15","7",,,,,,,,,,,,,,,,,,,,,,,,,,,,,,,,,,,,,,"30.43","13","41","0.00",,,,"32","30.43","CLR:00","30.34","10.00","32","020",,"10",,,,,,,,,,,,,,,,,,,,,,,,,,,,,,,,,,,,,"MET09103/21/20 22:53:02 METAR KFRG 220353Z 02009KT 10SM CLR 05/M11 A3043 RMK AO2 SLP305 T00501106","FM-15","7",,,,,,,,,,,,,,,,,,,,,,,,,,,,"2009-05-18"
"74486454787","2020-03-21T23:53:00","FM-15","7",,,,,,,,,,,,,,,,,,,,,,,,,,,,,,,,,,,,,,"30.44","11","40","0.00",,,,"30","30.44","CLR:00","30.35","10.00","31","020",,"13",,,,,,,,,,,,,,,,,,,,,,,,,,,,,,,,,,,,,"MET10103/21/20 23:53:02 METAR KFRG 220453Z 02011KT 10SM CLR 04/M12 A3044 RMK AO2 SLP307 T00441117 402000044","FM-15","7",,,,,,,,,,,,,,,,,,,,,,,,,,,,"2009-05-18"
"74486454787","2020-03-21T23:59:00","SOD  ","6",,,,,,,,,,,,,,,,"54",,,"30.12",,"12.3","0","12.6","11","68","40","330","30","0.00",,,"020","23",,,,,,,,,,,,,,,,,,,,,,,,,,,,,,,,,,,,,,,,,,,,,,,,,,,,,,,,,"SOD73024 HR PRECIPITATION (IN):0.00  24 HR MAX TEMP (F):68 24 HR MAX TEMP TIME (LST):0022 24 HR MIN TEMP (F):40 24 HR MIN TEMP TIME (LST):2359 AVERAGE STATION PRESSURE:30.125 MINIMUM SEA LEVEL PRESSURE:29.92 TIME OF OCCURRENCE:0010 PEAK WIND SPEED (MPH):30  PEAK WIND DIR (DEG):330 PEAK WIND TIME (LST):0101  FASTEST 2MIN SPEED (MPH):23 FASTEST 2MIN DIR (DEG):20  FASTEST 2MIN TIME (LST):0812 AVERAGE WIND SPEED (MPH):12.3 24 HR AVG TEMP (F):54 HEATING DEGREE DAYS:11  COOLING DEGREE DAYS:0   LATEST DAY MAX TEMP (0700-1900 LST):52  LATEST NIGHT MIN TEMP(1900-0800 LST):43 HOURLY INCREMENTAL PRECIPITATION VALUES (IN):.00 0.00 0.00 0.00 0.00 0.00 0.00 0.00 0.00 0.00 0.00 0.00 0.00 0.00 0.00 0.00 0.00 0.00 0.00 0.00 0.00 0.00 0.00 0.00","SOD  ","6",,,,,,,,,,,,,,,,,,,,,,,,,"0554","1808",,"2009-05-18"
"74486454787","2020-03-22T00:53:00","FM-15","7",,,,,,,,,,,,,,,,,,,,,,,,,,,,,,,,,,,,,,"30.45","10","39","0.00",,"-0.03","3","30","30.45","CLR:00","30.36","10.00","30","020",,"15",,,,,,,,,,,,,,,,,,,,,,,,,,,,,,,,,,,,,"MET11403/22/20 00:53:02 METAR KFRG 220553Z 02013KT 10SM CLR 04/M12 A3045 RMK AO2 SLP313 T00391122 10083 20039 53010 (SS)","FM-15","7",,,,,,,,,,,,,,,,,,,,,,,,,,,,"2009-05-18"
"74486454787","2020-03-22T01:53:00","FM-15","7",,,,,,,,,,,,,,,,,,,,,,,,,,,,,,,,,,,,,,"30.47","13","39","0.00",,,,"34","30.47","CLR:00","30.38","10.00","31","040",,"13",,,,,,,,,,,,,,,,,,,,,,,,,,,,,,,,,,,,,"MET09603/22/20 01:53:02 METAR KFRG 220653Z 04011KT 10SM CLR 04/M11 A3047 RMK AO2 SLP318 T00391106 (SS)","FM-15","7",,,,,,,,,,,,,,,,,,,,,,,,,,,,"2009-05-18"
"74486454787","2020-03-22T02:53:00","FM-15","7",,,,,,,,,,,,,,,,,,,,,,,,,,,,,,,,,,,,,,"30.48","15","39","0.00",,,,"38","30.48","BKN:07 32 OVC:08 39","30.39","10.00","31","040",,"15",,,,,,,,,,,,,,,,,,,,,,,,,,,,,,,,,,,,,"MET10603/22/20 02:53:02 METAR KFRG 220753Z 04013KT 10SM BKN032 OVC039 04/M09 A3048 RMK AO2 SLP323 T00391094 (SS)","FM-15","7",,,,,,,,,,,,,,,,,,,,,,,,,,,,"2009-05-18"
"74486454787","2020-03-22T03:53:00","FM-15","7",,,,,,,,,,,,,,,,,,,,,,,,,,,,,,,,,,,,,,"30.50","15","38","0.00",,"-0.05","3","39","30.50","BKN:07 34 BKN:07 43 OVC:08 80","30.41","10.00","30","040",,"11",,,,,,,,,,,,,,,,,,,,,,,,,,,,,,,,,,,,,"MET11403/22/20 03:53:02 METAR KFRG 220853Z 04010KT 10SM BKN034 BKN043 OVC080 03/M09 A3050 RMK AO2 SLP330 T00331094 53017","FM-15","7",,,,,,,,,,,,,,,,,,,,,,,,,,,,"2009-05-18"
"74486454787","2020-03-22T04:53:00","FM-15","7",,,,,,,,,,,,,,,,,,,,,,,,,,,,,,,,,,,,,,"30.54","14","37","0.00",,,,"39","30.54","OVC:08 34","30.45","10.00","30","040",,"18",,,,,,,,,,,,,,,,,,,,,,,,,,,,,,,,,,,,,"MET09403/22/20 04:53:02 METAR KFRG 220953Z 04016KT 10SM OVC034 03/M10 A3054 RMK AO2 SLP341 T00281100","FM-15","7",,,,,,,,,,,,,,,,,,,,,,,,,,,,"2009-05-18"
"74486454787","2020-03-22T05:53:00","FM-15","7",,,,,,,,,,,,,,,,,,,,,,,,,,,,,,,,,,,,,,"30.58","14","36","0.00",,,,"40","30.58","OVC:08 39","30.49","10.00","29","050","22","13",,,,,,,,,,,,,,,,,,,,,,,,,,,,,,,,,,,,,"MET10903/22/20 05:53:02 METAR KFRG 221053Z 05011G19KT 10SM OVC039 02/M10 A3058 RMK AO2 PRESRR SLP355 T00221100 (GI)","FM-15","7",,,,,,,,,,,,,,,,,,,,,,,,,,,,"2009-05-18"
"74486454787","2020-03-22T06:53:00","FM-15","7",,,,,,,,,,,,,,,,,,,,,,,,,,,,,,,,,,,,,,"30.61","14","35","0.00",,"-0.10","1","42","30.61","BKN:07 44 OVC:08 60","30.52","10.00","28","050",,"15",,,,,,,,,,,,,,,,,,,,,,,,,,,,,,,,,,,,,"MET12403/22/20 06:53:02 METAR KFRG 221153Z 05013KT 10SM BKN044 OVC060 02/M10 A3061 RMK AO2 SLP365 T00171100 10044 20017 51035 (GI)","FM-15","7",,,,,,,,,,,,,,,,,,,,,,,,,,,,"2009-05-18"
"74486454787","2020-03-22T07:53:00","FM-15","7",,,,,,,,,,,,,,,,,,,,,,,,,,,,,,,,,,,,,,"30.63","12","35","0.00",,,,"38","30.63","BKN:07 47 BKN:07 55","30.54","10.00","28","060",,"10",,,,,,,,,,,,,,,,,,,,,,,,,,,,,,,,,,,,,"MET10603/22/20 07:53:02 METAR KFRG 221253Z 06009KT 10SM BKN047 BKN055 02/M11 A3063 RMK AO2 SLP373 T00171111 (GI)","FM-15","7",,,,,,,,,,,,,,,,,,,,,,,,,,,,"2009-05-18"
"74486454787","2020-03-22T08:53:00","FM-15","7",,,,,,,,,,,,,,,,,,,,,,,,,,,,,,,,,,,,,,"30.66","13","36","0.00",,,,"39","30.66","OVC:08 49","30.57","10.00","29","040","22","15",,,,,,,,,,,,,,,,,,,,,,,,,,,,,,,,,,,,,"MET10203/22/20 08:53:02 METAR KFRG 221353Z 04013G19KT 10SM OVC049 02/M11 A3066 RMK AO2 SLP382 T00221106 (GI)","FM-15","7",,,,,,,,,,,,,,,,,,,,,,,,,,,,"2009-05-18"
"74486454787","2020-03-22T09:53:00","FM-15","7",,,,,,,,,,,,,,,,,,,,,,,,,,,,,,,,,,,,,,"30.67","14","38","0.00",,"-0.06","1","37","30.67","BKN:07 45 OVC:08 55","30.58","10.00","30","050","21","10",,,,,,,,,,,,,,,,,,,,,,,,,,,,,,,,,,,,,"MET11503/22/20 09:53:02 METAR KFRG 221453Z 05009G18KT 10SM BKN045 OVC055 03/M10 A3067 RMK AO2 SLP386 T00331100 51021 (GI)","FM-15","7",,,,,,,,,,,,,,,,,,,,,,,,,,,,"2009-05-18"
"74486454787","2020-03-22T10:53:00","FM-15","7",,,,,,,,,,,,,,,,,,,,,,,,,,,,,,,,,,,,,,"30.67","15","39","0.00",,,,"38","30.67","OVC:08 50","30.58","10.00","31","090",,"13",,,,,,,,,,,,,,,,,,,,,,,,,,,,,,,,,,,,,"MET09903/22/20 10:53:02 METAR KFRG 221553Z 09011KT 10SM OVC050 04/M09 A3067 RMK AO2 SLP386 T00391094 (AN)","FM-15","7",,,,,,,,,,,,,,,,,,,,,,,,,,,,"2009-05-18"
"74486454787","2020-03-22T11:53:00","FM-15","7",,,,,,,,,,,,,,,,,,,,,,,,,,,,,,,,,,,,,,"30.68","16","42","0.00",,,,"35","30.68","FEW:02 48 SCT:04 55","30.59","10.00","33","100",,"10",,,,,,,,,,,,,,,,,,,,,,,,,,,,,,,,,,,,,"MET10603/22/20 11:53:02 METAR KFRG 221653Z 10009KT 10SM FEW048 SCT055 06/M09 A3068 RMK AO2 SLP390 T00561089 (AN)","FM-15","7",,,,,,,,,,,,,,,,,,,,,,,,,,,,"2009-05-18"
"74486454787","2020-03-22T12:53:00","FM-15","7",,,,,,,,,,,,,,,,,,,,,,,,,,,,,,,,,,,,,,"30.68","16","43","0.00",,"-0.01","3","34","30.68","SCT:04 50","30.59","10.00","34",,,,,,,,,,,,,,,,,,,,,,,,,,,,,,,,,,,,,,,,"MET11703/22/20 12:53:02 METAR KFRG 221753Z      KT 10SM SCT050 06/M09 A3068 RMK AO2 SLP390 T00611089 10067 20017 53004 (AN)","FM-15","7",,,,,,,,,,,,,,,,,,,,,,,,,,,,"2009-05-18"
"74486454787","2020-03-22T13:53:00","FM-15","7",,,,,,,,,,,,,,,,,,,,,,,,,,,,,,,,,,,,,,"30.66","24","43","0.00",,,,"47","30.66","CLR:00","30.57","10.00","36","150",,"13",,,,,,,,,,,,,,,,,,,,,,,,,,,,,,,,,,,,,"MET09103/22/20 13:53:02 METAR KFRG 221853Z 15011KT 10SM CLR 06/M04 A3066 RMK AO2 SLP384 T00611044","FM-15","7",,,,,,,,,,,,,,,,,,,,,,,,,,,,"2009-05-18"
"74486454787","2020-03-22T14:53:00","FM-15","7",,,,,,,,,,,,,,,,,,,,,,,,,,,,,,,,,,,,,,"30.65","25","42","0.00",,,,"51","30.65","CLR:00","30.56","10.00","36","120",,"13",,,,,,,,,,,,,,,,,,,,,,,,,,,,,,,,,,,,,"MET09103/22/20 14:53:02 METAR KFRG 221953Z 12011KT 10SM CLR 06/M04 A3065 RMK AO2 SLP378 T00561039","FM-15","7",,,,,,,,,,,,,,,,,,,,,,,,,,,,"2009-05-18"
"74486454787","2020-03-22T15:53:00","FM-15","7",,,,,,,,,,,,,,,,,,,,,,,,,,,,,,,,,,,,,,"30.65","24","41","0.00",,"+0.03","5","51","30.65","CLR:00","30.56","10.00","35","130",,"16",,,,,,,,,,,,,,,,,,,,,,,,,,,,,,,,,,,,,"MET09703/22/20 15:53:02 METAR KFRG 222053Z 13014KT 10SM CLR 05/M04 A3065 RMK AO2 SLP379 T00501044 55011","FM-15","7",,,,,,,,,,,,,,,,,,,,,,,,,,,,"2009-05-18"
"74486454787","2020-03-22T16:53:00","FM-15","7",,,,,,,,,,,,,,,,,,,,,,,,,,,,,,,,,,,,,,"30.67","24","39","0.00",,,,"55","30.67","CLR:00","30.58","10.00","33","130","22","14",,,,,,,,,,,,,,,,,,,,,,,,,,,,,,,,,,,,,"MET09403/22/20 16:53:02 METAR KFRG 222153Z 13012G19KT 10SM CLR 04/M04 A3067 RMK AO2 SLP385 T00391044","FM-15","7",,,,,,,,,,,,,,,,,,,,,,,,,,,,"2009-05-18"
"74486454787","2020-03-22T17:53:00","FM-15","7",,,,,,,,,,,,,,,,,,,,,,,,,,,,,,,,,,,,,,"30.67","22","38","0.00",,,,"52","30.67","CLR:00","30.58","10.00","32","120",,"14",,,,,,,,,,,,,,,,,,,,,,,,,,,,,,,,,,,,,"MET09103/22/20 17:53:02 METAR KFRG 222253Z 12012KT 10SM CLR 03/M06 A3067 RMK AO2 SLP387 T00331056","FM-15","7",,,,,,,,,,,,,,,,,,,,,,,,,,,,"2009-05-18"
"74486454787","2020-03-22T18:53:00","FM-15","7",,,,,,,,,,,,,,,,,,,,,,,,,,,,,,,,,,,,,,"30.67","22","37","0.00",,"-0.02","1","54","30.67","CLR:00","30.58","10.00","32","120",,"10",,,,,,,,,,,,,,,,,,,,,,,,,,,,,,,,,,,,,"MET10903/22/20 18:53:02 METAR KFRG 222353Z 12009KT 10SM CLR 03/M06 A3067 RMK AO2 SLP387 T00281056 10072 20028 51008","FM-15","7",,,,,,,,,,,,,,,,,,,,,,,,,,,,"2009-05-18"
"74486454787","2020-03-22T19:53:00","FM-15","7",,,,,,,,,,,,,,,,,,,,,,,,,,,,,,,,,,,,,,"30.69","23","37","0.00",,,,"57","30.69","CLR:00","30.60","10.00","32","120",,"11",,,,,,,,,,,,,,,,,,,,,,,,,,,,,,,,,,,,,"MET09103/22/20 19:53:01 METAR KFRG 230053Z 12010KT 10SM CLR 03/M05 A3069 RMK AO2 SLP393 T00281050","FM-15","7",,,,,,,,,,,,,,,,,,,,,,,,,,,,"2009-05-18"
"74486454787","2020-03-22T20:53:00","FM-15","7",,,,,,,,,,,,,,,,,,,,,,,,,,,,,,,,,,,,,,"30.70","24","38","0.00",,,,"57","30.70","BKN:07 32","30.61","10.00","33","120",,"14",,,,,,,,,,,,,,,,,,,,,,,,,,,,,,,,,,,,,"MET09403/22/20 20:53:01 METAR KFRG 230153Z 12012KT 10SM BKN032 03/M04 A3070 RMK AO2 SLP396 T00331044","FM-15","7",,,,,,,,,,,,,,,,,,,,,,,,,,,,"2009-05-18"
"74486454787","2020-03-22T21:53:00","FM-15","7",,,,,,,,,,,,,,,,,,,,,,,,,,,,,,,,,,,,,,"30.69","23","37","0.00",,"-0.01","0","57","30.69","SCT:04 33","30.60","10.00","32","130",,"11",,,,,,,,,,,,,,,,,,,,,,,,,,,,,,,,,,,,,"MET10003/22/20 21:53:01 METAR KFRG 230253Z 13010KT 10SM SCT033 03/M05 A3069 RMK AO2 SLP392 T00281050 50005","FM-15","7",,,,,,,,,,,,,,,,,,,,,,,,,,,,"2009-05-18"
"74486454787","2020-03-22T22:53:00","FM-15","7",,,,,,,,,,,,,,,,,,,,,,,,,,,,,,,,,,,,,,"30.68","23","38","0.00",,,,"55","30.68","FEW:02 31","30.59","10.00","33","120",,"11",,,,,,,,,,,,,,,,,,,,,,,,,,,,,,,,,,,,,"MET09403/22/20 22:53:02 METAR KFRG 230353Z 12010KT 10SM FEW031 03/M05 A3068 RMK AO2 SLP389 T00331050","FM-15","7",,,,,,,,,,,,,,,,,,,,,,,,,,,,"2009-05-18"
"74486454787","2020-03-22T23:53:00","FM-15","7",,,,,,,,,,,,,,,,,,,,,,,,,,,,,,,,,,,,,,"30.69","23","38","0.00",,,,"55","30.69","BKN:07 32","30.60","10.00","33","110",,"14",,,,,,,,,,,,,,,,,,,,,,,,,,,,,,,,,,,,,"MET10403/22/20 23:53:02 METAR KFRG 230453Z 11012KT 10SM BKN032 03/M05 A3069 RMK AO2 SLP392 T00331050 400720017","FM-15","7",,,,,,,,,,,,,,,,,,,,,,,,,,,,"2009-05-18"
"74486454787","2020-03-22T23:59:00","SOD  ","6",,,,,,,,,,,,,,,,"40",,,"30.51",,"13.1","0","-1.7","25","45","35","040","28","0.00",,,"030","22",,,,,,,,,,,,,,,,,,,,,,,,,,,,,,,,,,,,,,,,,,,,,,,,,,,,,,,,,"SOD73024 HR PRECIPITATION (IN):0.00  24 HR MAX TEMP (F):45 24 HR MAX TEMP TIME (LST):1328 24 HR MIN TEMP (F):35 24 HR MIN TEMP TIME (LST):0859 AVERAGE STATION PRESSURE:30.510 MINIMUM SEA LEVEL PRESSURE:30.44 TIME OF OCCURRENCE:0012 PEAK WIND SPEED (MPH):28  PEAK WIND DIR (DEG):40  PEAK WIND TIME (LST):0728  FASTEST 2MIN SPEED (MPH):22 FASTEST 2MIN DIR (DEG):30  FASTEST 2MIN TIME (LST):0729 AVERAGE WIND SPEED (MPH):13.1 24 HR AVG TEMP (F):40 HEATING DEGREE DAYS:25  COOLING DEGREE DAYS:0   LATEST DAY MAX TEMP (0700-1900 LST):45  LATEST NIGHT MIN TEMP(1900-0800 LST):35 HOURLY INCREMENTAL PRECIPITATION VALUES (IN):.00 0.00 0.00 0.00 0.00 0.00 0.00 0.00 0.00 0.00 0.00 0.00 0.00 0.00 0.00 0.00 0.00 0.00 0.00 0.00 0.00 0.00 0.00 0.00","SOD  ","6",,,,,,,,,,,,,,,,,,,,,,,,,"0553","1809",,"2009-05-18"
"74486454787","2020-03-23T00:53:00","FM-15","7",,,,,,,,,,,,,,,,,,,,,,,,,,,,,,,,,,,,,,"30.66","24","38","0.00",,"+0.03","8","57","30.66","SCT:04 31","30.57","10.00","33","120","22","17",,,,,,,,,,,,,,,,,,,,,,,,,,,,,,,,,,,,,"MET11503/23/20 00:53:02 METAR KFRG 230553Z 12015G19KT 10SM SCT031 03/M04 A3066 RMK AO2 SLP381 T00331044 10033 20028 58011","FM-15","7",,,,,,,,,,,,,,,,,,,,,,,,,,,,"2009-05-18"
"74486454787","2020-03-23T01:53:00","FM-15","7",,,,,,,,,,,,,,,,,,,,,,,,,,,,,,,,,,,,,,"30.61","25","38","0.00",,,,"60","30.61","FEW:02 28 BKN:07 110","30.52","10.00","33","110",,"14",,,,,,,,,,,,,,,,,,,,,,,,,,,,,,,,,,,,,"MET10103/23/20 01:53:02 METAR KFRG 230653Z 11012KT 10SM FEW028 BKN110 03/M04 A3061 RMK AO2 SLP366 T00331039","FM-15","7",,,,,,,,,,,,,,,,,,,,,,,,,,,,"2009-05-18"
"74486454787","2020-03-23T02:51:00","FM-16","6",,,,,,,,,,,,,,,,,,,,,,,,,,,,,,,,,,,,,,"30.59","27","39",,,,,"61",,"OVC:08 29","30.50","10.00","34","100",,"10",,,,,,,,,,,,,,,,,,,,,,,,,,,,,,,,,,,,,"MET08203/23/20 02:51:02 SPECI KFRG 230751Z 10009KT 10SM OVC029 04/M03 A3059 RMK AO2 FIBI","FM-16","6",,,,,,,,,,,,,,,,,,,,,,,,,,,,"2009-05-18"
"74486454787","2020-03-23T02:53:00","FM-15","7",,,,,,,,,,,,,,,,,,,,,,,,,,,,,,,,,,,,,,"30.59","26","39","0.00",,,,"60","30.59","OVC:08 29","30.50","10.00","34","110",,"14",,,,,,,,,,,,,,,,,,,,,,,,,,,,,,,,,,,,,"MET09403/23/20 02:53:02 METAR KFRG 230753Z 11012KT 10SM OVC029 04/M03 A3059 RMK AO2 SLP359 T00391033","FM-15","7",,,,,,,,,,,,,,,,,,,,,,,,,,,,"2009-05-18"
"74486454787","2020-03-23T03:53:00","FM-15","7",,,,,,,,,,,,,,,,,,,,,,,,,,,,,,,,,,,,,,"30.59","27","39","0.00",,"+0.06","5","62","30.59","OVC:08 27","30.50","10.00","34","110","21","14",,,,,,,,,,,,,,,,,,,,,,,,,,,,,,,,,,,,,"MET10303/23/20 03:53:02 METAR KFRG 230853Z 11012G18KT 10SM OVC027 04/M03 A3059 RMK AO2 SLP359 T00391028 55022","FM-15","7",,,,,,,,,,,,,,,,,,,,,,,,,,,,"2009-05-18"
"74486454787","2020-03-23T04:53:00","FM-15","7",,,,,,,,,,,,,,,,,,,,,,,,,,,,,,,,,,,,,,"30.56","28","39","0.00",,,,"65","30.56","OVC:08 25","30.47","10.00","35","100","23","14",,,,,,,,,,,,,,,,,,,,,,,,,,,,,,,,,,,,,"MET09703/23/20 04:53:02 METAR KFRG 230953Z 10012G20KT 10SM OVC025 04/M02 A3056 RMK AO2 SLP348 T00391022","FM-15","7",,,,,,,,,,,,,,,,,,,,,,,,,,,,"2009-05-18"
"74486454787","2020-03-23T05:53:00","FM-15","7",,,,,,,,,,,,,,,,,,,,,,,,,,,,,,,,,,,,,,"30.54","29","38","T","-SN:03 |SN |",,,"70","30.53","BKN:07 23 OVC:08 50","30.45","9.00","35","090","23","18",,,,,,,,,,,,,,,,,,,,,,,,,,,,,,,,,,,,,"MET12703/23/20 05:53:02 METAR KFRG 231053Z 09016G20KT 9SM -SN BKN023 OVC050 03/M02 A3054 RMK AO2 RAB34E45SNB45 SLP340 P0000 T00331017","FM-15","7",,,,,,,,,,,,,,,,,,,,,,,,,,,,"2009-05-18"
"74486454787","2020-03-23T06:53:00","FM-15","7",,,,,,,,,,,,,,,,,,,,,,,,,,,,,,,,,,,,,,"30.51","30","38","T",,"+0.08","6","73","30.51","OVC:08 22","30.42","10.00","35","090","23","15",,,,,,,,,,,,,,,,,,,,,,,,,,,,,,,,,,,,,"MET13303/23/20 06:53:02 METAR KFRG 231153Z 09013G20KT 10SM OVC022 03/M01 A3051 RMK AO2 SNE14 SLP331 P0000 60000 T00331011 10039 20033 56028","FM-15","7",,,,,,,,,,,,,,,,,,,,,,,,,,,,"2009-05-18"
"74486454787","2020-03-23T07:53:00","FM-15","7",,,,,,,,,,,,,,,,,,,,,,,,,,,,,,,,,,,,,,"30.48","31","39","T","-RA:02 |RA |RA",,,"73","30.48","OVC:08 19","30.39","10.00","36","100","29","17",,,,,,,,,,,,,,,,,,,,,,,,,,,,,,,,,,,,,"MET12103/23/20 07:53:02 METAR KFRG 231253Z 10015G25KT 10SM -RA OVC019 04/M01 A3048 RMK AO2 RAB1158E14B51 SLP321 P0000 T00391006","FM-15","7",,,,,,,,,,,,,,,,,,,,,,,,,,,,"2009-05-18"
"74486454787","2020-03-23T08:53:00","FM-15","7",,,,,,,,,,,,,,,,,,,,,,,,,,,,,,,,,,,,,,"30.48","33","39","T","-RA:02 |RA |RA",,,"79","30.48","OVC:08 18","30.39","8.00","37","100","24","17",,,,,,,,,,,,,,,,,,,,,,,,,,,,,,,,,,,,,"MET10503/23/20 08:53:02 METAR KFRG 231353Z 10015G21KT 8SM -RA OVC018 04/01 A3048 RMK AO2 SLP321 P0000 T00390006","FM-15","7",,,,,,,,,,,,,,,,,,,,,,,,,,,,"2009-05-18"
"74486454787","2020-03-23T09:48:00","FM-16","7",,,,,,,,,,,,,,,,,,,,,,,,,,,,,,,,,,,,,,"30.45","34","39","T","-RA:02 |RA |RA",,,"81",,"BKN:07 14 OVC:08 19","30.36","4.00","37","090","24","18",,,,,,,,,,,,,,,,,,,,,,,,,,,,,,,,,,,,,"MET11303/23/20 09:48:02 SPECI KFRG 231448Z 09016G21KT 4SM -RA BKN014 OVC019 04/01 A3045 RMK AO2 PK WND 10026/1410 P0000","FM-16","7",,,,,,,,,,,,,,,,,,,,,,,,,,,,"2009-05-18"
"74486454787","2020-03-23T09:53:00","FM-15","7",,,,,,,,,,,,,,,,,,,,,,,,,,,,,,,,,,,,,,"30.44","33","39","0.01","RA:02 |RA |RA","+0.04","8","79","30.45","BKN:07 14 OVC:08 19","30.35","3.00","37","100","24","17",,,,,,,,,,,,,,,,,,,,,,,,,,,,,,,,,,,,,"MET14103/23/20 09:53:02 METAR KFRG 231453Z 10015G21KT 3SM RA BKN014 OVC019 04/01 A3044 RMK AO2 PK WND 10026/1410 SLP310 P0001 60001 T00390006 58012","FM-15","7",,,,,,,,,,,,,,,,,,,,,,,,,,,,"2009-05-18"
"74486454787","2020-03-23T10:53:00","FM-15","7",,,,,,,,,,,,,,,,,,,,,,,,,,,,,,,,,,,,,,"30.40","35","40","0.03","-RA:02 |RA |RA",,,"83","30.40","BKN:07 11 OVC:08 14","30.31","7.00","38","100","29","18",,,,,,,,,,,,,,,,,,,,,,,,,,,,,,,,,,,,,"MET11203/23/20 10:53:02 METAR KFRG 231553Z 10016G25KT 7SM -RA BKN011 OVC014 04/02 A3040 RMK AO2 SLP295 P0003 T00440017","FM-15","7",,,,,,,,,,,,,,,,,,,,,,,,,,,,"2009-05-18"
"74486454787","2020-03-23T11:53:00","FM-15","7",,,,,,,,,,,,,,,,,,,,,,,,,,,,,,,,,,,,,,"30.34","35","40","0.10","RA:02 |RA |RA",,,"83","30.35","OVC:08 11","30.25","5.00","38","090","23","14",,,,,,,,,,,,,,,,,,,,,,,,,,,,,,,,,,,,,"MET10403/23/20 11:53:02 METAR KFRG 231653Z 09012G20KT 5SM RA OVC011 04/02 A3034 RMK AO2 SLP276 P0007 T00440017","FM-15","7",,,,,,,,,,,,,,,,,,,,,,,,,,,,"2009-05-18"
"74486454787","2020-03-23T12:37:00","FM-16","7",,,,,,,,,,,,,,,,,,,,,,,,,,,,,,,,,,,,,,"30.27","36","41","0.07","-RA:02 |RA |RA",,,"82",,"OVC:08 9","30.18","5.00","39","090","23","15",,,,,,,,,,,,,,,,,,,,,,,,,,,,,,,,,,,,,"MET11703/23/20 12:37:02 SPECI KFRG 231737Z 09013G20KT 5SM -RA OVC009 05/02 A3027 RMK AO2 CIG 007V013 PRESFR P0007 T00500022","FM-16","7",,,,,,,,,,,,,,,,,,,,,,,,,,,,"2009-05-18"
"74486454787","2020-03-23T12:53:00","FM-15","7",,,,,,,,,,,,,,,,,,,,,,,,,,,,,,,,,,,,,,"30.25","36","41","0.05","-RA:02 |RA |RA","+0.19","8","82","30.25","OVC:08 9","30.16","6.00","39","090","26","16",,,,,,,,,,,,,,,,,,,,,,,,,,,,,,,,,,,,,"MET14103/23/20 12:53:02 METAR KFRG 231753Z 09014G23KT 6SM -RA OVC009 05/02 A3025 RMK AO2 CIG 007V013 SLP243 P0007 60018 T00500022 10050 20033 58066","FM-15","7",,,,,,,,,,,,,,,,,,,,,,,,,,,,"2009-05-18"
"74486454787","2020-03-23T13:44:00","FM-16","7",,,,,,,,,,,,,,,,,,,,,,,,,,,,,,,,,,,,,,"30.20","37","42","0.04","RA:02 |RA |RA",,,"82",,"OVC:08 9","30.11","2.50","40","090","31","21",,,,,,,,,,,,,,,,,,,,,,,,,,,,,,,,,,,,,"MET11903/23/20 13:44:02 SPECI KFRG 231844Z 09018G27KT 2 1/2SM RA OVC009 06/03 A3020 RMK AO2 PK WND 10029/1824 P0004 T00560028","FM-16","7",,,,,,,,,,,,,,,,,,,,,,,,,,,,"2009-05-18"
"74486454787","2020-03-23T13:53:00","FM-15","7",,,,,,,,,,,,,,,,,,,,,,,,,,,,,,,,,,,,,,"30.18","37","42","0.05","RA:02 |RA |RA",,,"82","30.18","BKN:07 9 OVC:08 14","30.09","2.50","40","090","33","23",,,,,,,,,,,,,,,,,,,,,,,,,,,,,,,,,,,,,"MET14003/23/20 13:53:02 METAR KFRG 231853Z 09020G29KT 2 1/2SM RA BKN009 OVC014 06/03 A3018 RMK AO2 PK WND 10029/1824 PRESFR SLP220 P0005 T00560028","FM-15","7",,,,,,,,,,,,,,,,,,,,,,,,,,,,"2009-05-18"
"74486454787","2020-03-23T14:25:00","FM-16","7",,,,,,,,,,,,,,,,,,,,,,,,,,,,,,,,,,,,,,"30.14","37","42","0.03","-RA:02 |RA |RA",,,"82",,"OVC:08 9","30.05","4.00","40","090","29","18",,,,,,,,,,,,,,,,,,,,,,,,,,,,,,,,,,,,,"MET11603/23/20 14:25:02 SPECI KFRG 231925Z 09016G25KT 4SM -RA OVC009 06/03 A3014 RMK AO2 PK WND 09028/1909 P0003 T00560028","FM-16","7",,,,,,,,,,,,,,,,,,,,,,,,,,,,"2009-05-18"
"74486454787","2020-03-23T14:35:00","FM-16","7",,,,,,,,,,,,,,,,,,,,,,,,,,,,,,,,,,,,,,"30.12","37","42","0.03","-RA:02 |RA |RA",,,"82",,"BKN:07 11 OVC:08 14","30.03","6.00","40","090","32","21",,,,,,,,,,,,,,,,,,,,,,,,,,,,,,,,,,,,,"MET13003/23/20 14:35:02 SPECI KFRG 231935Z 09018G28KT 6SM -RA BKN011 OVC014 06/03 A3012 RMK AO2 PK WND 09028/1909 PRESFR P0003 T00560028","FM-16","7",,,,,,,,,,,,,,,,,,,,,,,,,,,,"2009-05-18"
"74486454787","2020-03-23T14:53:00","FM-15","7",,,,,,,,,,,,,,,,,,,,,,,,,,,,,,,,,,,,,,"30.10","38","42","0.02","-RA:02 BR:1 |RA |RA",,,"85","30.10","OVC:08 10","30.01","6.00","40","090","33","17",,,,,,,,,,,,,,,,,,,,,,,,,,,,,,,,,,,,,"MET13303/23/20 14:53:02 METAR KFRG 231953Z 09015G29KT 6SM -RA BR OVC010 06/03 A3010 RMK AO2 PK WND 10029/1946 PRESFR SLP192 P0003 T00560033","FM-15","7",,,,,,,,,,,,,,,,,,,,,,,,,,,,"2009-05-18"
"74486454787","2020-03-23T15:17:00","FM-16","7",,,,,,,,,,,,,,,,,,,,,,,,,,,,,,,,,,,,,,"30.08","38","43","T","-RA:02 |RA |RA",,,"82",,"OVC:08 9","29.99","5.00","41","090","26","16",,,,,,,,,,,,,,,,,,,,,,,,,,,,,,,,,,,,,"MET12803/23/20 15:17:02 SPECI KFRG 232017Z 09014G23KT 5SM -RA OVC009 06/03 A3008 RMK AO2 PK WND 10026/2005 CIG 007V012 P0000 T00610033","FM-16","7",,,,,,,,,,,,,,,,,,,,,,,,,,,,"2009-05-18"
"74486454787","2020-03-23T15:51:00","FM-16","6",,,,,,,,,,,,,,,,,,,,,,,,,,,,,,,,,,,,,,"30.08","39","43",,"+RA:02 BR:1 |RA |RA",,,"87",,"OVC:08 8","29.99","2.50","41","070",,"13",,,,,,,,,,,,,,,,,,,,,,,,,,,,,,,,,,,,,"MET11503/23/20 15:51:02 SPECI KFRG 232051Z 07011KT 2 1/2SM +RA BR OVC008 06/04 A3008 RMK AO2 PK WND 10026/2005 P0009 FIBI","FM-16","6",,,,,,,,,,,,,,,,,,,,,,,,,,,,"2009-05-18"
"74486454787","2020-03-23T15:53:00","FM-15","7",,,,,,,,,,,,,,,,,,,,,,,,,,,,,,,,,,,,,,"30.07","39","43","0.17","+RA:02 BR:1 |RA |RA","+0.17","6","86","30.07","OVC:08 8","29.98","2.50","41","070",,"13",,,,,,,,,,,,,,,,,,,,,,,,,,,,,,,,,,,,,"MET13903/23/20 15:53:02 METAR KFRG 232053Z 07011KT 2 1/2SM +RA BR OVC008 06/04 A3007 RMK AO2 PK WND 10026/2005 SLP184 P0011 60019 T00610039 56059","FM-15","7",,,,,,,,,,,,,,,,,,,,,,,,,,,,"2009-05-18"
"74486454787","2020-03-23T16:18:00","FM-16","7",,,,,,,,,,,,,,,,,,,,,,,,,,,,,,,,,,,,,,"30.03","39","44","0.16","+RA:02 |RA |RA",,,"83",,"SCT:04 11 BKN:07 16 OVC:08 21","29.94","2.50","42","VRB","21","11",,,,,,,,,,,,,,,,,,,,,,,,,,,,,,,,,,,,,"MET11603/23/20 16:18:02 SPECI KFRG 232118Z 06010G18KT 2 1/2SM +RA SCT011 BKN016 OVC021 07/04 A3003 RMK AO2 P0016 T00670039","FM-16","7",,,,,,,,,,,,,,,,,,,,,,,,,,,,"2009-05-18"
"74486454787","2020-03-23T16:51:00","FM-16","6",,,,,,,,,,,,,,,,,,,,,,,,,,,,,,,,,,,,,,"30.01","39","45",,"+RA:02 |RA |RA",,,"81",,"FEW:02 8 SCT:04 12 OVC:08 17","29.92","2.00","42","060",,"14",,,,,,,,,,,,,,,,,,,,,,,,,,,,,,,,,,,,,"MET10403/23/20 16:51:02 SPECI KFRG 232151Z 06012KT 2SM +RA FEW008 SCT012 OVC017 07/04 A3001 RMK AO2 P0028 FIBI","FM-16","6",,,,,,,,,,,,,,,,,,,,,,,,,,,,"2009-05-18"
"74486454787","2020-03-23T16:53:00","FM-15","7",,,,,,,,,,,,,,,,,,,,,,,,,,,,,,,,,,,,,,"30.00","39","44","0.26","+RA:02 |RA |RA",,,"83","30.00","SCT:04 10 BKN:07 17 OVC:08 22","29.91","2.00","42","070",,"14",,,,,,,,,,,,,,,,,,,,,,,,,,,,,,,,,,,,,"MET11603/23/20 16:53:02 METAR KFRG 232153Z 07012KT 2SM +RA SCT010 BKN017 OVC022 07/04 A3000 RMK AO2 SLP160 P0029 T00670039","FM-15","7",,,,,,,,,,,,,,,,,,,,,,,,,,,,"2009-05-18"
"74486454787","2020-03-23T16:59:00","FM-16","7",,,,,,,,,,,,,,,,,,,,,,,,,,,,,,,,,,,,,,"29.99","39","44","0.03","+RA:02 |RA |RA",,,"83",,"FEW:02 10 OVC:08 19","29.90","1.75","42","080","22","16",,,,,,,,,,,,,,,,,,,,,,,,,,,,,,,,,,,,,"MET11603/23/20 16:59:02 SPECI KFRG 232159Z 08014G19KT 1 3/4SM +RA FEW010 OVC019 07/04 A2999 RMK AO2 PRESFR P0003 T00670039","FM-16","7",,,,,,,,,,,,,,,,,,,,,,,,,,,,"2009-05-18"
"74486454787","2020-03-23T17:09:00","FM-16","7",,,,,,,,,,,,,,,,,,,,,,,,,,,,,,,,,,,,,,"29.97","39","44","0.06","RA:02 |RA |RA",,,"83",,"FEW:02 10 BKN:07 25 OVC:08 38","29.88","2.50","42","080",,"16",,,,,,,,,,,,,,,,,,,,,,,,,,,,,,,,,,,,,"MET11903/23/20 17:09:02 SPECI KFRG 232209Z 08014KT 2 1/2SM RA FEW010 BKN025 OVC038 07/04 A2997 RMK AO2 PRESFR P0006 T00670039","FM-16","7",,,,,,,,,,,,,,,,,,,,,,,,,,,,"2009-05-18"
"74486454787","2020-03-23T17:17:00","FM-16","7",,,,,,,,,,,,,,,,,,,,,,,,,,,,,,,,,,,,,,"29.96","40","44","0.07","RA:02 BR:1 |RA |RA",,,"85",,"BKN:07 27 OVC:08 35","29.87","5.00","42","070","25","17",,,,,,,,,,,,,,,,,,,,,,,,,,,,,,,,,,,,,"MET11403/23/20 17:17:02 SPECI KFRG 232217Z 07015G22KT 5SM RA BR BKN027 OVC035 07/04 A2996 RMK AO2 PRESFR P0007 T00670044","FM-16","7",,,,,,,,,,,,,,,,,,,,,,,,,,,,"2009-05-18"
"74486454787","2020-03-23T17:30:00","FM-16","7",,,,,,,,,,,,,,,,,,,,,,,,,,,,,,,,,,,,,,"29.95","40","44","0.08","RA:02 BR:1 |RA |RA",,,"85",,"FEW:02 25 BKN:07 40 OVC:08 55","29.86","5.00","42","070","22","14",,,,,,,,,,,,,,,,,,,,,,,,,,,,,,,,,,,,,"MET11403/23/20 17:30:02 SPECI KFRG 232230Z 07012G19KT 5SM RA BR FEW025 BKN040 OVC055 07/04 A2995 RMK AO2 P0008 T00670044","FM-16","7",,,,,,,,,,,,,,,,,,,,,,,,,,,,"2009-05-18"
"74486454787","2020-03-23T17:41:00","FM-16","7",,,,,,,,,,,,,,,,,,,,,,,,,,,,,,,,,,,,,,"29.95","40","44","0.09","-RA:02 BR:1 |RA |RA",,,"85",,"FEW:02 8 BKN:07 26 OVC:08 40","29.86","5.00","42","050","21","14",,,,,,,,,,,,,,,,,,,,,,,,,,,,,,,,,,,,,"MET11503/23/20 17:41:02 SPECI KFRG 232241Z 05012G18KT 5SM -RA BR FEW008 BKN026 OVC040 07/04 A2995 RMK AO2 P0009 T00670044","FM-16","7",,,,,,,,,,,,,,,,,,,,,,,,,,,,"2009-05-18"
"74486454787","2020-03-23T17:53:00","FM-15","7",,,,,,,,,,,,,,,,,,,,,,,,,,,,,,,,,,,,,,"29.97","40","44","0.20","RA:02 BR:1 |RA |RA",,,"85","29.97","FEW:02 8 SCT:04 21 OVC:08 28","29.88","5.00","42","070","20","11",,,,,,,,,,,,,,,,,,,,,,,,,,,,,,,,,,,,,"MET12103/23/20 17:53:02 METAR KFRG 232253Z 07010G17KT 5SM RA BR FEW008 SCT021 OVC028 07/04 A2997 RMK AO2 SLP148 P0013 T00670044","FM-15","7",,,,,,,,,,,,,,,,,,,,,,,,,,,,"2009-05-18"
"74486454787","2020-03-23T17:59:00","FM-16","7",,,,,,,,,,,,,,,,,,,,,,,,,,,,,,,,,,,,,,"29.95","40","44","0.10","+RA:02 BR:1 |RA |RA",,,"85",,"FEW:02 10 BKN:07 22 OVC:08 27","29.86","1.75","42","070",,"16",,,,,,,,,,,,,,,,,,,,,,,,,,,,,,,,,,,,,"MET11603/23/20 17:59:02 SPECI KFRG 232259Z 07014KT 1 3/4SM +RA BR FEW010 BKN022 OVC027 07/04 A2995 RMK AO2 P0010 T00670044","FM-16","7",,,,,,,,,,,,,,,,,,,,,,,,,,,,"2009-05-18"
"74486454787","2020-03-23T18:08:00","FM-16","7",,,,,,,,,,,,,,,,,,,,,,,,,,,,,,,,,,,,,,"29.94","40","44","0.13","-RA:02 BR:1 |RA |RA",,,"85",,"FEW:02 8 FEW:02 13 OVC:08 25","29.85","2.50","42","060","23","14",,,,,,,,,,,,,,,,,,,,,,,,,,,,,,,,,,,,,"MET11903/23/20 18:08:02 SPECI KFRG 232308Z 06012G20KT 2 1/2SM -RA BR FEW008 FEW013 OVC025 07/04 A2994 RMK AO2 P0013 T00670044","FM-16","7",,,,,,,,,,,,,,,,,,,,,,,,,,,,"2009-05-18"
"74486454787","2020-03-23T18:25:00","FM-16","7",,,,,,,,,,,,,,,,,,,,,,,,,,,,,,,,,,,,,,"29.94","40","44","0.21","RA:02 BR:1 |RA |RA",,,"85",,"FEW:02 17 OVC:08 25","29.85","4.00","42","040",,"11",,,,,,,,,,,,,,,,,,,,,,,,,,,,,,,,,,,,,"MET10403/23/20 18:25:02 SPECI KFRG 232325Z 04010KT 4SM RA BR FEW017 OVC025 07/04 A2994 RMK AO2 P0021 T00670044","FM-16","7",,,,,,,,,,,,,,,,,,,,,,,,,,,,"2009-05-18"
"74486454787","2020-03-23T18:33:00","FM-16","7",,,,,,,,,,,,,,,,,,,,,,,,,,,,,,,,,,,,,,"29.98","40","44","0.23","RA:02 BR:1 |RA |RA",,,"85",,"SCT:04 7 SCT:04 17 OVC:08 23","29.89","4.00","42","310",,"13",,,,,,,,,,,,,,,,,,,,,,,,,,,,,,,,,,,,,"MET11803/23/20 18:33:02 SPECI KFRG 232333Z 31011KT 4SM RA BR SCT007 SCT017 OVC023 07/04 A2998 RMK AO2 PRESRR P0023 T00670044","FM-16","7",,,,,,,,,,,,,,,,,,,,,,,,,,,,"2009-05-18"
"74486454787","2020-03-23T18:42:00","FM-16","7",,,,,,,,,,,,,,,,,,,,,,,,,,,,,,,,,,,,,,"29.98","40","44","0.27","+RA:02 BR:1 |RA |RA",,,"85",,"BKN:07 7 BKN:07 11 OVC:08 23","29.89","4.00","42","320","23","13",,,,,,,,,,,,,,,,,,,,,,,,,,,,,,,,,,,,,"MET11503/23/20 18:42:02 SPECI KFRG 232342Z 32011G20KT 4SM +RA BR BKN007 BKN011 OVC023 07/04 A2998 RMK AO2 P0027 T00670044","FM-16","7",,,,,,,,,,,,,,,,,,,,,,,,,,,,"2009-05-18"
"74486454787","2020-03-23T18:45:00","FM-16","7",,,,,,,,,,,,,,,,,,,,,,,,,,,,,,,,,,,,,,"29.98","40","44","0.30","+RA:02 BR:1 |RA |RA",,,"85",,"SCT:04 7 BKN:07 11 OVC:08 20","29.89","2.50","42","330","22","14",,,,,,,,,,,,,,,,,,,,,,,,,,,,,,,,,,,,,"MET13003/23/20 18:45:02 SPECI KFRG 232345Z 33012G19KT 2 1/2SM +RA BR SCT007 BKN011 OVC020 07/04 A2998 RMK AO2 WSHFT 2330 P0030 T00670044","FM-16","7",,,,,,,,,,,,,,,,,,,,,,,,,,,,"2009-05-18"
"74486454787","2020-03-23T18:51:00","FM-16","6",,,,,,,,,,,,,,,,,,,,,,,,,,,,,,,,,,,,,,"29.97","39","43",,"RA:02 BR:1 |RA |RA",,,"87",,"SCT:04 7 OVC:08 15","29.88","2.50","41","360","23","15",,,,,,,,,,,,,,,,,,,,,,,,,,,,,,,,,,,,,"MET11703/23/20 18:51:02 SPECI KFRG 232351Z 36013G20KT 2 1/2SM RA BR SCT007 OVC015 06/04 A2997 RMK AO2 WSHFT 2330 P0031 FIBI","FM-16","6",,,,,,,,,,,,,,,,,,,,,,,,,,,,"2009-05-18"
"74486454787","2020-03-23T18:53:00","FM-15","7",,,,,,,,,,,,,,,,,,,,,,,,,,,,,,,,,,,,,,"29.97","39","43","0.21","RA:02 BR:1 |RA |RA","+0.10","5","86","29.97","SCT:04 7 BKN:07 15 OVC:08 19","29.88","4.00","41","350","23","14",,,,,,,,,,,,,,,,,,,,,,,,,,,,,,,,,,,,,"MET15603/23/20 18:53:02 METAR KFRG 232353Z 35012G20KT 4SM RA BR SCT007 BKN015 OVC019 06/04 A2997 RMK AO2 WSHFT 2330 SLP150 P0031 60092 T00610039 10067 20050 55034","FM-15","7",,,,,,,,,,,,,,,,,,,,,,,,,,,,"2009-05-18"
"74486454787","2020-03-23T19:02:00","FM-16","7",,,,,,,,,,,,,,,,,,,,,,,,,,,,,,,,,,,,,,"29.96","39","44","T","-RA:02 |RA |RA",,,"83",,"SCT:04 7 OVC:08 19","29.87","8.00","42","010","26","22",,,,,,,,,,,,,,,,,,,,,,,,,,,,,,,,,,,,,"MET12303/23/20 19:02:01 SPECI KFRG 240002Z 01019G23KT 8SM -RA SCT007 OVC019 07/04 A2996 RMK AO2 WSHFT 2342 PRESFR P0000 T00670039","FM-16","7",,,,,,,,,,,,,,,,,,,,,,,,,,,,"2009-05-18"
"74486454787","2020-03-23T19:24:00","FM-16","7",,,,,,,,,,,,,,,,,,,,,,,,,,,,,,,,,,,,,,"29.93","39","44","T","-RA:02 |RA |RA",,,"83",,"FEW:02 7 BKN:07 37 OVC:08 44","29.84","7.00","42","030","37","21",,,,,,,,,,,,,,,,,,,,,,,,,,,,,,,,,,,,,"MET14103/23/20 19:24:01 SPECI KFRG 240024Z 03018G32KT 7SM -RA FEW007 BKN037 OVC044 07/04 A2993 RMK AO2 PK WND 02035/0013 WSHFT 2342 P0000 T00670039","FM-16","7",,,,,,,,,,,,,,,,,,,,,,,,,,,,"2009-05-18"
"74486454787","2020-03-23T19:48:00","FM-16","7",,,,,,,,,,,,,,,,,,,,,,,,,,,,,,,,,,,,,,"29.91","37","41","T",,,,"87",,"BKN:07 7 BKN:07 11 OVC:08 39","29.82","10.00","39","020","25","17",,,,,,,,,,,,,,,,,,,,,,,,,,,,,,,,,,,,,"MET13403/23/20 19:48:01 SPECI KFRG 240048Z 02015G22KT 10SM BKN007 BKN011 OVC039 05/03 A2991 RMK AO2 PK WND 02035/0013 WSHFT 2342 RAE42 P0000","FM-16","7",,,,,,,,,,,,,,,,,,,,,,,,,,,,"2009-05-18"
"74486454787","2020-03-23T19:51:00","FM-16","6",,,,,,,,,,,,,,,,,,,,,,,,,,,,,,,,,,,,,,"29.91","36","39",,,,,"87",,"SCT:04 7 BKN:07 10 OVC:08 41","29.82","10.00","38","020","26","17",,,,,,,,,,,,,,,,,,,,,,,,,,,,,,,,,,,,,"MET13903/23/20 19:51:03 SPECI KFRG 240051Z 02015G23KT 10SM SCT007 BKN010 OVC041 04/02 A2991 RMK AO2 PK WND 02035/0013 WSHFT 2342 RAE42 P0000 FIBI","FM-16","6",,,,,,,,,,,,,,,,,,,,,,,,,,,,"2009-05-18"
"74486454787","2020-03-23T19:53:00","FM-15","7",,,,,,,,,,,,,,,,,,,,,,,,,,,,,,,,,,,,,,"29.91","36","40","T",,,,"86","29.91","BKN:07 7 OVC:08 41","29.82","10.00","38","030","26","17",,,,,,,,,,,,,,,,,,,,,,,,,,,,,,,,,,,,,"MET15603/23/20 19:53:01 METAR KFRG 240053Z 03015G23KT 10SM BKN007 OVC041 04/02 A2991 RMK AO2 PK WND 02035/0013 WSHFT 2342 RAE42 CIG 006V012 SLP129 P0000 T00440022","FM-15","7",,,,,,,,,,,,,,,,,,,,,,,,,,,,"2009-05-18"
"74486454787","2020-03-23T20:51:00","FM-16","6",,,,,,,,,,,,,,,,,,,,,,,,,,,,,,,,,,,,,,"29.92","36","39",,,,,"87",,"OVC:08 10","29.83","10.00","38","010","30","15",,,,,,,,,,,,,,,,,,,,,,,,,,,,,,,,,,,,,"MET11403/23/20 20:51:03 SPECI KFRG 240151Z 01013G26KT 10SM OVC010 04/02 A2992 RMK AO2 PK WND 01026/0142 CIG 007V011 FIBI","FM-16","6",,,,,,,,,,,,,,,,,,,,,,,,,,,,"2009-05-18"
"74486454787","2020-03-23T20:53:00","FM-15","7",,,,,,,,,,,,,,,,,,,,,,,,,,,,,,,,,,,,,,"29.92","35","39","0.00",,,,"86","29.92","OVC:08 10","29.83","10.00","37","360","25","15",,,,,,,,,,,,,,,,,,,,,,,,,,,,,,,,,,,,,"MET12603/23/20 20:53:01 METAR KFRG 240153Z 36013G22KT 10SM OVC010 04/02 A2992 RMK AO2 PK WND 01026/0142 CIG 007V012 SLP132 T00390017","FM-15","7",,,,,,,,,,,,,,,,,,,,,,,,,,,,"2009-05-18"
"74486454787","2020-03-23T21:53:00","FM-15","7",,,,,,,,,,,,,,,,,,,,,,,,,,,,,,,,,,,,,,"29.94","35","40","0.00",,"+0.04","5","83","29.93","OVC:08 14","29.85","10.00","38","350","20","11",,,,,,,,,,,,,,,,,,,,,,,,,,,,,,,,,,,,,"MET10803/23/20 21:53:01 METAR KFRG 240253Z 35010G17KT 10SM OVC014 04/02 A2994 RMK AO2 SLP137 60000 T00440017 55013","FM-15","7",,,,,,,,,,,,,,,,,,,,,,,,,,,,"2009-05-18"
"74486454787","2020-03-23T22:51:00","FM-16","6",,,,,,,,,,,,,,,,,,,,,,,,,,,,,,,,,,,,,,"29.94","36","39",,,,,"87",,"BKN:07 15 OVC:08 33","29.85","10.00","38","360","21","10",,,,,,,,,,,,,,,,,,,,,,,,,,,,,,,,,,,,,"MET09103/23/20 22:51:03 SPECI KFRG 240351Z 36009G18KT 10SM BKN015 OVC033 04/02 A2994 RMK AO2 FIBI","FM-16","6",,,,,,,,,,,,,,,,,,,,,,,,,,,,"2009-05-18"
"74486454787","2020-03-23T22:53:00","FM-15","7",,,,,,,,,,,,,,,,,,,,,,,,,,,,,,,,,,,,,,"29.94","35","40","0.00",,,,"83","29.94","BKN:07 15 OVC:08 33","29.85","10.00","38","350","21","15",,,,,,,,,,,,,,,,,,,,,,,,,,,,,,,,,,,,,"MET10303/23/20 22:53:01 METAR KFRG 240353Z 35013G18KT 10SM BKN015 OVC033 04/02 A2994 RMK AO2 SLP139 T00440017","FM-15","7",,,,,,,,,,,,,,,,,,,,,,,,,,,,"2009-05-18"
"74486454787","2020-03-23T23:20:00","FM-16","7",,,,,,,,,,,,,,,,,,,,,,,,,,,,,,,,,,,,,,"29.95","34","40",,,,,"79",,"SCT:04 15 SCT:04 28 OVC:08 35","29.86","10.00","37","350",,"13",,,,,,,,,,,,,,,,,,,,,,,,,,,,,,,,,,,,,"MET10003/23/20 23:20:01 SPECI KFRG 240420Z 35011KT 10SM SCT015 SCT028 OVC035 04/01 A2995 RMK AO2 T00440011","FM-16","7",,,,,,,,,,,,,,,,,,,,,,,,,,,,"2009-05-18"
"74486454787","2020-03-23T23:53:00","FM-15","7",,,,,,,,,,,,,,,,,,,,,,,,,,,,,,,,,,,,,,"29.96","34","40","0.00",,,,"79","29.96","SCT:04 16 BKN:07 30 OVC:08 35","29.87","10.00","37","340",,"11",,,,,,,,,,,,,,,,,,,,,,,,,,,,,,,,,,,,,"MET11703/23/20 23:53:01 METAR KFRG 240453Z 34010KT 10SM SCT016 BKN030 OVC035 04/01 A2996 RMK AO2 SLP146 T00440011 400670033","FM-15","7",,,,,,,,,,,,,,,,,,,,,,,,,,,,"2009-05-18"
"74486454787","2020-03-23T23:59:00","SOD  ","6",,,,,,,,,,,,,,,,"41",,,"30.05",,"15.3","0","-0.9","24","44","38","020","40","1.10",,,"020","28","RA SN BR",,,,,,,,,,,,,,,,,,,,,,,,,,,,,,,,,,,,,,,,,,,,,,,,,,,,,,,,"SOD75124 HR PRECIPITATION (IN): 1.10 WEATHER(CODE):1  24 HR MAX TEMP (F):44 24 HR MAX TEMP TIME (LST):1928 24 HR MIN TEMP (F):38 24 HR MIN TEMP TIME (LST):0715 AVERAGE STATION PRESSURE(D):30.052 MINIMUM SEA LEVEL PRESSURE:29.91 TIME OF OCCURRENCE:2034 PEAK WIND SPEED (MPH):40  PEAK WIND DIR (DEG): 20 PEAK WIND TIME (LST):1913  FASTEST 2MIN SPEED (MPH):28 FASTEST 2MIN DIR (DEG): 20 FASTEST 2MIN TIME (LST):1909 AVERAGE WIND SPEED (MPH):15.3 24 HR AVG TEMP (F):41 HEATING DEGREE DAYS: 24 COOLING DEGREE DAYS:  0 LATEST DAY MAX TEMP (0700-1900 LST): 44 LATEST NIGHT MIN TEMP(1900-0800 LST):37 HOURLY INCREMENTAL PRECIPITATION VALUES (IN):0.00 0.00 0.00 0.00 0.00T    T    T    T     0.01 0.03 0.10 0.05 0.05 0.02 0.17 0.26 0.20 0.21T     0.00 0.00 0.00 0.00","SOD  ","6",,,,,,,,,,,,,,,,,,,,,,,,,"0551","1810",,"2009-05-18"
"74486454787","2020-03-24T00:51:00","FM-16","6",,,,,,,,,,,,,,,,,,,,,,,,,,,,,,,,,,,,,,"29.97","34","39",,,,,"81",,"OVC:08 28","29.88","10.00","37","330",,"10",,,,,,,,,,,,,,,,,,,,,,,,,,,,,,,,,,,,,"MET08103/24/20 00:51:02 SPECI KFRG 240551Z 33009KT 10SM OVC028 04/01 A2997 RMK AO2 FIBI","FM-16","6",,,,,,,,,,,,,,,,,,,,,,,,,,,,"2009-05-18"
"74486454787","2020-03-24T00:53:00","FM-15","7",,,,,,,,,,,,,,,,,,,,,,,,,,,,,,,,,,,,,,"29.97","33","39","0.00",,"-0.04","3","79","29.97","OVC:08 28","29.88","10.00","37","330",,"10",,,,,,,,,,,,,,,,,,,,,,,,,,,,,,,,,,,,,"MET11703/24/20 00:53:02 METAR KFRG 240553Z 33009KT 10SM OVC028 04/01 A2997 RMK AO2 SLP150 60000 T00390006 10067 20039 53013","FM-15","7",,,,,,,,,,,,,,,,,,,,,,,,,,,,"2009-05-18"
"74486454787","2020-03-24T01:42:00","FM-16","7",,,,,,,,,,,,,,,,,,,,,,,,,,,,,,,,,,,,,,"29.98","33","39",,,,,"79",,"SCT:04 24 OVC:08 33","29.89","10.00","37","330",,"8",,,,,,,,,,,,,,,,,,,,,,,,,,,,,,,,,,,,,"MET09303/24/20 01:42:02 SPECI KFRG 240642Z 33007KT 10SM SCT024 OVC033 04/01 A2998 RMK AO2 T00390006","FM-16","7",,,,,,,,,,,,,,,,,,,,,,,,,,,,"2009-05-18"
"74486454787","2020-03-24T01:53:00","FM-15","7",,,,,,,,,,,,,,,,,,,,,,,,,,,,,,,,,,,,,,"29.98","32","39","0.00",,,,"76","29.98","SCT:04 26 BKN:07 33","29.89","10.00","36","320",,"9",,,,,,,,,,,,,,,,,,,,,,,,,,,,,,,,,,,,,"MET10003/24/20 01:53:02 METAR KFRG 240653Z 32008KT 10SM SCT026 BKN033 04/00 A2998 RMK AO2 SLP151 T00390000","FM-15","7",,,,,,,,,,,,,,,,,,,,,,,,,,,,"2009-05-18"
"74486454787","2020-03-24T02:53:00","FM-15","7",,,,,,,,,,,,,,,,,,,,,,,,,,,,,,,,,,,,,,"29.99","32","38","0.00",,,,"79","29.99","OVC:08 30","29.90","10.00","36","320","18","8",,,,,,,,,,,,,,,,,,,,,,,,,,,,,,,,,,,,,"MET09603/24/20 02:53:02 METAR KFRG 240753Z 32007G16KT 10SM OVC030 03/00 A2999 RMK AO2 SLP156 T00330000","FM-15","7",,,,,,,,,,,,,,,,,,,,,,,,,,,,"2009-05-18"
"74486454787","2020-03-24T03:06:00","FM-16","7",,,,,,,,,,,,,,,,,,,,,,,,,,,,,,,,,,,,,,"29.99","32","38",,,,,"79",,"OVC:08 29","29.90","10.00","36","330",,"8",,,,,,,,,,,,,,,,,,,,,,,,,,,,,,,,,,,,,"MET08603/24/20 03:06:02 SPECI KFRG 240806Z 33007KT 10SM OVC029 03/00 A2999 RMK AO2 T00330000","FM-16","7",,,,,,,,,,,,,,,,,,,,,,,,,,,,"2009-05-18"
"74486454787","2020-03-24T03:42:00","FM-16","7",,,,,,,,,,,,,,,,,,,,,,,,,,,,,,,,,,,,,,"30.01","32","37",,,,,"82",,"SCT:04 28","29.92","10.00","35","310",,"5",,,,,,,,,,,,,,,,,,,,,,,,,,,,,,,,,,,,,"MET08603/24/20 03:42:02 SPECI KFRG 240842Z 31004KT 10SM SCT028 03/00 A3001 RMK AO2 T00280000","FM-16","7",,,,,,,,,,,,,,,,,,,,,,,,,,,,"2009-05-18"
"74486454787","2020-03-24T03:53:00","FM-15","7",,,,,,,,,,,,,,,,,,,,,,,,,,,,,,,,,,,,,,"30.01","32","37","0.00",,"-0.04","3","82","30.01","FEW:02 30","29.92","10.00","35","310",,"5",,,,,,,,,,,,,,,,,,,,,,,,,,,,,,,,,,,,,"MET09903/24/20 03:53:02 METAR KFRG 240853Z 31004KT 10SM FEW030 03/00 A3001 RMK AO2 SLP163 T00280000 53013","FM-15","7",,,,,,,,,,,,,,,,,,,,,,,,,,,,"2009-05-18"
"74486454787","2020-03-24T04:53:00","FM-15","7",,,,,,,,,,,,,,,,,,,,,,,,,,,,,,,,,,,,,,"30.03","31","37","0.00",,,,"79","30.03","CLR:00","29.94","10.00","35","330",,"7",,,,,,,,,,,,,,,,,,,,,,,,,,,,,,,,,,,,,"MET09103/24/20 04:53:02 METAR KFRG 240953Z 33006KT 10SM CLR 03/M01 A3003 RMK AO2 SLP170 T00281006","FM-15","7",,,,,,,,,,,,,,,,,,,,,,,,,,,,"2009-05-18"
"74486454787","2020-03-24T05:53:00","FM-15","7",,,,,,,,,,,,,,,,,,,,,,,,,,,,,,,,,,,,,,"30.05","31","37","0.00",,,,"79","30.05","FEW:02 30","29.96","10.00","35","320",,"8",,,,,,,,,,,,,,,,,,,,,,,,,,,,,,,,,,,,,"MET09403/24/20 05:53:02 METAR KFRG 241053Z 32007KT 10SM FEW030 03/M01 A3005 RMK AO2 SLP177 T00281006","FM-15","7",,,,,,,,,,,,,,,,,,,,,,,,,,,,"2009-05-18"
"74486454787","2020-03-24T06:53:00","FM-15","7",,,,,,,,,,,,,,,,,,,,,,,,,,,,,,,,,,,,,,"30.09","31","39","0.00",,"-0.07","3","73","30.09","OVC:08 32","30.00","10.00","36","330","21","13",,,,,,,,,,,,,,,,,,,,,,,,,,,,,,,,,,,,,"MET12103/24/20 06:53:02 METAR KFRG 241153Z 33011G18KT 10SM OVC032 04/M01 A3009 RMK AO2 SLP188 70110 T00391006 10039 20022 53025","FM-15","7",,,,,,,,,,,,,,,,,,,,,,,,,,,,"2009-05-18"
"74486454787","2020-03-24T07:53:00","FM-15","7",,,,,,,,,,,,,,,,,,,,,,,,,,,,,,,,,,,,,,"30.12","31","42","0.00",,,,"65","30.12","FEW:02 36","30.03","10.00","37","350",,"13",,,,,,,,,,,,,,,,,,,,,,,,,,,,,,,,,,,,,"MET09403/24/20 07:53:02 METAR KFRG 241253Z 35011KT 10SM FEW036 06/M01 A3012 RMK AO2 SLP200 T00561006","FM-15","7",,,,,,,,,,,,,,,,,,,,,,,,,,,,"2009-05-18"
"74486454787","2020-03-24T08:53:00","FM-15","7",,,,,,,,,,,,,,,,,,,,,,,,,,,,,,,,,,,,,,"30.15","32","44","0.00",,,,"63","30.15","FEW:02 22","30.06","10.00","39","350",,"11",,,,,,,,,,,,,,,,,,,,,,,,,,,,,,,,,,,,,"MET09303/24/20 08:53:02 METAR KFRG 241353Z 35010KT 10SM FEW022 07/00 A3015 RMK AO2 SLP209 T00670000","FM-15","7",,,,,,,,,,,,,,,,,,,,,,,,,,,,"2009-05-18"
"74486454787","2020-03-24T09:53:00","FM-15","6",,,,,,,,,,,,,,,,,,,,,,,,,,,,,,,,,,,,,,"30.13","32","46","0.00",,"-0.04","0","58","30.13","CLR:00","30.04","10.00","40","010",,"17",,,,,,,,,,,,,,,,,,,,,,,,,,,,,,,,,,,,,"MET10603/24/20 09:53:02 METAR KFRG 241453Z 01015KT 10SM CLR 08/00 A3013 RMK AO2 SLP202 T00780000 50013 TSNO FIBI","FM-15","6",,,,,,,,,,,,,,,,,,,,,,,,,,,,"2009-05-18"
"74486454787","2020-03-24T10:53:00","FM-15","6",,,,,,,,,,,,,,,,,,,,,,,,,,,,,,,,,,,,,,"30.13","33","49","0.00",,,,"55","30.13","CLR:00","30.04","10.00","42","VRB",,"7",,,,,,,,,,,,,,,,,,,,,,,,,,,,,,,,,,,,,"MET10003/24/20 10:53:02 METAR KFRG 241553Z VRB06KT 10SM CLR 09/01 A3013 RMK AO2 SLP202 T00940006 TSNO FIBI","FM-15","6",,,,,,,,,,,,,,,,,,,,,,,,,,,,"2009-05-18"
"74486454787","2020-03-24T11:53:00","FM-15","6",,,,,,,,,,,,,,,,,,,,,,,,,,,,,,,,,,,,,,"30.12","32","50","0.00",,,,"50","30.12","CLR:00","30.03","10.00","42","350",,"7",,,,,,,,,,,,,,,,,,,,,,,,,,,,,,,,,,,,,"MET10003/24/20 11:53:02 METAR KFRG 241653Z 35006KT 10SM CLR 10/00 A3012 RMK AO2 SLP200 T01000000 TSNO FIBI","FM-15","6",,,,,,,,,,,,,,,,,,,,,,,,,,,,"2009-05-18"
"74486454787","2020-03-24T12:53:00","FM-15","6",,,,,,,,,,,,,,,,,,,,,,,,,,,,,,,,,,,,,,"30.12","32","52","0.00",,"+0.01","8","47","30.11","CLR:00","30.03","10.00","43","350",,"7",,,,,,,,,,,,,,,,,,,,,,,,,,,,,,,,,,,,,"MET11803/24/20 12:53:02 METAR KFRG 241753Z 35006KT 10SM CLR 11/00 A3012 RMK AO2 SLP198 T01110000 10117 20039 58004 TSNO FIBI","FM-15","6",,,,,,,,,,,,,,,,,,,,,,,,,,,,"2009-05-18"
"74486454787","2020-03-24T13:53:00","FM-15","6",,,,,,,,,,,,,,,,,,,,,,,,,,,,,,,,,,,,,,"30.11","33","54","0.00",,,,"45","30.11","CLR:00","30.02","10.00","45","340",,"9",,,,,,,,,,,,,,,,,,,,,,,,,,,,,,,,,,,,,"MET10003/24/20 13:53:02 METAR KFRG 241853Z 34008KT 10SM CLR 12/01 A3011 RMK AO2 SLP196 T01220006 TSNO FIBI","FM-15","6",,,,,,,,,,,,,,,,,,,,,,,,,,,,"2009-05-18"
"74486454787","2020-03-24T14:53:00","FM-15","6",,,,,,,,,,,,,,,,,,,,,,,,,,,,,,,,,,,,,,"30.11","33","54","0.00",,,,"45","30.11","CLR:00","30.02","10.00","45","010",,"9",,,,,,,,,,,,,,,,,,,,,,,,,,,,,,,,,,,,,"MET10003/24/20 14:53:02 METAR KFRG 241953Z 01008KT 10SM CLR 12/01 A3011 RMK AO2 SLP198 T01220006 TSNO FIBI","FM-15","6",,,,,,,,,,,,,,,,,,,,,,,,,,,,"2009-05-18"
"74486454787","2020-03-24T15:53:00","FM-15","7",,,,,,,,,,,,,,,,,,,,,,,,,,,,,,,,,,,,,,"30.09","33","54","0.00",,"+0.02","8","45","30.09","CLR:00","30.00","10.00","45","020",,"14",,,,,,,,,,,,,,,,,,,,,,,,,,,,,,,,,,,,,"MET09603/24/20 15:53:02 METAR KFRG 242053Z 02012KT 10SM CLR 12/01 A3009 RMK AO2 SLP191 T01220006 58007","FM-15","7",,,,,,,,,,,,,,,,,,,,,,,,,,,,"2009-05-18"
"74486454787","2020-03-24T16:53:00","FM-15","7",,,,,,,,,,,,,,,,,,,,,,,,,,,,,,,,,,,,,,"30.10","32","53","0.00",,,,"45","30.10","CLR:00","30.01","10.00","44","020",,"13",,,,,,,,,,,,,,,,,,,,,,,,,,,,,,,,,,,,,"MET09003/24/20 16:53:02 METAR KFRG 242153Z 02011KT 10SM CLR 12/00 A3010 RMK AO2 SLP193 T01170000","FM-15","7",,,,,,,,,,,,,,,,,,,,,,,,,,,,"2009-05-18"
"74486454787","2020-03-24T17:53:00","FM-15","7",,,,,,,,,,,,,,,,,,,,,,,,,,,,,,,,,,,,,,"30.12","32","50","0.00",,,,"50","30.12","CLR:00","30.03","10.00","42","030",,"7",,,,,,,,,,,,,,,,,,,,,,,,,,,,,,,,,,,,,"MET09003/24/20 17:53:02 METAR KFRG 242253Z 03006KT 10SM CLR 10/00 A3012 RMK AO2 SLP201 T01000000","FM-15","7",,,,,,,,,,,,,,,,,,,,,,,,,,,,"2009-05-18"
"74486454787","2020-03-24T18:53:00","FM-15","7",,,,,,,,,,,,,,,,,,,,,,,,,,,,,,,,,,,,,,"30.15","32","48","0.00",,"-0.06","3","54","30.15","CLR:00","30.06","10.00","41","060",,"3",,,,,,,,,,,,,,,,,,,,,,,,,,,,,,,,,,,,,"MET10803/24/20 18:53:02 METAR KFRG 242353Z 06003KT 10SM CLR 09/00 A3015 RMK AO2 SLP211 T00890000 10128 20089 53021","FM-15","7",,,,,,,,,,,,,,,,,,,,,,,,,,,,"2009-05-18"
"74486454787","2020-03-24T19:53:00","FM-15","7",,,,,,,,,,,,,,,,,,,,,,,,,,,,,,,,,,,,,,"30.17","33","46","0.00",,,,"61","30.17","CLR:00","30.08","10.00","40","040",,"7",,,,,,,,,,,,,,,,,,,,,,,,,,,,,,,,,,,,,"MET09003/24/20 19:53:01 METAR KFRG 250053Z 04006KT 10SM CLR 08/01 A3017 RMK AO2 SLP216 T00780006","FM-15","7",,,,,,,,,,,,,,,,,,,,,,,,,,,,"2009-05-18"
"74486454787","2020-03-24T20:53:00","FM-15","7",,,,,,,,,,,,,,,,,,,,,,,,,,,,,,,,,,,,,,"30.18","32","45","0.00",,,,"61","30.18","CLR:00","30.09","10.00","40","030",,"7",,,,,,,,,,,,,,,,,,,,,,,,,,,,,,,,,,,,,"MET09003/24/20 20:53:01 METAR KFRG 250153Z 03006KT 10SM CLR 07/00 A3018 RMK AO2 SLP219 T00720000","FM-15","7",,,,,,,,,,,,,,,,,,,,,,,,,,,,"2009-05-18"
"74486454787","2020-03-24T21:53:00","FM-15","7",,,,,,,,,,,,,,,,,,,,,,,,,,,,,,,,,,,,,,"30.17","31","43","0.00",,"-0.02","0","63","30.17","CLR:00","30.08","10.00","38","040",,"11",,,,,,,,,,,,,,,,,,,,,,,,,,,,,,,,,,,,,"MET09703/24/20 21:53:01 METAR KFRG 250253Z 04010KT 10SM CLR 06/M01 A3017 RMK AO2 SLP218 T00611006 50007","FM-15","7",,,,,,,,,,,,,,,,,,,,,,,,,,,,"2009-05-18"
"74486454787","2020-03-24T22:53:00","FM-15","7",,,,,,,,,,,,,,,,,,,,,,,,,,,,,,,,,,,,,,"30.17","30","41","0.00",,,,"65","30.17","CLR:00","30.08","10.00","37","030",,"9",,,,,,,,,,,,,,,,,,,,,,,,,,,,,,,,,,,,,"MET09103/24/20 22:53:01 METAR KFRG 250353Z 03008KT 10SM CLR 05/M01 A3017 RMK AO2 SLP217 T00501011","FM-15","7",,,,,,,,,,,,,,,,,,,,,,,,,,,,"2009-05-18"
"74486454787","2020-03-24T23:53:00","FM-15","7",,,,,,,,,,,,,,,,,,,,,,,,,,,,,,,,,,,,,,"30.16","30","41","0.00",,,,"65","30.16","CLR:00","30.07","10.00","37","040",,"10",,,,,,,,,,,,,,,,,,,,,,,,,,,,,,,,,,,,,"MET10103/24/20 23:53:01 METAR KFRG 250453Z 04009KT 10SM CLR 05/M01 A3016 RMK AO2 SLP214 T00501011 401280022","FM-15","7",,,,,,,,,,,,,,,,,,,,,,,,,,,,"2009-05-18"
"74486454787","2020-03-24T23:59:00","SOD  ","6",,,,,,,,,,,,,,,,"46",,,"29.99",,"9.2","0","3.8","19","55","36","030","25","0.00",,,"020","21",,,,,,,,,,,,,,,,,,,,,,,,,,,,,,,,,,,,,,,,,,,,,,,,,,,,,,,,,"SOD73024 HR PRECIPITATION (IN):0.00  24 HR MAX TEMP (F):55 24 HR MAX TEMP TIME (LST):1502 24 HR MIN TEMP (F):36 24 HR MIN TEMP TIME (LST):0540 AVERAGE STATION PRESSURE:29.990 MINIMUM SEA LEVEL PRESSURE:29.96 TIME OF OCCURRENCE:0009 PEAK WIND SPEED (MPH):25  PEAK WIND DIR (DEG):30  PEAK WIND TIME (LST):0942  FASTEST 2MIN SPEED (MPH):21 FASTEST 2MIN DIR (DEG):20  FASTEST 2MIN TIME (LST):0947 AVERAGE WIND SPEED (MPH):9.2  24 HR AVG TEMP (F):46 HEATING DEGREE DAYS:19  COOLING DEGREE DAYS:0   LATEST DAY MAX TEMP (0700-1900 LST):55  LATEST NIGHT MIN TEMP(1900-0800 LST):36 HOURLY INCREMENTAL PRECIPITATION VALUES (IN):.00 0.00 0.00 0.00 0.00 0.00 0.00 0.00 0.00 0.00 0.00 0.00 0.00 0.00 0.00 0.00 0.00 0.00 0.00 0.00 0.00 0.00 0.00 0.00","SOD  ","6",,,,,,,,,,,,,,,,,,,,,,,,,"0549","1811",,"2009-05-18"
"74486454787","2020-03-25T00:53:00","FM-15","7",,,,,,,,,,,,,,,,,,,,,,,,,,,,,,,,,,,,,,"30.15","30","41","0.00",,"+0.03","8","65","30.15","CLR:00","30.06","10.00","37","050","20","11",,,,,,,,,,,,,,,,,,,,,,,,,,,,,,,,,,,,,"MET11203/25/20 00:53:02 METAR KFRG 250553Z 05010G17KT 10SM CLR 05/M01 A3015 RMK AO2 SLP209 T00501011 10089 20044 58009","FM-15","7",,,,,,,,,,,,,,,,,,,,,,,,,,,,"2009-05-18"
"74486454787","2020-03-25T01:53:00","FM-15","7",,,,,,,,,,,,,,,,,,,,,,,,,,,,,,,,,,,,,,"30.14","30","42","0.00",,,,"62","30.14","CLR:00","30.05","10.00","37","060",,"8",,,,,,,,,,,,,,,,,,,,,,,,,,,,,,,,,,,,,"MET09103/25/20 01:53:02 METAR KFRG 250653Z 06007KT 10SM CLR 06/M01 A3014 RMK AO2 SLP206 T00561011","FM-15","7",,,,,,,,,,,,,,,,,,,,,,,,,,,,"2009-05-18"
"74486454787","2020-03-25T02:53:00","FM-15","7",,,,,,,,,,,,,,,,,,,,,,,,,,,,,,,,,,,,,,"30.11","30","42","0.00",,,,"62","30.11","CLR:00","30.02","10.00","37","060",,"11",,,,,,,,,,,,,,,,,,,,,,,,,,,,,,,,,,,,,"MET09103/25/20 02:53:02 METAR KFRG 250753Z 06010KT 10SM CLR 06/M01 A3011 RMK AO2 SLP195 T00561011","FM-15","7",,,,,,,,,,,,,,,,,,,,,,,,,,,,"2009-05-18"
"74486454787","2020-03-25T03:53:00","FM-15","7",,,,,,,,,,,,,,,,,,,,,,,,,,,,,,,,,,,,,,"30.08","30","42","0.00",,"+0.06","8","62","30.08","SCT:04 15","29.99","10.00","37","060",,"10",,,,,,,,,,,,,,,,,,,,,,,,,,,,,,,,,,,,,"MET10003/25/20 03:53:02 METAR KFRG 250853Z 06009KT 10SM SCT015 06/M01 A3008 RMK AO2 SLP187 T00561011 58022","FM-15","7",,,,,,,,,,,,,,,,,,,,,,,,,,,,"2009-05-18"
"74486454787","2020-03-25T04:01:00","FM-16","7",,,,,,,,,,,,,,,,,,,,,,,,,,,,,,,,,,,,,,"30.09","31","42",,,,,"65",,"BKN:07 15","30.00","10.00","37","070",,"9",,,,,,,,,,,,,,,,,,,,,,,,,,,,,,,,,,,,,"MET08703/25/20 04:01:02 SPECI KFRG 250901Z 07008KT 10SM BKN015 06/M01 A3009 RMK AO2 T00561006","FM-16","7",,,,,,,,,,,,,,,,,,,,,,,,,,,,"2009-05-18"
"74486454787","2020-03-25T04:53:00","FM-15","7",,,,,,,,,,,,,,,,,,,,,,,,,,,,,,,,,,,,,,"30.10","32","42","0.00",,,,"68","30.11","OVC:08 19","30.01","10.00","38","060",,"8",,,,,,,,,,,,,,,,,,,,,,,,,,,,,,,,,,,,,"MET09303/25/20 04:53:02 METAR KFRG 250953Z 06007KT 10SM OVC019 06/00 A3010 RMK AO2 SLP195 T00560000","FM-15","7",,,,,,,,,,,,,,,,,,,,,,,,,,,,"2009-05-18"
"74486454787","2020-03-25T05:53:00","FM-15","7",,,,,,,,,,,,,,,,,,,,,,,,,,,,,,,,,,,,,,"30.11","32","42","0.00",,,,"68","30.11","FEW:02 15 OVC:08 29","30.02","10.00","38","060",,"8",,,,,,,,,,,,,,,,,,,,,,,,,,,,,,,,,,,,,"MET10003/25/20 05:53:02 METAR KFRG 251053Z 06007KT 10SM FEW015 OVC029 06/00 A3011 RMK AO2 SLP196 T00560000","FM-15","7",,,,,,,,,,,,,,,,,,,,,,,,,,,,"2009-05-18"
"74486454787","2020-03-25T06:48:00","FM-16","7",,,,,,,,,,,,,,,,,,,,,,,,,,,,,,,,,,,,,,"30.12","34","43",,,,,"71",,"SCT:04 15 OVC:08 30","30.03","10.00","39","070",,"10",,,,,,,,,,,,,,,,,,,,,,,,,,,,,,,,,,,,,"MET08303/25/20 06:48:02 SPECI KFRG 251148Z 07009KT 10SM SCT015 OVC030 06/01 A3012 RMK AO2","FM-16","7",,,,,,,,,,,,,,,,,,,,,,,,,,,,"2009-05-18"
"74486454787","2020-03-25T06:53:00","FM-15","7",,,,,,,,,,,,,,,,,,,,,,,,,,,,,,,,,,,,,,"30.11","33","42","0.00",,"-0.01","0","71","30.11","SCT:04 15 OVC:08 30","30.02","10.00","38","070",,"9",,,,,,,,,,,,,,,,,,,,,,,,,,,,,,,,,,,,,"MET11803/25/20 06:53:02 METAR KFRG 251153Z 07008KT 10SM SCT015 OVC030 06/01 A3011 RMK AO2 SLP198 T00560006 10056 20050 50003","FM-15","7",,,,,,,,,,,,,,,,,,,,,,,,,,,,"2009-05-18"
"74486454787","2020-03-25T07:20:00","FM-16","7",,,,,,,,,,,,,,,,,,,,,,,,,,,,,,,,,,,,,,"30.11","34","43",,,,,"71",,"SCT:04 15 BKN:07 25 OVC:08 31","30.02","10.00","39","060",,"9",,,,,,,,,,,,,,,,,,,,,,,,,,,,,,,,,,,,,"MET10003/25/20 07:20:02 SPECI KFRG 251220Z 06008KT 10SM SCT015 BKN025 OVC031 06/01 A3011 RMK AO2 T00610011","FM-16","7",,,,,,,,,,,,,,,,,,,,,,,,,,,,"2009-05-18"
"74486454787","2020-03-25T07:53:00","FM-15","7",,,,,,,,,,,,,,,,,,,,,,,,,,,,,,,,,,,,,,"30.10","34","43","0.00",,,,"71","30.10","FEW:02 14 FEW:02 24 OVC:08 35","30.01","10.00","39","080",,"9",,,,,,,,,,,,,,,,,,,,,,,,,,,,,,,,,,,,,"MET10703/25/20 07:53:02 METAR KFRG 251253Z 08008KT 10SM FEW014 FEW024 OVC035 06/01 A3010 RMK AO2 SLP192 T00610011","FM-15","7",,,,,,,,,,,,,,,,,,,,,,,,,,,,"2009-05-18"
"74486454787","2020-03-25T08:37:00","FM-16","7",,,,,,,,,,,,,,,,,,,,,,,,,,,,,,,,,,,,,,"30.10","36","45",,,,,"71",,"BKN:07 18 BKN:07 35 OVC:08 100","30.01","10.00","41","090",,"10",,,,,,,,,,,,,,,,,,,,,,,,,,,,,,,,,,,,,"MET10003/25/20 08:37:02 SPECI KFRG 251337Z 09009KT 10SM BKN018 BKN035 OVC100 07/02 A3010 RMK AO2 T00720022","FM-16","7",,,,,,,,,,,,,,,,,,,,,,,,,,,,"2009-05-18"
"74486454787","2020-03-25T08:53:00","FM-15","7",,,,,,,,,,,,,,,,,,,,,,,,,,,,,,,,,,,,,,"30.10","36","45","0.00",,,,"71","30.10","BKN:07 18 OVC:08 25","30.01","10.00","41","080",,"10",,,,,,,,,,,,,,,,,,,,,,,,,,,,,,,,,,,,,"MET10003/25/20 08:53:02 METAR KFRG 251353Z 08009KT 10SM BKN018 OVC025 07/02 A3010 RMK AO2 SLP194 T00720022","FM-15","7",,,,,,,,,,,,,,,,,,,,,,,,,,,,"2009-05-18"
"74486454787","2020-03-25T09:53:00","FM-15","7",,,,,,,,,,,,,,,,,,,,,,,,,,,,,,,,,,,,,,"30.09","36","46","0.00",,"+0.02","6","68","30.09","OVC:08 20","30.00","10.00","42","100",,"15",,,,,,,,,,,,,,,,,,,,,,,,,,,,,,,,,,,,,"MET09903/25/20 09:53:02 METAR KFRG 251453Z 10013KT 10SM OVC020 08/02 A3009 RMK AO2 SLP191 T00780022 56007","FM-15","7",,,,,,,,,,,,,,,,,,,,,,,,,,,,"2009-05-18"
"74486454787","2020-03-25T10:53:00","FM-15","7",,,,,,,,,,,,,,,,,,,,,,,,,,,,,,,,,,,,,,"30.07","36","47","0.00",,,,"66","30.07","BKN:07 21 BKN:07 26 OVC:08 100","29.98","10.00","42","090",,"17",,,,,,,,,,,,,,,,,,,,,,,,,,,,,,,,,,,,,"MET10703/25/20 10:53:02 METAR KFRG 251553Z 09015KT 10SM BKN021 BKN026 OVC100 08/02 A3007 RMK AO2 SLP182 T00830022","FM-15","7",,,,,,,,,,,,,,,,,,,,,,,,,,,,"2009-05-18"
"74486454787","2020-03-25T11:53:00","FM-15","7",,,,,,,,,,,,,,,,,,,,,,,,,,,,,,,,,,,,,,"30.07","36","48","0.00",,,,"63","30.07","BKN:07 23 OVC:08 44","29.98","10.00","43","100","23","17",,,,,,,,,,,,,,,,,,,,,,,,,,,,,,,,,,,,,"MET10303/25/20 11:53:02 METAR KFRG 251653Z 10015G20KT 10SM BKN023 OVC044 09/02 A3007 RMK AO2 SLP182 T00890022","FM-15","7",,,,,,,,,,,,,,,,,,,,,,,,,,,,"2009-05-18"
"74486454787","2020-03-25T12:27:00","FM-16","7",,,,,,,,,,,,,,,,,,,,,,,,,,,,,,,,,,,,,,"30.06","35","47",,,,,"63",,"SCT:04 24 OVC:08 44","29.97","10.00","42","100","31","20",,,,,,,,,,,,,,,,,,,,,,,,,,,,,,,,,,,,,"MET11403/25/20 12:27:02 SPECI KFRG 251727Z 10017G27KT 10SM SCT024 OVC044 08/02 A3006 RMK AO2 PK WND 09027/1719 T00830017","FM-16","7",,,,,,,,,,,,,,,,,,,,,,,,,,,,"2009-05-18"
"74486454787","2020-03-25T12:53:00","FM-15","7",,,,,,,,,,,,,,,,,,,,,,,,,,,,,,,,,,,,,,"30.05","35","47","0.00",,"+0.05","6","63","30.04","FEW:02 28 OVC:08 42","29.96","10.00","42","080",,"13",,,,,,,,,,,,,,,,,,,,,,,,,,,,,,,,,,,,,"MET13603/25/20 12:53:02 METAR KFRG 251753Z 08011KT 10SM FEW028 OVC042 08/02 A3005 RMK AO2 PK WND 09027/1719 SLP174 T00830017 10089 20056 56016","FM-15","7",,,,,,,,,,,,,,,,,,,,,,,,,,,,"2009-05-18"
"74486454787","2020-03-25T13:53:00","FM-15","7",,,,,,,,,,,,,,,,,,,,,,,,,,,,,,,,,,,,,,"30.02","35","48","0.00",,,,"61","30.02","FEW:02 27 OVC:08 40","29.93","10.00","42","070","22","17",,,,,,,,,,,,,,,,,,,,,,,,,,,,,,,,,,,,,"MET10303/25/20 13:53:02 METAR KFRG 251853Z 07015G19KT 10SM FEW027 OVC040 09/02 A3002 RMK AO2 SLP165 T00890017","FM-15","7",,,,,,,,,,,,,,,,,,,,,,,,,,,,"2009-05-18"
"74486454787","2020-03-25T14:53:00","FM-15","7",,,,,,,,,,,,,,,,,,,,,,,,,,,,,,,,,,,,,,"30.00","33","48","0.00",,,,"56","30.00","OVC:08 32","29.91","10.00","41","060","23","16",,,,,,,,,,,,,,,,,,,,,,,,,,,,,,,,,,,,,"MET09603/25/20 14:53:02 METAR KFRG 251953Z 06014G20KT 10SM OVC032 09/01 A3000 RMK AO2 SLP158 T00890006","FM-15","7",,,,,,,,,,,,,,,,,,,,,,,,,,,,"2009-05-18"
"74486454787","2020-03-25T15:36:00","FM-16","7",,,,,,,,,,,,,,,,,,,,,,,,,,,,,,,,,,,,,,"29.98","34","47",,,,,"61",,"OVC:08 29","29.89","10.00","41","050",,"16",,,,,,,,,,,,,,,,,,,,,,,,,,,,,,,,,,,,,"MET08603/25/20 15:36:02 SPECI KFRG 252036Z 05014KT 10SM OVC029 08/01 A2998 RMK AO2 T00830011","FM-16","7",,,,,,,,,,,,,,,,,,,,,,,,,,,,"2009-05-18"
"74486454787","2020-03-25T15:53:00","FM-15","7",,,,,,,,,,,,,,,,,,,,,,,,,,,,,,,,,,,,,,"29.98","33","46","0.00",,"+0.06","6","61","29.98","OVC:08 29","29.89","10.00","40","050","23","15",,,,,,,,,,,,,,,,,,,,,,,,,,,,,,,,,,,,,"MET10203/25/20 15:53:02 METAR KFRG 252053Z 05013G20KT 10SM OVC029 08/01 A2998 RMK AO2 SLP153 T00780006 56021","FM-15","7",,,,,,,,,,,,,,,,,,,,,,,,,,,,"2009-05-18"
"74486454787","2020-03-25T16:32:00","FM-16","7",,,,,,,,,,,,,,,,,,,,,,,,,,,,,,,,,,,,,,"29.99","32","46",,,,,"58",,"OVC:08 31","29.90","10.00","40","050","25","17",,,,,,,,,,,,,,,,,,,,,,,,,,,,,,,,,,,,,"MET08903/25/20 16:32:02 SPECI KFRG 252132Z 05015G22KT 10SM OVC031 08/00 A2999 RMK AO2 T00780000","FM-16","7",,,,,,,,,,,,,,,,,,,,,,,,,,,,"2009-05-18"
"74486454787","2020-03-25T16:53:00","FM-15","7",,,,,,,,,,,,,,,,,,,,,,,,,,,,,,,,,,,,,,"29.98","31","46","0.00",,,,"56","29.98","BKN:07 31 OVC:08 75","29.89","10.00","40","060","32","21",,,,,,,,,,,,,,,,,,,,,,,,,,,,,,,,,,,,,"MET12203/25/20 16:53:02 METAR KFRG 252153Z 06018G28KT 10SM BKN031 OVC075 08/M01 A2998 RMK AO2 PK WND 04028/2147 SLP151 T00781006","FM-15","7",,,,,,,,,,,,,,,,,,,,,,,,,,,,"2009-05-18"
"74486454787","2020-03-25T17:53:00","FM-15","7",,,,,,,,,,,,,,,,,,,,,,,,,,,,,,,,,,,,,,"30.00","32","45","0.00",,,,"61","30.00","OVC:08 85","29.91","10.00","40","060","22","15",,,,,,,,,,,,,,,,,,,,,,,,,,,,,,,,,,,,,"MET09603/25/20 17:53:02 METAR KFRG 252253Z 06013G19KT 10SM OVC085 07/00 A3000 RMK AO2 SLP160 T00720000","FM-15","7",,,,,,,,,,,,,,,,,,,,,,,,,,,,"2009-05-18"
"74486454787","2020-03-25T18:53:00","FM-15","7",,,,,,,,,,,,,,,,,,,,,,,,,,,,,,,,,,,,,,"30.02","31","44","0.00",,"-0.03","3","60","30.01","SCT:04 37 OVC:08 85","29.93","10.00","39","050",,"11",,,,,,,,,,,,,,,,,,,,,,,,,,,,,,,,,,,,,"MET11903/25/20 18:53:02 METAR KFRG 252353Z 05010KT 10SM SCT037 OVC085 07/M01 A3002 RMK AO2 SLP164 T00671006 10094 20067 53011","FM-15","7",,,,,,,,,,,,,,,,,,,,,,,,,,,,"2009-05-18"
"74486454787","2020-03-25T19:53:00","FM-15","7",,,,,,,,,,,,,,,,,,,,,,,,,,,,,,,,,,,,,,"30.02","32","44","0.00",,,,"63","30.02","BKN:07 29 BKN:07 95","29.93","10.00","39","030",,"10",,,,,,,,,,,,,,,,,,,,,,,,,,,,,,,,,,,,,"MET10003/25/20 19:53:01 METAR KFRG 260053Z 03009KT 10SM BKN029 BKN095 07/00 A3002 RMK AO2 SLP165 T00670000","FM-15","7",,,,,,,,,,,,,,,,,,,,,,,,,,,,"2009-05-18"
"74486454787","2020-03-25T20:17:00","FM-16","7",,,,,,,,,,,,,,,,,,,,,,,,,,,,,,,,,,,,,,"30.02","33","43",,,,,"68",,"SCT:04 29","29.93","10.00","39","030",,"9",,,,,,,,,,,,,,,,,,,,,,,,,,,,,,,,,,,,,"MET08603/25/20 20:17:01 SPECI KFRG 260117Z 03008KT 10SM SCT029 06/01 A3002 RMK AO2 T00610006","FM-16","7",,,,,,,,,,,,,,,,,,,,,,,,,,,,"2009-05-18"
"74486454787","2020-03-25T20:53:00","FM-15","7",,,,,,,,,,,,,,,,,,,,,,,,,,,,,,,,,,,,,,"30.02","33","43","0.00",,,,"68","30.02","CLR:00","29.93","10.00","39","020",,"13",,,,,,,,,,,,,,,,,,,,,,,,,,,,,,,,,,,,,"MET09003/25/20 20:53:01 METAR KFRG 260153Z 02011KT 10SM CLR 06/01 A3002 RMK AO2 SLP166 T00610006","FM-15","7",,,,,,,,,,,,,,,,,,,,,,,,,,,,"2009-05-18"
"74486454787","2020-03-25T21:53:00","FM-15","7",,,,,,,,,,,,,,,,,,,,,,,,,,,,,,,,,,,,,,"30.04","33","42","0.00",,"-0.02","3","71","30.03","FEW:02 31","29.95","10.00","38","010",,"10",,,,,,,,,,,,,,,,,,,,,,,,,,,,,,,,,,,,,"MET09903/25/20 21:53:01 METAR KFRG 260253Z 01009KT 10SM FEW031 06/01 A3004 RMK AO2 SLP171 T00560006 53007","FM-15","7",,,,,,,,,,,,,,,,,,,,,,,,,,,,"2009-05-18"
"74486454787","2020-03-25T22:53:00","FM-15","7",,,,,,,,,,,,,,,,,,,,,,,,,,,,,,,,,,,,,,"30.03","31","41","0.00",,,,"67","30.03","CLR:00","29.94","10.00","37","030",,"10",,,,,,,,,,,,,,,,,,,,,,,,,,,,,,,,,,,,,"MET09103/25/20 22:53:01 METAR KFRG 260353Z 03009KT 10SM CLR 05/M01 A3003 RMK AO2 SLP168 T00501006","FM-15","7",,,,,,,,,,,,,,,,,,,,,,,,,,,,"2009-05-18"
"74486454787","2020-03-25T23:53:00","FM-15","7",,,,,,,,,,,,,,,,,,,,,,,,,,,,,,,,,,,,,,"30.03","30","40","0.00",,,,"68","30.03","CLR:00","29.94","10.00","36","020",,"11",,,,,,,,,,,,,,,,,,,,,,,,,,,,,,,,,,,,,"MET10103/25/20 23:53:01 METAR KFRG 260453Z 02010KT 10SM CLR 04/M01 A3003 RMK AO2 SLP171 T00441011 400940044","FM-15","7",,,,,,,,,,,,,,,,,,,,,,,,,,,,"2009-05-18"
"74486454787","2020-03-25T23:59:00","SOD  ","6",,,,,,,,,,,,,,,,"45",,,"29.99",,"12.3","0","2.5","20","49","40","040","32","0.00",,,"090","23",,,,,,,,,,,,,,,,,,,,,,,,,,,,,,,,,,,,,,,,,,,,,,,,,,,,,,,,,"SOD73024 HR PRECIPITATION (IN):0.00  24 HR MAX TEMP (F):49 24 HR MAX TEMP TIME (LST):1452 24 HR MIN TEMP (F):40 24 HR MIN TEMP TIME (LST):2359 AVERAGE STATION PRESSURE:29.990 MINIMUM SEA LEVEL PRESSURE:29.97 TIME OF OCCURRENCE:1657 PEAK WIND SPEED (MPH):32  PEAK WIND DIR (DEG):40  PEAK WIND TIME (LST):1647  FASTEST 2MIN SPEED (MPH):23 FASTEST 2MIN DIR (DEG):90  FASTEST 2MIN TIME (LST):1220 AVERAGE WIND SPEED (MPH):12.3 24 HR AVG TEMP (F):45 HEATING DEGREE DAYS:20  COOLING DEGREE DAYS:0   LATEST DAY MAX TEMP (0700-1900 LST):49  LATEST NIGHT MIN TEMP(1900-0800 LST):40 HOURLY INCREMENTAL PRECIPITATION VALUES (IN):.00 0.00 0.00 0.00 0.00 0.00 0.00 0.00 0.00 0.00 0.00 0.00 0.00 0.00 0.00 0.00 0.00 0.00 0.00 0.00 0.00 0.00 0.00 0.00","SOD  ","6",,,,,,,,,,,,,,,,,,,,,,,,,"0548","1812",,"2009-05-18"
"74486454787","2020-03-26T00:53:00","FM-15","7",,,,,,,,,,,,,,,,,,,,,,,,,,,,,,,,,,,,,,"30.03","29","40","0.00",,"+0.01","6","65","30.03","CLR:00","29.94","10.00","36","350",,"6",,,,,,,,,,,,,,,,,,,,,,,,,,,,,,,,,,,,,"MET10903/26/20 00:53:02 METAR KFRG 260553Z 35005KT 10SM CLR 04/M02 A3003 RMK AO2 SLP169 T00441017 10072 20039 56002","FM-15","7",,,,,,,,,,,,,,,,,,,,,,,,,,,,"2009-05-18"
"74486454787","2020-03-26T01:53:00","FM-15","7",,,,,,,,,,,,,,,,,,,,,,,,,,,,,,,,,,,,,,"30.03","30","39","0.00",,,,"70","30.03","CLR:00","29.94","10.00","35","010",,"10",,,,,,,,,,,,,,,,,,,,,,,,,,,,,,,,,,,,,"MET09103/26/20 01:53:02 METAR KFRG 260653Z 01009KT 10SM CLR 04/M01 A3003 RMK AO2 SLP169 T00391011","FM-15","7",,,,,,,,,,,,,,,,,,,,,,,,,,,,"2009-05-18"
"74486454787","2020-03-26T02:53:00","FM-15","7",,,,,,,,,,,,,,,,,,,,,,,,,,,,,,,,,,,,,,"30.00","29","38","0.00",,,,"70","30.00","CLR:00","29.91","10.00","34","030",,"9",,,,,,,,,,,,,,,,,,,,,,,,,,,,,,,,,,,,,"MET09103/26/20 02:53:02 METAR KFRG 260753Z 03008KT 10SM CLR 03/M02 A3000 RMK AO2 SLP160 T00331017","FM-15","7",,,,,,,,,,,,,,,,,,,,,,,,,,,,"2009-05-18"
"74486454787","2020-03-26T03:53:00","FM-15","7",,,,,,,,,,,,,,,,,,,,,,,,,,,,,,,,,,,,,,"30.02","29","38","0.00",,"+0.01","5","70","30.02","CLR:00","29.93","10.00","34","010",,"7",,,,,,,,,,,,,,,,,,,,,,,,,,,,,,,,,,,,,"MET09703/26/20 03:53:02 METAR KFRG 260853Z 01006KT 10SM CLR 03/M02 A3002 RMK AO2 SLP166 T00331017 55002","FM-15","7",,,,,,,,,,,,,,,,,,,,,,,,,,,,"2009-05-18"
"74486454787","2020-03-26T04:53:00","FM-15","7",,,,,,,,,,,,,,,,,,,,,,,,,,,,,,,,,,,,,,"30.04","29","37","0.00",,,,"73","30.04","CLR:00","29.95","10.00","34","360",,"8",,,,,,,,,,,,,,,,,,,,,,,,,,,,,,,,,,,,,"MET09103/26/20 04:53:02 METAR KFRG 260953Z 36007KT 10SM CLR 03/M02 A3004 RMK AO2 SLP174 T00281017","FM-15","7",,,,,,,,,,,,,,,,,,,,,,,,,,,,"2009-05-18"
"74486454787","2020-03-26T05:53:00","FM-15","7",,,,,,,,,,,,,,,,,,,,,,,,,,,,,,,,,,,,,,"30.06","28","37","0.00",,,,"70","30.06","CLR:00","29.97","10.00","34","350",,"6",,,,,,,,,,,,,,,,,,,,,,,,,,,,,,,,,,,,,"MET09103/26/20 05:53:02 METAR KFRG 261053Z 35005KT 10SM CLR 03/M02 A3006 RMK AO2 SLP178 T00281022","FM-15","7",,,,,,,,,,,,,,,,,,,,,,,,,,,,"2009-05-18"
"74486454787","2020-03-26T06:53:00","FM-15","7",,,,,,,,,,,,,,,,,,,,,,,,,,,,,,,,,,,,,,"30.07","29","40","0.00",,"-0.05","1","65","30.07","CLR:00","29.98","10.00","36","020",,"11",,,,,,,,,,,,,,,,,,,,,,,,,,,,,,,,,,,,,"MET10903/26/20 06:53:02 METAR KFRG 261153Z 02010KT 10SM CLR 04/M02 A3007 RMK AO2 SLP182 T00441017 10044 20028 51016","FM-15","7",,,,,,,,,,,,,,,,,,,,,,,,,,,,"2009-05-18"
"74486454787","2020-03-26T07:53:00","FM-15","7",,,,,,,,,,,,,,,,,,,,,,,,,,,,,,,,,,,,,,"30.06","29","43","0.00",,,,"58","30.06","CLR:00","29.97","10.00","37","020",,"13",,,,,,,,,,,,,,,,,,,,,,,,,,,,,,,,,,,,,"MET09103/26/20 07:53:02 METAR KFRG 261253Z 02011KT 10SM CLR 06/M02 A3006 RMK AO2 SLP179 T00611017","FM-15","7",,,,,,,,,,,,,,,,,,,,,,,,,,,,"2009-05-18"
"74486454787","2020-03-26T08:53:00","FM-15","7",,,,,,,,,,,,,,,,,,,,,,,,,,,,,,,,,,,,,,"30.07","28","45","0.00",,,,"52","30.07","CLR:00","29.98","10.00","38","360",,"6",,,,,,,,,,,,,,,,,,,,,,,,,,,,,,,,,,,,,"MET09603/26/20 08:53:02 METAR KFRG 261353Z 36005KT 10SM CLR 07/M02 A3007 RMK AO2 SLP182 T00721022 TSNO","FM-15","7",,,,,,,,,,,,,,,,,,,,,,,,,,,,"2009-05-18"
"74486454787","2020-03-26T09:53:00","FM-15","7",,,,,,,,,,,,,,,,,,,,,,,,,,,,,,,,,,,,,,"30.07","26","49","0.00",,"+0.00","5","41","30.07","CLR:00","29.98","10.00","40","020",,"5",,,,,,,,,,,,,,,,,,,,,,,,,,,,,,,,,,,,,"MET09703/26/20 09:53:02 METAR KFRG 261453Z 02004KT 10SM CLR 09/M03 A3007 RMK AO2 SLP182 T00941033 55000","FM-15","7",,,,,,,,,,,,,,,,,,,,,,,,,,,,"2009-05-18"
"74486454787","2020-03-26T10:53:00","FM-15","7",,,,,,,,,,,,,,,,,,,,,,,,,,,,,,,,,,,,,,"30.04","28","52","0.00",,,,"40","30.04","CLR:00","29.95","10.00","42","VRB",,"5",,,,,,,,,,,,,,,,,,,,,,,,,,,,,,,,,,,,,"MET09103/26/20 10:53:02 METAR KFRG 261553Z VRB04KT 10SM CLR 11/M02 A3004 RMK AO2 SLP173 T01111022","FM-15","7",,,,,,,,,,,,,,,,,,,,,,,,,,,,"2009-05-18"
"74486454787","2020-03-26T11:53:00","FM-15","7",,,,,,,,,,,,,,,,,,,,,,,,,,,,,,,,,,,,,,"30.02","30","53","0.00",,,,"41","30.02","CLR:00","29.93","10.00","43",,,,,,,,,,,,,,,,,,,,,,,,,,,,,,,,,,,,,,,,"MET09103/26/20 11:53:02 METAR KFRG 261653Z      KT 10SM CLR 12/M01 A3002 RMK AO2 SLP165 T01171011","FM-15","7",,,,,,,,,,,,,,,,,,,,,,,,,,,,"2009-05-18"
"74486454787","2020-03-26T12:53:00","FM-15","7",,,,,,,,,,,,,,,,,,,,,,,,,,,,,,,,,,,,,,"29.97","32","55","0.00",,"+0.09","8","42","29.98","CLR:00","29.88","10.00","45","200",,"6",,,,,,,,,,,,,,,,,,,,,,,,,,,,,,,,,,,,,"MET10803/26/20 12:53:02 METAR KFRG 261753Z 20005KT 10SM CLR 13/00 A2997 RMK AO2 SLP151 T01280000 10133 20044 58031","FM-15","7",,,,,,,,,,,,,,,,,,,,,,,,,,,,"2009-05-18"
"74486454787","2020-03-26T13:53:00","FM-15","7",,,,,,,,,,,,,,,,,,,,,,,,,,,,,,,,,,,,,,"29.93","35","55","0.00",,,,"47","29.93","CLR:00","29.84","10.00","46","190",,"11",,,,,,,,,,,,,,,,,,,,,,,,,,,,,,,,,,,,,"MET09703/26/20 13:53:02 METAR KFRG 261853Z 19010KT 10SM CLR 13/02 A2993 RMK AO2 PRESFR SLP135 T01280017","FM-15","7",,,,,,,,,,,,,,,,,,,,,,,,,,,,"2009-05-18"
"74486454787","2020-03-26T14:53:00","FM-15","6",,,,,,,,,,,,,,,,,,,,,,,,,,,,,,,,,,,,,,"29.91","34","58","0.00",,,,"41","29.91","CLR:00","29.82","10.00","47","210",,"13",,,,,,,,,,,,,,,,,,,,,,,,,,,,,,,,,,,,,"MET10003/26/20 14:53:02 METAR KFRG 261953Z 21011KT 10SM CLR 14/01 A2991 RMK AO2 SLP130 T01440011 TSNO FIBI","FM-15","6",,,,,,,,,,,,,,,,,,,,,,,,,,,,"2009-05-18"
"74486454787","2020-03-26T15:53:00","FM-15","6",,,,,,,,,,,,,,,,,,,,,,,,,,,,,,,,,,,,,,"29.92","36","55","0.00",,"+0.06","5","49","29.92","CLR:00","29.83","10.00","46","210",,"13",,,,,,,,,,,,,,,,,,,,,,,,,,,,,,,,,,,,,"MET10603/26/20 15:53:02 METAR KFRG 262053Z 21011KT 10SM CLR 13/02 A2992 RMK AO2 SLP131 T01280022 55020 TSNO FIBI","FM-15","6",,,,,,,,,,,,,,,,,,,,,,,,,,,,"2009-05-18"
"74486454787","2020-03-26T16:53:00","FM-15","7",,,,,,,,,,,,,,,,,,,,,,,,,,,,,,,,,,,,,,"29.92","35","50","0.00",,,,"57","29.92","CLR:00","29.83","10.00","43","230",,"15",,,,,,,,,,,,,,,,,,,,,,,,,,,,,,,,,,,,,"MET09003/26/20 16:53:02 METAR KFRG 262153Z 23013KT 10SM CLR 10/02 A2992 RMK AO2 SLP131 T01000017","FM-15","7",,,,,,,,,,,,,,,,,,,,,,,,,,,,"2009-05-18"
"74486454787","2020-03-26T17:53:00","FM-15","7",,,,,,,,,,,,,,,,,,,,,,,,,,,,,,,,,,,,,,"29.90","35","47","0.00",,,,"63","29.90","CLR:00","29.81","10.00","42","210",,"14",,,,,,,,,,,,,,,,,,,,,,,,,,,,,,,,,,,,,"MET09003/26/20 17:53:02 METAR KFRG 262253Z 21012KT 10SM CLR 08/02 A2990 RMK AO2 SLP125 T00830017","FM-15","7",,,,,,,,,,,,,,,,,,,,,,,,,,,,"2009-05-18"
"74486454787","2020-03-26T18:53:00","FM-15","7",,,,,,,,,,,,,,,,,,,,,,,,,,,,,,,,,,,,,,"29.88","37","46","0.00",,"+0.04","8","71","29.88","CLR:00","29.79","10.00","42","200",,"10",,,,,,,,,,,,,,,,,,,,,,,,,,,,,,,,,,,,,"MET10803/26/20 18:53:02 METAR KFRG 262353Z 20009KT 10SM CLR 08/03 A2988 RMK AO2 SLP117 T00780028 10144 20078 58014","FM-15","7",,,,,,,,,,,,,,,,,,,,,,,,,,,,"2009-05-18"
"74486454787","2020-03-26T19:53:00","FM-15","7",,,,,,,,,,,,,,,,,,,,,,,,,,,,,,,,,,,,,,"29.88","38","46","0.00",,,,"73","29.88","CLR:00","29.79","10.00","42","220",,"8",,,,,,,,,,,,,,,,,,,,,,,,,,,,,,,,,,,,,"MET09003/26/20 19:53:01 METAR KFRG 270053Z 22007KT 10SM CLR 08/03 A2988 RMK AO2 SLP117 T00780033","FM-15","7",,,,,,,,,,,,,,,,,,,,,,,,,,,,"2009-05-18"
"74486454787","2020-03-26T20:53:00","FM-15","7",,,,,,,,,,,,,,,,,,,,,,,,,,,,,,,,,,,,,,"29.87","40","47","0.00",,,,"77","29.87","CLR:00","29.78","10.00","44","230",,"9",,,,,,,,,,,,,,,,,,,,,,,,,,,,,,,,,,,,,"MET09003/26/20 20:53:01 METAR KFRG 270153Z 23008KT 10SM CLR 08/04 A2987 RMK AO2 SLP114 T00830044","FM-15","7",,,,,,,,,,,,,,,,,,,,,,,,,,,,"2009-05-18"
"74486454787","2020-03-26T21:53:00","FM-15","7",,,,,,,,,,,,,,,,,,,,,,,,,,,,,,,,,,,,,,"29.83","40","47","0.00",,"+0.05","8","77","29.83","CLR:00","29.74","10.00","44","210",,"14",,,,,,,,,,,,,,,,,,,,,,,,,,,,,,,,,,,,,"MET09603/26/20 21:53:01 METAR KFRG 270253Z 21012KT 10SM CLR 08/04 A2983 RMK AO2 SLP102 T00830044 58016","FM-15","7",,,,,,,,,,,,,,,,,,,,,,,,,,,,"2009-05-18"
"74486454787","2020-03-26T22:53:00","FM-15","7",,,,,,,,,,,,,,,,,,,,,,,,,,,,,,,,,,,,,,"29.84","40","48","0.00",,,,"74","29.84","CLR:00","29.75","10.00","44","220",,"14",,,,,,,,,,,,,,,,,,,,,,,,,,,,,,,,,,,,,"MET09003/26/20 22:53:02 METAR KFRG 270353Z 22012KT 10SM CLR 09/04 A2984 RMK AO2 SLP105 T00890044","FM-15","7",,,,,,,,,,,,,,,,,,,,,,,,,,,,"2009-05-18"
"74486454787","2020-03-26T23:53:00","FM-15","7",,,,,,,,,,,,,,,,,,,,,,,,,,,,,,,,,,,,,,"29.83","40","48","0.00",,,,"74","29.83","CLR:00","29.74","10.00","44","230",,"11",,,,,,,,,,,,,,,,,,,,,,,,,,,,,,,,,,,,,"MET10003/26/20 23:53:02 METAR KFRG 270453Z 23010KT 10SM CLR 09/04 A2983 RMK AO2 SLP100 T00890044 401440028","FM-15","7",,,,,,,,,,,,,,,,,,,,,,,,,,,,"2009-05-18"
"74486454787","2020-03-26T23:59:00","SOD  ","6",,,,,,,,,,,,,,,,"48",,,"29.90",,"9.7","0","5.2","17","58","37","220","23","0.00",,,"220","18",,,,,,,,,,,,,,,,,,,,,,,,,,,,,,,,,,,,,,,,,,,,,,,,,,,,,,,,,"SOD73024 HR PRECIPITATION (IN):0.00  24 HR MAX TEMP (F):58 24 HR MAX TEMP TIME (LST):1525 24 HR MIN TEMP (F):37 24 HR MIN TEMP TIME (LST):0620 AVERAGE STATION PRESSURE:29.895 MINIMUM SEA LEVEL PRESSURE:29.82 TIME OF OCCURRENCE:2359 PEAK WIND SPEED (MPH):23  PEAK WIND DIR (DEG):220 PEAK WIND TIME (LST):2224  FASTEST 2MIN SPEED (MPH):18 FASTEST 2MIN DIR (DEG):220 FASTEST 2MIN TIME (LST):2224 AVERAGE WIND SPEED (MPH):9.7  24 HR AVG TEMP (F):48 HEATING DEGREE DAYS:17  COOLING DEGREE DAYS:0   LATEST DAY MAX TEMP (0700-1900 LST):58  LATEST NIGHT MIN TEMP(1900-0800 LST):37 HOURLY INCREMENTAL PRECIPITATION VALUES (IN):.00 0.00 0.00 0.00 0.00 0.00 0.00 0.00 0.00 0.00 0.00 0.00 0.00 0.00 0.00 0.00 0.00 0.00 0.00 0.00 0.00 0.00 0.00 0.00","SOD  ","6",,,,,,,,,,,,,,,,,,,,,,,,,"0546","1813",,"2009-05-18"
"74486454787","2020-03-27T00:53:00","FM-15","6",,,,,,,,,,,,,,,,,,,,,,,,,,,,,,,,,,,,,,"29.81","40","48","0.00",,"+0.02","8","74","29.80","FEW:02 120","29.72","10.00","44","230",,"9",,,,,,,,,,,,,,,,,,,,,,,,,,,,,,,,,,,,,"MET12103/27/20 00:53:02 METAR KFRG 270553Z 23008KT 10SM FEW120 09/04 A2981 RMK AO2 SLP093 T00890044 10089 20078 58008 TSNO FIBI","FM-15","6",,,,,,,,,,,,,,,,,,,,,,,,,,,,"2009-05-18"
"74486454787","2020-03-27T01:53:00","FM-15","7",,,,,,,,,,,,,,,,,,,,,,,,,,,,,,,,,,,,,,"29.80","41","48","0.00",,,,"77","29.80","FEW:02 70 OVC:08 90","29.71","10.00","45","220",,"8",,,,,,,,,,,,,,,,,,,,,,,,,,,,,,,,,,,,,"MET10003/27/20 01:53:02 METAR KFRG 270653Z 22007KT 10SM FEW070 OVC090 09/05 A2980 RMK AO2 SLP090 T00890050","FM-15","7",,,,,,,,,,,,,,,,,,,,,,,,,,,,"2009-05-18"
"74486454787","2020-03-27T02:53:00","FM-15","7",,,,,,,,,,,,,,,,,,,,,,,,,,,,,,,,,,,,,,"29.78","41","48","0.00",,,,"77","29.78","BKN:07 80 OVC:08 100","29.69","10.00","45","210",,"6",,,,,,,,,,,,,,,,,,,,,,,,,,,,,,,,,,,,,"MET10003/27/20 02:53:02 METAR KFRG 270753Z 21005KT 10SM BKN080 OVC100 09/05 A2978 RMK AO2 SLP083 T00890050","FM-15","7",,,,,,,,,,,,,,,,,,,,,,,,,,,,"2009-05-18"
"74486454787","2020-03-27T03:53:00","FM-15","7",,,,,,,,,,,,,,,,,,,,,,,,,,,,,,,,,,,,,,"29.77","42","48","0.00",,"+0.03","6","80","29.77","OVC:08 80","29.68","10.00","45","200",,"6",,,,,,,,,,,,,,,,,,,,,,,,,,,,,,,,,,,,,"MET09903/27/20 03:53:02 METAR KFRG 270853Z 20005KT 10SM OVC080 09/06 A2977 RMK AO2 SLP082 T00890056 56011","FM-15","7",,,,,,,,,,,,,,,,,,,,,,,,,,,,"2009-05-18"
"74486454787","2020-03-27T04:53:00","FM-15","7",,,,,,,,,,,,,,,,,,,,,,,,,,,,,,,,,,,,,,"29.77","43","48","0.00",,,,"83","29.77","OVC:08 85","29.68","10.00","46","220",,"6",,,,,,,,,,,,,,,,,,,,,,,,,,,,,,,,,,,,,"MET09303/27/20 04:53:02 METAR KFRG 270953Z 22005KT 10SM OVC085 09/06 A2977 RMK AO2 SLP082 T00890061","FM-15","7",,,,,,,,,,,,,,,,,,,,,,,,,,,,"2009-05-18"
"74486454787","2020-03-27T05:53:00","FM-15","7",,,,,,,,,,,,,,,,,,,,,,,,,,,,,,,,,,,,,,"29.79","43","49","0.00",,,,"80","29.78","OVC:08 80","29.70","10.00","46","230",,"7",,,,,,,,,,,,,,,,,,,,,,,,,,,,,,,,,,,,,"MET09303/27/20 05:53:02 METAR KFRG 271053Z 23006KT 10SM OVC080 09/06 A2979 RMK AO2 SLP086 T00940061","FM-15","7",,,,,,,,,,,,,,,,,,,,,,,,,,,,"2009-05-18"
"74486454787","2020-03-27T06:53:00","FM-15","7",,,,,,,,,,,,,,,,,,,,,,,,,,,,,,,,,,,,,,"29.78","44","50","0.00",,"-0.01","0","80","29.78","OVC:08 70","29.69","10.00","47","250",,"3",,,,,,,,,,,,,,,,,,,,,,,,,,,,,,,,,,,,,"MET11103/27/20 06:53:02 METAR KFRG 271153Z 25003KT 10SM OVC070 10/07 A2978 RMK AO2 SLP085 T01000067 10100 20089 50003","FM-15","7",,,,,,,,,,,,,,,,,,,,,,,,,,,,"2009-05-18"
"74486454787","2020-03-27T07:53:00","FM-15","7",,,,,,,,,,,,,,,,,,,,,,,,,,,,,,,,,,,,,,"29.80","44","51","0.00",,,,"77","29.80","OVC:08 75","29.71","10.00","48","280",,"6",,,,,,,,,,,,,,,,,,,,,,,,,,,,,,,,,,,,,"MET09303/27/20 07:53:02 METAR KFRG 271253Z 28005KT 10SM OVC075 11/07 A2980 RMK AO2 SLP093 T01060067","FM-15","7",,,,,,,,,,,,,,,,,,,,,,,,,,,,"2009-05-18"
"74486454787","2020-03-27T08:53:00","FM-15","7",,,,,,,,,,,,,,,,,,,,,,,,,,,,,,,,,,,,,,"29.81","46","56","0.00",,,,"70","29.81","FEW:02 100 SCT:04 120","29.72","10.00","51","270",,"3",,,,,,,,,,,,,,,,,,,,,,,,,,,,,,,,,,,,,"MET10003/27/20 08:53:02 METAR KFRG 271353Z 27003KT 10SM FEW100 SCT120 13/08 A2981 RMK AO2 SLP094 T01330078","FM-15","7",,,,,,,,,,,,,,,,,,,,,,,,,,,,"2009-05-18"
"74486454787","2020-03-27T09:53:00","FM-15","7",,,,,,,,,,,,,,,,,,,,,,,,,,,,,,,,,,,,,,"29.81","43","61","0.00",,"-0.03","1","52","29.81","CLR:00","29.72","10.00","52","340",,"11",,,,,,,,,,,,,,,,,,,,,,,,,,,,,,,,,,,,,"MET09603/27/20 09:53:02 METAR KFRG 271453Z 34010KT 10SM CLR 16/06 A2981 RMK AO2 SLP096 T01610061 51011","FM-15","7",,,,,,,,,,,,,,,,,,,,,,,,,,,,"2009-05-18"
"74486454787","2020-03-27T10:53:00","FM-15","7",,,,,,,,,,,,,,,,,,,,,,,,,,,,,,,,,,,,,,"29.83","37","63","0.00",,,,"38","29.83","FEW:02 80 SCT:04 100","29.74","10.00","50","340",,"15",,,,,,,,,,,,,,,,,,,,,,,,,,,,,,,,,,,,,"MET10003/27/20 10:53:02 METAR KFRG 271553Z 34013KT 10SM FEW080 SCT100 17/03 A2983 RMK AO2 SLP101 T01720028","FM-15","7",,,,,,,,,,,,,,,,,,,,,,,,,,,,"2009-05-18"
"74486454787","2020-03-27T11:53:00","FM-15","7",,,,,,,,,,,,,,,,,,,,,,,,,,,,,,,,,,,,,,"29.83","32","64","0.00",,,,"30","29.83","FEW:02 95","29.74","10.00","49","340","20","11",,,,,,,,,,,,,,,,,,,,,,,,,,,,,,,,,,,,,"MET09603/27/20 11:53:02 METAR KFRG 271653Z 34010G17KT 10SM FEW095 18/00 A2983 RMK AO2 SLP102 T01780000","FM-15","7",,,,,,,,,,,,,,,,,,,,,,,,,,,,"2009-05-18"
"74486454787","2020-03-27T12:53:00","FM-15","7",,,,,,,,,,,,,,,,,,,,,,,,,,,,,,,,,,,,,,"29.84","28","65","0.00",,"-0.03","1","25","29.84","CLR:00","29.75","10.00","48","010",,"14",,,,,,,,,,,,,,,,,,,,,,,,,,,,,,,,,,,,,"MET10903/27/20 12:53:02 METAR KFRG 271753Z 01012KT 10SM CLR 18/M02 A2984 RMK AO2 SLP105 T01831022 10183 20100 51010","FM-15","7",,,,,,,,,,,,,,,,,,,,,,,,,,,,"2009-05-18"
"74486454787","2020-03-27T13:53:00","FM-15","7",,,,,,,,,,,,,,,,,,,,,,,,,,,,,,,,,,,,,,"29.84","25","65","0.00",,,,"22","29.84","CLR:00","29.75","10.00","47","360","28","16",,,,,,,,,,,,,,,,,,,,,,,,,,,,,,,,,,,,,"MET09403/27/20 13:53:02 METAR KFRG 271853Z 36014G24KT 10SM CLR 18/M04 A2984 RMK AO2 SLP105 T01831039","FM-15","7",,,,,,,,,,,,,,,,,,,,,,,,,,,,"2009-05-18"
"74486454787","2020-03-27T14:53:00","FM-15","7",,,,,,,,,,,,,,,,,,,,,,,,,,,,,,,,,,,,,,"29.86","23","66","0.00",,,,"19","29.85","CLR:00","29.77","10.00","47","360",,"9",,,,,,,,,,,,,,,,,,,,,,,,,,,,,,,,,,,,,"MET09103/27/20 14:53:02 METAR KFRG 271953Z 36008KT 10SM CLR 19/M05 A2986 RMK AO2 SLP110 T01891050","FM-15","7",,,,,,,,,,,,,,,,,,,,,,,,,,,,"2009-05-18"
"74486454787","2020-03-27T15:53:00","FM-15","7",,,,,,,,,,,,,,,,,,,,,,,,,,,,,,,,,,,,,,"29.86","25","67","0.00",,"-0.02","3","20","29.86","CLR:00","29.77","10.00","48","020",,"9",,,,,,,,,,,,,,,,,,,,,,,,,,,,,,,,,,,,,"MET09703/27/20 15:53:02 METAR KFRG 272053Z 02008KT 10SM CLR 19/M04 A2986 RMK AO2 SLP112 T01941039 53006","FM-15","7",,,,,,,,,,,,,,,,,,,,,,,,,,,,"2009-05-18"
"74486454787","2020-03-27T16:53:00","FM-15","7",,,,,,,,,,,,,,,,,,,,,,,,,,,,,,,,,,,,,,"29.88","23","65","0.00",,,,"20","29.88","CLR:00","29.79","10.00","47","020",,"10",,,,,,,,,,,,,,,,,,,,,,,,,,,,,,,,,,,,,"MET09103/27/20 16:53:02 METAR KFRG 272153Z 02009KT 10SM CLR 18/M05 A2988 RMK AO2 SLP119 T01831050","FM-15","7",,,,,,,,,,,,,,,,,,,,,,,,,,,,"2009-05-18"
"74486454787","2020-03-27T17:53:00","FM-15","7",,,,,,,,,,,,,,,,,,,,,,,,,,,,,,,,,,,,,,"29.92","24","62","0.00",,,,"23","29.92","CLR:00","29.83","10.00","46","030",,"8",,,,,,,,,,,,,,,,,,,,,,,,,,,,,,,,,,,,,"MET09103/27/20 17:53:02 METAR KFRG 272253Z 03007KT 10SM CLR 17/M04 A2992 RMK AO2 SLP133 T01671044","FM-15","7",,,,,,,,,,,,,,,,,,,,,,,,,,,,"2009-05-18"
"74486454787","2020-03-27T18:53:00","FM-15","7",,,,,,,,,,,,,,,,,,,,,,,,,,,,,,,,,,,,,,"29.95","31","56","0.00",,"-0.09","3","39","29.95","CLR:00","29.86","10.00","45","000",,"0",,,,,,,,,,,,,,,,,,,,,,,,,,,,,,,,,,,,,"MET10903/27/20 18:53:02 METAR KFRG 272353Z 00000KT 10SM CLR 13/M01 A2995 RMK AO2 SLP143 T01331006 10194 20128 53030","FM-15","7",,,,,,,,,,,,,,,,,,,,,,,,,,,,"2009-05-18"
"74486454787","2020-03-27T19:53:00","FM-15","7",,,,,,,,,,,,,,,,,,,,,,,,,,,,,,,,,,,,,,"30.00","32","56","0.00",,,,"40","30.00","CLR:00","29.91","10.00","45","000",,"0",,,,,,,,,,,,,,,,,,,,,,,,,,,,,,,,,,,,,"MET09003/27/20 19:53:01 METAR KFRG 280053Z 00000KT 10SM CLR 13/00 A3000 RMK AO2 SLP158 T01330000","FM-15","7",,,,,,,,,,,,,,,,,,,,,,,,,,,,"2009-05-18"
"74486454787","2020-03-27T20:53:00","FM-15","7",,,,,,,,,,,,,,,,,,,,,,,,,,,,,,,,,,,,,,"30.03","33","51","0.00",,,,"50","30.03","CLR:00","29.94","10.00","43","020",,"3",,,,,,,,,,,,,,,,,,,,,,,,,,,,,,,,,,,,,"MET09003/27/20 20:53:01 METAR KFRG 280153Z 02003KT 10SM CLR 11/01 A3003 RMK AO2 SLP169 T01060006","FM-15","7",,,,,,,,,,,,,,,,,,,,,,,,,,,,"2009-05-18"
"74486454787","2020-03-27T21:53:00","FM-15","7",,,,,,,,,,,,,,,,,,,,,,,,,,,,,,,,,,,,,,"30.05","33","50","0.00",,"-0.09","1","52","30.05","CLR:00","29.96","10.00","43","010",,"3",,,,,,,,,,,,,,,,,,,,,,,,,,,,,,,,,,,,,"MET09603/27/20 21:53:01 METAR KFRG 280253Z 01003KT 10SM CLR 10/01 A3005 RMK AO2 SLP175 T01000006 51031","FM-15","7",,,,,,,,,,,,,,,,,,,,,,,,,,,,"2009-05-18"
"74486454787","2020-03-27T22:53:00","FM-15","7",,,,,,,,,,,,,,,,,,,,,,,,,,,,,,,,,,,,,,"30.06","31","48","0.00",,,,"52","30.06","CLR:00","29.97","10.00","41","350",,"3",,,,,,,,,,,,,,,,,,,,,,,,,,,,,,,,,,,,,"MET09103/27/20 22:53:02 METAR KFRG 280353Z 35003KT 10SM CLR 09/M01 A3006 RMK AO2 SLP181 T00891006","FM-15","7",,,,,,,,,,,,,,,,,,,,,,,,,,,,"2009-05-18"
"74486454787","2020-03-27T23:53:00","FM-15","7",,,,,,,,,,,,,,,,,,,,,,,,,,,,,,,,,,,,,,"30.08","31","46","0.00",,,,"56","30.08","CLR:00","29.99","10.00","40","040",,"6",,,,,,,,,,,,,,,,,,,,,,,,,,,,,,,,,,,,,"MET10103/27/20 23:53:02 METAR KFRG 280453Z 04005KT 10SM CLR 08/M01 A3008 RMK AO2 SLP186 T00781006 401940078","FM-15","7",,,,,,,,,,,,,,,,,,,,,,,,,,,,"2009-05-18"
"74486454787","2020-03-27T23:59:00","SOD  ","6",,,,,,,,,,,,,,,,"57",,,"29.75",,"7.3","0","13.9","8","67","46","360s","27s","0.00",,,"360","20",,,,,,,,,,,,,,,,,,,,,,,,,,,,,,,,,,,,,,,,,,,,,,,,,,,,,,,,,"SOD73024 HR PRECIPITATION (IN):0.00  24 HR MAX TEMP (F):67 24 HR MAX TEMP TIME (LST):1556 24 HR MIN TEMP (F):46 24 HR MIN TEMP TIME (LST):2359 AVERAGE STATION PRESSURE:29.755 MINIMUM SEA LEVEL PRESSURE:29.77 TIME OF OCCURRENCE:0458 PEAK WIND SPEED (MPH):27  PEAK WIND DIR (DEG):360 PEAK WIND TIME (LST):1351  FASTEST 2MIN SPEED (MPH):20 FASTEST 2MIN DIR (DEG):360 FASTEST 2MIN TIME (LST):1351 AVERAGE WIND SPEED (MPH):7.3  24 HR AVG TEMP (F):57 HEATING DEGREE DAYS:8   COOLING DEGREE DAYS:0   LATEST DAY MAX TEMP (0700-1900 LST):67  LATEST NIGHT MIN TEMP(1900-0800 LST):46 HOURLY INCREMENTAL PRECIPITATION VALUES (IN):.00 0.00 0.00 0.00 0.00 0.00 0.00 0.00 0.00 0.00 0.00 0.00 0.00 0.00 0.00 0.00 0.00 0.00 0.00 0.00 0.00 0.00 0.00 0.00","SOD  ","6",,,,,,,,,,,,,,,,,,,,,,,,,"0544","1814",,"2009-05-18"
"74486454787","2020-03-28T00:53:00","FM-15","7",,,,,,,,,,,,,,,,,,,,,,,,,,,,,,,,,,,,,,"30.09","27","48","0.00",,"-0.04","1","44","30.09","CLR:00","30.00","10.00","39","360",,"5",,,,,,,,,,,,,,,,,,,,,,,,,,,,,,,,,,,,,"MET10903/28/20 00:53:02 METAR KFRG 280553Z 36004KT 10SM CLR 09/M03 A3009 RMK AO2 SLP188 T00891028 10139 20078 51014","FM-15","7",,,,,,,,,,,,,,,,,,,,,,,,,,,,"2009-05-18"
"74486454787","2020-03-28T01:53:00","FM-15","7",,,,,,,,,,,,,,,,,,,,,,,,,,,,,,,,,,,,,,"30.10","26","49","0.00",,,,"41","30.09","CLR:00","30.01","10.00","40","030",,"5",,,,,,,,,,,,,,,,,,,,,,,,,,,,,,,,,,,,,"MET09103/28/20 01:53:02 METAR KFRG 280653Z 03004KT 10SM CLR 09/M03 A3010 RMK AO2 SLP191 T00941033","FM-15","7",,,,,,,,,,,,,,,,,,,,,,,,,,,,"2009-05-18"
"74486454787","2020-03-28T02:53:00","FM-15","7",,,,,,,,,,,,,,,,,,,,,,,,,,,,,,,,,,,,,,"30.08","25","48","0.00",,,,"41","30.07","CLR:00","29.99","10.00","39","030",,"5",,,,,,,,,,,,,,,,,,,,,,,,,,,,,,,,,,,,,"MET09103/28/20 02:53:02 METAR KFRG 280753Z 03004KT 10SM CLR 09/M04 A3008 RMK AO2 SLP184 T00891039","FM-15","7",,,,,,,,,,,,,,,,,,,,,,,,,,,,"2009-05-18"
"74486454787","2020-03-28T03:53:00","FM-15","7",,,,,,,,,,,,,,,,,,,,,,,,,,,,,,,,,,,,,,"30.08","28","48","0.00",,"+0.01","8","46","30.08","CLR:00","29.99","10.00","40","050",,"7",,,,,,,,,,,,,,,,,,,,,,,,,,,,,,,,,,,,,"MET09703/28/20 03:53:02 METAR KFRG 280853Z 05006KT 10SM CLR 09/M02 A3008 RMK AO2 SLP185 T00891022 58003","FM-15","7",,,,,,,,,,,,,,,,,,,,,,,,,,,,"2009-05-18"
"74486454787","2020-03-28T04:53:00","FM-15","7",,,,,,,,,,,,,,,,,,,,,,,,,,,,,,,,,,,,,,"30.10","28","48","0.00",,,,"46","30.10","CLR:00","30.01","10.00","40","070",,"8",,,,,,,,,,,,,,,,,,,,,,,,,,,,,,,,,,,,,"MET09103/28/20 04:53:02 METAR KFRG 280953Z 07007KT 10SM CLR 09/M02 A3010 RMK AO2 SLP192 T00891022","FM-15","7",,,,,,,,,,,,,,,,,,,,,,,,,,,,"2009-05-18"
"74486454787","2020-03-28T05:53:00","FM-15","7",,,,,,,,,,,,,,,,,,,,,,,,,,,,,,,,,,,,,,"30.11","28","49","0.00",,,,"44","30.11","CLR:00","30.02","10.00","40","090",,"10",,,,,,,,,,,,,,,,,,,,,,,,,,,,,,,,,,,,,"MET09103/28/20 05:53:02 METAR KFRG 281053Z 09009KT 10SM CLR 09/M02 A3011 RMK AO2 SLP195 T00941022","FM-15","7",,,,,,,,,,,,,,,,,,,,,,,,,,,,"2009-05-18"
"74486454787","2020-03-28T06:53:00","FM-15","7",,,,,,,,,,,,,,,,,,,,,,,,,,,,,,,,,,,,,,"30.11","27","51","0.00",,"-0.03","1","39","30.11","CLR:00","30.02","10.00","41","100",,"10",,,,,,,,,,,,,,,,,,,,,,,,,,,,,,,,,,,,,"MET10903/28/20 06:53:02 METAR KFRG 281153Z 10009KT 10SM CLR 11/M03 A3011 RMK AO2 SLP196 T01061028 10106 20078 51009","FM-15","7",,,,,,,,,,,,,,,,,,,,,,,,,,,,"2009-05-18"
"74486454787","2020-03-28T07:53:00","FM-15","7",,,,,,,,,,,,,,,,,,,,,,,,,,,,,,,,,,,,,,"30.13","27","52","0.00",,,,"38","30.13","CLR:00","30.04","10.00","42","110","21","11",,,,,,,,,,,,,,,,,,,,,,,,,,,,,,,,,,,,,"MET09403/28/20 07:53:02 METAR KFRG 281253Z 11010G18KT 10SM CLR 11/M03 A3013 RMK AO2 SLP202 T01111028","FM-15","7",,,,,,,,,,,,,,,,,,,,,,,,,,,,"2009-05-18"
"74486454787","2020-03-28T08:53:00","FM-15","7",,,,,,,,,,,,,,,,,,,,,,,,,,,,,,,,,,,,,,"30.15","28","52","0.00",,,,"40","30.15","FEW:02 50 OVC:08 100","30.06","10.00","42","110",,"13",,,,,,,,,,,,,,,,,,,,,,,,,,,,,,,,,,,,,"MET10103/28/20 08:53:02 METAR KFRG 281353Z 11011KT 10SM FEW050 OVC100 11/M02 A3015 RMK AO2 SLP210 T01111022","FM-15","7",,,,,,,,,,,,,,,,,,,,,,,,,,,,"2009-05-18"
"74486454787","2020-03-28T09:53:00","FM-15","7",,,,,,,,,,,,,,,,,,,,,,,,,,,,,,,,,,,,,,"30.14","34","50","T","-RA:02 |RA |RA","-0.03","0","54","30.14","SCT:04 60 OVC:08 80","30.05","10.00","43","120",,"11",,,,,,,,,,,,,,,,,,,,,,,,,,,,,,,,,,,,,"MET12803/28/20 09:53:02 METAR KFRG 281453Z 12010KT 10SM -RA SCT060 OVC080 10/01 A3014 RMK AO2 RAB44 SLP207 P0000 60000 T01000011 50011","FM-15","7",,,,,,,,,,,,,,,,,,,,,,,,,,,,"2009-05-18"
"74486454787","2020-03-28T10:53:00","FM-15","7",,,,,,,,,,,,,,,,,,,,,,,,,,,,,,,,,,,,,,"30.16","37","50","T","-RA:02 |RA |RA",,,"61","30.16","OVC:08 75","30.07","10.00","44","110",,"8",,,,,,,,,,,,,,,,,,,,,,,,,,,,,,,,,,,,,"MET10303/28/20 10:53:02 METAR KFRG 281553Z 11007KT 10SM -RA OVC075 10/03 A3016 RMK AO2 SLP212 P0000 T01000028","FM-15","7",,,,,,,,,,,,,,,,,,,,,,,,,,,,"2009-05-18"
"74486454787","2020-03-28T11:53:00","FM-15","7",,,,,,,,,,,,,,,,,,,,,,,,,,,,,,,,,,,,,,"30.12","40","49","0.02",,,,"71","30.12","BKN:07 80 OVC:08 95","30.03","10.00","45","110",,"11",,,,,,,,,,,,,,,,,,,,,,,,,,,,,,,,,,,,,"MET11203/28/20 11:53:02 METAR KFRG 281653Z 11010KT 10SM BKN080 OVC095 09/04 A3012 RMK AO2 RAE50 SLP201 P0002 T00940044","FM-15","7",,,,,,,,,,,,,,,,,,,,,,,,,,,,"2009-05-18"
"74486454787","2020-03-28T12:53:00","FM-15","7",,,,,,,,,,,,,,,,,,,,,,,,,,,,,,,,,,,,,,"30.11","42","49","T",,"+0.03","8","77","30.11","FEW:02 60 BKN:07 80 OVC:08 95","30.02","10.00","46","080",,"7",,,,,,,,,,,,,,,,,,,,,,,,,,,,,,,,,,,,,"MET14603/28/20 12:53:02 METAR KFRG 281753Z 08006KT 10SM FEW060 BKN080 OVC095 09/06 A3011 RMK AO2 RAB07E50 SLP197 P0000 60002 T00940056 10111 20094 58010","FM-15","7",,,,,,,,,,,,,,,,,,,,,,,,,,,,"2009-05-18"
"74486454787","2020-03-28T13:53:00","FM-15","7",,,,,,,,,,,,,,,,,,,,,,,,,,,,,,,,,,,,,,"30.10","42","49","0.01","-RA:02 |RA |RA",,,"77","30.10","BKN:07 70 OVC:08 90","30.01","10.00","46","050",,"7",,,,,,,,,,,,,,,,,,,,,,,,,,,,,,,,,,,,,"MET11603/28/20 13:53:02 METAR KFRG 281853Z 05006KT 10SM -RA BKN070 OVC090 09/06 A3010 RMK AO2 RAB03 SLP194 P0001 T00940056","FM-15","7",,,,,,,,,,,,,,,,,,,,,,,,,,,,"2009-05-18"
"74486454787","2020-03-28T14:53:00","FM-15","7",,,,,,,,,,,,,,,,,,,,,,,,,,,,,,,,,,,,,,"30.06","44","49","0.08","-RA:02 |RA |RA",,,"83","30.06","FEW:02 50 OVC:08 60","29.97","10.00","47","090",,"10",,,,,,,,,,,,,,,,,,,,,,,,,,,,,,,,,,,,,"MET11703/28/20 14:53:02 METAR KFRG 281953Z 09009KT 10SM -RA FEW050 OVC060 09/07 A3006 RMK AO2 PRESFR SLP179 P0008 T00940067","FM-15","7",,,,,,,,,,,,,,,,,,,,,,,,,,,,"2009-05-18"
"74486454787","2020-03-28T15:53:00","FM-15","7",,,,,,,,,,,,,,,,,,,,,,,,,,,,,,,,,,,,,,"30.04","44","49","0.00",,"+0.07","8","83","30.04","OVC:08 48","29.95","10.00","47","070",,"7",,,,,,,,,,,,,,,,,,,,,,,,,,,,,,,,,,,,,"MET11903/28/20 15:53:02 METAR KFRG 282053Z 07006KT 10SM OVC048 09/07 A3004 RMK AO2 RAE1955 SLP174 P0000 60009 T00940067 58023","FM-15","7",,,,,,,,,,,,,,,,,,,,,,,,,,,,"2009-05-18"
"74486454787","2020-03-28T16:53:00","FM-15","7",,,,,,,,,,,,,,,,,,,,,,,,,,,,,,,,,,,,,,"30.06","43","50","T",,,,"77","30.06","OVC:08 35","29.97","10.00","47","110",,"9",,,,,,,,,,,,,,,,,,,,,,,,,,,,,,,,,,,,,"MET10803/28/20 16:53:02 METAR KFRG 282153Z 11008KT 10SM OVC035 10/06 A3006 RMK AO2 RAB30E39 SLP181 P0000 T01000061","FM-15","7",,,,,,,,,,,,,,,,,,,,,,,,,,,,"2009-05-18"
"74486454787","2020-03-28T17:32:00","FM-16","7",,,,,,,,,,,,,,,,,,,,,,,,,,,,,,,,,,,,,,"30.07","44","50",,,,,"80",,"OVC:08 28","29.98","10.00","47","090",,"9",,,,,,,,,,,,,,,,,,,,,,,,,,,,,,,,,,,,,"MET08603/28/20 17:32:02 SPECI KFRG 282232Z 09008KT 10SM OVC028 10/07 A3007 RMK AO2 T01000067","FM-16","7",,,,,,,,,,,,,,,,,,,,,,,,,,,,"2009-05-18"
"74486454787","2020-03-28T17:51:00","FM-16","6",,,,,,,,,,,,,,,,,,,,,,,,,,,,,,,,,,,,,,"30.06","45","48",,"-RA:02 |RA |RA",,,"87",,"FEW:02 9 BKN:07 17 OVC:08 26","29.97","3.00","47","100",,"13",,,,,,,,,,,,,,,,,,,,,,,,,,,,,,,,,,,,,"MET11003/28/20 17:51:02 SPECI KFRG 282251Z 10011KT 3SM -RA FEW009 BKN017 OVC026 09/07 A3006 RMK AO2 RAB34 P0000 FIBI","FM-16","6",,,,,,,,,,,,,,,,,,,,,,,,,,,,"2009-05-18"
"74486454787","2020-03-28T17:53:00","FM-15","7",,,,,,,,,,,,,,,,,,,,,,,,,,,,,,,,,,,,,,"30.06","44","49","T","-RA:02 |RA |RA",,,"83","30.06","FEW:02 9 BKN:07 15 OVC:08 28","29.97","3.00","47","110",,"16",,,,,,,,,,,,,,,,,,,,,,,,,,,,,,,,,,,,,"MET12203/28/20 17:53:02 METAR KFRG 282253Z 11014KT 3SM -RA FEW009 BKN015 OVC028 09/07 A3006 RMK AO2 RAB34 SLP179 P0000 T00940067","FM-15","7",,,,,,,,,,,,,,,,,,,,,,,,,,,,"2009-05-18"
"74486454787","2020-03-28T18:53:00","FM-15","7",,,,,,,,,,,,,,,,,,,,,,,,,,,,,,,,,,,,,,"30.05","44","48","0.14","-RA:02 |RA |RA","-0.01","0","86","30.05","SCT:04 8 BKN:07 18 OVC:08 29","29.96","8.00","46","080","20","13",,,,,,,,,,,,,,,,,,,,,,,,,,,,,,,,,,,,,"MET14303/28/20 18:53:02 METAR KFRG 282353Z 08011G17KT 8SM -RA SCT008 BKN018 OVC029 09/07 A3005 RMK AO2 SLP177 P0014 60023 T00890067 10100 20089 50003","FM-15","7",,,,,,,,,,,,,,,,,,,,,,,,,,,,"2009-05-18"
"74486454787","2020-03-28T19:37:00","FM-16","7",,,,,,,,,,,,,,,,,,,,,,,,,,,,,,,,,,,,,,"30.06","44","48","T",,,,"86",,"BKN:07 10 OVC:08 15","29.97","7.00","46","090",,"11",,,,,,,,,,,,,,,,,,,,,,,,,,,,,,,,,,,,,"MET11603/28/20 19:37:01 SPECI KFRG 290037Z 09010KT 7SM BKN010 OVC015 09/07 A3006 RMK AO2 RAE03 CIG 007V012 P0000 T00890067","FM-16","7",,,,,,,,,,,,,,,,,,,,,,,,,,,,"2009-05-18"
"74486454787","2020-03-28T19:46:00","FM-16","7",,,,,,,,,,,,,,,,,,,,,,,,,,,,,,,,,,,,,,"30.05","45","49","T","-RA:02 BR:1 |RA |RA",,,"86",,"OVC:08 8","29.96","4.00","47","090","20","15",,,,,,,,,,,,,,,,,,,,,,,,,,,,,,,,,,,,,"MET12203/28/20 19:46:01 SPECI KFRG 290046Z 09013G17KT 4SM -RA BR OVC008 09/07 A3005 RMK AO2 RAE03B40 CIG 006V012 P0000 T00940072","FM-16","7",,,,,,,,,,,,,,,,,,,,,,,,,,,,"2009-05-18"
"74486454787","2020-03-28T19:53:00","FM-15","7",,,,,,,,,,,,,,,,,,,,,,,,,,,,,,,,,,,,,,"30.04","45","49","0.02","RA:02 BR:1 |RA |RA",,,"86","30.04","BKN:07 6 OVC:08 10","29.95","3.00","47","090","24","18",,,,,,,,,,,,,,,,,,,,,,,,,,,,,,,,,,,,,"MET13003/28/20 19:53:01 METAR KFRG 290053Z 09016G21KT 3SM RA BR BKN006 OVC010 09/07 A3004 RMK AO2 RAE03B40 PRESFR SLP173 P0001 T00940072","FM-15","7",,,,,,,,,,,,,,,,,,,,,,,,,,,,"2009-05-18"
"74486454787","2020-03-28T20:53:00","FM-15","7",,,,,,,,,,,,,,,,,,,,,,,,,,,,,,,,,,,,,,"30.05","47","50","0.03","-RA:02 BR:1 |RA |RA",,,"89","30.05","OVC:08 7","29.96","5.00","48","090",,"11",,,,,,,,,,,,,,,,,,,,,,,,,,,,,,,,,,,,,"MET11703/28/20 20:53:01 METAR KFRG 290153Z 09010KT 5SM -RA BR OVC007 10/08 A3005 RMK AO2 CIG 005V011 SLP177 P0004 T01000083","FM-15","7",,,,,,,,,,,,,,,,,,,,,,,,,,,,"2009-05-18"
"74486454787","2020-03-28T21:53:00","FM-15","7",,,,,,,,,,,,,,,,,,,,,,,,,,,,,,,,,,,,,,"30.03","47","50","T","-RA:02 |RA |RA","+0.02","8","89","30.03","OVC:08 7","29.94","7.00","48","080",,"10",,,,,,,,,,,,,,,,,,,,,,,,,,,,,,,,,,,,,"MET12303/28/20 21:53:01 METAR KFRG 290253Z 08009KT 7SM -RA OVC007 10/08 A3003 RMK AO2 RAE06B33 SLP169 P0000 60005 T01000083 58008","FM-15","7",,,,,,,,,,,,,,,,,,,,,,,,,,,,"2009-05-18"
"74486454787","2020-03-28T22:53:00","FM-15","7",,,,,,,,,,,,,,,,,,,,,,,,,,,,,,,,,,,,,,"30.00","45","50","T",,,,"83","30.00","OVC:08 7","29.91","8.00","48","090","26","13",,,,,,,,,,,,,,,,,,,,,,,,,,,,,,,,,,,,,"MET10703/28/20 22:53:02 METAR KFRG 290353Z 09011G23KT 8SM OVC007 10/07 A3000 RMK AO2 RAE27 SLP160 P0000 T01000072","FM-15","7",,,,,,,,,,,,,,,,,,,,,,,,,,,,"2009-05-18"
"74486454787","2020-03-28T23:53:00","FM-15","7",,,,,,,,,,,,,,,,,,,,,,,,,,,,,,,,,,,,,,"30.02","45","49","T","-RA:02 BR:1 |RA |RA",,,"86","30.02","OVC:08 7","29.93","4.00","47","080","23","14",,,,,,,,,,,,,,,,,,,,,,,,,,,,,,,,,,,,,"MET12403/28/20 23:53:02 METAR KFRG 290453Z 08012G20KT 4SM -RA BR OVC007 09/07 A3002 RMK AO2 RAB38 SLP166 P0000 T00940072 401110078","FM-15","7",,,,,,,,,,,,,,,,,,,,,,,,,,,,"2009-05-18"
"74486454787","2020-03-28T23:59:00","SOD  ","6",,,,,,,,,,,,,,,,"49",,,"30.00",,"10.0","0","5.6","16","52","46","090","29","0.30",,,"090","20","RA BR",,,,,,,,,,,,,,,,,,,,,,,,,,,,,,,,,,,,,,,,,,,,,,,,,,,,,,,,"SOD72724 HR PRECIPITATION (IN):0.30  24 HR MAX TEMP (F):52 24 HR MAX TEMP TIME (LST):0913 24 HR MIN TEMP (F):46 24 HR MIN TEMP TIME (LST):0335 AVERAGE STATION PRESSURE:30.000 MINIMUM SEA LEVEL PRESSURE:30.00 TIME OF OCCURRENCE:2300 PEAK WIND SPEED (MPH):29  PEAK WIND DIR (DEG):90  PEAK WIND TIME (LST):2237  FASTEST 2MIN SPEED (MPH):20 FASTEST 2MIN DIR (DEG):90  FASTEST 2MIN TIME (LST):2344 AVERAGE WIND SPEED (MPH):10.0 24 HR AVG TEMP (F):49 HEATING DEGREE DAYS:16  COOLING DEGREE DAYS:0   LATEST DAY MAX TEMP (0700-1900 LST):52  LATEST NIGHT MIN TEMP(1900-0800 LST):46 HOURLY INCREMENTAL PRECIPITATION VALUES (IN):.00 0.00 0.00 0.00 0.00 0.00 0.00 0.00 0.00 T    T    0.02 T    0.01 0.08 0.00 T    T    0.14 0.02 0.03 T    T    T","SOD  ","6",,,,,,,,,,,,,,,,,,,,,,,,,"0543","1815",,"2009-05-18"
"74486454787","2020-03-29T00:53:00","FM-15","7",,,,,,,,,,,,,,,,,,,,,,,,,,,,,,,,,,,,,,"30.00","44","48","T","BR:1 ||","+0.03","6","86","30.00","OVC:08 6","29.91","4.00","46","070","21","13",,,,,,,,,,,,,,,,,,,,,,,,,,,,,,,,,,,,,"MET14603/29/20 00:53:02 METAR KFRG 290553Z 07011G18KT 4SM BR OVC006 09/07 A3000 RMK AO2 RAE09 CIG 005V009 SLP158 P0000 60005 T00890067 10106 20089 56011","FM-15","7",,,,,,,,,,,,,,,,,,,,,,,,,,,,"2009-05-18"
"74486454787","2020-03-29T01:53:00","FM-15","7",,,,,,,,,,,,,,,,,,,,,,,,,,,,,,,,,,,,,,"30.00","45","48","0.00","BR:1 ||",,,"89","30.00","OVC:08 6","29.91","4.00","47","080",,"11",,,,,,,,,,,,,,,,,,,,,,,,,,,,,,,,,,,,,"MET09503/29/20 01:53:02 METAR KFRG 290653Z 08010KT 4SM BR OVC006 09/07 A3000 RMK AO2 SLP160 T00890072","FM-15","7",,,,,,,,,,,,,,,,,,,,,,,,,,,,"2009-05-18"
"74486454787","2020-03-29T02:53:00","FM-15","7",,,,,,,,,,,,,,,,,,,,,,,,,,,,,,,,,,,,,,"30.00","45","48","0.00","BR:1 ||",,,"89","30.00","OVC:08 5","29.91","3.00","47","060",,"10",,,,,,,,,,,,,,,,,,,,,,,,,,,,,,,,,,,,,"MET09503/29/20 02:53:02 METAR KFRG 290753Z 06009KT 3SM BR OVC005 09/07 A3000 RMK AO2 SLP160 T00890072","FM-15","7",,,,,,,,,,,,,,,,,,,,,,,,,,,,"2009-05-18"
"74486454787","2020-03-29T03:53:00","FM-15","7",,,,,,,,,,,,,,,,,,,,,,,,,,,,,,,,,,,,,,"29.98","45","48","T","-RA:02 BR:1 |RA |RA","+0.01","8","89","29.98","OVC:08 5","29.89","4.00","47","040",,"10",,,,,,,,,,,,,,,,,,,,,,,,,,,,,,,,,,,,,"MET12303/29/20 03:53:02 METAR KFRG 290853Z 04009KT 4SM -RA BR OVC005 09/07 A2998 RMK AO2 RAB52 SLP153 P0000 60000 T00890072 58005","FM-15","7",,,,,,,,,,,,,,,,,,,,,,,,,,,,"2009-05-18"
"74486454787","2020-03-29T04:53:00","FM-15","7",,,,,,,,,,,,,,,,,,,,,,,,,,,,,,,,,,,,,,"29.97","45","48","T","BR:1 ||",,,"89","29.97","OVC:08 5","29.88","4.00","47","060",,"11",,,,,,,,,,,,,,,,,,,,,,,,,,,,,,,,,,,,,"MET10703/29/20 04:53:02 METAR KFRG 290953Z 06010KT 4SM BR OVC005 09/07 A2997 RMK AO2 RAE10 SLP149 P0000 T00890072","FM-15","7",,,,,,,,,,,,,,,,,,,,,,,,,,,,"2009-05-18"
"74486454787","2020-03-29T05:51:00","FM-16","7",,,,,,,,,,,,,,,,,,,,,,,,,,,,,,,,,,,,,,"30.00","45","48",,"BR:1 ||",,,"87",,"OVC:08 4","29.91","3.00","47","060",,"8",,,,,,,,,,,,,,,,,,,,,,,,,,,,,,,,,,,,,"MET07803/29/20 05:51:02 SPECI KFRG 291051Z 06007KT 3SM BR OVC004 09/07 A3000 RMK AO2","FM-16","7",,,,,,,,,,,,,,,,,,,,,,,,,,,,"2009-05-18"
"74486454787","2020-03-29T05:53:00","FM-15","7",,,,,,,,,,,,,,,,,,,,,,,,,,,,,,,,,,,,,,"30.00","45","48","0.00","BR:1 ||",,,"89","30.00","OVC:08 4","29.91","3.00","47","060",,"9",,,,,,,,,,,,,,,,,,,,,,,,,,,,,,,,,,,,,"MET09503/29/20 05:53:02 METAR KFRG 291053Z 06008KT 3SM BR OVC004 09/07 A3000 RMK AO2 SLP159 T00890072","FM-15","7",,,,,,,,,,,,,,,,,,,,,,,,,,,,"2009-05-18"
"74486454787","2020-03-29T06:10:00","FM-16","7",,,,,,,,,,,,,,,,,,,,,,,,,,,,,,,,,,,,,,"30.00","45","48",,"BR:1 ||",,,"89",,"OVC:08 4","29.91","2.50","47","060",,"7",,,,,,,,,,,,,,,,,,,,,,,,,,,,,,,,,,,,,"MET09203/29/20 06:10:02 SPECI KFRG 291110Z 06006KT 2 1/2SM BR OVC004 09/07 A3000 RMK AO2 T00890072","FM-16","7",,,,,,,,,,,,,,,,,,,,,,,,,,,,"2009-05-18"
"74486454787","2020-03-29T06:24:00","FM-16","7",,,,,,,,,,,,,,,,,,,,,,,,,,,,,,,,,,,,,,"30.00","45","48",,"BR:1 ||",,,"89",,"OVC:08 4","29.91","1.75","47","070",,"7",,,,,,,,,,,,,,,,,,,,,,,,,,,,,,,,,,,,,"MET09203/29/20 06:24:02 SPECI KFRG 291124Z 07006KT 1 3/4SM BR OVC004 09/07 A3000 RMK AO2 T00890072","FM-16","7",,,,,,,,,,,,,,,,,,,,,,,,,,,,"2009-05-18"
"74486454787","2020-03-29T06:53:00","FM-15","7",,,,,,,,,,,,,,,,,,,,,,,,,,,,,,,,,,,,,,"30.01","46","49","0.00","BR:1 ||","-0.04","1","90","30.01","OVC:08 4","29.92","1.75","48","090",,"9",,,,,,,,,,,,,,,,,,,,,,,,,,,,,,,,,,,,,"MET12903/29/20 06:53:02 METAR KFRG 291153Z 09008KT 1 3/4SM BR OVC004 09/08 A3001 RMK AO2 SLP164 60000 70030 T00940078 10094 20089 51015","FM-15","7",,,,,,,,,,,,,,,,,,,,,,,,,,,,"2009-05-18"
"74486454787","2020-03-29T07:53:00","FM-15","7",,,,,,,,,,,,,,,,,,,,,,,,,,,,,,,,,,,,,,"30.01","47","50","0.00","BR:1 ||",,,"89","30.01","OVC:08 4","29.92","1.75","48","080",,"10",,,,,,,,,,,,,,,,,,,,,,,,,,,,,,,,,,,,,"MET09903/29/20 07:53:02 METAR KFRG 291253Z 08009KT 1 3/4SM BR OVC004 10/08 A3001 RMK AO2 SLP162 T01000083","FM-15","7",,,,,,,,,,,,,,,,,,,,,,,,,,,,"2009-05-18"
"74486454787","2020-03-29T08:53:00","FM-15","7",,,,,,,,,,,,,,,,,,,,,,,,,,,,,,,,,,,,,,"30.00","47","50","0.00","BR:1 ||",,,"89","30.00","OVC:08 4","29.91","1.50","48","070",,"13",,,,,,,,,,,,,,,,,,,,,,,,,,,,,,,,,,,,,"MET09903/29/20 08:53:02 METAR KFRG 291353Z 07011KT 1 1/2SM BR OVC004 10/08 A3000 RMK AO2 SLP160 T01000083","FM-15","7",,,,,,,,,,,,,,,,,,,,,,,,,,,,"2009-05-18"
"74486454787","2020-03-29T09:21:00","FM-16","7",,,,,,,,,,,,,,,,,,,,,,,,,,,,,,,,,,,,,,"30.00","47","50",,"BR:1 ||",,,"89",,"OVC:08 4","29.91","2.00","48","080",,"14",,,,,,,,,,,,,,,,,,,,,,,,,,,,,,,,,,,,,"MET08803/29/20 09:21:02 SPECI KFRG 291421Z 08012KT 2SM BR OVC004 10/08 A3000 RMK AO2 T01000083","FM-16","7",,,,,,,,,,,,,,,,,,,,,,,,,,,,"2009-05-18"
"74486454787","2020-03-29T09:48:00","FM-16","7",,,,,,,,,,,,,,,,,,,,,,,,,,,,,,,,,,,,,,"30.00","46","50",,"BR:1 ||",,,"88",,"OVC:08 5","29.91","2.00","48","060",,"10",,,,,,,,,,,,,,,,,,,,,,,,,,,,,,,,,,,,,"MET07803/29/20 09:48:02 SPECI KFRG 291448Z 06009KT 2SM BR OVC005 10/08 A3000 RMK AO2","FM-16","7",,,,,,,,,,,,,,,,,,,,,,,,,,,,"2009-05-18"
"74486454787","2020-03-29T09:51:00","FM-16","6",,,,,,,,,,,,,,,,,,,,,,,,,,,,,,,,,,,,,,"29.99","46","50",,"BR:1 ||",,,"88",,"OVC:08 5","29.90","1.75","48","070",,"10",,,,,,,,,,,,,,,,,,,,,,,,,,,,,,,,,,,,,"MET08703/29/20 09:51:02 SPECI KFRG 291451Z 07009KT 1 3/4SM BR OVC005 10/08 A2999 RMK AO2 FIBI","FM-16","6",,,,,,,,,,,,,,,,,,,,,,,,,,,,"2009-05-18"
"74486454787","2020-03-29T09:53:00","FM-15","7",,,,,,,,,,,,,,,,,,,,,,,,,,,,,,,,,,,,,,"29.99","47","50","0.00","BR:1 ||","+0.02","8","89","29.99","OVC:08 5","29.90","1.75","48","070",,"10",,,,,,,,,,,,,,,,,,,,,,,,,,,,,,,,,,,,,"MET11203/29/20 09:53:02 METAR KFRG 291453Z 07009KT 1 3/4SM BR OVC005 10/08 A2999 RMK AO2 PRESFR SLP155 T01000083 58007","FM-15","7",,,,,,,,,,,,,,,,,,,,,,,,,,,,"2009-05-18"
"74486454787","2020-03-29T10:06:00","FM-16","7",,,,,,,,,,,,,,,,,,,,,,,,,,,,,,,,,,,,,,"30.01","47","50",,"BR:1 ||",,,"89",,"OVC:08 4","29.92","1.75","48","050",,"8",,,,,,,,,,,,,,,,,,,,,,,,,,,,,,,,,,,,,"MET10403/29/20 10:06:02 SPECI KFRG 291506Z 05007KT 1 3/4SM BR OVC004 10/08 A3001 RMK AO2 LTG DSNT NW T01000083","FM-16","7",,,,,,,,,,,,,,,,,,,,,,,,,,,,"2009-05-18"
"74486454787","2020-03-29T10:25:00","FM-16","7",,,,,,,,,,,,,,,,,,,,,,,,,,,,,,,,,,,,,,"30.03","47","50",,"BR:1 ||",,,"89",,"OVC:08 4","29.94","2.00","48","040",,"7",,,,,,,,,,,,,,,,,,,,,,,,,,,,,,,,,,,,,"MET10003/29/20 10:25:02 SPECI KFRG 291525Z 04006KT 2SM BR OVC004 10/08 A3003 RMK AO2 LTG DSNT NW T01000083","FM-16","7",,,,,,,,,,,,,,,,,,,,,,,,,,,,"2009-05-18"
"74486454787","2020-03-29T10:39:00","FM-16","7",,,,,,,,,,,,,,,,,,,,,,,,,,,,,,,,,,,,,,"30.03","47","50",,"BR:1 ||",,,"89",,"OVC:08 4","29.94","1.75","48","020",,"7",,,,,,,,,,,,,,,,,,,,,,,,,,,,,,,,,,,,,"MET10303/29/20 10:39:02 SPECI KFRG 291539Z 02006KT 1 3/4SM BR OVC004 10/08 A3003 RMK AO2 LTG DSNT N T01000083","FM-16","7",,,,,,,,,,,,,,,,,,,,,,,,,,,,"2009-05-18"
"74486454787","2020-03-29T10:51:00","FM-16","7",,,,,,,,,,,,,,,,,,,,,,,,,,,,,,,,,,,,,,"30.01","46","50",,"BR:1 ||",,,"88",,"OVC:08 4","29.92","2.00","48","030",,"9",,,,,,,,,,,,,,,,,,,,,,,,,,,,,,,,,,,,,"MET08903/29/20 10:51:02 SPECI KFRG 291551Z 03008KT 2SM BR OVC004 10/08 A3001 RMK AO2 LTG DSNT N","FM-16","7",,,,,,,,,,,,,,,,,,,,,,,,,,,,"2009-05-18"
"74486454787","2020-03-29T10:53:00","FM-15","7",,,,,,,,,,,,,,,,,,,,,,,,,,,,,,,,,,,,,,"30.01","47","50","0.00","BR:1 ||",,,"89","30.01","OVC:08 4","29.92","2.00","48","040",,"10",,,,,,,,,,,,,,,,,,,,,,,,,,,,,,,,,,,,,"MET11803/29/20 10:53:02 METAR KFRG 291553Z 04009KT 2SM BR OVC004 10/08 A3001 RMK AO2 LTG DSNT N CIG 003V007 SLP164 T01000083","FM-15","7",,,,,,,,,,,,,,,,,,,,,,,,,,,,"2009-05-18"
"74486454787","2020-03-29T11:06:00","FM-16","7",,,,,,,,,,,,,,,,,,,,,,,,,,,,,,,,,,,,,,"30.00","47","50",,"BR:1 ||",,,"89",,"OVC:08 5","29.91","2.00","48","070",,"8",,,,,,,,,,,,,,,,,,,,,,,,,,,,,,,,,,,,,"MET10003/29/20 11:06:02 SPECI KFRG 291606Z 07007KT 2SM BR OVC005 10/08 A3000 RMK AO2 CIG 004V008 T01000083","FM-16","7",,,,,,,,,,,,,,,,,,,,,,,,,,,,"2009-05-18"
"74486454787","2020-03-29T11:43:00","FM-16","7",,,,,,,,,,,,,,,,,,,,,,,,,,,,,,,,,,,,,,"29.96","47","50",,"BR:1 ||",,,"89",,"OVC:08 4","29.87","2.00","48","080",,"8",,,,,,,,,,,,,,,,,,,,,,,,,,,,,,,,,,,,,"MET08803/29/20 11:43:02 SPECI KFRG 291643Z 08007KT 2SM BR OVC004 10/08 A2996 RMK AO2 T01000083","FM-16","7",,,,,,,,,,,,,,,,,,,,,,,,,,,,"2009-05-18"
"74486454787","2020-03-29T11:53:00","FM-15","7",,,,,,,,,,,,,,,,,,,,,,,,,,,,,,,,,,,,,,"29.96","47","51","0.00","BR:1 ||",,,"86","29.96","OVC:08 4","29.87","2.00","49","080","17","14",,,,,,,,,,,,,,,,,,,,,,,,,,,,,,,,,,,,,"MET09803/29/20 11:53:02 METAR KFRG 291653Z 08012G15KT 2SM BR OVC004 11/08 A2996 RMK AO2 SLP145 T01060083","FM-15","7",,,,,,,,,,,,,,,,,,,,,,,,,,,,"2009-05-18"
"74486454787","2020-03-29T12:05:00","FM-16","7",,,,,,,,,,,,,,,,,,,,,,,,,,,,,,,,,,,,,,"29.94","47","51",,"BR:1 ||",,,"86",,"OVC:08 4","29.85","1.75","49","090",,"11",,,,,,,,,,,,,,,,,,,,,,,,,,,,,,,,,,,,,"MET09903/29/20 12:05:02 SPECI KFRG 291705Z 09010KT 1 3/4SM BR OVC004 11/08 A2994 RMK AO2 PRESFR T01060083","FM-16","7",,,,,,,,,,,,,,,,,,,,,,,,,,,,"2009-05-18"
"74486454787","2020-03-29T12:38:00","FM-16","7",,,,,,,,,,,,,,,,,,,,,,,,,,,,,,,,,,,,,,"29.96","48","51",,"BR:1 ||",,,"89",,"OVC:08 4","29.87","2.00","49","070",,"9",,,,,,,,,,,,,,,,,,,,,,,,,,,,,,,,,,,,,"MET08803/29/20 12:38:02 SPECI KFRG 291738Z 07008KT 2SM BR OVC004 11/09 A2996 RMK AO2 T01060089","FM-16","7",,,,,,,,,,,,,,,,,,,,,,,,,,,,"2009-05-18"
"74486454787","2020-03-29T12:53:00","FM-15","7",,,,,,,,,,,,,,,,,,,,,,,,,,,,,,,,,,,,,,"29.95","48","51","0.00","BR:1 ||","+0.06","8","89","29.95","OVC:08 5","29.86","2.00","49","060",,"9",,,,,,,,,,,,,,,,,,,,,,,,,,,,,,,,,,,,,"MET11303/29/20 12:53:02 METAR KFRG 291753Z 06008KT 2SM BR OVC005 11/09 A2995 RMK AO2 SLP143 T01060089 10106 20094 58021","FM-15","7",,,,,,,,,,,,,,,,,,,,,,,,,,,,"2009-05-18"
"74486454787","2020-03-29T13:08:00","FM-16","7",,,,,,,,,,,,,,,,,,,,,,,,,,,,,,,,,,,,,,"29.93","48","51",,"BR:1 ||",,,"89",,"OVC:08 5","29.84","1.75","49","070",,"11",,,,,,,,,,,,,,,,,,,,,,,,,,,,,,,,,,,,,"MET09203/29/20 13:08:02 SPECI KFRG 291808Z 07010KT 1 3/4SM BR OVC005 11/09 A2993 RMK AO2 T01060089","FM-16","7",,,,,,,,,,,,,,,,,,,,,,,,,,,,"2009-05-18"
"74486454787","2020-03-29T13:17:00","FM-16","7",,,,,,,,,,,,,,,,,,,,,,,,,,,,,,,,,,,,,,"29.91","48","51",,"BR:1 ||",,,"89",,"OVC:08 4","29.82","2.00","49","080",,"10",,,,,,,,,,,,,,,,,,,,,,,,,,,,,,,,,,,,,"MET08803/29/20 13:17:02 SPECI KFRG 291817Z 08009KT 2SM BR OVC004 11/09 A2991 RMK AO2 T01060089","FM-16","7",,,,,,,,,,,,,,,,,,,,,,,,,,,,"2009-05-18"
"74486454787","2020-03-29T13:53:00","FM-15","7",,,,,,,,,,,,,,,,,,,,,,,,,,,,,,,,,,,,,,"29.86","48","51","0.00","BR:1 ||",,,"89","29.86","OVC:08 4","29.77","2.50","49","090",,"13",,,,,,,,,,,,,,,,,,,,,,,,,,,,,,,,,,,,,"MET10603/29/20 13:53:02 METAR KFRG 291853Z 09011KT 2 1/2SM BR OVC004 11/09 A2986 RMK AO2 PRESFR SLP112 T01060089","FM-15","7",,,,,,,,,,,,,,,,,,,,,,,,,,,,"2009-05-18"
"74486454787","2020-03-29T14:53:00","FM-15","7",,,,,,,,,,,,,,,,,,,,,,,,,,,,,,,,,,,,,,"29.82","48","51","0.00","BR:1 ||",,,"89","29.82","OVC:08 3","29.73","2.00","49","070",,"13",,,,,,,,,,,,,,,,,,,,,,,,,,,,,,,,,,,,,"MET09503/29/20 14:53:02 METAR KFRG 291953Z 07011KT 2SM BR OVC003 11/09 A2982 RMK AO2 SLP098 T01060089","FM-15","7",,,,,,,,,,,,,,,,,,,,,,,,,,,,"2009-05-18"
"74486454787","2020-03-29T15:28:00","FM-16","7",,,,,,,,,,,,,,,,,,,,,,,,,,,,,,,,,,,,,,"29.81","48","52",,"BR:1 ||",,,"86",,"OVC:08 3","29.72","3.00","50","070","21","13",,,,,,,,,,,,,,,,,,,,,,,,,,,,,,,,,,,,,"MET09103/29/20 15:28:02 SPECI KFRG 292028Z 07011G18KT 3SM BR OVC003 11/09 A2981 RMK AO2 T01110089","FM-16","7",,,,,,,,,,,,,,,,,,,,,,,,,,,,"2009-05-18"
"74486454787","2020-03-29T15:53:00","FM-15","7",,,,,,,,,,,,,,,,,,,,,,,,,,,,,,,,,,,,,,"29.82","49","52","0.00","BR:1 ||","+0.13","5","89","29.82","OVC:08 3","29.73","3.00","50","080",,"8",,,,,,,,,,,,,,,,,,,,,,,,,,,,,,,,,,,,,"MET10103/29/20 15:53:02 METAR KFRG 292053Z 08007KT 3SM BR OVC003 11/09 A2982 RMK AO2 SLP099 T01110094 55044","FM-15","7",,,,,,,,,,,,,,,,,,,,,,,,,,,,"2009-05-18"
"74486454787","2020-03-29T16:08:00","FM-16","7",,,,,,,,,,,,,,,,,,,,,,,,,,,,,,,,,,,,,,"29.83","49","52",,"BR:1 ||",,,"89",,"OVC:08 3","29.74","2.50","50","070",,"7",,,,,,,,,,,,,,,,,,,,,,,,,,,,,,,,,,,,,"MET09203/29/20 16:08:02 SPECI KFRG 292108Z 07006KT 2 1/2SM BR OVC003 11/09 A2983 RMK AO2 T01110094","FM-16","7",,,,,,,,,,,,,,,,,,,,,,,,,,,,"2009-05-18"
"74486454787","2020-03-29T16:24:00","FM-16","7",,,,,,,,,,,,,,,,,,,,,,,,,,,,,,,,,,,,,,"29.83","48","51",,"BR:1 ||",,,"89",,"OVC:08 3","29.74","1.50","49","060",,"7",,,,,,,,,,,,,,,,,,,,,,,,,,,,,,,,,,,,,"MET09203/29/20 16:24:02 SPECI KFRG 292124Z 06006KT 1 1/2SM BR OVC003 11/09 A2983 RMK AO2 T01060089","FM-16","7",,,,,,,,,,,,,,,,,,,,,,,,,,,,"2009-05-18"
"74486454787","2020-03-29T16:53:00","FM-15","7",,,,,,,,,,,,,,,,,,,,,,,,,,,,,,,,,,,,,,"29.86","48","51","0.00","BR:1 ||",,,"89","29.85","OVC:08 3","29.77","1.75","49","350",,"7",,,,,,,,,,,,,,,,,,,,,,,,,,,,,,,,,,,,,"MET09903/29/20 16:53:02 METAR KFRG 292153Z 35006KT 1 3/4SM BR OVC003 11/09 A2986 RMK AO2 SLP110 T01060089","FM-15","7",,,,,,,,,,,,,,,,,,,,,,,,,,,,"2009-05-18"
"74486454787","2020-03-29T17:51:00","FM-16","6",,,,,,,,,,,,,,,,,,,,,,,,,,,,,,,,,,,,,,"29.88","45","48",,"-RA:02 BR:1 |RA |RA",,,"87",,"OVC:08 6","29.79","1.50","47","020",,"11",,,,,,,,,,,,,,,,,,,,,,,,,,,,,,,,,,,,,"MET10303/29/20 17:51:02 SPECI KFRG 292251Z 02010KT 1 1/2SM -RA BR OVC006 09/07 A2988 RMK AO2 RAB25 P0000 FIBI","FM-16","6",,,,,,,,,,,,,,,,,,,,,,,,,,,,"2009-05-18"
"74486454787","2020-03-29T17:53:00","FM-15","7",,,,,,,,,,,,,,,,,,,,,,,,,,,,,,,,,,,,,,"29.87","45","48","T","-RA:02 BR:1 |RA |RA",,,"89","29.87","OVC:08 6","29.78","1.50","47","020",,"10",,,,,,,,,,,,,,,,,,,,,,,,,,,,,,,,,,,,,"MET11503/29/20 17:53:02 METAR KFRG 292253Z 02009KT 1 1/2SM -RA BR OVC006 09/07 A2987 RMK AO2 RAB25 SLP116 P0000 T00890072","FM-15","7",,,,,,,,,,,,,,,,,,,,,,,,,,,,"2009-05-18"
"74486454787","2020-03-29T18:23:00","FM-16","7",,,,,,,,,,,,,,,,,,,,,,,,,,,,,,,,,,,,,,"29.87","45","48","T","BR:1 ||",,,"89",,"BKN:07 4 OVC:08 8","29.78","2.00","47","020",,"8",,,,,,,,,,,,,,,,,,,,,,,,,,,,,,,,,,,,,"MET10703/29/20 18:23:02 SPECI KFRG 292323Z 02007KT 2SM BR BKN004 OVC008 09/07 A2987 RMK AO2 RAE14 P0000 T00890072","FM-16","7",,,,,,,,,,,,,,,,,,,,,,,,,,,,"2009-05-18"
"74486454787","2020-03-29T18:33:00","FM-16","7",,,,,,,,,,,,,,,,,,,,,,,,,,,,,,,,,,,,,,"29.86","45","48","T","BR:1 ||",,,"89",,"OVC:08 4","29.77","3.00","47","040",,"9",,,,,,,,,,,,,,,,,,,,,,,,,,,,,,,,,,,,,"MET10003/29/20 18:33:02 SPECI KFRG 292333Z 04008KT 3SM BR OVC004 09/07 A2986 RMK AO2 RAE14 P0000 T00890072","FM-16","7",,,,,,,,,,,,,,,,,,,,,,,,,,,,"2009-05-18"
"74486454787","2020-03-29T18:53:00","FM-15","7",,,,,,,,,,,,,,,,,,,,,,,,,,,,,,,,,,,,,,"29.84","45","48","T","BR:1 ||","-0.02","0","89","29.84","OVC:08 4","29.75","6.00","47","050",,"11",,,,,,,,,,,,,,,,,,,,,,,,,,,,,,,,,,,,,"MET13103/29/20 18:53:02 METAR KFRG 292353Z 05010KT 6SM BR OVC004 09/07 A2984 RMK AO2 RAE14 SLP105 P0000 60000 T00890072 10111 20089 50006","FM-15","7",,,,,,,,,,,,,,,,,,,,,,,,,,,,"2009-05-18"
"74486454787","2020-03-29T19:53:00","FM-15","7",,,,,,,,,,,,,,,,,,,,,,,,,,,,,,,,,,,,,,"29.84","44","48","0.00",,,,"86","29.84","OVC:08 4","29.75","10.00","46","040",,"8",,,,,,,,,,,,,,,,,,,,,,,,,,,,,,,,,,,,,"MET09303/29/20 19:53:01 METAR KFRG 300053Z 04007KT 10SM OVC004 09/07 A2984 RMK AO2 SLP106 T00890067","FM-15","7",,,,,,,,,,,,,,,,,,,,,,,,,,,,"2009-05-18"
"74486454787","2020-03-29T20:45:00","FM-16","7",,,,,,,,,,,,,,,,,,,,,,,,,,,,,,,,,,,,,,"29.89","45","48",,"VCTS:7 ||",,,"89",,"OVC:08 4","29.80","10.00","47","VRB",,"5",,,,,,,,,,,,,,,,,,,,,,,,,,,,,,,,,,,,,"MET11003/29/20 20:45:01 SPECI KFRG 300145Z VRB04KT 10SM VCTS OVC004 09/07 A2989 RMK AO2 LTG DSNT SW PRESRR T00890072","FM-16","7",,,,,,,,,,,,,,,,,,,,,,,,,,,,"2009-05-18"
"74486454787","2020-03-29T20:53:00","FM-15","7",,,,,,,,,,,,,,,,,,,,,,,,,,,,,,,,,,,,,,"29.88","44","48","0.00","VCTS:7 ||",,,"86","29.88","OVC:08 4","29.79","8.00","46","350",,"6",,,,,,,,,,,,,,,,,,,,,,,,,,,,,,,,,,,,,"MET11603/29/20 20:53:01 METAR KFRG 300153Z 35005KT 8SM VCTS OVC004 09/07 A2988 RMK AO2 LTG DSNT SE AND SW SLP120 T00890067","FM-15","7",,,,,,,,,,,,,,,,,,,,,,,,,,,,"2009-05-18"
"74486454787","2020-03-29T21:00:00","FM-16","7",,,,,,,,,,,,,,,,,,,,,,,,,,,,,,,,,,,,,,"29.87","44","47",,,,,"90",,"OVC:08 4","29.78","7.00","46","020",,"11",,,,,,,,,,,,,,,,,,,,,,,,,,,,,,,,,,,,,"MET09703/29/20 21:00:01 SPECI KFRG 300200Z 02010KT 7SM OVC004 08/07 A2987 RMK AO2 LTG DSNT SE T00830067","FM-16","7",,,,,,,,,,,,,,,,,,,,,,,,,,,,"2009-05-18"
"74486454787","2020-03-29T21:53:00","FM-15","7",,,,,,,,,,,,,,,,,,,,,,,,,,,,,,,,,,,,,,"29.85","43","46","0.00",,"-0.01","0","89","29.85","OVC:08 3","29.76","7.00","45","050","20","9",,,,,,,,,,,,,,,,,,,,,,,,,,,,,,,,,,,,,"MET10103/29/20 21:53:01 METAR KFRG 300253Z 05008G17KT 7SM OVC003 08/06 A2985 RMK AO2 SLP110 T00780061 50004","FM-15","7",,,,,,,,,,,,,,,,,,,,,,,,,,,,"2009-05-18"
"74486454787","2020-03-29T22:23:00","FM-16","7",,,,,,,,,,,,,,,,,,,,,,,,,,,,,,,,,,,,,,"29.87","43","47",,,,,"86",,"OVC:08 5","29.78","10.00","45","050",,"8",,,,,,,,,,,,,,,,,,,,,,,,,,,,,,,,,,,,,"MET08603/29/20 22:23:01 SPECI KFRG 300323Z 05007KT 10SM OVC005 08/06 A2987 RMK AO2 T00830061","FM-16","7",,,,,,,,,,,,,,,,,,,,,,,,,,,,"2009-05-18"
"74486454787","2020-03-29T22:53:00","FM-15","7",,,,,,,,,,,,,,,,,,,,,,,,,,,,,,,,,,,,,,"29.87","44","48","0.00",,,,"86","29.87","OVC:08 5","29.78","10.00","46","040",,"9",,,,,,,,,,,,,,,,,,,,,,,,,,,,,,,,,,,,,"MET09303/29/20 22:53:02 METAR KFRG 300353Z 04008KT 10SM OVC005 09/07 A2987 RMK AO2 SLP116 T00890067","FM-15","7",,,,,,,,,,,,,,,,,,,,,,,,,,,,"2009-05-18"
"74486454787","2020-03-29T23:53:00","FM-15","7",,,,,,,,,,,,,,,,,,,,,,,,,,,,,,,,,,,,,,"29.89","43","47","0.00",,,,"86","29.88","OVC:08 6","29.80","10.00","45","030","21","13",,,,,,,,,,,,,,,,,,,,,,,,,,,,,,,,,,,,,"MET10603/29/20 23:53:02 METAR KFRG 300453Z 03011G18KT 10SM OVC006 08/06 A2989 RMK AO2 SLP120 T00830061 401110078","FM-15","7",,,,,,,,,,,,,,,,,,,,,,,,,,,,"2009-05-18"
"74486454787","2020-03-29T23:59:00","SOD  ","6",,,,,,,,,,,,,,,,"49",,,"29.86",,"10.4","0","5.3","16","52","46","040","27","T",,,"040","18","TS RA BR",,,,,,,,,,,,,,,,,,,,,,,,,,,,,,,,,,,,,,,,,,,,,,,,,,,,,,,,"SOD73024 HR PRECIPITATION (IN):T     24 HR MAX TEMP (F):52 24 HR MAX TEMP TIME (LST):1611 24 HR MIN TEMP (F):46 24 HR MIN TEMP TIME (LST):2359 AVERAGE STATION PRESSURE:29.860 MINIMUM SEA LEVEL PRESSURE:29.80 TIME OF OCCURRENCE:1509 PEAK WIND SPEED (MPH):27  PEAK WIND DIR (DEG):40  PEAK WIND TIME (LST):2333  FASTEST 2MIN SPEED (MPH):18 FASTEST 2MIN DIR (DEG):40  FASTEST 2MIN TIME (LST):2334 AVERAGE WIND SPEED (MPH):10.4 24 HR AVG TEMP (F):49 HEATING DEGREE DAYS:16  COOLING DEGREE DAYS:0   LATEST DAY MAX TEMP (0700-1900 LST):52  LATEST NIGHT MIN TEMP(1900-0800 LST):48 HOURLY INCREMENTAL PRECIPITATION VALUES (IN):    0.00 0.00 T    T    0.00 0.00 0.00 0.00 0.00 0.00 0.00 0.00 0.00 0.00 0.00 0.00 T    T    0.00 0.00 0.00 0.00 0.00","SOD  ","6",,,,,,,,,,,,,,,,,,,,,,,,,"0541","1816",,"2009-05-18"
"74486454787","2020-03-30T00:53:00","FM-15","7",,,,,,,,,,,,,,,,,,,,,,,,,,,,,,,,,,,,,,"29.91","41","45","0.00",,"-0.05","3","86","29.91","OVC:08 7","29.82","10.00","43","030","22","14",,,,,,,,,,,,,,,,,,,,,,,,,,,,,,,,,,,,,"MET11403/30/20 00:53:02 METAR KFRG 300553Z 03012G19KT 10SM OVC007 07/05 A2991 RMK AO2 SLP128 T00720050 10089 20072 53018","FM-15","7",,,,,,,,,,,,,,,,,,,,,,,,,,,,"2009-05-18"
"74486454787","2020-03-30T01:40:00","FM-16","7",,,,,,,,,,,,,,,,,,,,,,,,,,,,,,,,,,,,,,"29.92","40","45",,,,,"83",,"OVC:08 10","29.83","10.00","43","040",,"8",,,,,,,,,,,,,,,,,,,,,,,,,,,,,,,,,,,,,"MET09803/30/20 01:40:02 SPECI KFRG 300640Z 04007KT 10SM OVC010 07/04 A2992 RMK AO2 CIG 008V013 T00720044","FM-16","7",,,,,,,,,,,,,,,,,,,,,,,,,,,,"2009-05-18"
"74486454787","2020-03-30T01:53:00","FM-15","7",,,,,,,,,,,,,,,,,,,,,,,,,,,,,,,,,,,,,,"29.92","40","45","0.00",,,,"83","29.92","OVC:08 10","29.83","10.00","43","040",,"9",,,,,,,,,,,,,,,,,,,,,,,,,,,,,,,,,,,,,"MET09303/30/20 01:53:02 METAR KFRG 300653Z 04008KT 10SM OVC010 07/04 A2992 RMK AO2 SLP132 T00720044","FM-15","7",,,,,,,,,,,,,,,,,,,,,,,,,,,,"2009-05-18"
"74486454787","2020-03-30T02:53:00","FM-15","7",,,,,,,,,,,,,,,,,,,,,,,,,,,,,,,,,,,,,,"29.94","39","44","0.00",,,,"83","29.94","OVC:08 11","29.85","10.00","42","020",,"9",,,,,,,,,,,,,,,,,,,,,,,,,,,,,,,,,,,,,"MET09303/30/20 02:53:02 METAR KFRG 300753Z 02008KT 10SM OVC011 07/04 A2994 RMK AO2 SLP139 T00670039","FM-15","7",,,,,,,,,,,,,,,,,,,,,,,,,,,,"2009-05-18"
"74486454787","2020-03-30T03:53:00","FM-15","7",,,,,,,,,,,,,,,,,,,,,,,,,,,,,,,,,,,,,,"29.96","38","44","0.00",,"-0.05","3","79","29.96","BKN:07 11 BKN:07 21 OVC:08 34","29.87","10.00","41","020",,"10",,,,,,,,,,,,,,,,,,,,,,,,,,,,,,,,,,,,,"MET11303/30/20 03:53:02 METAR KFRG 300853Z 02009KT 10SM BKN011 BKN021 OVC034 07/03 A2996 RMK AO2 SLP147 T00670033 53018","FM-15","7",,,,,,,,,,,,,,,,,,,,,,,,,,,,"2009-05-18"
"74486454787","2020-03-30T04:51:00","FM-16","6",,,,,,,,,,,,,,,,,,,,,,,,,,,,,,,,,,,,,,"29.94","37","43",,,,,"81",,"OVC:08 9","29.85","10.00","40","050","18","11",,,,,,,,,,,,,,,,,,,,,,,,,,,,,,,,,,,,,"MET08403/30/20 04:51:02 SPECI KFRG 300951Z 05010G16KT 10SM OVC009 06/03 A2994 RMK AO2 FIBI","FM-16","6",,,,,,,,,,,,,,,,,,,,,,,,,,,,"2009-05-18"
"74486454787","2020-03-30T04:53:00","FM-15","7",,,,,,,,,,,,,,,,,,,,,,,,,,,,,,,,,,,,,,"29.94","37","43","0.00",,,,"80","29.94","OVC:08 9","29.85","10.00","40","050",,"9",,,,,,,,,,,,,,,,,,,,,,,,,,,,,,,,,,,,,"MET09303/30/20 04:53:02 METAR KFRG 300953Z 05008KT 10SM OVC009 06/03 A2994 RMK AO2 SLP138 T00610028","FM-15","7",,,,,,,,,,,,,,,,,,,,,,,,,,,,"2009-05-18"
"74486454787","2020-03-30T05:53:00","FM-15","7",,,,,,,,,,,,,,,,,,,,,,,,,,,,,,,,,,,,,,"29.97","38","42","0.00",,,,"85","29.97","OVC:08 7","29.88","10.00","40","010",,"11",,,,,,,,,,,,,,,,,,,,,,,,,,,,,,,,,,,,,"MET09303/30/20 05:53:02 METAR KFRG 301053Z 01010KT 10SM OVC007 06/03 A2997 RMK AO2 SLP148 T00560033","FM-15","7",,,,,,,,,,,,,,,,,,,,,,,,,,,,"2009-05-18"
"74486454787","2020-03-30T06:53:00","FM-15","7",,,,,,,,,,,,,,,,,,,,,,,,,,,,,,,,,,,,,,"29.99","38","43","0.00",,"-0.02","3","82","29.98","OVC:08 7","29.90","10.00","41","040",,"11",,,,,,,,,,,,,,,,,,,,,,,,,,,,,,,,,,,,,"MET11103/30/20 06:53:02 METAR KFRG 301153Z 04010KT 10SM OVC007 06/03 A2999 RMK AO2 SLP154 T00610033 10072 20056 53007","FM-15","7",,,,,,,,,,,,,,,,,,,,,,,,,,,,"2009-05-18"
"74486454787","2020-03-30T07:53:00","FM-15","7",,,,,,,,,,,,,,,,,,,,,,,,,,,,,,,,,,,,,,"29.97","38","43","0.00",,,,"82","29.96","OVC:08 7","29.88","10.00","41","050",,"10",,,,,,,,,,,,,,,,,,,,,,,,,,,,,,,,,,,,,"MET09303/30/20 07:53:02 METAR KFRG 301253Z 05009KT 10SM OVC007 06/03 A2997 RMK AO2 SLP147 T00610033","FM-15","7",,,,,,,,,,,,,,,,,,,,,,,,,,,,"2009-05-18"
"74486454787","2020-03-30T08:53:00","FM-15","7",,,,,,,,,,,,,,,,,,,,,,,,,,,,,,,,,,,,,,"29.97","39","44","0.00",,,,"83","29.97","OVC:08 8","29.88","10.00","42","010",,"7",,,,,,,,,,,,,,,,,,,,,,,,,,,,,,,,,,,,,"MET09303/30/20 08:53:02 METAR KFRG 301353Z 01006KT 10SM OVC008 07/04 A2997 RMK AO2 SLP149 T00670039","FM-15","7",,,,,,,,,,,,,,,,,,,,,,,,,,,,"2009-05-18"
"74486454787","2020-03-30T09:53:00","FM-15","7",,,,,,,,,,,,,,,,,,,,,,,,,,,,,,,,,,,,,,"29.97","38","45","0.00",,"+0.01","5","77","29.97","OVC:08 9","29.88","10.00","42","300",,"3",,,,,,,,,,,,,,,,,,,,,,,,,,,,,,,,,,,,,"MET09903/30/20 09:53:02 METAR KFRG 301453Z 30003KT 10SM OVC009 07/03 A2997 RMK AO2 SLP150 T00720033 55004","FM-15","7",,,,,,,,,,,,,,,,,,,,,,,,,,,,"2009-05-18"
"74486454787","2020-03-30T10:14:00","FM-16","7",,,,,,,,,,,,,,,,,,,,,,,,,,,,,,,,,,,,,,"29.97","39","46",,,,,"77",,"OVC:08 10","29.88","10.00","43","VRB",,"3",,,,,,,,,,,,,,,,,,,,,,,,,,,,,,,,,,,,,"MET08603/30/20 10:14:02 SPECI KFRG 301514Z VRB03KT 10SM OVC010 08/04 A2997 RMK AO2 T00780039","FM-16","7",,,,,,,,,,,,,,,,,,,,,,,,,,,,"2009-05-18"
"74486454787","2020-03-30T10:53:00","FM-15","7",,,,,,,,,,,,,,,,,,,,,,,,,,,,,,,,,,,,,,"29.95","39","46","0.00",,,,"77","29.95","OVC:08 11","29.86","10.00","43","080",,"3",,,,,,,,,,,,,,,,,,,,,,,,,,,,,,,,,,,,,"MET09303/30/20 10:53:02 METAR KFRG 301553Z 08003KT 10SM OVC011 08/04 A2995 RMK AO2 SLP141 T00780039","FM-15","7",,,,,,,,,,,,,,,,,,,,,,,,,,,,"2009-05-18"
"74486454787","2020-03-30T11:53:00","FM-15","7",,,,,,,,,,,,,,,,,,,,,,,,,,,,,,,,,,,,,,"29.93","40","48","0.00",,,,"74","29.93","OVC:08 12","29.84","10.00","44","110",,"5",,,,,,,,,,,,,,,,,,,,,,,,,,,,,,,,,,,,,"MET09303/30/20 11:53:02 METAR KFRG 301653Z 11004KT 10SM OVC012 09/04 A2993 RMK AO2 SLP134 T00890044","FM-15","7",,,,,,,,,,,,,,,,,,,,,,,,,,,,"2009-05-18"
"74486454787","2020-03-30T12:39:00","FM-16","7",,,,,,,,,,,,,,,,,,,,,,,,,,,,,,,,,,,,,,"29.92","40","49",,,,,"71",,"OVC:08 15","29.83","10.00","45","080",,"3",,,,,,,,,,,,,,,,,,,,,,,,,,,,,,,,,,,,,"MET08603/30/20 12:39:02 SPECI KFRG 301739Z 08003KT 10SM OVC015 09/04 A2992 RMK AO2 T00940044","FM-16","7",,,,,,,,,,,,,,,,,,,,,,,,,,,,"2009-05-18"
"74486454787","2020-03-30T12:53:00","FM-15","7",,,,,,,,,,,,,,,,,,,,,,,,,,,,,,,,,,,,,,"29.92","41","50","0.00",,"+0.06","6","71","29.91","OVC:08 15","29.83","10.00","46","VRB",,"5",,,,,,,,,,,,,,,,,,,,,,,,,,,,,,,,,,,,,"MET11103/30/20 12:53:02 METAR KFRG 301753Z VRB04KT 10SM OVC015 10/05 A2992 RMK AO2 SLP130 T01000050 10106 20056 56019","FM-15","7",,,,,,,,,,,,,,,,,,,,,,,,,,,,"2009-05-18"
"74486454787","2020-03-30T13:35:00","FM-16","7",,,,,,,,,,,,,,,,,,,,,,,,,,,,,,,,,,,,,,"29.90","42","53",,,,,"66",,"SCT:04 18","29.81","10.00","48","VRB",,"3",,,,,,,,,,,,,,,,,,,,,,,,,,,,,,,,,,,,,"MET08603/30/20 13:35:02 SPECI KFRG 301835Z VRB03KT 10SM SCT018 12/06 A2990 RMK AO2 T01170056","FM-16","7",,,,,,,,,,,,,,,,,,,,,,,,,,,,"2009-05-18"
"74486454787","2020-03-30T13:53:00","FM-15","7",,,,,,,,,,,,,,,,,,,,,,,,,,,,,,,,,,,,,,"29.90","41","53","0.00",,,,"64","29.90","SCT:04 22 BKN:07 110","29.81","10.00","47","VRB",,"3",,,,,,,,,,,,,,,,,,,,,,,,,,,,,,,,,,,,,"MET10003/30/20 13:53:02 METAR KFRG 301853Z VRB03KT 10SM SCT022 BKN110 12/05 A2990 RMK AO2 SLP126 T01170050","FM-15","7",,,,,,,,,,,,,,,,,,,,,,,,,,,,"2009-05-18"
"74486454787","2020-03-30T14:01:00","FM-16","7",,,,,,,,,,,,,,,,,,,,,,,,,,,,,,,,,,,,,,"29.90","41","52",,,,,"66",,"BKN:07 22 BKN:07 110","29.81","10.00","47","000",,"0",,,,,,,,,,,,,,,,,,,,,,,,,,,,,,,,,,,,,"MET09303/30/20 14:01:02 SPECI KFRG 301901Z 00000KT 10SM BKN022 BKN110 11/05 A2990 RMK AO2 T01110050","FM-16","7",,,,,,,,,,,,,,,,,,,,,,,,,,,,"2009-05-18"
"74486454787","2020-03-30T14:53:00","FM-15","7",,,,,,,,,,,,,,,,,,,,,,,,,,,,,,,,,,,,,,"29.90","39","50","0.00",,,,"66","29.91","OVC:08 21","29.81","10.00","45","020",,"13",,,,,,,,,,,,,,,,,,,,,,,,,,,,,,,,,,,,,"MET09303/30/20 14:53:02 METAR KFRG 301953Z 02011KT 10SM OVC021 10/04 A2990 RMK AO2 SLP127 T01000039","FM-15","7",,,,,,,,,,,,,,,,,,,,,,,,,,,,"2009-05-18"
"74486454787","2020-03-30T15:23:00","FM-16","7",,,,,,,,,,,,,,,,,,,,,,,,,,,,,,,,,,,,,,"29.90","39","49",,,,,"69",,"SCT:04 20 BKN:07 110","29.81","10.00","44","070",,"8",,,,,,,,,,,,,,,,,,,,,,,,,,,,,,,,,,,,,"MET09303/30/20 15:23:02 SPECI KFRG 302023Z 07007KT 10SM SCT020 BKN110 09/04 A2990 RMK AO2 T00940039","FM-16","7",,,,,,,,,,,,,,,,,,,,,,,,,,,,"2009-05-18"
"74486454787","2020-03-30T15:53:00","FM-15","7",,,,,,,,,,,,,,,,,,,,,,,,,,,,,,,,,,,,,,"29.90","39","49","0.00",,"+0.01","6","69","29.90","FEW:02 20 OVC:08 110","29.81","10.00","44","060",,"8",,,,,,,,,,,,,,,,,,,,,,,,,,,,,,,,,,,,,"MET10603/30/20 15:53:02 METAR KFRG 302053Z 06007KT 10SM FEW020 OVC110 09/04 A2990 RMK AO2 SLP126 T00940039 56004","FM-15","7",,,,,,,,,,,,,,,,,,,,,,,,,,,,"2009-05-18"
"74486454787","2020-03-30T16:35:00","FM-16","7",,,,,,,,,,,,,,,,,,,,,,,,,,,,,,,,,,,,,,"29.91","39","50",,,,,"66",,"BKN:07 24 BKN:07 110","29.82","10.00","45","090",,"5",,,,,,,,,,,,,,,,,,,,,,,,,,,,,,,,,,,,,"MET09303/30/20 16:35:02 SPECI KFRG 302135Z 09004KT 10SM BKN024 BKN110 10/04 A2991 RMK AO2 T01000039","FM-16","7",,,,,,,,,,,,,,,,,,,,,,,,,,,,"2009-05-18"
"74486454787","2020-03-30T16:53:00","FM-15","7",,,,,,,,,,,,,,,,,,,,,,,,,,,,,,,,,,,,,,"29.91","40","50","0.00",,,,"68","29.91","OVC:08 24","29.82","10.00","45","080",,"5",,,,,,,,,,,,,,,,,,,,,,,,,,,,,,,,,,,,,"MET09303/30/20 16:53:02 METAR KFRG 302153Z 08004KT 10SM OVC024 10/04 A2991 RMK AO2 SLP129 T01000044","FM-15","7",,,,,,,,,,,,,,,,,,,,,,,,,,,,"2009-05-18"
"74486454787","2020-03-30T17:36:00","FM-16","7",,,,,,,,,,,,,,,,,,,,,,,,,,,,,,,,,,,,,,"29.92","40","50",,,,,"68",,"SCT:04 26 BKN:07 90","29.83","10.00","45","070",,"6",,,,,,,,,,,,,,,,,,,,,,,,,,,,,,,,,,,,,"MET09303/30/20 17:36:02 SPECI KFRG 302236Z 07005KT 10SM SCT026 BKN090 10/04 A2992 RMK AO2 T01000044","FM-16","7",,,,,,,,,,,,,,,,,,,,,,,,,,,,"2009-05-18"
"74486454787","2020-03-30T17:53:00","FM-15","7",,,,,,,,,,,,,,,,,,,,,,,,,,,,,,,,,,,,,,"29.92","40","50","0.00",,,,"68","29.92","BKN:07 95","29.83","10.00","45","080",,"6",,,,,,,,,,,,,,,,,,,,,,,,,,,,,,,,,,,,,"MET09303/30/20 17:53:02 METAR KFRG 302253Z 08005KT 10SM BKN095 10/04 A2992 RMK AO2 SLP133 T01000044","FM-15","7",,,,,,,,,,,,,,,,,,,,,,,,,,,,"2009-05-18"
"74486454787","2020-03-30T18:31:00","FM-16","7",,,,,,,,,,,,,,,,,,,,,,,,,,,,,,,,,,,,,,"29.94","40","48",,,,,"74",,"BKN:07 24 OVC:08 110","29.85","10.00","44","160",,"8",,,,,,,,,,,,,,,,,,,,,,,,,,,,,,,,,,,,,"MET09303/30/20 18:31:02 SPECI KFRG 302331Z 16007KT 10SM BKN024 OVC110 09/04 A2994 RMK AO2 T00890044","FM-16","7",,,,,,,,,,,,,,,,,,,,,,,,,,,,"2009-05-18"
"74486454787","2020-03-30T18:53:00","FM-15","7",,,,,,,,,,,,,,,,,,,,,,,,,,,,,,,,,,,,,,"29.95","41","48","0.00",,"-0.05","3","77","29.95","OVC:08 24","29.86","10.00","45","140",,"6",,,,,,,,,,,,,,,,,,,,,,,,,,,,,,,,,,,,,"MET11103/30/20 18:53:02 METAR KFRG 302353Z 14005KT 10SM OVC024 09/05 A2995 RMK AO2 SLP142 T00890050 10122 20089 53016","FM-15","7",,,,,,,,,,,,,,,,,,,,,,,,,,,,"2009-05-18"
"74486454787","2020-03-30T19:53:00","FM-15","7",,,,,,,,,,,,,,,,,,,,,,,,,,,,,,,,,,,,,,"29.97","41","47","0.00",,,,"80","29.97","OVC:08 25","29.88","10.00","44","140",,"6",,,,,,,,,,,,,,,,,,,,,,,,,,,,,,,,,,,,,"MET09303/30/20 19:53:03 METAR KFRG 310053Z 14005KT 10SM OVC025 08/05 A2997 RMK AO2 SLP148 T00830050","FM-15","7",,,,,,,,,,,,,,,,,,,,,,,,,,,,"2009-05-18"
"74486454787","2020-03-30T20:43:00","FM-16","7",,,,,,,,,,,,,,,,,,,,,,,,,,,,,,,,,,,,,,"29.99","41","47",,,,,"80",,"BKN:07 10 OVC:08 20","29.90","10.00","44","170",,"3",,,,,,,,,,,,,,,,,,,,,,,,,,,,,,,,,,,,,"MET09303/30/20 20:43:03 SPECI KFRG 310143Z 17003KT 10SM BKN010 OVC020 08/05 A2999 RMK AO2 T00830050","FM-16","7",,,,,,,,,,,,,,,,,,,,,,,,,,,,"2009-05-18"
"74486454787","2020-03-30T20:53:00","FM-15","7",,,,,,,,,,,,,,,,,,,,,,,,,,,,,,,,,,,,,,"29.99","41","47","T",,,,"80","29.99","BKN:07 10 OVC:08 20","29.90","10.00","44","180",,"5",,,,,,,,,,,,,,,,,,,,,,,,,,,,,,,,,,,,,"MET10003/30/20 20:53:03 METAR KFRG 310153Z 18004KT 10SM BKN010 OVC020 08/05 A2999 RMK AO2 SLP157 T00830050","FM-15","7",,,,,,,,,,,,,,,,,,,,,,,,,,,,"2009-05-18"
"74486454787","2020-03-30T21:40:00","FM-16","7",,,,,,,,,,,,,,,,,,,,,,,,,,,,,,,,,,,,,,"29.99","41","46","0.01","-RA:02 |RA |RA",,,"83",,"OVC:08 9","29.90","9.00","44","200",,"6",,,,,,,,,,,,,,,,,,,,,,,,,,,,,,,,,,,,,"MET11503/30/20 21:40:03 SPECI KFRG 310240Z 20005KT 9SM -RA OVC009 08/05 A2999 RMK AO2 RAB0158 CIG 007V012 P0001 T00780050","FM-16","7",,,,,,,,,,,,,,,,,,,,,,,,,,,,"2009-05-18"
"74486454787","2020-03-30T21:50:00","FM-16","7",,,,,,,,,,,,,,,,,,,,,,,,,,,,,,,,,,,,,,"29.99","41","46","0.01",,,,"82",,"OVC:08 10","29.90","10.00","44","190",,"5",,,,,,,,,,,,,,,,,,,,,,,,,,,,,,,,,,,,,"MET10503/30/20 21:50:03 SPECI KFRG 310250Z 19004KT 10SM OVC010 08/05 A2999 RMK AO2 RAB0158E46 CIG 007V011 P0001","FM-16","7",,,,,,,,,,,,,,,,,,,,,,,,,,,,"2009-05-18"
"74486454787","2020-03-30T21:53:00","FM-15","7",,,,,,,,,,,,,,,,,,,,,,,,,,,,,,,,,,,,,,"29.99","41","46","0.01",,"-0.02","1","83","29.99","OVC:08 10","29.90","10.00","44","180",,"5",,,,,,,,,,,,,,,,,,,,,,,,,,,,,,,,,,,,,"MET13403/30/20 21:53:03 METAR KFRG 310253Z 18004KT 10SM OVC010 08/05 A2999 RMK AO2 RAB0158E46 CIG 007V011 SLP156 P0001 60001 T00780050 51008","FM-15","7",,,,,,,,,,,,,,,,,,,,,,,,,,,,"2009-05-18"
"74486454787","2020-03-30T22:53:00","FM-15","7",,,,,,,,,,,,,,,,,,,,,,,,,,,,,,,,,,,,,,"29.99","41","46","0.01","-RA:02 |RA |RA",,,"83","29.99","BKN:07 10 OVC:08 13","29.90","10.00","44","090",,"9",,,,,,,,,,,,,,,,,,,,,,,,,,,,,,,,,,,,,"MET12803/30/20 22:53:03 METAR KFRG 310353Z 09008KT 10SM -RA BKN010 OVC013 08/05 A2999 RMK AO2 RAB09 CIG 006V011 SLP155 P0001 T00780050","FM-15","7",,,,,,,,,,,,,,,,,,,,,,,,,,,,"2009-05-18"
"74486454787","2020-03-30T23:06:00","FM-16","7",,,,,,,,,,,,,,,,,,,,,,,,,,,,,,,,,,,,,,"29.99","41","45","T",,,,"86",,"SCT:04 8 OVC:08 18","29.90","10.00","43","080",,"7",,,,,,,,,,,,,,,,,,,,,,,,,,,,,,,,,,,,,"MET10703/30/20 23:06:03 SPECI KFRG 310406Z 08006KT 10SM SCT008 OVC018 07/05 A2999 RMK AO2 RAE0358 P0000 T00720050","FM-16","7",,,,,,,,,,,,,,,,,,,,,,,,,,,,"2009-05-18"
"74486454787","2020-03-30T23:53:00","FM-15","7",,,,,,,,,,,,,,,,,,,,,,,,,,,,,,,,,,,,,,"30.00","40","45","0.00",,,,"83","30.00","OVC:08 20","29.91","10.00","43","060",,"5",,,,,,,,,,,,,,,,,,,,,,,,,,,,,,,,,,,,,"MET11703/30/20 23:53:03 METAR KFRG 310453Z 06004KT 10SM OVC020 07/04 A3000 RMK AO2 RAE0358 SLP159 P0000 T00720044 401220056","FM-15","7",,,,,,,,,,,,,,,,,,,,,,,,,,,,"2009-05-18"
"74486454787","2020-03-30T23:59:00","SOD  ","6",,,,,,,,,,,,,,,,"48",,,"29.85",,"7.4","0","4.0","17","54","42","020","23","0.02",,,"030","17","RA",,,,,,,,,,,,,,,,,,,,,,,,,,,,,,,,,,,,,,,,,,,,,,,,,,,,,,,,"SOD73024 HR PRECIPITATION (IN):0.02  24 HR MAX TEMP (F):54 24 HR MAX TEMP TIME (LST):1352 24 HR MIN TEMP (F):42 24 HR MIN TEMP TIME (LST):0705 AVERAGE STATION PRESSURE:29.850 MINIMUM SEA LEVEL PRESSURE:29.88 TIME OF OCCURRENCE:0003 PEAK WIND SPEED (MPH):23  PEAK WIND DIR (DEG):20  PEAK WIND TIME (LST):0040  FASTEST 2MIN SPEED (MPH):17 FASTEST 2MIN DIR (DEG):30  FASTEST 2MIN TIME (LST):0700 AVERAGE WIND SPEED (MPH):7.4  24 HR AVG TEMP (F):48 HEATING DEGREE DAYS:17  COOLING DEGREE DAYS:0   LATEST DAY MAX TEMP (0700-1900 LST):54  LATEST NIGHT MIN TEMP(1900-0800 LST):42 HOURLY INCREMENTAL PRECIPITATION VALUES (IN):.00 0.00 0.00 0.00 0.00 0.00 0.00 0.00 0.00 0.00 0.00 0.00 0.00 0.00 0.00 0.00 0.00 0.00 0.00 0.00 T    0.01 0.01 0.00","SOD  ","6",,,,,,,,,,,,,,,,,,,,,,,,,"0539","1817",,"2009-05-18"
"74486454787","2020-03-31T00:53:00","FM-15","7",,,,,,,,,,,,,,,,,,,,,,,,,,,,,,,,,,,,,,"30.00","39","44","T",,"-0.01","3","83","30.00","SCT:04 10 BKN:07 16 OVC:08 27","29.91","8.00","42","060",,"6",,,,,,,,,,,,,,,,,,,,,,,,,,,,,,,,,,,,,"MET14503/31/20 00:53:02 METAR KFRG 310553Z 06005KT 8SM SCT010 BKN016 OVC027 07/04 A3000 RMK AO2 RAB16E46 SLP158 P0000 60002 T00670039 10089 20067 53002","FM-15","7",,,,,,,,,,,,,,,,,,,,,,,,,,,,"2009-05-18"
"74486454787","2020-03-31T01:05:00","FM-16","7",,,,,,,,,,,,,,,,,,,,,,,,,,,,,,,,,,,,,,"29.99","39","44",,"HZ:7 |FU |HZ",,,"83",,"BKN:07 9 BKN:07 13 OVC:08 18","29.90","5.00","42","070",,"6",,,,,,,,,,,,,,,,,,,,,,,,,,,,,,,,,,,,,"MET10203/31/20 01:05:02 SPECI KFRG 310605Z 07005KT 5SM HZ BKN009 BKN013 OVC018 07/04 A2999 RMK AO2 T00670039","FM-16","7",,,,,,,,,,,,,,,,,,,,,,,,,,,,"2009-05-18"
"74486454787","2020-03-31T01:36:00","FM-16","7",,,,,,,,,,,,,,,,,,,,,,,,,,,,,,,,,,,,,,"29.99","39","43",,,,,"86",,"SCT:04 9 OVC:08 16","29.90","10.00","41","060",,"7",,,,,,,,,,,,,,,,,,,,,,,,,,,,,,,,,,,,,"MET09303/31/20 01:36:02 SPECI KFRG 310636Z 06006KT 10SM SCT009 OVC016 06/04 A2999 RMK AO2 T00610039","FM-16","7",,,,,,,,,,,,,,,,,,,,,,,,,,,,"2009-05-18"
"74486454787","2020-03-31T01:50:00","FM-16","7",,,,,,,,,,,,,,,,,,,,,,,,,,,,,,,,,,,,,,"29.99","39","43",,,,,"87",,"BKN:07 14 OVC:08 20","29.90","10.00","41","060",,"5",,,,,,,,,,,,,,,,,,,,,,,,,,,,,,,,,,,,,"MET08303/31/20 01:50:02 SPECI KFRG 310650Z 06004KT 10SM BKN014 OVC020 06/04 A2999 RMK AO2","FM-16","7",,,,,,,,,,,,,,,,,,,,,,,,,,,,"2009-05-18"
"74486454787","2020-03-31T01:53:00","FM-15","7",,,,,,,,,,,,,,,,,,,,,,,,,,,,,,,,,,,,,,"29.99","39","43","0.00",,,,"86","29.99","BKN:07 14 OVC:08 22","29.90","10.00","41","060",,"6",,,,,,,,,,,,,,,,,,,,,,,,,,,,,,,,,,,,,"MET10003/31/20 01:53:02 METAR KFRG 310653Z 06005KT 10SM BKN014 OVC022 06/04 A2999 RMK AO2 SLP155 T00610039","FM-15","7",,,,,,,,,,,,,,,,,,,,,,,,,,,,"2009-05-18"
"74486454787","2020-03-31T02:06:00","FM-16","7",,,,,,,,,,,,,,,,,,,,,,,,,,,,,,,,,,,,,,"29.98","38","43",,,,,"82",,"SCT:04 14 BKN:07 23 OVC:08 27","29.89","10.00","41","060",,"6",,,,,,,,,,,,,,,,,,,,,,,,,,,,,,,,,,,,,"MET10003/31/20 02:06:02 SPECI KFRG 310706Z 06005KT 10SM SCT014 BKN023 OVC027 06/03 A2998 RMK AO2 T00610033","FM-16","7",,,,,,,,,,,,,,,,,,,,,,,,,,,,"2009-05-18"
"74486454787","2020-03-31T02:53:00","FM-15","7",,,,,,,,,,,,,,,,,,,,,,,,,,,,,,,,,,,,,,"29.99","37","43","0.00",,,,"80","29.99","FEW:02 17 OVC:08 29","29.90","10.00","40","050",,"8",,,,,,,,,,,,,,,,,,,,,,,,,,,,,,,,,,,,,"MET10003/31/20 02:53:02 METAR KFRG 310753Z 05007KT 10SM FEW017 OVC029 06/03 A2999 RMK AO2 SLP155 T00610028","FM-15","7",,,,,,,,,,,,,,,,,,,,,,,,,,,,"2009-05-18"
"74486454787","2020-03-31T03:02:00","FM-16","7",,,,,,,,,,,,,,,,,,,,,,,,,,,,,,,,,,,,,,"29.98","37","43",,,,,"80",,"FEW:02 17 BKN:07 30 OVC:08 49","29.89","10.00","40","050",,"7",,,,,,,,,,,,,,,,,,,,,,,,,,,,,,,,,,,,,"MET10003/31/20 03:02:02 SPECI KFRG 310802Z 05006KT 10SM FEW017 BKN030 OVC049 06/03 A2998 RMK AO2 T00610028","FM-16","7",,,,,,,,,,,,,,,,,,,,,,,,,,,,"2009-05-18"
"74486454787","2020-03-31T03:38:00","FM-16","7",,,,,,,,,,,,,,,,,,,,,,,,,,,,,,,,,,,,,,"29.99","36","43",,,,,"76",,"BKN:07 16 OVC:08 33","29.90","10.00","40","060",,"9",,,,,,,,,,,,,,,,,,,,,,,,,,,,,,,,,,,,,"MET09303/31/20 03:38:02 SPECI KFRG 310838Z 06008KT 10SM BKN016 OVC033 06/02 A2999 RMK AO2 T00610022","FM-16","7",,,,,,,,,,,,,,,,,,,,,,,,,,,,"2009-05-18"
"74486454787","2020-03-31T03:53:00","FM-15","7",,,,,,,,,,,,,,,,,,,,,,,,,,,,,,,,,,,,,,"29.99","36","43","0.00",,"+0.00","5","76","29.99","OVC:08 16","29.90","10.00","40","050",,"10",,,,,,,,,,,,,,,,,,,,,,,,,,,,,,,,,,,,,"MET09903/31/20 03:53:02 METAR KFRG 310853Z 05009KT 10SM OVC016 06/02 A2999 RMK AO2 SLP155 T00610022 55000","FM-15","7",,,,,,,,,,,,,,,,,,,,,,,,,,,,"2009-05-18"
"74486454787","2020-03-31T04:27:00","FM-16","7",,,,,,,,,,,,,,,,,,,,,,,,,,,,,,,,,,,,,,"29.99","36","42",,,,,"79",,"OVC:08 14","29.90","10.00","39","060",,"13",,,,,,,,,,,,,,,,,,,,,,,,,,,,,,,,,,,,,"MET08603/31/20 04:27:02 SPECI KFRG 310927Z 06011KT 10SM OVC014 06/02 A2999 RMK AO2 T00560022","FM-16","7",,,,,,,,,,,,,,,,,,,,,,,,,,,,"2009-05-18"
"74486454787","2020-03-31T04:40:00","FM-16","7",,,,,,,,,,,,,,,,,,,,,,,,,,,,,,,,,,,,,,"30.00","35","42",,,,,"76",,"OVC:08 16","29.91","10.00","39","050",,"8",,,,,,,,,,,,,,,,,,,,,,,,,,,,,,,,,,,,,"MET08603/31/20 04:40:02 SPECI KFRG 310940Z 05007KT 10SM OVC016 06/02 A3000 RMK AO2 T00560017","FM-16","7",,,,,,,,,,,,,,,,,,,,,,,,,,,,"2009-05-18"
"74486454787","2020-03-31T04:53:00","FM-15","7",,,,,,,,,,,,,,,,,,,,,,,,,,,,,,,,,,,,,,"30.01","35","42","0.00",,,,"76","30.01","BKN:07 19 OVC:08 35","29.92","10.00","39","060",,"8",,,,,,,,,,,,,,,,,,,,,,,,,,,,,,,,,,,,,"MET10003/31/20 04:53:02 METAR KFRG 310953Z 06007KT 10SM BKN019 OVC035 06/02 A3001 RMK AO2 SLP163 T00560017","FM-15","7",,,,,,,,,,,,,,,,,,,,,,,,,,,,"2009-05-18"
"74486454787","2020-03-31T05:09:00","FM-16","7",,,,,,,,,,,,,,,,,,,,,,,,,,,,,,,,,,,,,,"30.03","35","42",,,,,"76",,"SCT:04 19 OVC:08 35","29.94","10.00","39","060",,"7",,,,,,,,,,,,,,,,,,,,,,,,,,,,,,,,,,,,,"MET09303/31/20 05:09:02 SPECI KFRG 311009Z 06006KT 10SM SCT019 OVC035 06/02 A3003 RMK AO2 T00560017","FM-16","7",,,,,,,,,,,,,,,,,,,,,,,,,,,,"2009-05-18"
"74486454787","2020-03-31T05:31:00","FM-16","7",,,,,,,,,,,,,,,,,,,,,,,,,,,,,,,,,,,,,,"30.04","35","42",,,,,"76",,"BKN:07 19 OVC:08 35","29.95","10.00","39","060",,"7",,,,,,,,,,,,,,,,,,,,,,,,,,,,,,,,,,,,,"MET09303/31/20 05:31:02 SPECI KFRG 311031Z 06006KT 10SM BKN019 OVC035 06/02 A3004 RMK AO2 T00560017","FM-16","7",,,,,,,,,,,,,,,,,,,,,,,,,,,,"2009-05-18"
"74486454787","2020-03-31T05:53:00","FM-15","7",,,,,,,,,,,,,,,,,,,,,,,,,,,,,,,,,,,,,,"30.04","34","42","0.00",,,,"73","30.04","OVC:08 20","29.95","10.00","39","070",,"8",,,,,,,,,,,,,,,,,,,,,,,,,,,,,,,,,,,,,"MET09303/31/20 05:53:02 METAR KFRG 311053Z 07007KT 10SM OVC020 06/01 A3004 RMK AO2 SLP174 T00560011","FM-15","7",,,,,,,,,,,,,,,,,,,,,,,,,,,,"2009-05-18"
"74486454787","2020-03-31T06:53:00","FM-15","7",,,,,,,,,,,,,,,,,,,,,,,,,,,,,,,,,,,,,,"30.06","34","42","0.00",,"-0.07","1","73","30.06","BKN:07 18 OVC:08 37","29.97","10.00","39","060",,"8",,,,,,,,,,,,,,,,,,,,,,,,,,,,,,,,,,,,,"MET12403/31/20 06:53:02 METAR KFRG 311153Z 06007KT 10SM BKN018 OVC037 06/01 A3006 RMK AO2 SLP178 70002 T00560011 10067 20056 51023","FM-15","7",,,,,,,,,,,,,,,,,,,,,,,,,,,,"2009-05-18"
"74486454787","2020-03-31T07:13:00","FM-16","7",,,,,,,,,,,,,,,,,,,,,,,,,,,,,,,,,,,,,,"30.05","34","42",,,,,"73",,"SCT:04 21 OVC:08 39","29.96","10.00","39","080",,"11",,,,,,,,,,,,,,,,,,,,,,,,,,,,,,,,,,,,,"MET09303/31/20 07:13:02 SPECI KFRG 311213Z 08010KT 10SM SCT021 OVC039 06/01 A3005 RMK AO2 T00560011","FM-16","7",,,,,,,,,,,,,,,,,,,,,,,,,,,,"2009-05-18"
"74486454787","2020-03-31T07:33:00","FM-16","7",,,,,,,,,,,,,,,,,,,,,,,,,,,,,,,,,,,,,,"30.05","34","43",,,,,"71",,"BKN:07 21 OVC:08 40","29.96","10.00","39","060",,"9",,,,,,,,,,,,,,,,,,,,,,,,,,,,,,,,,,,,,"MET09303/31/20 07:33:02 SPECI KFRG 311233Z 06008KT 10SM BKN021 OVC040 06/01 A3005 RMK AO2 T00610011","FM-16","7",,,,,,,,,,,,,,,,,,,,,,,,,,,,"2009-05-18"
"74486454787","2020-03-31T07:53:00","FM-15","7",,,,,,,,,,,,,,,,,,,,,,,,,,,,,,,,,,,,,,"30.05","34","43","0.00",,,,"71","30.05","BKN:07 20 OVC:08 40","29.96","10.00","39","060",,"7",,,,,,,,,,,,,,,,,,,,,,,,,,,,,,,,,,,,,"MET10003/31/20 07:53:02 METAR KFRG 311253Z 06006KT 10SM BKN020 OVC040 06/01 A3005 RMK AO2 SLP176 T00610011","FM-15","7",,,,,,,,,,,,,,,,,,,,,,,,,,,,"2009-05-18"
"74486454787","2020-03-31T08:53:00","FM-15","7",,,,,,,,,,,,,,,,,,,,,,,,,,,,,,,,,,,,,,"30.06","34","43","0.00",,,,"71","30.06","OVC:08 21","29.97","10.00","39","060",,"9",,,,,,,,,,,,,,,,,,,,,,,,,,,,,,,,,,,,,"MET09303/31/20 08:53:02 METAR KFRG 311353Z 06008KT 10SM OVC021 06/01 A3006 RMK AO2 SLP181 T00610011","FM-15","7",,,,,,,,,,,,,,,,,,,,,,,,,,,,"2009-05-18"
"74486454787","2020-03-31T09:53:00","FM-15","7",,,,,,,,,,,,,,,,,,,,,,,,,,,,,,,,,,,,,,"30.06","33","44","0.00",,"-0.00","2","65","30.06","OVC:08 23","29.97","10.00","39","050",,"9",,,,,,,,,,,,,,,,,,,,,,,,,,,,,,,,,,,,,"MET09903/31/20 09:53:02 METAR KFRG 311453Z 05008KT 10SM OVC023 07/01 A3006 RMK AO2 SLP179 T00670006 52001","FM-15","7",,,,,,,,,,,,,,,,,,,,,,,,,,,,"2009-05-18"
"74486454787","2020-03-31T10:53:00","FM-15","7",,,,,,,,,,,,,,,,,,,,,,,,,,,,,,,,,,,,,,"30.04","33","46","0.00",,,,"61","30.03","OVC:08 24","29.95","10.00","40","070",,"7",,,,,,,,,,,,,,,,,,,,,,,,,,,,,,,,,,,,,"MET09303/31/20 10:53:02 METAR KFRG 311553Z 07006KT 10SM OVC024 08/01 A3004 RMK AO2 SLP171 T00780006","FM-15","7",,,,,,,,,,,,,,,,,,,,,,,,,,,,"2009-05-18"
"74486454787","2020-03-31T11:53:00","FM-15","7",,,,,,,,,,,,,,,,,,,,,,,,,,,,,,,,,,,,,,"30.04","34","46","0.00",,,,"63","30.03","OVC:08 26","29.95","10.00","41","000",,"0",,,,,,,,,,,,,,,,,,,,,,,,,,,,,,,,,,,,,"MET09303/31/20 11:53:02 METAR KFRG 311653Z 00000KT 10SM OVC026 08/01 A3004 RMK AO2 SLP171 T00780011","FM-15","7",,,,,,,,,,,,,,,,,,,,,,,,,,,,"2009-05-18"
"74486454787","2020-03-31T12:53:00","FM-15","7",,,,,,,,,,,,,,,,,,,,,,,,,,,,,,,,,,,,,,"30.01","33","46","T",,"+0.04","6","61","30.01","OVC:08 28","29.92","10.00","40","000",,"0",,,,,,,,,,,,,,,,,,,,,,,,,,,,,,,,,,,,,"MET13203/31/20 12:53:02 METAR KFRG 311753Z 00000KT 10SM OVC028 08/01 A3001 RMK AO2 RAB21E30 SLP164 P0000 60000 T00780006 10083 20056 56015","FM-15","7",,,,,,,,,,,,,,,,,,,,,,,,,,,,"2009-05-18"
"74486454787","2020-03-31T13:53:00","FM-15","7",,,,,,,,,,,,,,,,,,,,,,,,,,,,,,,,,,,,,,"29.99","34","47","0.00",,,,"61","29.99","OVC:08 28","29.90","10.00","41","130",,"5",,,,,,,,,,,,,,,,,,,,,,,,,,,,,,,,,,,,,"MET09303/31/20 13:53:02 METAR KFRG 311853Z 13004KT 10SM OVC028 08/01 A2999 RMK AO2 SLP156 T00830011","FM-15","7",,,,,,,,,,,,,,,,,,,,,,,,,,,,"2009-05-18"
"74486454787","2020-03-31T14:02:00","FM-16","7",,,,,,,,,,,,,,,,,,,,,,,,,,,,,,,,,,,,,,"29.99","34","47",,,,,"61",,"OVC:08 30","29.90","10.00","41","VRB",,"3",,,,,,,,,,,,,,,,,,,,,,,,,,,,,,,,,,,,,"MET08603/31/20 14:02:02 SPECI KFRG 311902Z VRB03KT 10SM OVC030 08/01 A2999 RMK AO2 T00830011","FM-16","7",,,,,,,,,,,,,,,,,,,,,,,,,,,,"2009-05-18"
"74486454787","2020-03-31T14:53:00","FM-15","7",,,,,,,,,,,,,,,,,,,,,,,,,,,,,,,,,,,,,,"29.98","32","48","0.00",,,,"54","29.98","OVC:08 33","29.89","10.00","41","100",,"5",,,,,,,,,,,,,,,,,,,,,,,,,,,,,,,,,,,,,"MET09303/31/20 14:53:02 METAR KFRG 311953Z 10004KT 10SM OVC033 09/00 A2998 RMK AO2 SLP152 T00890000","FM-15","7",,,,,,,,,,,,,,,,,,,,,,,,,,,,"2009-05-18"
"74486454787","2020-03-31T15:53:00","FM-15","7",,,,,,,,,,,,,,,,,,,,,,,,,,,,,,,,,,,,,,"29.97","32","47","0.00",,"+0.04","6","56","29.97","OVC:08 35","29.88","10.00","41","080",,"8",,,,,,,,,,,,,,,,,,,,,,,,,,,,,,,,,,,,,"MET09903/31/20 15:53:02 METAR KFRG 312053Z 08007KT 10SM OVC035 08/00 A2997 RMK AO2 SLP149 T00830000 56015","FM-15","7",,,,,,,,,,,,,,,,,,,,,,,,,,,,"2009-05-18"
"74486454787","2020-03-31T16:53:00","FM-15","7",,,,,,,,,,,,,,,,,,,,,,,,,,,,,,,,,,,,,,"29.97","35","45","0.00",,,,"68","29.96","OVC:08 37","29.88","10.00","41","150",,"7",,,,,,,,,,,,,,,,,,,,,,,,,,,,,,,,,,,,,"MET09303/31/20 16:53:02 METAR KFRG 312153Z 15006KT 10SM OVC037 07/02 A2997 RMK AO2 SLP147 T00720017","FM-15","7",,,,,,,,,,,,,,,,,,,,,,,,,,,,"2009-05-18"
"74486454787","2020-03-31T17:53:00","FM-15","7",,,,,,,,,,,,,,,,,,,,,,,,,,,,,,,,,,,,,,"29.96","34","44","0.00",,,,"68","29.96","OVC:08 41","29.87","10.00","40","170",,"7",,,,,,,,,,,,,,,,,,,,,,,,,,,,,,,,,,,,,"MET09303/31/20 17:53:02 METAR KFRG 312253Z 17006KT 10SM OVC041 07/01 A2996 RMK AO2 SLP145 T00670011","FM-15","7",,,,,,,,,,,,,,,,,,,,,,,,,,,,"2009-05-18"
"74486454787","2020-03-31T18:53:00","FM-15","7",,,,,,,,,,,,,,,,,,,,,,,,,,,,,,,,,,,,,,"29.97","34","43","0.00",,"+0.01","5","71","29.96","OVC:08 46","29.88","10.00","39","150",,"7",,,,,,,,,,,,,,,,,,,,,,,,,,,,,,,,,,,,,"MET11103/31/20 18:53:02 METAR KFRG 312353Z 15006KT 10SM OVC046 06/01 A2997 RMK AO2 SLP147 T00610011 10094 20061 55002","FM-15","7",,,,,,,,,,,,,,,,,,,,,,,,,,,,"2009-05-18"
"74486454787","2020-03-31T19:51:00","FM-16","6",,,,,,,,,,,,,,,,,,,,,,,,,,,,,,,,,,,,,,"29.97","34","43",,,,,"71",,"BKN:07 21 OVC:08 46","29.88","10.00","39","110",,"7",,,,,,,,,,,,,,,,,,,,,,,,,,,,,,,,,,,,,"MET08803/31/20 19:51:03 SPECI KFRG 010051Z 11006KT 10SM BKN021 OVC046 06/01 A2997 RMK AO2 FIBI","FM-16","6",,,,,,,,,,,,,,,,,,,,,,,,,,,,"2009-05-18"
"74486454787","2020-03-31T19:53:00","FM-15","7",,,,,,,,,,,,,,,,,,,,,,,,,,,,,,,,,,,,,,"29.97","33","43","0.00",,,,"68","29.97","BKN:07 21 OVC:08 46","29.88","10.00","39","120",,"8",,,,,,,,,,,,,,,,,,,,,,,,,,,,,,,,,,,,,"MET10003/31/20 19:53:03 METAR KFRG 010053Z 12007KT 10SM BKN021 OVC046 06/01 A2997 RMK AO2 SLP149 T00610006","FM-15","7",,,,,,,,,,,,,,,,,,,,,,,,,,,,"2009-05-18"
"74486454787","2020-03-31T20:53:00","FM-15","7",,,,,,,,,,,,,,,,,,,,,,,,,,,,,,,,,,,,,,"29.98","32","43","0.00",,,,"65","29.98","OVC:08 22","29.89","10.00","38","120",,"8",,,,,,,,,,,,,,,,,,,,,,,,,,,,,,,,,,,,,"MET09303/31/20 20:53:03 METAR KFRG 010153Z 12007KT 10SM OVC022 06/00 A2998 RMK AO2 SLP152 T00610000","FM-15","7",,,,,,,,,,,,,,,,,,,,,,,,,,,,"2009-05-18"
"74486454787","2020-03-31T21:12:00","FM-16","7",,,,,,,,,,,,,,,,,,,,,,,,,,,,,,,,,,,,,,"29.98","31","43",,,,,"63",,"SCT:04 24 OVC:08 48","29.89","10.00","38","120",,"9",,,,,,,,,,,,,,,,,,,,,,,,,,,,,,,,,,,,,"MET09403/31/20 21:12:03 SPECI KFRG 010212Z 12008KT 10SM SCT024 OVC048 06/M01 A2998 RMK AO2 T00611006","FM-16","7",,,,,,,,,,,,,,,,,,,,,,,,,,,,"2009-05-18"
"74486454787","2020-03-31T21:53:00","FM-15","7",,,,,,,,,,,,,,,,,,,,,,,,,,,,,,,,,,,,,,"29.96","32","42","0.00",,"+0.00","8","68","29.96","SCT:04 24 OVC:08 47","29.87","10.00","38","130",,"8",,,,,,,,,,,,,,,,,,,,,,,,,,,,,,,,,,,,,"MET10603/31/20 21:53:03 METAR KFRG 010253Z 13007KT 10SM SCT024 OVC047 06/00 A2996 RMK AO2 SLP146 T00560000 58001","FM-15","7",,,,,,,,,,,,,,,,,,,,,,,,,,,,"2009-05-18"
"74486454787","2020-03-31T22:28:00","FM-16","7",,,,,,,,,,,,,,,,,,,,,,,,,,,,,,,,,,,,,,"29.94","32","42",,,,,"68",,"BKN:07 23 OVC:08 48","29.85","10.00","38","110",,"8",,,,,,,,,,,,,,,,,,,,,,,,,,,,,,,,,,,,,"MET09303/31/20 22:28:03 SPECI KFRG 010328Z 11007KT 10SM BKN023 OVC048 06/00 A2994 RMK AO2 T00560000","FM-16","7",,,,,,,,,,,,,,,,,,,,,,,,,,,,"2009-05-18"
"74486454787","2020-03-31T22:53:00","FM-15","7",,,,,,,,,,,,,,,,,,,,,,,,,,,,,,,,,,,,,,"29.93","32","42","0.00",,,,"68","29.93","OVC:08 23","29.84","10.00","38","100",,"8",,,,,,,,,,,,,,,,,,,,,,,,,,,,,,,,,,,,,"MET09303/31/20 22:53:03 METAR KFRG 010353Z 10007KT 10SM OVC023 06/00 A2993 RMK AO2 SLP136 T00560000","FM-15","7",,,,,,,,,,,,,,,,,,,,,,,,,,,,"2009-05-18"
"74486454787","2020-03-31T23:53:00","FM-15","7",,,,,,,,,,,,,,,,,,,,,,,,,,,,,,,,,,,,,,"29.92","32","41","0.00",,,,"70","29.92","BKN:07 22 OVC:08 28","29.83","10.00","37","070",,"6",,,,,,,,,,,,,,,,,,,,,,,,,,,,,,,,,,,,,"MET11003/31/20 23:53:03 METAR KFRG 010453Z 07005KT 10SM BKN022 OVC028 05/00 A2992 RMK AO2 SLP132 T00500000 400940050","FM-15","7",,,,,,,,,,,,,,,,,,,,,,,,,,,,"2009-05-18"
"74486454787","2020-03-31T23:59:00","SOD  ","6",,,,,,,,,,,,,,,,"45",,,"29.91",,"6.9","0","0.7","20","49","41","060","17","T",,,"050","13","HZ",,,,,,,,,,,,,,,,,,,,,,,,,,,,,,,,,,,,,,,,,,,,,,,,,,,,,,,,"SOD73024 HR PRECIPITATION (IN):T     24 HR MAX TEMP (F):49 24 HR MAX TEMP TIME (LST):1428 24 HR MIN TEMP (F):41 24 HR MIN TEMP TIME (LST):2359 AVERAGE STATION PRESSURE:29.915 MINIMUM SEA LEVEL PRESSURE:29.91 TIME OF OCCURRENCE:2350 PEAK WIND SPEED (MPH):17  PEAK WIND DIR (DEG):60  PEAK WIND TIME (LST):0703  FASTEST 2MIN SPEED (MPH):13 FASTEST 2MIN DIR (DEG):50  FASTEST 2MIN TIME (LST):0720 AVERAGE WIND SPEED (MPH):6.9  24 HR AVG TEMP (F):45 HEATING DEGREE DAYS:20  COOLING DEGREE DAYS:0   LATEST DAY MAX TEMP (0700-1900 LST):49  LATEST NIGHT MIN TEMP(1900-0800 LST):42 HOURLY INCREMENTAL PRECIPITATION VALUES (IN):    0.00 0.00 0.00 0.00 0.00 0.00 0.00 0.00 0.00 0.00 0.00 T    0.00 0.00 0.00 0.00 0.00 0.00 0.00 0.00 0.00 0.00 0.00","SOD  ","6",,,,,,,,,,,,,,,,,,,,,,,,,"0538","1818",,"2009-05-18"
"74486454787","2020-03-31T23:59:00","SOM  ","6","9.8",,,,,,,,,,,"0","0",,,,,,,,,,,,,,,,,,,,,,"3858","553",,,,,,,,,,,,,,,,,,,"9","6","4","0","0","0","7.0","0","-216","6.4","7.5","-0.63s",,"1.10","23-23",,,,,"30.71","22","2048","55.0","47.2","29.42","03","2329","39.3","30.12","30.03","3.19s",,,"-7777","769","SOM790PCP MTOT:3.19 PCP GT 24HRS:1.10 DATE(S):23 DAYS W/PCP >=.01:9  DAYS W/PCP >=.10:6  DAYS W/ PCP >=.50:2 DAYS W/PCP >=1.00:1 MSDP AMTS W/DATE-TIME TAGS:MIN:5 0.09  23/1758 MIN:10 0.14  23/1800 MIN:15 0.16  23/1803 MIN:20 0.18  23/1810 MIN:30 0.23  23/1820 MIN:45 0.27  23/1631 MIN:60 0.34  23/1847 MIN:80 0.41  23/1705 MIN:100 0.46  23/1705 MIN:120 0.49  19/0543 MIN:150 0.66  23/1813 MIN:180 0.78  23/1847 AVG DLY MIN:39.3  AVG DLY MAX:55.0  AVG MLY TMP:47.2  MIN TMP:25 DATE(S):01 MAX TMP:74  DATE(S):20 DAYS MAX <=32:0 DAYS MAX >=90:0  DAYS MIN <=32:4  DAYS MIN  <=0:0  AVG STP:30.030 LWST SLP:29.42 DATE/TIME:032329 HGST SLP:30.71 DATE/TIME:222048 HDD MTH TOT:546 DEP NORM:-2553 SEASON(JUL 1-JUN 30):3814 DEP NORM:-25536 CDD MTH TOT:0 DEP NORM:-2553 SEASON(JAN 1-DEC 31):0 DEP NORM:-25536","SOM  ","6","2020-03-23 17:58","2020-03-23 18:00","2020-03-23 18:03","2020-03-23 18:10","2020-03-23 18:20","2020-03-23 16:31","2020-03-23 18:47","2020-03-23 17:05","2020-03-23 17:05","2020-03-19 05:43","2020-03-23 18:13","2020-03-23 18:47","0.09","0.14","0.16","0.18","0.23","0.27","0.34","0.41","0.46","0.49","0.66","0.78",,,,"2009-05-18"
"74486454787","2020-04-01T00:53:00","FM-15","7",,,,,,,,,,,,,,,,,,,,,,,,,,,,,,,,,,,,,,"29.87","31","40","0.00",,"+0.09","8","70","29.87","SCT:04 29","29.78","10.00","36","060",,"9",,,,,,,,,,,,,,,,,,,,,,,,,,,,,,,,,,,,,"MET11904/01/20 00:53:02 METAR KFRG 010553Z 06008KT 10SM SCT029 04/M01 A2987 RMK AO2 PRESFR SLP114 T00441006 10061 20044 58032","FM-15","7",,,,,,,,,,,,,,,,,,,,,,,,,,,,"2009-05-18"
"74486454787","2020-04-01T01:53:00","FM-15","7",,,,,,,,,,,,,,,,,,,,,,,,,,,,,,,,,,,,,,"29.87","31","39","0.00",,,,"73","29.87","BKN:07 34","29.78","10.00","36","040",,"6",,,,,,,,,,,,,,,,,,,,,,,,,,,,,,,,,,,,,"MET09404/01/20 01:53:02 METAR KFRG 010653Z 04005KT 10SM BKN034 04/M01 A2987 RMK AO2 SLP116 T00391006","FM-15","7",,,,,,,,,,,,,,,,,,,,,,,,,,,,"2009-05-18"
"74486454787","2020-04-01T02:53:00","FM-15","7",,,,,,,,,,,,,,,,,,,,,,,,,,,,,,,,,,,,,,"29.84","30","38","0.00",,,,"73","29.84","FEW:02 23","29.75","10.00","35","040",,"6",,,,,,,,,,,,,,,,,,,,,,,,,,,,,,,,,,,,,"MET09404/01/20 02:53:02 METAR KFRG 010753Z 04005KT 10SM FEW023 03/M01 A2984 RMK AO2 SLP104 T00331011","FM-15","7",,,,,,,,,,,,,,,,,,,,,,,,,,,,"2009-05-18"
"74486454787","2020-04-01T03:53:00","FM-15","7",,,,,,,,,,,,,,,,,,,,,,,,,,,,,,,,,,,,,,"29.83","30","38","0.00",,"+0.04","8","73","29.83","CLR:00","29.74","10.00","35","040",,"10",,,,,,,,,,,,,,,,,,,,,,,,,,,,,,,,,,,,,"MET09704/01/20 03:53:02 METAR KFRG 010853Z 04009KT 10SM CLR 03/M01 A2983 RMK AO2 SLP100 T00331011 58014","FM-15","7",,,,,,,,,,,,,,,,,,,,,,,,,,,,"2009-05-18"
"74486454787","2020-04-01T04:53:00","FM-15","7",,,,,,,,,,,,,,,,,,,,,,,,,,,,,,,,,,,,,,"29.81","29","38","0.00",,,,"70","29.81","FEW:02 19","29.72","10.00","34","050",,"13",,,,,,,,,,,,,,,,,,,,,,,,,,,,,,,,,,,,,"MET09404/01/20 04:53:02 METAR KFRG 010953Z 05011KT 10SM FEW019 03/M02 A2981 RMK AO2 SLP096 T00331017","FM-15","7",,,,,,,,,,,,,,,,,,,,,,,,,,,,"2009-05-18"
"74486454787","2020-04-01T05:53:00","FM-15","7",,,,,,,,,,,,,,,,,,,,,,,,,,,,,,,,,,,,,,"29.82","29","37","0.00",,,,"73","29.82","FEW:02 18","29.73","10.00","34","050",,"13",,,,,,,,,,,,,,,,,,,,,,,,,,,,,,,,,,,,,"MET09404/01/20 05:53:02 METAR KFRG 011053Z 05011KT 10SM FEW018 03/M02 A2982 RMK AO2 SLP097 T00281017","FM-15","7",,,,,,,,,,,,,,,,,,,,,,,,,,,,"2009-05-18"
"74486454787","2020-04-01T06:53:00","FM-15","7",,,,,,,,,,,,,,,,,,,,,,,,,,,,,,,,,,,,,,"29.83","29","38","0.00",,"-0.00","3","70","29.83","FEW:02 21","29.74","10.00","34","040","21","13",,,,,,,,,,,,,,,,,,,,,,,,,,,,,,,,,,,,,"MET11504/01/20 06:53:02 METAR KFRG 011153Z 04011G18KT 10SM FEW021 03/M02 A2983 RMK AO2 SLP101 T00331017 10044 20028 53000","FM-15","7",,,,,,,,,,,,,,,,,,,,,,,,,,,,"2009-05-18"
"74486454787","2020-04-01T07:53:00","FM-15","7",,,,,,,,,,,,,,,,,,,,,,,,,,,,,,,,,,,,,,"29.83","29","41","0.00",,,,"62","29.83","FEW:02 23","29.74","10.00","36","020","20","11",,,,,,,,,,,,,,,,,,,,,,,,,,,,,,,,,,,,,"MET09704/01/20 07:53:02 METAR KFRG 011253Z 02010G17KT 10SM FEW023 05/M02 A2983 RMK AO2 SLP102 T00501017","FM-15","7",,,,,,,,,,,,,,,,,,,,,,,,,,,,"2009-05-18"
"74486454787","2020-04-01T08:53:00","FM-15","7",,,,,,,,,,,,,,,,,,,,,,,,,,,,,,,,,,,,,,"29.83","30","44","0.00",,,,"58","29.83","CLR:00","29.74","10.00","38","030",,"16",,,,,,,,,,,,,,,,,,,,,,,,,,,,,,,,,,,,,"MET09104/01/20 08:53:02 METAR KFRG 011353Z 03014KT 10SM CLR 07/M01 A2983 RMK AO2 SLP101 T00671011","FM-15","7",,,,,,,,,,,,,,,,,,,,,,,,,,,,"2009-05-18"
"74486454787","2020-04-01T09:53:00","FM-15","7",,,,,,,,,,,,,,,,,,,,,,,,,,,,,,,,,,,,,,"29.81","29","46","0.00",,"+0.02","8","51","29.81","CLR:00","29.72","10.00","39","040",,"17",,,,,,,,,,,,,,,,,,,,,,,,,,,,,,,,,,,,,"MET11504/01/20 09:53:02 METAR KFRG 011453Z 04015KT 10SM CLR 08/M02 A2981 RMK AO2 PK WND 03026/1401 SLP095 T00781017 58006","FM-15","7",,,,,,,,,,,,,,,,,,,,,,,,,,,,"2009-05-18"
"74486454787","2020-04-01T10:53:00","FM-15","7",,,,,,,,,,,,,,,,,,,,,,,,,,,,,,,,,,,,,,"29.79","26","48","0.00",,,,"42","29.79","CLR:00","29.70","10.00","39","060","23","13",,,,,,,,,,,,,,,,,,,,,,,,,,,,,,,,,,,,,"MET09404/01/20 10:53:02 METAR KFRG 011553Z 06011G20KT 10SM CLR 09/M03 A2979 RMK AO2 SLP089 T00891033","FM-15","7",,,,,,,,,,,,,,,,,,,,,,,,,,,,"2009-05-18"
"74486454787","2020-04-01T11:53:00","FM-15","7",,,,,,,,,,,,,,,,,,,,,,,,,,,,,,,,,,,,,,"29.77","28","50","0.00",,,,"43","29.77","CLR:00","29.68","10.00","41","010",,"13",,,,,,,,,,,,,,,,,,,,,,,,,,,,,,,,,,,,,"MET09104/01/20 11:53:02 METAR KFRG 011653Z 01011KT 10SM CLR 10/M02 A2977 RMK AO2 SLP082 T01001022","FM-15","7",,,,,,,,,,,,,,,,,,,,,,,,,,,,"2009-05-18"
"74486454787","2020-04-01T12:53:00","FM-15","7",,,,,,,,,,,,,,,,,,,,,,,,,,,,,,,,,,,,,,"29.76","28","52","0.00",,"+0.05","6","40","29.76","CLR:00","29.67","10.00","42","030",,"15",,,,,,,,,,,,,,,,,,,,,,,,,,,,,,,,,,,,,"MET10904/01/20 12:53:02 METAR KFRG 011753Z 03013KT 10SM CLR 11/M02 A2976 RMK AO2 SLP077 T01111022 10117 20033 56018","FM-15","7",,,,,,,,,,,,,,,,,,,,,,,,,,,,"2009-05-18"
"74486454787","2020-04-01T13:53:00","FM-15","7",,,,,,,,,,,,,,,,,,,,,,,,,,,,,,,,,,,,,,"29.73","26","53","0.00",,,,"35","29.73","CLR:00","29.64","10.00","42","020","22","14",,,,,,,,,,,,,,,,,,,,,,,,,,,,,,,,,,,,,"MET09404/01/20 13:53:02 METAR KFRG 011853Z 02012G19KT 10SM CLR 12/M03 A2973 RMK AO2 SLP068 T01171033","FM-15","7",,,,,,,,,,,,,,,,,,,,,,,,,,,,"2009-05-18"
"74486454787","2020-04-01T14:53:00","FM-15","7",,,,,,,,,,,,,,,,,,,,,,,,,,,,,,,,,,,,,,"29.71","26","55","0.00",,,,"33","29.71","FEW:02 60","29.62","10.00","43","360",,"8",,,,,,,,,,,,,,,,,,,,,,,,,,,,,,,,,,,,,"MET09404/01/20 14:53:02 METAR KFRG 011953Z 36007KT 10SM FEW060 13/M03 A2971 RMK AO2 SLP062 T01281033","FM-15","7",,,,,,,,,,,,,,,,,,,,,,,,,,,,"2009-05-18"
"74486454787","2020-04-01T15:53:00","FM-15","7",,,,,,,,,,,,,,,,,,,,,,,,,,,,,,,,,,,,,,"29.71","25","56","0.00",,"+0.05","6","30","29.71","CLR:00","29.62","10.00","43","VRB",,"9",,,,,,,,,,,,,,,,,,,,,,,,,,,,,,,,,,,,,"MET09704/01/20 15:53:02 METAR KFRG 012053Z 01008KT 10SM CLR 13/M04 A2971 RMK AO2 SLP061 T01331039 56017","FM-15","7",,,,,,,,,,,,,,,,,,,,,,,,,,,,"2009-05-18"
"74486454787","2020-04-01T16:53:00","FM-15","7",,,,,,,,,,,,,,,,,,,,,,,,,,,,,,,,,,,,,,"29.71","25","55","0.00",,,,"31","29.71","FEW:02 65","29.62","10.00","42","340","22","11",,,,,,,,,,,,,,,,,,,,,,,,,,,,,,,,,,,,,"MET09704/01/20 16:53:02 METAR KFRG 012153Z 34010G19KT 10SM FEW065 13/M04 A2971 RMK AO2 SLP061 T01281039","FM-15","7",,,,,,,,,,,,,,,,,,,,,,,,,,,,"2009-05-18"
"74486454787","2020-04-01T17:53:00","FM-15","7",,,,,,,,,,,,,,,,,,,,,,,,,,,,,,,,,,,,,,"29.71","23","53","0.00",,,,"31","29.71","CLR:00","29.62","10.00","41","350",,"8",,,,,,,,,,,,,,,,,,,,,,,,,,,,,,,,,,,,,"MET09104/01/20 17:53:02 METAR KFRG 012253Z 35007KT 10SM CLR 12/M05 A2971 RMK AO2 SLP062 T01171050","FM-15","7",,,,,,,,,,,,,,,,,,,,,,,,,,,,"2009-05-18"
"74486454787","2020-04-01T18:53:00","FM-15","7",,,,,,,,,,,,,,,,,,,,,,,,,,,,,,,,,,,,,,"29.73","35","45","0.00",,"-0.02","3","68","29.73","SCT:04 70","29.64","10.00","41","150",,"7",,,,,,,,,,,,,,,,,,,,,,,,,,,,,,,,,,,,,"MET11104/01/20 18:53:02 METAR KFRG 012353Z 15006KT 10SM SCT070 07/02 A2973 RMK AO2 SLP069 T00720017 10133 20072 53008","FM-15","7",,,,,,,,,,,,,,,,,,,,,,,,,,,,"2009-05-18"
"74486454787","2020-04-01T19:53:00","FM-15","7",,,,,,,,,,,,,,,,,,,,,,,,,,,,,,,,,,,,,,"29.74","36","43","0.00",,,,"76","29.74","CLR:00","29.65","10.00","40","200",,"5",,,,,,,,,,,,,,,,,,,,,,,,,,,,,,,,,,,,,"MET09004/01/20 19:53:01 METAR KFRG 020053Z 20004KT 10SM CLR 06/02 A2974 RMK AO2 SLP072 T00610022","FM-15","7",,,,,,,,,,,,,,,,,,,,,,,,,,,,"2009-05-18"
"74486454787","2020-04-01T20:53:00","FM-15","7",,,,,,,,,,,,,,,,,,,,,,,,,,,,,,,,,,,,,,"29.74","35","43","0.00",,,,"74","29.74","CLR:00","29.65","10.00","40","000",,"0",,,,,,,,,,,,,,,,,,,,,,,,,,,,,,,,,,,,,"MET09004/01/20 20:53:01 METAR KFRG 020153Z 00000KT 10SM CLR 06/02 A2974 RMK AO2 SLP070 T00610017","FM-15","7",,,,,,,,,,,,,,,,,,,,,,,,,,,,"2009-05-18"
"74486454787","2020-04-01T21:53:00","FM-15","7",,,,,,,,,,,,,,,,,,,,,,,,,,,,,,,,,,,,,,"29.74","27","49","0.00",,"-0.00","0","43","29.73","CLR:00","29.65","10.00","40","350",,"8",,,,,,,,,,,,,,,,,,,,,,,,,,,,,,,,,,,,,"MET09704/01/20 21:53:01 METAR KFRG 020253Z 35007KT 10SM CLR 09/M03 A2974 RMK AO2 SLP069 T00941028 50000","FM-15","7",,,,,,,,,,,,,,,,,,,,,,,,,,,,"2009-05-18"
"74486454787","2020-04-01T22:53:00","FM-15","7",,,,,,,,,,,,,,,,,,,,,,,,,,,,,,,,,,,,,,"29.73","26","49","0.00",,,,"41","29.73","CLR:00","29.64","10.00","40","320",,"9",,,,,,,,,,,,,,,,,,,,,,,,,,,,,,,,,,,,,"MET09104/01/20 22:53:02 METAR KFRG 020353Z 32008KT 10SM CLR 09/M03 A2973 RMK AO2 SLP068 T00941033","FM-15","7",,,,,,,,,,,,,,,,,,,,,,,,,,,,"2009-05-18"
"74486454787","2020-04-01T23:53:00","FM-15","7",,,,,,,,,,,,,,,,,,,,,,,,,,,,,,,,,,,,,,"29.73","26","47","0.00",,,,"44","29.73","CLR:00","29.64","10.00","39","320",,"11",,,,,,,,,,,,,,,,,,,,,,,,,,,,,,,,,,,,,"MET10104/01/20 23:53:02 METAR KFRG 020453Z 32010KT 10SM CLR 08/M03 A2973 RMK AO2 SLP067 T00831033 401330028","FM-15","7",,,,,,,,,,,,,,,,,,,,,,,,,,,,"2009-05-18"
"74486454787","2020-04-01T23:59:00","SOD  ","6",,,,,,,,,,,,,,,,"47",,,"29.70",,"10.2","0","2.4","18","56","37","030","29","0.00",,,"040","21",,,,,,,,,,,,,,,,,,,,,,,,,,,,,,,,,,,,,,,,,,,,,,,,,,,,,,,,,"SOD73024 HR PRECIPITATION (IN):0.00  24 HR MAX TEMP (F):56 24 HR MAX TEMP TIME (LST):1645 24 HR MIN TEMP (F):37 24 HR MIN TEMP TIME (LST):0620 AVERAGE STATION PRESSURE:29.705 MINIMUM SEA LEVEL PRESSURE:29.71 TIME OF OCCURRENCE:1801 PEAK WIND SPEED (MPH):29  PEAK WIND DIR (DEG):30  PEAK WIND TIME (LST):0901  FASTEST 2MIN SPEED (MPH):21 FASTEST 2MIN DIR (DEG):40  FASTEST 2MIN TIME (LST):1038 AVERAGE WIND SPEED (MPH):10.2 24 HR AVG TEMP (F):47 HEATING DEGREE DAYS:18  COOLING DEGREE DAYS:0   LATEST DAY MAX TEMP (0700-1900 LST):56  LATEST NIGHT MIN TEMP(1900-0800 LST):37 HOURLY INCREMENTAL PRECIPITATION VALUES (IN):.00 0.00 0.00 0.00 0.00 0.00 0.00 0.00 0.00 0.00 0.00 0.00 0.00 0.00 0.00 0.00 0.00 0.00 0.00 0.00 0.00 0.00 0.00 0.00","SOD  ","6",,,,,,,,,,,,,,,,,,,,,,,,,"0536","1819",,"2009-05-18"
"74486454787","2020-04-02T00:53:00","FM-15","7",,,,,,,,,,,,,,,,,,,,,,,,,,,,,,,,,,,,,,"29.73","26","46","0.00",,"+0.01","6","46","29.72","CLR:00","29.64","10.00","38","330","22","16",,,,,,,,,,,,,,,,,,,,,,,,,,,,,,,,,,,,,"MET11204/02/20 00:53:02 METAR KFRG 020553Z 33014G19KT 10SM CLR 08/M03 A2973 RMK AO2 SLP066 T00781033 10094 20056 56003","FM-15","7",,,,,,,,,,,,,,,,,,,,,,,,,,,,"2009-05-18"
"74486454787","2020-04-02T01:53:00","FM-15","7",,,,,,,,,,,,,,,,,,,,,,,,,,,,,,,,,,,,,,"29.72","28","44","0.00",,,,"53","29.72","CLR:00","29.63","10.00","38","340","20","10",,,,,,,,,,,,,,,,,,,,,,,,,,,,,,,,,,,,,"MET09404/02/20 01:53:02 METAR KFRG 020653Z 34009G17KT 10SM CLR 07/M02 A2972 RMK AO2 SLP065 T00671022","FM-15","7",,,,,,,,,,,,,,,,,,,,,,,,,,,,"2009-05-18"
"74486454787","2020-04-02T02:53:00","FM-15","7",,,,,,,,,,,,,,,,,,,,,,,,,,,,,,,,,,,,,,"29.72","28","42","0.00",,,,"58","29.72","CLR:00","29.63","10.00","36","340",,"11",,,,,,,,,,,,,,,,,,,,,,,,,,,,,,,,,,,,,"MET09104/02/20 02:53:02 METAR KFRG 020753Z 34010KT 10SM CLR 06/M02 A2972 RMK AO2 SLP066 T00561022","FM-15","7",,,,,,,,,,,,,,,,,,,,,,,,,,,,"2009-05-18"
"74486454787","2020-04-02T03:53:00","FM-15","7",,,,,,,,,,,,,,,,,,,,,,,,,,,,,,,,,,,,,,"29.72","28","41","0.00",,"+0.01","8","60","29.72","CLR:00","29.63","10.00","36","330",,"8",,,,,,,,,,,,,,,,,,,,,,,,,,,,,,,,,,,,,"MET09704/02/20 03:53:02 METAR KFRG 020853Z 33007KT 10SM CLR 05/M02 A2972 RMK AO2 SLP063 T00501022 58003","FM-15","7",,,,,,,,,,,,,,,,,,,,,,,,,,,,"2009-05-18"
"74486454787","2020-04-02T04:53:00","FM-15","7",,,,,,,,,,,,,,,,,,,,,,,,,,,,,,,,,,,,,,"29.72","27","40","0.00",,,,"60","29.72","CLR:00","29.63","10.00","35","330",,"8",,,,,,,,,,,,,,,,,,,,,,,,,,,,,,,,,,,,,"MET09104/02/20 04:53:02 METAR KFRG 020953Z 33007KT 10SM CLR 04/M03 A2972 RMK AO2 SLP063 T00441028","FM-15","7",,,,,,,,,,,,,,,,,,,,,,,,,,,,"2009-05-18"
"74486454787","2020-04-02T05:53:00","FM-15","7",,,,,,,,,,,,,,,,,,,,,,,,,,,,,,,,,,,,,,"29.72","27","41","0.00",,,,"57","29.72","CLR:00","29.63","10.00","35","330",,"10",,,,,,,,,,,,,,,,,,,,,,,,,,,,,,,,,,,,,"MET09104/02/20 05:53:02 METAR KFRG 021053Z 33009KT 10SM CLR 05/M03 A2972 RMK AO2 SLP064 T00501028","FM-15","7",,,,,,,,,,,,,,,,,,,,,,,,,,,,"2009-05-18"
"74486454787","2020-04-02T06:53:00","FM-15","7",,,,,,,,,,,,,,,,,,,,,,,,,,,,,,,,,,,,,,"29.72","28","43","0.00",,"-0.00","2","56","29.72","CLR:00","29.63","10.00","37","330","21","11",,,,,,,,,,,,,,,,,,,,,,,,,,,,,,,,,,,,,"MET11204/02/20 06:53:02 METAR KFRG 021153Z 33010G18KT 10SM CLR 06/M02 A2972 RMK AO2 SLP064 T00611022 10078 20044 52001","FM-15","7",,,,,,,,,,,,,,,,,,,,,,,,,,,,"2009-05-18"
"74486454787","2020-04-02T07:53:00","FM-15","7",,,,,,,,,,,,,,,,,,,,,,,,,,,,,,,,,,,,,,"29.70","28","45","0.00",,,,"52","29.70","CLR:00","29.61","10.00","38","340","23","15",,,,,,,,,,,,,,,,,,,,,,,,,,,,,,,,,,,,,"MET09404/02/20 07:53:02 METAR KFRG 021253Z 34013G20KT 10SM CLR 07/M02 A2970 RMK AO2 SLP057 T00721022","FM-15","7",,,,,,,,,,,,,,,,,,,,,,,,,,,,"2009-05-18"
"74486454787","2020-04-02T08:53:00","FM-15","7",,,,,,,,,,,,,,,,,,,,,,,,,,,,,,,,,,,,,,"29.69","29","48","0.00",,,,"48","29.69","SCT:04 37","29.60","10.00","40","330","24","17",,,,,,,,,,,,,,,,,,,,,,,,,,,,,,,,,,,,,"MET11504/02/20 08:53:02 METAR KFRG 021353Z 33015G21KT 10SM SCT037 09/M02 A2969 RMK AO2 PK WND 33026/1322 SLP054 T00891017","FM-15","7",,,,,,,,,,,,,,,,,,,,,,,,,,,,"2009-05-18"
"74486454787","2020-04-02T09:53:00","FM-15","7",,,,,,,,,,,,,,,,,,,,,,,,,,,,,,,,,,,,,,"29.67","29","50","0.00",,"+0.05","6","44","29.67","SCT:04 39","29.58","10.00","41","340","31","16",,,,,,,,,,,,,,,,,,,,,,,,,,,,,,,,,,,,,"MET12104/02/20 09:53:02 METAR KFRG 021453Z 34014G27KT 10SM SCT039 10/M02 A2967 RMK AO2 PK WND 36027/1445 SLP047 T01001017 56017","FM-15","7",,,,,,,,,,,,,,,,,,,,,,,,,,,,"2009-05-18"
"74486454787","2020-04-02T10:53:00","FM-15","7",,,,,,,,,,,,,,,,,,,,,,,,,,,,,,,,,,,,,,"29.65","29","52","0.00",,,,"41","29.65","CLR:00","29.56","10.00","42","340","31","20",,,,,,,,,,,,,,,,,,,,,,,,,,,,,,,,,,,,,"MET11204/02/20 10:53:02 METAR KFRG 021553Z 34017G27KT 10SM CLR 11/M02 A2965 RMK AO2 PK WND 34029/1537 SLP039 T01111017","FM-15","7",,,,,,,,,,,,,,,,,,,,,,,,,,,,"2009-05-18"
"74486454787","2020-04-02T11:53:00","FM-15","7",,,,,,,,,,,,,,,,,,,,,,,,,,,,,,,,,,,,,,"29.62","29","54","0.00",,,,"38","29.62","CLR:00","29.53","10.00","43","350","37","20",,,,,,,,,,,,,,,,,,,,,,,,,,,,,,,,,,,,,"MET11204/02/20 11:53:02 METAR KFRG 021653Z 35017G32KT 10SM CLR 12/M02 A2962 RMK AO2 PK WND 32033/1606 SLP031 T01221017","FM-15","7",,,,,,,,,,,,,,,,,,,,,,,,,,,,"2009-05-18"
"74486454787","2020-04-02T12:53:00","FM-15","7",,,,,,,,,,,,,,,,,,,,,,,,,,,,,,,,,,,,,,"29.61","30","56","0.00",,"+0.06","6","37","29.60","CLR:00","29.52","10.00","44","340","30","16",,,,,,,,,,,,,,,,,,,,,,,,,,,,,,,,,,,,,"MET13004/02/20 12:53:02 METAR KFRG 021753Z 34014G26KT 10SM CLR 13/M01 A2961 RMK AO2 PK WND 32031/1715 SLP025 T01331011 10139 20061 56022","FM-15","7",,,,,,,,,,,,,,,,,,,,,,,,,,,,"2009-05-18"
"74486454787","2020-04-02T13:53:00","FM-15","7",,,,,,,,,,,,,,,,,,,,,,,,,,,,,,,,,,,,,,"29.58","30","57","0.00",,,,"36","29.58","CLR:00","29.49","10.00","45","330","32","22",,,,,,,,,,,,,,,,,,,,,,,,,,,,,,,,,,,,,"MET11204/02/20 13:53:02 METAR KFRG 021853Z 33019G28KT 10SM CLR 14/M01 A2958 RMK AO2 PK WND 35029/1756 SLP017 T01391011","FM-15","7",,,,,,,,,,,,,,,,,,,,,,,,,,,,"2009-05-18"
"74486454787","2020-04-02T14:53:00","FM-15","7",,,,,,,,,,,,,,,,,,,,,,,,,,,,,,,,,,,,,,"29.57","30","58","0.00",,,,"35","29.57","BKN:07 80 BKN:07 95","29.48","10.00","45","330","33","23",,,,,,,,,,,,,,,,,,,,,,,,,,,,,,,,,,,,,"MET12204/02/20 14:53:02 METAR KFRG 021953Z 33020G29KT 10SM BKN080 BKN095 14/M01 A2957 RMK AO2 PK WND 32029/1952 SLP012 T01441011","FM-15","7",,,,,,,,,,,,,,,,,,,,,,,,,,,,"2009-05-18"
"74486454787","2020-04-02T15:53:00","FM-15","7",,,,,,,,,,,,,,,,,,,,,,,,,,,,,,,,,,,,,,"29.56","30","58","0.00",,"+0.04","6","35","29.56","FEW:02 70","29.47","10.00","45","340","33","16",,,,,,,,,,,,,,,,,,,,,,,,,,,,,,,,,,,,,"MET12104/02/20 15:53:02 METAR KFRG 022053Z 34014G29KT 10SM FEW070 14/M01 A2956 RMK AO2 PK WND 34030/2037 SLP010 T01441011 56015","FM-15","7",,,,,,,,,,,,,,,,,,,,,,,,,,,,"2009-05-18"
"74486454787","2020-04-02T16:53:00","FM-15","7",,,,,,,,,,,,,,,,,,,,,,,,,,,,,,,,,,,,,,"29.57","30","57","0.00",,,,"36","29.57","OVC:08 70","29.48","10.00","45","340","24","15",,,,,,,,,,,,,,,,,,,,,,,,,,,,,,,,,,,,,"MET11504/02/20 16:53:02 METAR KFRG 022153Z 34013G21KT 10SM OVC070 14/M01 A2957 RMK AO2 PK WND 32027/2056 SLP015 T01391011","FM-15","7",,,,,,,,,,,,,,,,,,,,,,,,,,,,"2009-05-18"
"74486454787","2020-04-02T17:53:00","FM-15","7",,,,,,,,,,,,,,,,,,,,,,,,,,,,,,,,,,,,,,"29.58","30","56","0.00",,,,"37","29.58","OVC:08 85","29.49","10.00","44","340","25","14",,,,,,,,,,,,,,,,,,,,,,,,,,,,,,,,,,,,,"MET09704/02/20 17:53:02 METAR KFRG 022253Z 34012G22KT 10SM OVC085 13/M01 A2958 RMK AO2 SLP017 T01331011","FM-15","7",,,,,,,,,,,,,,,,,,,,,,,,,,,,"2009-05-18"
"74486454787","2020-04-02T18:53:00","FM-15","7",,,,,,,,,,,,,,,,,,,,,,,,,,,,,,,,,,,,,,"29.59","30","55","0.00",,"-0.03","2","38","29.59","OVC:08 75","29.50","10.00","44","330","29","20",,,,,,,,,,,,,,,,,,,,,,,,,,,,,,,,,,,,,"MET13304/02/20 18:53:02 METAR KFRG 022353Z 33017G25KT 10SM OVC075 13/M01 A2959 RMK AO2 PK WND 34028/2332 SLP021 T01281011 10161 20128 52011","FM-15","7",,,,,,,,,,,,,,,,,,,,,,,,,,,,"2009-05-18"
"74486454787","2020-04-02T19:53:00","FM-15","7",,,,,,,,,,,,,,,,,,,,,,,,,,,,,,,,,,,,,,"29.62","30","53","0.00",,,,"41","29.62","BKN:07 70","29.53","10.00","43","330","28","14",,,,,,,,,,,,,,,,,,,,,,,,,,,,,,,,,,,,,"MET11504/02/20 19:53:01 METAR KFRG 030053Z 33012G24KT 10SM BKN070 12/M01 A2962 RMK AO2 PK WND 30026/0040 SLP029 T01171011","FM-15","7",,,,,,,,,,,,,,,,,,,,,,,,,,,,"2009-05-18"
"74486454787","2020-04-02T20:53:00","FM-15","7",,,,,,,,,,,,,,,,,,,,,,,,,,,,,,,,,,,,,,"29.61","30","53","0.00",,,,"41","29.61","OVC:08 60","29.52","10.00","43","330","23","13",,,,,,,,,,,,,,,,,,,,,,,,,,,,,,,,,,,,,"MET09704/02/20 20:53:01 METAR KFRG 030153Z 33011G20KT 10SM OVC060 12/M01 A2961 RMK AO2 SLP027 T01171011","FM-15","7",,,,,,,,,,,,,,,,,,,,,,,,,,,,"2009-05-18"
"74486454787","2020-04-02T21:53:00","FM-15","7",,,,,,,,,,,,,,,,,,,,,,,,,,,,,,,,,,,,,,"29.60","30","52","0.00",,"-0.01","0","43","29.60","OVC:08 60","29.51","10.00","42","350","25","15",,,,,,,,,,,,,,,,,,,,,,,,,,,,,,,,,,,,,"MET12104/02/20 21:53:01 METAR KFRG 030253Z 35013G22KT 10SM OVC060 11/M01 A2960 RMK AO2 PK WND 35027/0239 SLP023 T01111011 50002","FM-15","7",,,,,,,,,,,,,,,,,,,,,,,,,,,,"2009-05-18"
"74486454787","2020-04-02T22:53:00","FM-15","7",,,,,,,,,,,,,,,,,,,,,,,,,,,,,,,,,,,,,,"29.60","34","50","0.00",,,,"54","29.60","OVC:08 42","29.51","10.00","43","340","29","15",,,,,,,,,,,,,,,,,,,,,,,,,,,,,,,,,,,,,"MET11404/02/20 22:53:02 METAR KFRG 030353Z 34013G25KT 10SM OVC042 10/01 A2960 RMK AO2 PK WND 36029/0323 SLP024 T01000011","FM-15","7",,,,,,,,,,,,,,,,,,,,,,,,,,,,"2009-05-18"
"74486454787","2020-04-02T23:53:00","FM-15","7",,,,,,,,,,,,,,,,,,,,,,,,,,,,,,,,,,,,,,"29.59","35","48","T","-RA:02 |RA |RA",,,"61","29.59","OVC:08 46","29.50","10.00","42","340","26","18",,,,,,,,,,,,,,,,,,,,,,,,,,,,,,,,,,,,,"MET14004/02/20 23:53:02 METAR KFRG 030453Z 34016G23KT 10SM -RA OVC046 09/02 A2959 RMK AO2 PK WND 35027/0419 RAB05 SLP019 P0000 T00890017 401610044","FM-15","7",,,,,,,,,,,,,,,,,,,,,,,,,,,,"2009-05-18"
"74486454787","2020-04-02T23:59:00","SOD  ","6",,,,,,,,,,,,,,,,"51",,,"29.57",,"15.1","0","6.1","14","61","40","320","38","T",,,"330","26","RA",,,,,,,,,,,,,,,,,,,,,,,,,,,,,,,,,,,,,,,,,,,,,,,,,,,,,,,,"SOD72724 HR PRECIPITATION (IN):T     24 HR MAX TEMP (F):61 24 HR MAX TEMP TIME (LST):1425 24 HR MIN TEMP (F):40 24 HR MIN TEMP TIME (LST):0511 AVERAGE STATION PRESSURE:29.570 MINIMUM SEA LEVEL PRESSURE:29.56 TIME OF OCCURRENCE:1624 PEAK WIND SPEED (MPH):38  PEAK WIND DIR (DEG):320 PEAK WIND TIME (LST):1106  FASTEST 2MIN SPEED (MPH):26 FASTEST 2MIN DIR (DEG):330 FASTEST 2MIN TIME (LST):1107 AVERAGE WIND SPEED (MPH):15.1 24 HR AVG TEMP (F):51 HEATING DEGREE DAYS:14  COOLING DEGREE DAYS:0   LATEST DAY MAX TEMP (0700-1900 LST):61  LATEST NIGHT MIN TEMP(1900-0800 LST):40 HOURLY INCREMENTAL PRECIPITATION VALUES (IN):.00 0.00 0.00 0.00 0.00 0.00 0.00 0.00 0.00 0.00 0.00 0.00 0.00 0.00 0.00 0.00 0.00 0.00 0.00 0.00 0.00 0.00 0.00 T","SOD  ","6",,,,,,,,,,,,,,,,,,,,,,,,,"0534","1820",,"2009-05-18"
"74486454787","2020-04-03T00:53:00","FM-15","7",,,,,,,,,,,,,,,,,,,,,,,,,,,,,,,,,,,,,,"29.58","36","47","0.01","-RA:02 |RA |RA","+0.02","8","66","29.58","OVC:08 33","29.49","10.00","42","330","24","14",,,,,,,,,,,,,,,,,,,,,,,,,,,,,,,,,,,,,"MET13004/03/20 00:53:02 METAR KFRG 030553Z 33012G21KT 10SM -RA OVC033 08/02 A2958 RMK AO2 SLP017 P0000 60000 T00830022 10128 20083 58006","FM-15","7",,,,,,,,,,,,,,,,,,,,,,,,,,,,"2009-05-18"
"74486454787","2020-04-03T01:53:00","FM-15","7",,,,,,,,,,,,,,,,,,,,,,,,,,,,,,,,,,,,,,"29.56","36","46","T",,,,"68","29.56","OVC:08 41","29.47","10.00","42","330",,"13",,,,,,,,,,,,,,,,,,,,,,,,,,,,,,,,,,,,,"MET12304/03/20 01:53:02 METAR KFRG 030653Z 33011KT 10SM OVC041 08/02 A2956 RMK AO2 PK WND 33027/0607 RAE42 SLP011 P0001 T00780022","FM-15","7",,,,,,,,,,,,,,,,,,,,,,,,,,,,"2009-05-18"
"74486454787","2020-04-03T02:53:00","FM-15","7",,,,,,,,,,,,,,,,,,,,,,,,,,,,,,,,,,,,,,"29.56","36","46","T","-RA:02 |RA |RA",,,"68","29.56","FEW:02 34 OVC:08 41","29.47","10.00","42","340","33","14",,,,,,,,,,,,,,,,,,,,,,,,,,,,,,,,,,,,,"MET13704/03/20 02:53:02 METAR KFRG 030753Z 34012G29KT 10SM -RA FEW034 OVC041 08/02 A2956 RMK AO2 PK WND 34029/0744 RAB17 SLP010 P0000 T00780022","FM-15","7",,,,,,,,,,,,,,,,,,,,,,,,,,,,"2009-05-18"
"74486454787","2020-04-03T03:53:00","FM-15","7",,,,,,,,,,,,,,,,,,,,,,,,,,,,,,,,,,,,,,"29.56","36","46","T","-RA:02 |RA |RA","+0.02","5","68","29.56","OVC:08 36","29.47","10.00","42","340","28","18",,,,,,,,,,,,,,,,,,,,,,,,,,,,,,,,,,,,,"MET11804/03/20 03:53:02 METAR KFRG 030853Z 34016G24KT 10SM -RA OVC036 08/02 A2956 RMK AO2 SLP011 P0000 60001 T00780022 55007","FM-15","7",,,,,,,,,,,,,,,,,,,,,,,,,,,,"2009-05-18"
"74486454787","2020-04-03T04:53:00","FM-15","7",,,,,,,,,,,,,,,,,,,,,,,,,,,,,,,,,,,,,,"29.58","36","44","0.01","-RA:02 |RA |RA",,,"73","29.57","OVC:08 46","29.49","10.00","40","340","26","14",,,,,,,,,,,,,,,,,,,,,,,,,,,,,,,,,,,,,"MET12404/03/20 04:53:02 METAR KFRG 030953Z 34012G23KT 10SM -RA OVC046 07/02 A2958 RMK AO2 PK WND 32029/0918 SLP015 P0001 T00670022","FM-15","7",,,,,,,,,,,,,,,,,,,,,,,,,,,,"2009-05-18"
"74486454787","2020-04-03T05:53:00","FM-15","7",,,,,,,,,,,,,,,,,,,,,,,,,,,,,,,,,,,,,,"29.59","37","44","T","-RA:02 |RA |RA",,,"76","29.59","SCT:04 35 OVC:08 47","29.50","10.00","41","340","24","15",,,,,,,,,,,,,,,,,,,,,,,,,,,,,,,,,,,,,"MET11304/03/20 05:53:02 METAR KFRG 031053Z 34013G21KT 10SM -RA SCT035 OVC047 07/03 A2959 RMK AO2 SLP020 P0000 T00670028","FM-15","7",,,,,,,,,,,,,,,,,,,,,,,,,,,,"2009-05-18"
"74486454787","2020-04-03T06:53:00","FM-15","7",,,,,,,,,,,,,,,,,,,,,,,,,,,,,,,,,,,,,,"29.60","37","44","T",,"-0.04","1","76","29.60","BKN:07 40 BKN:07 47 OVC:08 55","29.51","10.00","41","340","26","17",,,,,,,,,,,,,,,,,,,,,,,,,,,,,,,,,,,,,"MET15204/03/20 06:53:02 METAR KFRG 031153Z 34015G23KT 10SM BKN040 BKN047 OVC055 07/03 A2960 RMK AO2 RAE50 SLP023 P0000 60002 70002 T00670028 10083 20067 51013","FM-15","7",,,,,,,,,,,,,,,,,,,,,,,,,,,,"2009-05-18"
"74486454787","2020-04-03T07:53:00","FM-15","7",,,,,,,,,,,,,,,,,,,,,,,,,,,,,,,,,,,,,,"29.60","39","46","T","-RA:02 |RA |RA",,,"77","29.60","BKN:07 43 OVC:08 55","29.51","10.00","43","340","26","18",,,,,,,,,,,,,,,,,,,,,,,,,,,,,,,,,,,,,"MET11904/03/20 07:53:02 METAR KFRG 031253Z 34016G23KT 10SM -RA BKN043 OVC055 08/04 A2960 RMK AO2 RAB13 SLP023 P0000 T00780039","FM-15","7",,,,,,,,,,,,,,,,,,,,,,,,,,,,"2009-05-18"
"74486454787","2020-04-03T08:53:00","FM-15","7",,,,,,,,,,,,,,,,,,,,,,,,,,,,,,,,,,,,,,"29.61","40","48","T",,,,"74","29.61","BKN:07 39 OVC:08 50","29.52","10.00","44","330","22","14",,,,,,,,,,,,,,,,,,,,,,,,,,,,,,,,,,,,,"MET11504/03/20 08:53:02 METAR KFRG 031353Z 33012G19KT 10SM BKN039 OVC050 09/04 A2961 RMK AO2 RAE47 SLP028 P0000 T00890044","FM-15","7",,,,,,,,,,,,,,,,,,,,,,,,,,,,"2009-05-18"
"74486454787","2020-04-03T09:53:00","FM-15","7",,,,,,,,,,,,,,,,,,,,,,,,,,,,,,,,,,,,,,"29.62","41","49","T","-RA:02 |RA |RA","-0.02","3","74","29.62","BKN:07 44 OVC:08 60","29.53","10.00","45","340","24","17",,,,,,,,,,,,,,,,,,,,,,,,,,,,,,,,,,,,,"MET14904/03/20 09:53:02 METAR KFRG 031453Z 34015G21KT 10SM -RA BKN044 OVC060 09/05 A2962 RMK AO2 PK WND 34028/1402 RAB37 SLP030 P0000 60000 T00940050 53007","FM-15","7",,,,,,,,,,,,,,,,,,,,,,,,,,,,"2009-05-18"
"74486454787","2020-04-03T10:53:00","FM-15","7",,,,,,,,,,,,,,,,,,,,,,,,,,,,,,,,,,,,,,"29.62","41","48","T",,,,"77","29.62","FEW:02 24 BKN:07 33 OVC:08 41","29.53","10.00","45","350","28","18",,,,,,,,,,,,,,,,,,,,,,,,,,,,,,,,,,,,,"MET14004/03/20 10:53:02 METAR KFRG 031553Z 35016G24KT 10SM FEW024 BKN033 OVC041 09/05 A2962 RMK AO2 PK WND 34028/1500 RAE49 SLP030 P0000 T00890050","FM-15","7",,,,,,,,,,,,,,,,,,,,,,,,,,,,"2009-05-18"
"74486454787","2020-04-03T11:53:00","FM-15","7",,,,,,,,,,,,,,,,,,,,,,,,,,,,,,,,,,,,,,"29.62","43","51","T",,,,"74","29.62","OVC:08 34","29.53","10.00","47","350","31","21",,,,,,,,,,,,,,,,,,,,,,,,,,,,,,,,,,,,,"MET13104/03/20 11:53:02 METAR KFRG 031653Z 35018G27KT 10SM OVC034 11/06 A2962 RMK AO2 PK WND 35027/1652 RAB1559E14 SLP031 P0000 T01060061","FM-15","7",,,,,,,,,,,,,,,,,,,,,,,,,,,,"2009-05-18"
"74486454787","2020-04-03T12:51:00","FM-16","6",,,,,,,,,,,,,,,,,,,,,,,,,,,,,,,,,,,,,,"29.63","43","50",,"-RA:02 |RA |RA",,,"76",,"BKN:07 29 OVC:08 35","29.54","10.00","47","350","25","16",,,,,,,,,,,,,,,,,,,,,,,,,,,,,,,,,,,,,"MET11304/03/20 12:51:02 SPECI KFRG 031751Z 35014G22KT 10SM -RA BKN029 OVC035 10/06 A2963 RMK AO2 RAB04E26B44 P0000 FIBI","FM-16","6",,,,,,,,,,,,,,,,,,,,,,,,,,,,"2009-05-18"
"74486454787","2020-04-03T12:53:00","FM-15","7",,,,,,,,,,,,,,,,,,,,,,,,,,,,,,,,,,,,,,"29.63","43","50","T","-RA:02 |RA |RA","-0.01","3","77","29.63","BKN:07 31 OVC:08 38","29.54","10.00","47","350","25","15",,,,,,,,,,,,,,,,,,,,,,,,,,,,,,,,,,,,,"MET14904/03/20 12:53:02 METAR KFRG 031753Z 35013G22KT 10SM -RA BKN031 OVC038 10/06 A2963 RMK AO2 RAB04E26B44 SLP034 P0000 60000 T01000061 10106 20072 53004","FM-15","7",,,,,,,,,,,,,,,,,,,,,,,,,,,,"2009-05-18"
"74486454787","2020-04-03T13:53:00","FM-15","7",,,,,,,,,,,,,,,,,,,,,,,,,,,,,,,,,,,,,,"29.63","43","50","T","-RA:02 |RA |RA",,,"77","29.63","FEW:02 36 BKN:07 50 OVC:08 60","29.54","10.00","47","360","29","16",,,,,,,,,,,,,,,,,,,,,,,,,,,,,,,,,,,,,"MET12004/03/20 13:53:02 METAR KFRG 031853Z 36014G25KT 10SM -RA FEW036 BKN050 OVC060 10/06 A2963 RMK AO2 SLP035 P0000 T01000061","FM-15","7",,,,,,,,,,,,,,,,,,,,,,,,,,,,"2009-05-18"
"74486454787","2020-04-03T14:53:00","FM-15","7",,,,,,,,,,,,,,,,,,,,,,,,,,,,,,,,,,,,,,"29.65","44","51","T",,,,"77","29.65","BKN:07 30 OVC:08 36","29.56","10.00","48","350",,"10",,,,,,,,,,,,,,,,,,,,,,,,,,,,,,,,,,,,,"MET11204/03/20 14:53:02 METAR KFRG 031953Z 35009KT 10SM BKN030 OVC036 11/07 A2965 RMK AO2 RAE46 SLP041 P0000 T01060067","FM-15","7",,,,,,,,,,,,,,,,,,,,,,,,,,,,"2009-05-18"
"74486454787","2020-04-03T15:53:00","FM-15","7",,,,,,,,,,,,,,,,,,,,,,,,,,,,,,,,,,,,,,"29.68","44","51","T","-RA:02 |RA |RA","-0.05","3","77","29.68","BKN:07 32 OVC:08 41","29.59","10.00","48","360",,"13",,,,,,,,,,,,,,,,,,,,,,,,,,,,,,,,,,,,,"MET12804/03/20 15:53:02 METAR KFRG 032053Z 36011KT 10SM -RA BKN032 OVC041 11/07 A2968 RMK AO2 RAB06 SLP051 P0000 60000 T01060067 53016","FM-15","7",,,,,,,,,,,,,,,,,,,,,,,,,,,,"2009-05-18"
"74486454787","2020-04-03T16:53:00","FM-15","7",,,,,,,,,,,,,,,,,,,,,,,,,,,,,,,,,,,,,,"29.72","44","52","T",,,,"75","29.72","FEW:02 30 OVC:08 43","29.63","10.00","48","010",,"11",,,,,,,,,,,,,,,,,,,,,,,,,,,,,,,,,,,,,"MET11204/03/20 16:53:02 METAR KFRG 032153Z 01010KT 10SM FEW030 OVC043 11/07 A2972 RMK AO2 RAE31 SLP063 P0000 T01110067","FM-15","7",,,,,,,,,,,,,,,,,,,,,,,,,,,,"2009-05-18"
"74486454787","2020-04-03T17:53:00","FM-15","7",,,,,,,,,,,,,,,,,,,,,,,,,,,,,,,,,,,,,,"29.75","43","52","0.00",,,,"72","29.75","BKN:07 43 OVC:08 60","29.66","9.00","48","010","24","16",,,,,,,,,,,,,,,,,,,,,,,,,,,,,,,,,,,,,"MET12004/03/20 17:53:02 METAR KFRG 032253Z 01014G21KT 9SM BKN043 OVC060 11/06 A2975 RMK AO2 PK WND 02026/2219 SLP073 T01110061","FM-15","7",,,,,,,,,,,,,,,,,,,,,,,,,,,,"2009-05-18"
"74486454787","2020-04-03T18:53:00","FM-15","7",,,,,,,,,,,,,,,,,,,,,,,,,,,,,,,,,,,,,,"29.78","43","52","0.00",,"-0.10","1","72","29.78","OVC:08 37","29.69","10.00","48","010","22","17",,,,,,,,,,,,,,,,,,,,,,,,,,,,,,,,,,,,,"MET12004/03/20 18:53:02 METAR KFRG 032353Z 01015G19KT 10SM OVC037 11/06 A2978 RMK AO2 SLP083 60000 T01110061 10117 20100 51033","FM-15","7",,,,,,,,,,,,,,,,,,,,,,,,,,,,"2009-05-18"
"74486454787","2020-04-03T19:53:00","FM-15","7",,,,,,,,,,,,,,,,,,,,,,,,,,,,,,,,,,,,,,"29.81","43","50","0.00",,,,"77","29.80","SCT:04 26 BKN:07 38 OVC:08 45","29.72","8.00","47","020",,"13",,,,,,,,,,,,,,,,,,,,,,,,,,,,,,,,,,,,,"MET10604/03/20 19:53:01 METAR KFRG 040053Z 02011KT 8SM SCT026 BKN038 OVC045 10/06 A2981 RMK AO2 SLP093 T01000061","FM-15","7",,,,,,,,,,,,,,,,,,,,,,,,,,,,"2009-05-18"
"74486454787","2020-04-03T20:53:00","FM-15","7",,,,,,,,,,,,,,,,,,,,,,,,,,,,,,,,,,,,,,"29.83","43","50","T",,,,"77","29.83","BKN:07 27 OVC:08 38","29.74","10.00","47","020","24","17",,,,,,,,,,,,,,,,,,,,,,,,,,,,,,,,,,,,,"MET11804/03/20 20:53:01 METAR KFRG 040153Z 02015G21KT 10SM BKN027 OVC038 10/06 A2983 RMK AO2 RAB11E23 SLP100 P0000 T01000061","FM-15","7",,,,,,,,,,,,,,,,,,,,,,,,,,,,"2009-05-18"
"74486454787","2020-04-03T21:04:00","FM-16","7",,,,,,,,,,,,,,,,,,,,,,,,,,,,,,,,,,,,,,"29.83","43","50",,,,,"77",,"SCT:04 26 OVC:08 35","29.74","10.00","47","020",,"11",,,,,,,,,,,,,,,,,,,,,,,,,,,,,,,,,,,,,"MET09304/03/20 21:04:01 SPECI KFRG 040204Z 02010KT 10SM SCT026 OVC035 10/06 A2983 RMK AO2 T01000061","FM-16","7",,,,,,,,,,,,,,,,,,,,,,,,,,,,"2009-05-18"
"74486454787","2020-04-03T21:53:00","FM-15","7",,,,,,,,,,,,,,,,,,,,,,,,,,,,,,,,,,,,,,"29.83","42","50","0.00",,"-0.06","1","74","29.83","SCT:04 27 OVC:08 33","29.74","10.00","46","020","22","15",,,,,,,,,,,,,,,,,,,,,,,,,,,,,,,,,,,,,"MET11504/03/20 21:53:01 METAR KFRG 040253Z 02013G19KT 10SM SCT027 OVC033 10/06 A2983 RMK AO2 SLP103 60000 T01000056 51020","FM-15","7",,,,,,,,,,,,,,,,,,,,,,,,,,,,"2009-05-18"
"74486454787","2020-04-03T22:04:00","FM-16","7",,,,,,,,,,,,,,,,,,,,,,,,,,,,,,,,,,,,,,"29.84","42","50",,,,,"74",,"BKN:07 29 OVC:08 35","29.75","10.00","46","020","28","18",,,,,,,,,,,,,,,,,,,,,,,,,,,,,,,,,,,,,"MET09604/03/20 22:04:01 SPECI KFRG 040304Z 02016G24KT 10SM BKN029 OVC035 10/06 A2984 RMK AO2 T01000056","FM-16","7",,,,,,,,,,,,,,,,,,,,,,,,,,,,"2009-05-18"
"74486454787","2020-04-03T22:53:00","FM-15","7",,,,,,,,,,,,,,,,,,,,,,,,,,,,,,,,,,,,,,"29.84","42","50","0.00",,,,"74","29.84","OVC:08 29","29.75","10.00","46","030","24","16",,,,,,,,,,,,,,,,,,,,,,,,,,,,,,,,,,,,,"MET09604/03/20 22:53:02 METAR KFRG 040353Z 03014G21KT 10SM OVC029 10/06 A2984 RMK AO2 SLP106 T01000056","FM-15","7",,,,,,,,,,,,,,,,,,,,,,,,,,,,"2009-05-18"
"74486454787","2020-04-03T23:17:00","FM-16","7",,,,,,,,,,,,,,,,,,,,,,,,,,,,,,,,,,,,,,"29.84","42","50",,,,,"74",,"SCT:04 28 OVC:08 33","29.75","10.00","46","030",,"14",,,,,,,,,,,,,,,,,,,,,,,,,,,,,,,,,,,,,"MET09304/03/20 23:17:02 SPECI KFRG 040417Z 03012KT 10SM SCT028 OVC033 10/06 A2984 RMK AO2 T01000056","FM-16","7",,,,,,,,,,,,,,,,,,,,,,,,,,,,"2009-05-18"
"74486454787","2020-04-03T23:44:00","FM-16","7",,,,,,,,,,,,,,,,,,,,,,,,,,,,,,,,,,,,,,"29.85","42","50",,,,,"74",,"FEW:02 21 BKN:07 28 OVC:08 35","29.76","10.00","46","030","24","15",,,,,,,,,,,,,,,,,,,,,,,,,,,,,,,,,,,,,"MET10304/03/20 23:44:02 SPECI KFRG 040444Z 03013G21KT 10SM FEW021 BKN028 OVC035 10/06 A2985 RMK AO2 T01000056","FM-16","7",,,,,,,,,,,,,,,,,,,,,,,,,,,,"2009-05-18"
"74486454787","2020-04-03T23:53:00","FM-15","7",,,,,,,,,,,,,,,,,,,,,,,,,,,,,,,,,,,,,,"29.85","42","50","0.00",,,,"74","29.85","FEW:02 21 BKN:07 28 OVC:08 35","29.76","10.00","46","030","22","13",,,,,,,,,,,,,,,,,,,,,,,,,,,,,,,,,,,,,"MET12004/03/20 23:53:02 METAR KFRG 040453Z 03011G19KT 10SM FEW021 BKN028 OVC035 10/06 A2985 RMK AO2 SLP109 T01000056 401170067","FM-15","7",,,,,,,,,,,,,,,,,,,,,,,,,,,,"2009-05-18"
"74486454787","2020-04-03T23:59:00","SOD  ","6",,,,,,,,,,,,,,,,"49",,,"29.55",,"15.2","0","3.8","16","53","44","320","33","0.02",,,"350","24","RA",,,,,,,,,,,,,,,,,,,,,,,,,,,,,,,,,,,,,,,,,,,,,,,,,,,,,,,,"SOD73024 HR PRECIPITATION (IN):0.02  24 HR MAX TEMP (F):53 24 HR MAX TEMP TIME (LST):1721 24 HR MIN TEMP (F):44 24 HR MIN TEMP TIME (LST):0653 AVERAGE STATION PRESSURE:29.555 MINIMUM SEA LEVEL PRESSURE:29.55 TIME OF OCCURRENCE:0334 PEAK WIND SPEED (MPH):33  PEAK WIND DIR (DEG):320 PEAK WIND TIME (LST):0418  FASTEST 2MIN SPEED (MPH):24 FASTEST 2MIN DIR (DEG):350 FASTEST 2MIN TIME (LST):1028 AVERAGE WIND SPEED (MPH):15.2 24 HR AVG TEMP (F):49 HEATING DEGREE DAYS:16  COOLING DEGREE DAYS:0   LATEST DAY MAX TEMP (0700-1900 LST):53  LATEST NIGHT MIN TEMP(1900-0800 LST):44 HOURLY INCREMENTAL PRECIPITATION VALUES (IN):.01 T    T    T    0.01 T    T    T    T    T    T    T    T    T    T    T    T    0.00 0.00 0.00 T    0.00 0.00 0.00","SOD  ","6",,,,,,,,,,,,,,,,,,,,,,,,,"0533","1821",,"2009-05-18"
"74486454787","2020-04-04T00:53:00","FM-15","7",,,,,,,,,,,,,,,,,,,,,,,,,,,,,,,,,,,,,,"29.86","42","49","0.00",,"-0.02","1","77","29.85","BKN:07 19 BKN:07 27 OVC:08 32","29.77","10.00","46","030",,"13",,,,,,,,,,,,,,,,,,,,,,,,,,,,,,,,,,,,,"MET13104/04/20 00:53:02 METAR KFRG 040553Z 03011KT 10SM BKN019 BKN027 OVC032 09/06 A2986 RMK AO2 SLP110 60000 T00940056 10111 20094 51007","FM-15","7",,,,,,,,,,,,,,,,,,,,,,,,,,,,"2009-05-18"
"74486454787","2020-04-04T01:53:00","FM-15","7",,,,,,,,,,,,,,,,,,,,,,,,,,,,,,,,,,,,,,"29.86","41","49","0.00",,,,"74","29.85","BKN:07 22 BKN:07 29 OVC:08 34","29.77","10.00","45","030",,"10",,,,,,,,,,,,,,,,,,,,,,,,,,,,,,,,,,,,,"MET10704/04/20 01:53:02 METAR KFRG 040653Z 03009KT 10SM BKN022 BKN029 OVC034 09/05 A2986 RMK AO2 SLP110 T00940050","FM-15","7",,,,,,,,,,,,,,,,,,,,,,,,,,,,"2009-05-18"
"74486454787","2020-04-04T02:53:00","FM-15","7",,,,,,,,,,,,,,,,,,,,,,,,,,,,,,,,,,,,,,"29.87","40","49","0.00",,,,"71","29.87","FEW:02 18 OVC:08 23","29.78","10.00","45","040","23","18",,,,,,,,,,,,,,,,,,,,,,,,,,,,,,,,,,,,,"MET10304/04/20 02:53:02 METAR KFRG 040753Z 04016G20KT 10SM FEW018 OVC023 09/04 A2987 RMK AO2 SLP114 T00940044","FM-15","7",,,,,,,,,,,,,,,,,,,,,,,,,,,,"2009-05-18"
"74486454787","2020-04-04T03:53:00","FM-15","7",,,,,,,,,,,,,,,,,,,,,,,,,,,,,,,,,,,,,,"29.88","39","49","0.00",,"-0.03","3","69","29.88","BKN:07 24 OVC:08 30","29.79","10.00","44","050",,"10",,,,,,,,,,,,,,,,,,,,,,,,,,,,,,,,,,,,,"MET10604/04/20 03:53:02 METAR KFRG 040853Z 05009KT 10SM BKN024 OVC030 09/04 A2988 RMK AO2 SLP120 T00940039 53009","FM-15","7",,,,,,,,,,,,,,,,,,,,,,,,,,,,"2009-05-18"
"74486454787","2020-04-04T04:53:00","FM-15","7",,,,,,,,,,,,,,,,,,,,,,,,,,,,,,,,,,,,,,"29.91","39","48","0.00",,,,"71","29.91","OVC:08 21","29.82","10.00","44","030","23","15",,,,,,,,,,,,,,,,,,,,,,,,,,,,,,,,,,,,,"MET09604/04/20 04:53:02 METAR KFRG 040953Z 03013G20KT 10SM OVC021 09/04 A2991 RMK AO2 SLP128 T00890039","FM-15","7",,,,,,,,,,,,,,,,,,,,,,,,,,,,"2009-05-18"
"74486454787","2020-04-04T05:53:00","FM-15","7",,,,,,,,,,,,,,,,,,,,,,,,,,,,,,,,,,,,,,"29.94","39","47","0.00",,,,"74","29.94","FEW:02 19 OVC:08 25","29.85","10.00","43","040",,"14",,,,,,,,,,,,,,,,,,,,,,,,,,,,,,,,,,,,,"MET10004/04/20 05:53:02 METAR KFRG 041053Z 04012KT 10SM FEW019 OVC025 08/04 A2994 RMK AO2 SLP139 T00830039","FM-15","7",,,,,,,,,,,,,,,,,,,,,,,,,,,,"2009-05-18"
"74486454787","2020-04-04T06:53:00","FM-15","7",,,,,,,,,,,,,,,,,,,,,,,,,,,,,,,,,,,,,,"29.97","38","48","0.00",,"-0.08","3","68","29.97","OVC:08 23","29.88","10.00","43","050",,"9",,,,,,,,,,,,,,,,,,,,,,,,,,,,,,,,,,,,,"MET11104/04/20 06:53:02 METAR KFRG 041153Z 05008KT 10SM OVC023 09/03 A2997 RMK AO2 SLP148 T00890033 10100 20083 53028","FM-15","7",,,,,,,,,,,,,,,,,,,,,,,,,,,,"2009-05-18"
"74486454787","2020-04-04T07:53:00","FM-15","7",,,,,,,,,,,,,,,,,,,,,,,,,,,,,,,,,,,,,,"29.98","38","48","0.00",,,,"68","29.98","OVC:08 23","29.89","10.00","43","050",,"8",,,,,,,,,,,,,,,,,,,,,,,,,,,,,,,,,,,,,"MET09304/04/20 07:53:02 METAR KFRG 041253Z 05007KT 10SM OVC023 09/03 A2998 RMK AO2 SLP153 T00890033","FM-15","7",,,,,,,,,,,,,,,,,,,,,,,,,,,,"2009-05-18"
"74486454787","2020-04-04T08:53:00","FM-15","7",,,,,,,,,,,,,,,,,,,,,,,,,,,,,,,,,,,,,,"30.00","38","49","0.00",,,,"66","30.00","OVC:08 24","29.91","10.00","44","040","26","15",,,,,,,,,,,,,,,,,,,,,,,,,,,,,,,,,,,,,"MET09604/04/20 08:53:02 METAR KFRG 041353Z 04013G23KT 10SM OVC024 09/03 A3000 RMK AO2 SLP160 T00940033","FM-15","7",,,,,,,,,,,,,,,,,,,,,,,,,,,,"2009-05-18"
"74486454787","2020-04-04T09:53:00","FM-15","7",,,,,,,,,,,,,,,,,,,,,,,,,,,,,,,,,,,,,,"30.02","39","50","0.00",,"-0.05","1","66","30.01","OVC:08 22","29.93","10.00","45","020",,"15",,,,,,,,,,,,,,,,,,,,,,,,,,,,,,,,,,,,,"MET09904/04/20 09:53:02 METAR KFRG 041453Z 02013KT 10SM OVC022 10/04 A3002 RMK AO2 SLP164 T01000039 51017","FM-15","7",,,,,,,,,,,,,,,,,,,,,,,,,,,,"2009-05-18"
"74486454787","2020-04-04T10:53:00","FM-15","7",,,,,,,,,,,,,,,,,,,,,,,,,,,,,,,,,,,,,,"30.02","39","52","0.00",,,,"61","30.02","OVC:08 23","29.93","10.00","46","020",,"13",,,,,,,,,,,,,,,,,,,,,,,,,,,,,,,,,,,,,"MET09304/04/20 10:53:02 METAR KFRG 041553Z 02011KT 10SM OVC023 11/04 A3002 RMK AO2 SLP166 T01110039","FM-15","7",,,,,,,,,,,,,,,,,,,,,,,,,,,,"2009-05-18"
"74486454787","2020-04-04T11:49:00","FM-16","7",,,,,,,,,,,,,,,,,,,,,,,,,,,,,,,,,,,,,,"30.01","39","54",,,,,"58",,"FEW:02 26","29.92","10.00","47","040","20","10",,,,,,,,,,,,,,,,,,,,,,,,,,,,,,,,,,,,,"MET07904/04/20 11:49:02 SPECI KFRG 041649Z 04009G17KT 10SM FEW026 12/04 A3001 RMK AO2","FM-16","7",,,,,,,,,,,,,,,,,,,,,,,,,,,,"2009-05-18"
"74486454787","2020-04-04T11:53:00","FM-15","7",,,,,,,,,,,,,,,,,,,,,,,,,,,,,,,,,,,,,,"30.01","40","55","0.00",,,,"57","30.01","FEW:02 28","29.92","10.00","48","010","20","11",,,,,,,,,,,,,,,,,,,,,,,,,,,,,,,,,,,,,"MET09604/04/20 11:53:02 METAR KFRG 041653Z 01010G17KT 10SM FEW028 13/04 A3001 RMK AO2 SLP163 T01280044","FM-15","7",,,,,,,,,,,,,,,,,,,,,,,,,,,,"2009-05-18"
"74486454787","2020-04-04T12:53:00","FM-15","7",,,,,,,,,,,,,,,,,,,,,,,,,,,,,,,,,,,,,,"29.99","39","57","0.00",,"+0.03","8","51","29.99","CLR:00","29.90","10.00","48","050",,"10",,,,,,,,,,,,,,,,,,,,,,,,,,,,,,,,,,,,,"MET10804/04/20 12:53:02 METAR KFRG 041753Z 05009KT 10SM CLR 14/04 A2999 RMK AO2 SLP157 T01390039 10139 20089 58009","FM-15","7",,,,,,,,,,,,,,,,,,,,,,,,,,,,"2009-05-18"
"74486454787","2020-04-04T13:53:00","FM-15","7",,,,,,,,,,,,,,,,,,,,,,,,,,,,,,,,,,,,,,"29.99","39","59","0.00",,,,"48","29.99","CLR:00","29.90","10.00","49","050","17","9",,,,,,,,,,,,,,,,,,,,,,,,,,,,,,,,,,,,,"MET09304/04/20 13:53:02 METAR KFRG 041853Z 05008G15KT 10SM CLR 15/04 A2999 RMK AO2 SLP155 T01500039","FM-15","7",,,,,,,,,,,,,,,,,,,,,,,,,,,,"2009-05-18"
"74486454787","2020-04-04T14:53:00","FM-15","7",,,,,,,,,,,,,,,,,,,,,,,,,,,,,,,,,,,,,,"29.98","37","60","0.00",,,,"42","29.98","CLR:00","29.89","10.00","49","360",,"7",,,,,,,,,,,,,,,,,,,,,,,,,,,,,,,,,,,,,"MET09004/04/20 14:53:02 METAR KFRG 041953Z 36006KT 10SM CLR 16/03 A2998 RMK AO2 SLP151 T01560028","FM-15","7",,,,,,,,,,,,,,,,,,,,,,,,,,,,"2009-05-18"
"74486454787","2020-04-04T15:24:00","FM-16","7",,,,,,,,,,,,,,,,,,,,,,,,,,,,,,,,,,,,,,"29.98","42","54",,,,,"64",,"SCT:04 46","29.89","10.00","48","180",,"13",,,,,,,,,,,,,,,,,,,,,,,,,,,,,,,,,,,,,"MET09704/04/20 15:24:02 SPECI KFRG 042024Z 18011KT 10SM SCT046 12/06 A2998 RMK AO2 WSHFT 2004 T01220056","FM-16","7",,,,,,,,,,,,,,,,,,,,,,,,,,,,"2009-05-18"
"74486454787","2020-04-04T15:53:00","FM-15","7",,,,,,,,,,,,,,,,,,,,,,,,,,,,,,,,,,,,,,"29.99","41","52","0.00",,"+0.00","5","66","29.99","FEW:02 55","29.90","10.00","47","180",,"11",,,,,,,,,,,,,,,,,,,,,,,,,,,,,,,,,,,,,"MET11004/04/20 15:53:02 METAR KFRG 042053Z 18010KT 10SM FEW055 11/05 A2999 RMK AO2 WSHFT 2004 SLP155 T01110050 55001","FM-15","7",,,,,,,,,,,,,,,,,,,,,,,,,,,,"2009-05-18"
"74486454787","2020-04-04T16:53:00","FM-15","7",,,,,,,,,,,,,,,,,,,,,,,,,,,,,,,,,,,,,,"30.01","40","50","0.00",,,,"68","30.01","OVC:08 50","29.92","10.00","45","200",,"9",,,,,,,,,,,,,,,,,,,,,,,,,,,,,,,,,,,,,"MET09304/04/20 16:53:02 METAR KFRG 042153Z 20008KT 10SM OVC050 10/04 A3001 RMK AO2 SLP162 T01000044","FM-15","7",,,,,,,,,,,,,,,,,,,,,,,,,,,,"2009-05-18"
"74486454787","2020-04-04T17:53:00","FM-15","7",,,,,,,,,,,,,,,,,,,,,,,,,,,,,,,,,,,,,,"30.01","40","48","0.00",,,,"74","30.01","OVC:08 60","29.92","10.00","44","160",,"9",,,,,,,,,,,,,,,,,,,,,,,,,,,,,,,,,,,,,"MET09304/04/20 17:53:02 METAR KFRG 042253Z 16008KT 10SM OVC060 09/04 A3001 RMK AO2 SLP164 T00890044","FM-15","7",,,,,,,,,,,,,,,,,,,,,,,,,,,,"2009-05-18"
"74486454787","2020-04-04T18:53:00","FM-15","7",,,,,,,,,,,,,,,,,,,,,,,,,,,,,,,,,,,,,,"30.02","40","47","0.00",,"-0.03","1","77","30.02","OVC:08 65","29.93","10.00","44","180",,"8",,,,,,,,,,,,,,,,,,,,,,,,,,,,,,,,,,,,,"MET11104/04/20 18:53:02 METAR KFRG 042353Z 18007KT 10SM OVC065 08/04 A3002 RMK AO2 SLP167 T00830044 10161 20083 51011","FM-15","7",,,,,,,,,,,,,,,,,,,,,,,,,,,,"2009-05-18"
"74486454787","2020-04-04T19:53:00","FM-15","7",,,,,,,,,,,,,,,,,,,,,,,,,,,,,,,,,,,,,,"30.03","40","46","0.00",,,,"79","30.03","FEW:02 65","29.94","10.00","43","160",,"7",,,,,,,,,,,,,,,,,,,,,,,,,,,,,,,,,,,,,"MET09304/04/20 19:53:01 METAR KFRG 050053Z 16006KT 10SM FEW065 08/04 A3003 RMK AO2 SLP169 T00780044","FM-15","7",,,,,,,,,,,,,,,,,,,,,,,,,,,,"2009-05-18"
"74486454787","2020-04-04T20:53:00","FM-15","7",,,,,,,,,,,,,,,,,,,,,,,,,,,,,,,,,,,,,,"30.04","40","47","0.00",,,,"77","30.04","OVC:08 70","29.95","10.00","44","210",,"7",,,,,,,,,,,,,,,,,,,,,,,,,,,,,,,,,,,,,"MET09304/04/20 20:53:01 METAR KFRG 050153Z 21006KT 10SM OVC070 08/04 A3004 RMK AO2 SLP172 T00830044","FM-15","7",,,,,,,,,,,,,,,,,,,,,,,,,,,,"2009-05-18"
"74486454787","2020-04-04T21:53:00","FM-15","7",,,,,,,,,,,,,,,,,,,,,,,,,,,,,,,,,,,,,,"30.04","40","47","0.00",,"-0.02","1","77","30.04","OVC:08 70","29.95","10.00","44","220",,"9",,,,,,,,,,,,,,,,,,,,,,,,,,,,,,,,,,,,,"MET09904/04/20 21:53:01 METAR KFRG 050253Z 22008KT 10SM OVC070 08/04 A3004 RMK AO2 SLP174 T00830044 51007","FM-15","7",,,,,,,,,,,,,,,,,,,,,,,,,,,,"2009-05-18"
"74486454787","2020-04-04T22:53:00","FM-15","7",,,,,,,,,,,,,,,,,,,,,,,,,,,,,,,,,,,,,,"30.05","40","47","0.00",,,,"77","30.05","BKN:07 50 OVC:08 70","29.96","10.00","44","190",,"6",,,,,,,,,,,,,,,,,,,,,,,,,,,,,,,,,,,,,"MET10004/04/20 22:53:02 METAR KFRG 050353Z 19005KT 10SM BKN050 OVC070 08/04 A3005 RMK AO2 SLP176 T00830044","FM-15","7",,,,,,,,,,,,,,,,,,,,,,,,,,,,"2009-05-18"
"74486454787","2020-04-04T23:29:00","FM-16","7",,,,,,,,,,,,,,,,,,,,,,,,,,,,,,,,,,,,,,"30.05","41","47",,,,,"80",,"FEW:02 9 OVC:08 70","29.96","10.00","44","190",,"6",,,,,,,,,,,,,,,,,,,,,,,,,,,,,,,,,,,,,"MET09304/04/20 23:29:02 SPECI KFRG 050429Z 19005KT 10SM FEW009 OVC070 08/05 A3005 RMK AO2 T00830050","FM-16","7",,,,,,,,,,,,,,,,,,,,,,,,,,,,"2009-05-18"
"74486454787","2020-04-04T23:53:00","FM-15","7",,,,,,,,,,,,,,,,,,,,,,,,,,,,,,,,,,,,,,"30.05","40","46","0.00",,,,"79","30.05","SCT:04 9 OVC:08 70","29.96","10.00","43","190",,"8",,,,,,,,,,,,,,,,,,,,,,,,,,,,,,,,,,,,,"MET11004/04/20 23:53:02 METAR KFRG 050453Z 19007KT 10SM SCT009 OVC070 08/04 A3005 RMK AO2 SLP176 T00780044 401610072","FM-15","7",,,,,,,,,,,,,,,,,,,,,,,,,,,,"2009-05-18"
"74486454787","2020-04-04T23:59:00","SOD  ","6",,,,,,,,,,,,,,,,"53",,,"29.86",,"10.5","0","7.4","12","61","45","030","26","0.00",,,"040","21",,,,,,,,,,,,,,,,,,,,,,,,,,,,,,,,,,,,,,,,,,,,,,,,,,,,,,,,,"SOD73024 HR PRECIPITATION (IN):0.00  24 HR MAX TEMP (F):61 24 HR MAX TEMP TIME (LST):1501 24 HR MIN TEMP (F):45 24 HR MIN TEMP TIME (LST):2006 AVERAGE STATION PRESSURE:29.865 MINIMUM SEA LEVEL PRESSURE:29.85 TIME OF OCCURRENCE:0208 PEAK WIND SPEED (MPH):26  PEAK WIND DIR (DEG):30  PEAK WIND TIME (LST):0844  FASTEST 2MIN SPEED (MPH):21 FASTEST 2MIN DIR (DEG):40  FASTEST 2MIN TIME (LST):0845 AVERAGE WIND SPEED (MPH):10.5 24 HR AVG TEMP (F):53 HEATING DEGREE DAYS:12  COOLING DEGREE DAYS:0   LATEST DAY MAX TEMP (0700-1900 LST):61  LATEST NIGHT MIN TEMP(1900-0800 LST):47 HOURLY INCREMENTAL PRECIPITATION VALUES (IN):.00 0.00 0.00 0.00 0.00 0.00 0.00 0.00 0.00 0.00 0.00 0.00 0.00 0.00 0.00 0.00 0.00 0.00 0.00 0.00 0.00 0.00 0.00 0.00","SOD  ","6",,,,,,,,,,,,,,,,,,,,,,,,,"0531","1822",,"2009-05-18"
"74486454787","2020-04-05T00:51:00","FM-16","6",,,,,,,,,,,,,,,,,,,,,,,,,,,,,,,,,,,,,,"30.05","41","46",,,,,"82",,"BKN:07 8 OVC:08 75","29.96","10.00","44","190",,"8",,,,,,,,,,,,,,,,,,,,,,,,,,,,,,,,,,,,,"MET08804/05/20 00:51:02 SPECI KFRG 050551Z 19007KT 10SM BKN008 OVC075 08/05 A3005 RMK AO2 FIBI","FM-16","6",,,,,,,,,,,,,,,,,,,,,,,,,,,,"2009-05-18"
"74486454787","2020-04-05T00:53:00","FM-15","7",,,,,,,,,,,,,,,,,,,,,,,,,,,,,,,,,,,,,,"30.04","41","46","0.00",,"-0.00","0","83","30.04","SCT:04 8 OVC:08 75","29.95","10.00","44","200",,"7",,,,,,,,,,,,,,,,,,,,,,,,,,,,,,,,,,,,,"MET11804/05/20 00:53:02 METAR KFRG 050553Z 20006KT 10SM SCT008 OVC075 08/05 A3004 RMK AO2 SLP174 T00780050 10083 20072 50000","FM-15","7",,,,,,,,,,,,,,,,,,,,,,,,,,,,"2009-05-18"
"74486454787","2020-04-05T01:53:00","FM-15","7",,,,,,,,,,,,,,,,,,,,,,,,,,,,,,,,,,,,,,"30.04","41","47","0.00",,,,"80","30.03","FEW:02 8 OVC:08 70","29.95","10.00","44","200",,"8",,,,,,,,,,,,,,,,,,,,,,,,,,,,,,,,,,,,,"MET10004/05/20 01:53:02 METAR KFRG 050653Z 20007KT 10SM FEW008 OVC070 08/05 A3004 RMK AO2 SLP171 T00830050","FM-15","7",,,,,,,,,,,,,,,,,,,,,,,,,,,,"2009-05-18"
"74486454787","2020-04-05T02:41:00","FM-16","7",,,,,,,,,,,,,,,,,,,,,,,,,,,,,,,,,,,,,,"30.04","41","47",,,,,"80",,"BKN:07 9 OVC:08 70","29.95","10.00","44","190",,"9",,,,,,,,,,,,,,,,,,,,,,,,,,,,,,,,,,,,,"MET10504/05/20 02:41:02 SPECI KFRG 050741Z 19008KT 10SM BKN009 OVC070 08/05 A3004 RMK AO2 CIG 008V012 T00830050","FM-16","7",,,,,,,,,,,,,,,,,,,,,,,,,,,,"2009-05-18"
"74486454787","2020-04-05T02:51:00","FM-16","6",,,,,,,,,,,,,,,,,,,,,,,,,,,,,,,,,,,,,,"30.04","41","46",,,,,"82",,"BKN:07 10 OVC:08 70","29.95","10.00","44","190",,"7",,,,,,,,,,,,,,,,,,,,,,,,,,,,,,,,,,,,,"MET10004/05/20 02:51:02 SPECI KFRG 050751Z 19006KT 10SM BKN010 OVC070 08/05 A3004 RMK AO2 CIG 008V012 FIBI","FM-16","6",,,,,,,,,,,,,,,,,,,,,,,,,,,,"2009-05-18"
"74486454787","2020-04-05T02:53:00","FM-15","7",,,,,,,,,,,,,,,,,,,,,,,,,,,,,,,,,,,,,,"30.04","41","47","0.00",,,,"80","30.03","BKN:07 10 OVC:08 70","29.95","10.00","44","180",,"6",,,,,,,,,,,,,,,,,,,,,,,,,,,,,,,,,,,,,"MET11204/05/20 02:53:02 METAR KFRG 050753Z 18005KT 10SM BKN010 OVC070 08/05 A3004 RMK AO2 CIG 008V012 SLP171 T00830050","FM-15","7",,,,,,,,,,,,,,,,,,,,,,,,,,,,"2009-05-18"
"74486454787","2020-04-05T03:07:00","FM-16","7",,,,,,,,,,,,,,,,,,,,,,,,,,,,,,,,,,,,,,"30.04","42","47",,,,,"83",,"OVC:08 8","29.95","10.00","45","180",,"5",,,,,,,,,,,,,,,,,,,,,,,,,,,,,,,,,,,,,"MET08604/05/20 03:07:02 SPECI KFRG 050807Z 18004KT 10SM OVC008 08/06 A3004 RMK AO2 T00830056","FM-16","7",,,,,,,,,,,,,,,,,,,,,,,,,,,,"2009-05-18"
"74486454787","2020-04-05T03:53:00","FM-15","7",,,,,,,,,,,,,,,,,,,,,,,,,,,,,,,,,,,,,,"30.03","42","47","0.00",,"+0.01","6","83","30.03","OVC:08 7","29.94","10.00","45","210",,"7",,,,,,,,,,,,,,,,,,,,,,,,,,,,,,,,,,,,,"MET09904/05/20 03:53:02 METAR KFRG 050853Z 21006KT 10SM OVC007 08/06 A3003 RMK AO2 SLP170 T00830056 56004","FM-15","7",,,,,,,,,,,,,,,,,,,,,,,,,,,,"2009-05-18"
"74486454787","2020-04-05T04:53:00","FM-15","7",,,,,,,,,,,,,,,,,,,,,,,,,,,,,,,,,,,,,,"30.03","42","47","0.00",,,,"83","30.03","OVC:08 7","29.94","10.00","45","180",,"7",,,,,,,,,,,,,,,,,,,,,,,,,,,,,,,,,,,,,"MET09304/05/20 04:53:02 METAR KFRG 050953Z 18006KT 10SM OVC007 08/06 A3003 RMK AO2 SLP170 T00830056","FM-15","7",,,,,,,,,,,,,,,,,,,,,,,,,,,,"2009-05-18"
"74486454787","2020-04-05T05:53:00","FM-15","7",,,,,,,,,,,,,,,,,,,,,,,,,,,,,,,,,,,,,,"30.04","43","47","0.00",,,,"86","30.04","OVC:08 6","29.95","10.00","45","170",,"7",,,,,,,,,,,,,,,,,,,,,,,,,,,,,,,,,,,,,"MET09304/05/20 05:53:02 METAR KFRG 051053Z 17006KT 10SM OVC006 08/06 A3004 RMK AO2 SLP174 T00830061","FM-15","7",,,,,,,,,,,,,,,,,,,,,,,,,,,,"2009-05-18"
"74486454787","2020-04-05T06:53:00","FM-15","7",,,,,,,,,,,,,,,,,,,,,,,,,,,,,,,,,,,,,,"30.06","44","48","0.00",,"-0.03","3","86","30.06","OVC:08 6","29.97","10.00","46","170",,"7",,,,,,,,,,,,,,,,,,,,,,,,,,,,,,,,,,,,,"MET11104/05/20 06:53:02 METAR KFRG 051153Z 17006KT 10SM OVC006 09/07 A3006 RMK AO2 SLP181 T00890067 10089 20078 53010","FM-15","7",,,,,,,,,,,,,,,,,,,,,,,,,,,,"2009-05-18"
"74486454787","2020-04-05T07:53:00","FM-15","7",,,,,,,,,,,,,,,,,,,,,,,,,,,,,,,,,,,,,,"30.07","44","49","0.00",,,,"83","30.07","OVC:08 6","29.98","10.00","47","190",,"7",,,,,,,,,,,,,,,,,,,,,,,,,,,,,,,,,,,,,"MET09304/05/20 07:53:02 METAR KFRG 051253Z 19006KT 10SM OVC006 09/07 A3007 RMK AO2 SLP183 T00940067","FM-15","7",,,,,,,,,,,,,,,,,,,,,,,,,,,,"2009-05-18"
"74486454787","2020-04-05T08:53:00","FM-15","7",,,,,,,,,,,,,,,,,,,,,,,,,,,,,,,,,,,,,,"30.07","45","50","0.00",,,,"83","30.07","OVC:08 6","29.98","10.00","48","190",,"5",,,,,,,,,,,,,,,,,,,,,,,,,,,,,,,,,,,,,"MET09304/05/20 08:53:02 METAR KFRG 051353Z 19004KT 10SM OVC006 10/07 A3007 RMK AO2 SLP183 T01000072","FM-15","7",,,,,,,,,,,,,,,,,,,,,,,,,,,,"2009-05-18"
"74486454787","2020-04-05T09:53:00","FM-15","7",,,,,,,,,,,,,,,,,,,,,,,,,,,,,,,,,,,,,,"30.08","44","51","0.00",,"-0.01","1","77","30.08","OVC:08 9","29.99","10.00","48","140",,"6",,,,,,,,,,,,,,,,,,,,,,,,,,,,,,,,,,,,,"MET09904/05/20 09:53:02 METAR KFRG 051453Z 14005KT 10SM OVC009 11/07 A3008 RMK AO2 SLP185 T01060067 51004","FM-15","7",,,,,,,,,,,,,,,,,,,,,,,,,,,,"2009-05-18"
"74486454787","2020-04-05T10:26:00","FM-16","7",,,,,,,,,,,,,,,,,,,,,,,,,,,,,,,,,,,,,,"30.07","45","52",,,,,"77",,"OVC:08 10","29.98","10.00","49","VRB",,"5",,,,,,,,,,,,,,,,,,,,,,,,,,,,,,,,,,,,,"MET08604/05/20 10:26:02 SPECI KFRG 051526Z VRB04KT 10SM OVC010 11/07 A3007 RMK AO2 T01110072","FM-16","7",,,,,,,,,,,,,,,,,,,,,,,,,,,,"2009-05-18"
"74486454787","2020-04-05T10:45:00","FM-16","7",,,,,,,,,,,,,,,,,,,,,,,,,,,,,,,,,,,,,,"30.07","44","52",,,,,"75",,"SCT:04 10 OVC:08 60","29.98","10.00","48","150",,"6",,,,,,,,,,,,,,,,,,,,,,,,,,,,,,,,,,,,,"MET09304/05/20 10:45:02 SPECI KFRG 051545Z 15005KT 10SM SCT010 OVC060 11/07 A3007 RMK AO2 T01110067","FM-16","7",,,,,,,,,,,,,,,,,,,,,,,,,,,,"2009-05-18"
"74486454787","2020-04-05T10:53:00","FM-15","7",,,,,,,,,,,,,,,,,,,,,,,,,,,,,,,,,,,,,,"30.07","45","52","0.00",,,,"77","30.06","FEW:02 10 OVC:08 65","29.98","10.00","49","170",,"6",,,,,,,,,,,,,,,,,,,,,,,,,,,,,,,,,,,,,"MET10004/05/20 10:53:02 METAR KFRG 051553Z 17005KT 10SM FEW010 OVC065 11/07 A3007 RMK AO2 SLP181 T01110072","FM-15","7",,,,,,,,,,,,,,,,,,,,,,,,,,,,"2009-05-18"
"74486454787","2020-04-05T11:53:00","FM-15","7",,,,,,,,,,,,,,,,,,,,,,,,,,,,,,,,,,,,,,"30.05","45","53","0.00",,,,"74","30.05","OVC:08 65","29.96","10.00","49","140",,"7",,,,,,,,,,,,,,,,,,,,,,,,,,,,,,,,,,,,,"MET09304/05/20 11:53:02 METAR KFRG 051653Z 14006KT 10SM OVC065 12/07 A3005 RMK AO2 SLP176 T01170072","FM-15","7",,,,,,,,,,,,,,,,,,,,,,,,,,,,"2009-05-18"
"74486454787","2020-04-05T12:53:00","FM-15","7",,,,,,,,,,,,,,,,,,,,,,,,,,,,,,,,,,,,,,"30.04","46","55","0.00",,"+0.04","8","72","30.03","OVC:08 70","29.95","10.00","50","140",,"7",,,,,,,,,,,,,,,,,,,,,,,,,,,,,,,,,,,,,"MET11104/05/20 12:53:02 METAR KFRG 051753Z 14006KT 10SM OVC070 13/08 A3004 RMK AO2 SLP171 T01280078 10128 20089 58014","FM-15","7",,,,,,,,,,,,,,,,,,,,,,,,,,,,"2009-05-18"
"74486454787","2020-04-05T13:53:00","FM-15","7",,,,,,,,,,,,,,,,,,,,,,,,,,,,,,,,,,,,,,"30.02","47","58","0.00",,,,"67","30.02","OVC:08 70","29.93","10.00","52","150",,"9",,,,,,,,,,,,,,,,,,,,,,,,,,,,,,,,,,,,,"MET09304/05/20 13:53:02 METAR KFRG 051853Z 15008KT 10SM OVC070 14/08 A3002 RMK AO2 SLP166 T01440083","FM-15","7",,,,,,,,,,,,,,,,,,,,,,,,,,,,"2009-05-18"
"74486454787","2020-04-05T14:53:00","FM-15","7",,,,,,,,,,,,,,,,,,,,,,,,,,,,,,,,,,,,,,"30.01","46","56","0.00",,,,"70","30.01","CLR:00","29.92","10.00","51","130",,"10",,,,,,,,,,,,,,,,,,,,,,,,,,,,,,,,,,,,,"MET09004/05/20 14:53:02 METAR KFRG 051953Z 13009KT 10SM CLR 13/08 A3001 RMK AO2 SLP161 T01330078","FM-15","7",,,,,,,,,,,,,,,,,,,,,,,,,,,,"2009-05-18"
"74486454787","2020-04-05T15:53:00","FM-15","7",,,,,,,,,,,,,,,,,,,,,,,,,,,,,,,,,,,,,,"30.00","45","53","0.00",,"+0.04","6","74","30.00","OVC:08 70","29.91","10.00","49","140",,"9",,,,,,,,,,,,,,,,,,,,,,,,,,,,,,,,,,,,,"MET09904/05/20 15:53:02 METAR KFRG 052053Z 14008KT 10SM OVC070 12/07 A3000 RMK AO2 SLP159 T01170072 56013","FM-15","7",,,,,,,,,,,,,,,,,,,,,,,,,,,,"2009-05-18"
"74486454787","2020-04-05T16:53:00","FM-15","7",,,,,,,,,,,,,,,,,,,,,,,,,,,,,,,,,,,,,,"30.01","44","52","0.00",,,,"75","30.01","OVC:08 60","29.92","10.00","48","170",,"10",,,,,,,,,,,,,,,,,,,,,,,,,,,,,,,,,,,,,"MET09304/05/20 16:53:02 METAR KFRG 052153Z 17009KT 10SM OVC060 11/07 A3001 RMK AO2 SLP161 T01110067","FM-15","7",,,,,,,,,,,,,,,,,,,,,,,,,,,,"2009-05-18"
"74486454787","2020-04-05T17:53:00","FM-15","7",,,,,,,,,,,,,,,,,,,,,,,,,,,,,,,,,,,,,,"30.00","45","52","0.00",,,,"77","30.00","FEW:02 65 SCT:04 85","29.91","10.00","49","130",,"6",,,,,,,,,,,,,,,,,,,,,,,,,,,,,,,,,,,,,"MET10004/05/20 17:53:02 METAR KFRG 052253Z 13005KT 10SM FEW065 SCT085 11/07 A3000 RMK AO2 SLP158 T01110072","FM-15","7",,,,,,,,,,,,,,,,,,,,,,,,,,,,"2009-05-18"
"74486454787","2020-04-05T18:53:00","FM-15","7",,,,,,,,,,,,,,,,,,,,,,,,,,,,,,,,,,,,,,"30.00","45","50","0.00",,"+0.00","8","83","30.00","SCT:04 65","29.91","10.00","48","130",,"6",,,,,,,,,,,,,,,,,,,,,,,,,,,,,,,,,,,,,"MET11104/05/20 18:53:02 METAR KFRG 052353Z 13005KT 10SM SCT065 10/07 A3000 RMK AO2 SLP158 T01000072 10144 20100 58001","FM-15","7",,,,,,,,,,,,,,,,,,,,,,,,,,,,"2009-05-18"
"74486454787","2020-04-05T19:53:00","FM-15","7",,,,,,,,,,,,,,,,,,,,,,,,,,,,,,,,,,,,,,"30.00","44","49","0.00",,,,"83","30.00","CLR:00","29.91","10.00","47","110",,"3",,,,,,,,,,,,,,,,,,,,,,,,,,,,,,,,,,,,,"MET09004/05/20 19:53:01 METAR KFRG 060053Z 11003KT 10SM CLR 09/07 A3000 RMK AO2 SLP158 T00940067","FM-15","7",,,,,,,,,,,,,,,,,,,,,,,,,,,,"2009-05-18"
"74486454787","2020-04-05T20:53:00","FM-15","7",,,,,,,,,,,,,,,,,,,,,,,,,,,,,,,,,,,,,,"29.99","44","50","0.00",,,,"80","29.99","CLR:00","29.90","10.00","47","150",,"5",,,,,,,,,,,,,,,,,,,,,,,,,,,,,,,,,,,,,"MET09004/05/20 20:53:01 METAR KFRG 060153Z 15004KT 10SM CLR 10/07 A2999 RMK AO2 SLP157 T01000067","FM-15","7",,,,,,,,,,,,,,,,,,,,,,,,,,,,"2009-05-18"
"74486454787","2020-04-05T21:53:00","FM-15","7",,,,,,,,,,,,,,,,,,,,,,,,,,,,,,,,,,,,,,"29.99","44","50","0.00",,"+0.01","8","80","29.98","FEW:02 60 BKN:07 75","29.90","10.00","47","030",,"3",,,,,,,,,,,,,,,,,,,,,,,,,,,,,,,,,,,,,"MET10604/05/20 21:53:01 METAR KFRG 060253Z 03003KT 10SM FEW060 BKN075 10/07 A2999 RMK AO2 SLP154 T01000067 58004","FM-15","7",,,,,,,,,,,,,,,,,,,,,,,,,,,,"2009-05-18"
"74486454787","2020-04-05T22:53:00","FM-15","7",,,,,,,,,,,,,,,,,,,,,,,,,,,,,,,,,,,,,,"29.98","44","49","0.00",,,,"83","29.98","CLR:00","29.89","10.00","47","000",,"0",,,,,,,,,,,,,,,,,,,,,,,,,,,,,,,,,,,,,"MET09004/05/20 22:53:02 METAR KFRG 060353Z 00000KT 10SM CLR 09/07 A2998 RMK AO2 SLP153 T00940067","FM-15","7",,,,,,,,,,,,,,,,,,,,,,,,,,,,"2009-05-18"
"74486454787","2020-04-05T23:53:00","FM-15","7",,,,,,,,,,,,,,,,,,,,,,,,,,,,,,,,,,,,,,"29.98","44","49","0.00",,,,"83","29.98","OVC:08 65","29.89","10.00","47","020",,"3",,,,,,,,,,,,,,,,,,,,,,,,,,,,,,,,,,,,,"MET10304/05/20 23:53:02 METAR KFRG 060453Z 02003KT 10SM OVC065 09/07 A2998 RMK AO2 SLP152 T00940067 401440078","FM-15","7",,,,,,,,,,,,,,,,,,,,,,,,,,,,"2009-05-18"
"74486454787","2020-04-05T23:59:00","SOD  ","6",,,,,,,,,,,,,,,,"52",,,"29.95",,"6.3","0","6.1","13","58","46","140","16","0.00",,,"130","12",,,,,,,,,,,,,,,,,,,,,,,,,,,,,,,,,,,,,,,,,,,,,,,,,,,,,,,,,"SOD73024 HR PRECIPITATION (IN):0.00  24 HR MAX TEMP (F):58 24 HR MAX TEMP TIME (LST):1403 24 HR MIN TEMP (F):46 24 HR MIN TEMP TIME (LST):0125 AVERAGE STATION PRESSURE:29.945 MINIMUM SEA LEVEL PRESSURE:29.98 TIME OF OCCURRENCE:2359 PEAK WIND SPEED (MPH):16  PEAK WIND DIR (DEG):140 PEAK WIND TIME (LST):1454  FASTEST 2MIN SPEED (MPH):12 FASTEST 2MIN DIR (DEG):130 FASTEST 2MIN TIME (LST):1543 AVERAGE WIND SPEED (MPH):6.3  24 HR AVG TEMP (F):52 HEATING DEGREE DAYS:13  COOLING DEGREE DAYS:0   LATEST DAY MAX TEMP (0700-1900 LST):58  LATEST NIGHT MIN TEMP(1900-0800 LST):45 HOURLY INCREMENTAL PRECIPITATION VALUES (IN):.00 0.00 0.00 0.00 0.00 0.00 0.00 0.00 0.00 0.00 0.00 0.00 0.00 0.00 0.00 0.00 0.00 0.00 0.00 0.00 0.00 0.00 0.00 0.00","SOD  ","6",,,,,,,,,,,,,,,,,,,,,,,,,"0530","1823",,"2009-05-18"
"74486454787","2020-04-06T00:53:00","FM-15","7",,,,,,,,,,,,,,,,,,,,,,,,,,,,,,,,,,,,,,"29.98","44","50","0.00",,"+0.01","8","80","29.98","OVC:08 65","29.89","10.00","47","020",,"7",,,,,,,,,,,,,,,,,,,,,,,,,,,,,,,,,,,,,"MET11104/06/20 00:53:02 METAR KFRG 060553Z 02006KT 10SM OVC065 10/07 A2998 RMK AO2 SLP151 T01000067 10100 20089 58003","FM-15","7",,,,,,,,,,,,,,,,,,,,,,,,,,,,"2009-05-18"
"74486454787","2020-04-06T01:53:00","FM-15","7",,,,,,,,,,,,,,,,,,,,,,,,,,,,,,,,,,,,,,"29.98","44","50","0.00",,,,"80","29.98","SCT:04 65 OVC:08 85","29.89","10.00","47","020",,"5",,,,,,,,,,,,,,,,,,,,,,,,,,,,,,,,,,,,,"MET10004/06/20 01:53:02 METAR KFRG 060653Z 02004KT 10SM SCT065 OVC085 10/07 A2998 RMK AO2 SLP153 T01000067","FM-15","7",,,,,,,,,,,,,,,,,,,,,,,,,,,,"2009-05-18"
"74486454787","2020-04-06T02:53:00","FM-15","7",,,,,,,,,,,,,,,,,,,,,,,,,,,,,,,,,,,,,,"29.99","44","50","T",,,,"80","29.99","SCT:04 65 OVC:08 80","29.90","10.00","47","340",,"7",,,,,,,,,,,,,,,,,,,,,,,,,,,,,,,,,,,,,"MET11504/06/20 02:53:02 METAR KFRG 060753Z 34006KT 10SM SCT065 OVC080 10/07 A2999 RMK AO2 RAB23E42 SLP156 P0000 T01000067","FM-15","7",,,,,,,,,,,,,,,,,,,,,,,,,,,,"2009-05-18"
"74486454787","2020-04-06T03:53:00","FM-15","7",,,,,,,,,,,,,,,,,,,,,,,,,,,,,,,,,,,,,,"29.97","43","49","0.11s","-RA:02 |RA |RA","+0.00","8","80","29.97","FEW:02 46 OVC:08 60","29.88","10.00","46","020",,"9",,,,,,,,,,,,,,,,,,,,,,,,,,,,,,,,,,,,,"MET13004/06/20 03:53:02 METAR KFRG 060853Z 02008KT 10SM -RA FEW046 OVC060 09/06 A2997 RMK AO2 RAB0759 SLP149 P0009 60009 T00940061 58001","FM-15","7",,,,,,,,,,,,,,,,,,,,,,,,,,,,"2009-05-18"
"74486454787","2020-04-06T04:53:00","FM-15","7",,,,,,,,,,,,,,,,,,,,,,,,,,,,,,,,,,,,,,"30.00","42","50","T",,,,"74","30.00","FEW:02 36 BKN:07 60 OVC:08 80","29.91","10.00","46","360",,"5",,,,,,,,,,,,,,,,,,,,,,,,,,,,,,,,,,,,,"MET11904/06/20 04:53:02 METAR KFRG 060953Z 36004KT 10SM FEW036 BKN060 OVC080 10/06 A3000 RMK AO2 RAE11 SLP159 P0002 T01000056","FM-15","7",,,,,,,,,,,,,,,,,,,,,,,,,,,,"2009-05-18"
"74486454787","2020-04-06T05:53:00","FM-15","7",,,,,,,,,,,,,,,,,,,,,,,,,,,,,,,,,,,,,,"30.02","41","50","0.00",,,,"71","30.02","BKN:07 38 OVC:08 49","29.93","10.00","46","010",,"7",,,,,,,,,,,,,,,,,,,,,,,,,,,,,,,,,,,,,"MET10004/06/20 05:53:02 METAR KFRG 061053Z 01006KT 10SM BKN038 OVC049 10/05 A3002 RMK AO2 SLP167 T01000050","FM-15","7",,,,,,,,,,,,,,,,,,,,,,,,,,,,"2009-05-18"
"74486454787","2020-04-06T06:53:00","FM-15","7",,,,,,,,,,,,,,,,,,,,,,,,,,,,,,,,,,,,,,"30.05","39","50","0.00",,"-0.07","1","66","30.05","OVC:08 40","29.96","10.00","45","010",,"10",,,,,,,,,,,,,,,,,,,,,,,,,,,,,,,,,,,,,"MET12304/06/20 06:53:02 METAR KFRG 061153Z 01009KT 10SM OVC040 10/04 A3005 RMK AO2 SLP175 60011 70011 T01000039 10106 20094 51025","FM-15","7",,,,,,,,,,,,,,,,,,,,,,,,,,,,"2009-05-18"
"74486454787","2020-04-06T07:53:00","FM-15","7",,,,,,,,,,,,,,,,,,,,,,,,,,,,,,,,,,,,,,"30.06","37","51","0.00",,,,"59","30.06","BKN:07 45 OVC:08 55","29.97","10.00","45","020",,"9",,,,,,,,,,,,,,,,,,,,,,,,,,,,,,,,,,,,,"MET10004/06/20 07:53:02 METAR KFRG 061253Z 02008KT 10SM BKN045 OVC055 11/03 A3006 RMK AO2 SLP178 T01060028","FM-15","7",,,,,,,,,,,,,,,,,,,,,,,,,,,,"2009-05-18"
"74486454787","2020-04-06T08:53:00","FM-15","7",,,,,,,,,,,,,,,,,,,,,,,,,,,,,,,,,,,,,,"30.05","36","53","0.00",,,,"52","30.05","OVC:08 40","29.96","10.00","45","020",,"10",,,,,,,,,,,,,,,,,,,,,,,,,,,,,,,,,,,,,"MET09304/06/20 08:53:02 METAR KFRG 061353Z 02009KT 10SM OVC040 12/02 A3005 RMK AO2 SLP177 T01170022","FM-15","7",,,,,,,,,,,,,,,,,,,,,,,,,,,,"2009-05-18"
"74486454787","2020-04-06T09:53:00","FM-15","7",,,,,,,,,,,,,,,,,,,,,,,,,,,,,,,,,,,,,,"30.05","35","57","0.00",,"-0.00","0","44","30.05","CLR:00","29.96","10.00","47","030",,"10",,,,,,,,,,,,,,,,,,,,,,,,,,,,,,,,,,,,,"MET09604/06/20 09:53:02 METAR KFRG 061453Z 03009KT 10SM CLR 14/02 A3005 RMK AO2 SLP175 T01390017 50001","FM-15","7",,,,,,,,,,,,,,,,,,,,,,,,,,,,"2009-05-18"
"74486454787","2020-04-06T10:53:00","FM-15","7",,,,,,,,,,,,,,,,,,,,,,,,,,,,,,,,,,,,,,"30.04","34","59","0.00",,,,"39","30.04","CLR:00","29.95","10.00","47","VRB","16","7",,,,,,,,,,,,,,,,,,,,,,,,,,,,,,,,,,,,,"MET09304/06/20 10:53:02 METAR KFRG 061553Z VRB06G14KT 10SM CLR 15/01 A3004 RMK AO2 SLP173 T01500011","FM-15","7",,,,,,,,,,,,,,,,,,,,,,,,,,,,"2009-05-18"
"74486454787","2020-04-06T11:53:00","FM-15","7",,,,,,,,,,,,,,,,,,,,,,,,,,,,,,,,,,,,,,"30.02","33","60","0.00",,,,"36","30.02","CLR:00","29.93","10.00","48","300",,"11",,,,,,,,,,,,,,,,,,,,,,,,,,,,,,,,,,,,,"MET09004/06/20 11:53:02 METAR KFRG 061653Z 30010KT 10SM CLR 16/01 A3002 RMK AO2 SLP166 T01560006","FM-15","7",,,,,,,,,,,,,,,,,,,,,,,,,,,,"2009-05-18"
"74486454787","2020-04-06T12:53:00","FM-15","7",,,,,,,,,,,,,,,,,,,,,,,,,,,,,,,,,,,,,,"30.00","31","62","0.00",,"+0.05","8","31","30.00","CLR:00","29.91","10.00","48","030",,"6",,,,,,,,,,,,,,,,,,,,,,,,,,,,,,,,,,,,,"MET10904/06/20 12:53:02 METAR KFRG 061753Z 03005KT 10SM CLR 17/M01 A3000 RMK AO2 SLP159 T01671006 10167 20100 58017","FM-15","7",,,,,,,,,,,,,,,,,,,,,,,,,,,,"2009-05-18"
"74486454787","2020-04-06T13:53:00","FM-15","7",,,,,,,,,,,,,,,,,,,,,,,,,,,,,,,,,,,,,,"29.98","31","63","0.00",,,,"30","29.97","CLR:00","29.89","10.00","48","310",,"8",,,,,,,,,,,,,,,,,,,,,,,,,,,,,,,,,,,,,"MET09104/06/20 13:53:02 METAR KFRG 061853Z 31007KT 10SM CLR 17/M01 A2998 RMK AO2 SLP150 T01721006","FM-15","7",,,,,,,,,,,,,,,,,,,,,,,,,,,,"2009-05-18"
"74486454787","2020-04-06T14:53:00","FM-15","7",,,,,,,,,,,,,,,,,,,,,,,,,,,,,,,,,,,,,,"29.95","30","64","0.00",,,,"28","29.95","CLR:00","29.86","10.00","48","VRB",,"11",,,,,,,,,,,,,,,,,,,,,,,,,,,,,,,,,,,,,"MET09104/06/20 14:53:02 METAR KFRG 061953Z 31010KT 10SM CLR 18/M01 A2995 RMK AO2 SLP142 T01781011","FM-15","7",,,,,,,,,,,,,,,,,,,,,,,,,,,,"2009-05-18"
"74486454787","2020-04-06T15:53:00","FM-15","7",,,,,,,,,,,,,,,,,,,,,,,,,,,,,,,,,,,,,,"29.94","30","65","0.00",,"+0.06","6","27","29.94","CLR:00","29.85","10.00","49","290",,"9",,,,,,,,,,,,,,,,,,,,,,,,,,,,,,,,,,,,,"MET09704/06/20 15:53:02 METAR KFRG 062053Z 29008KT 10SM CLR 18/M01 A2994 RMK AO2 SLP139 T01831011 56019","FM-15","7",,,,,,,,,,,,,,,,,,,,,,,,,,,,"2009-05-18"
"74486454787","2020-04-06T16:53:00","FM-15","7",,,,,,,,,,,,,,,,,,,,,,,,,,,,,,,,,,,,,,"29.93","36","62","0.00",,,,"38","29.93","CLR:00","29.84","10.00","50","200",,"13",,,,,,,,,,,,,,,,,,,,,,,,,,,,,,,,,,,,,"MET09004/06/20 16:53:02 METAR KFRG 062153Z 20011KT 10SM CLR 17/02 A2993 RMK AO2 SLP137 T01670022","FM-15","7",,,,,,,,,,,,,,,,,,,,,,,,,,,,"2009-05-18"
"74486454787","2020-04-06T17:53:00","FM-15","7",,,,,,,,,,,,,,,,,,,,,,,,,,,,,,,,,,,,,,"29.94","36","55","0.00",,,,"49","29.94","CLR:00","29.85","10.00","46","220",,"13",,,,,,,,,,,,,,,,,,,,,,,,,,,,,,,,,,,,,"MET09004/06/20 17:53:02 METAR KFRG 062253Z 22011KT 10SM CLR 13/02 A2994 RMK AO2 SLP140 T01280022","FM-15","7",,,,,,,,,,,,,,,,,,,,,,,,,,,,"2009-05-18"
"74486454787","2020-04-06T18:53:00","FM-15","7",,,,,,,,,,,,,,,,,,,,,,,,,,,,,,,,,,,,,,"29.95","38","51","0.00",,"-0.01","3","61","29.95","CLR:00","29.86","10.00","45","220",,"10",,,,,,,,,,,,,,,,,,,,,,,,,,,,,,,,,,,,,"MET10804/06/20 18:53:02 METAR KFRG 062353Z 22009KT 10SM CLR 11/03 A2995 RMK AO2 SLP142 T01060033 10183 20106 53002","FM-15","7",,,,,,,,,,,,,,,,,,,,,,,,,,,,"2009-05-18"
"74486454787","2020-04-06T19:53:00","FM-15","6",,,,,,,,,,,,,,,,,,,,,,,,,,,,,,,,,,,,,,"29.97","39","51","0.00",,,,"64","29.97","CLR:00","29.88","10.00","45","230",,"8",,,,,,,,,,,,,,,,,,,,,,,,,,,,,,,,,,,,,"MET09004/06/20 19:53:01 METAR KFRG 070053Z 23007KT 10SM CLR 11/04 A2997 RMK AO2 SLP148 T01060039","FM-15","6",,,,,,,,,,,,,,,,,,,,,,,,,,,,"2009-05-18"
"74486454787","2020-04-06T20:53:00","FM-15","7",,,,,,,,,,,,,,,,,,,,,,,,,,,,,,,,,,,,,,"29.97","39","49","0.00",,,,"69","29.97","CLR:00","29.88","10.00","44","260",,"6",,,,,,,,,,,,,,,,,,,,,,,,,,,,,,,,,,,,,"MET09004/06/20 20:53:01 METAR KFRG 070153Z 26005KT 10SM CLR 09/04 A2997 RMK AO2 SLP149 T00940039","FM-15","7",,,,,,,,,,,,,,,,,,,,,,,,,,,,"2009-05-18"
"74486454787","2020-04-06T21:53:00","FM-15","7",,,,,,,,,,,,,,,,,,,,,,,,,,,,,,,,,,,,,,"29.97","39","50","0.00",,"-0.01","0","66","29.96","CLR:00","29.88","10.00","45","000",,"0",,,,,,,,,,,,,,,,,,,,,,,,,,,,,,,,,,,,,"MET09604/06/20 21:53:01 METAR KFRG 070253Z 00000KT 10SM CLR 10/04 A2997 RMK AO2 SLP147 T01000039 50005","FM-15","7",,,,,,,,,,,,,,,,,,,,,,,,,,,,"2009-05-18"
"74486454787","2020-04-06T22:53:00","FM-15","7",,,,,,,,,,,,,,,,,,,,,,,,,,,,,,,,,,,,,,"29.97","39","50","0.00",,,,"66","29.97","CLR:00","29.88","10.00","45","000",,"0",,,,,,,,,,,,,,,,,,,,,,,,,,,,,,,,,,,,,"MET09004/06/20 22:53:02 METAR KFRG 070353Z 00000KT 10SM CLR 10/04 A2997 RMK AO2 SLP148 T01000039","FM-15","7",,,,,,,,,,,,,,,,,,,,,,,,,,,,"2009-05-18"
"74486454787","2020-04-06T23:53:00","FM-15","7",,,,,,,,,,,,,,,,,,,,,,,,,,,,,,,,,,,,,,"29.97","39","50","0.00",,,,"66","29.96","CLR:00","29.88","10.00","45","000",,"0",,,,,,,,,,,,,,,,,,,,,,,,,,,,,,,,,,,,,"MET10004/06/20 23:53:02 METAR KFRG 070453Z 00000KT 10SM CLR 10/04 A2997 RMK AO2 SLP147 T01000039 401830094","FM-15","7",,,,,,,,,,,,,,,,,,,,,,,,,,,,"2009-05-18"
"74486454787","2020-04-06T23:59:00","SOD  ","6",,,,,,,,,,,,,,,,"57",,,"29.90",,"7.6","0","10.8","8","65","49","230","20","0.11",,,"230","16","RA",,,,,,,,,,,,,,,,,,,,,,,,,,,,,,,,,,,,,,,,,,,,,,,,,,,,,,,,"SOD73024 HR PRECIPITATION (IN):0.11  24 HR MAX TEMP (F):65 24 HR MAX TEMP TIME (LST):1615 24 HR MIN TEMP (F):49 24 HR MIN TEMP TIME (LST):2359 AVERAGE STATION PRESSURE:29.900 MINIMUM SEA LEVEL PRESSURE:29.93 TIME OF OCCURRENCE:1704 PEAK WIND SPEED (MPH):20  PEAK WIND DIR (DEG):230 PEAK WIND TIME (LST):1819  FASTEST 2MIN SPEED (MPH):16 FASTEST 2MIN DIR (DEG):230 FASTEST 2MIN TIME (LST):1820 AVERAGE WIND SPEED (MPH):7.6  24 HR AVG TEMP (F):57 HEATING DEGREE DAYS:8   COOLING DEGREE DAYS:0   LATEST DAY MAX TEMP (0700-1900 LST):65  LATEST NIGHT MIN TEMP(1900-0800 LST):48 HOURLY INCREMENTAL PRECIPITATION VALUES (IN):.00 0.00 T    0.11 T    0.00 0.00 0.00 0.00 0.00 0.00 0.00 0.00 0.00 0.00 0.00 0.00 0.00 0.00 0.00 0.00 0.00 0.00 0.00","SOD  ","6",,,,,,,,,,,,,,,,,,,,,,,,,"0528","1825",,"2009-05-18"
"74486454787","2020-04-07T00:53:00","FM-15","7",,,,,,,,,,,,,,,,,,,,,,,,,,,,,,,,,,,,,,"29.97","39","49","0.00",,"-0.00","0","69","29.96","FEW:02 120","29.88","10.00","44","280",,"3",,,,,,,,,,,,,,,,,,,,,,,,,,,,,,,,,,,,,"MET11104/07/20 00:53:02 METAR KFRG 070553Z 28003KT 10SM FEW120 09/04 A2997 RMK AO2 SLP147 T00940039 10106 20089 50000","FM-15","7",,,,,,,,,,,,,,,,,,,,,,,,,,,,"2009-05-18"
"74486454787","2020-04-07T01:53:00","FM-15","7",,,,,,,,,,,,,,,,,,,,,,,,,,,,,,,,,,,,,,"29.97","31","52","0.00",,,,"45","29.97","FEW:02 120","29.88","10.00","43","300",,"3",,,,,,,,,,,,,,,,,,,,,,,,,,,,,,,,,,,,,"MET09404/07/20 01:53:02 METAR KFRG 070653Z 30003KT 10SM FEW120 11/M01 A2997 RMK AO2 SLP148 T01111006","FM-15","7",,,,,,,,,,,,,,,,,,,,,,,,,,,,"2009-05-18"
"74486454787","2020-04-07T02:53:00","FM-15","7",,,,,,,,,,,,,,,,,,,,,,,,,,,,,,,,,,,,,,"29.97","30","51","0.00",,,,"44","29.96","OVC:08 110","29.88","10.00","42","000",,"0",,,,,,,,,,,,,,,,,,,,,,,,,,,,,,,,,,,,,"MET09404/07/20 02:53:02 METAR KFRG 070753Z 00000KT 10SM OVC110 11/M01 A2997 RMK AO2 SLP147 T01061011","FM-15","7",,,,,,,,,,,,,,,,,,,,,,,,,,,,"2009-05-18"
"74486454787","2020-04-07T03:53:00","FM-15","7",,,,,,,,,,,,,,,,,,,,,,,,,,,,,,,,,,,,,,"29.96","30","51","0.00",,"+0.00","8","44","29.96","OVC:08 120","29.87","10.00","42","000",,"0",,,,,,,,,,,,,,,,,,,,,,,,,,,,,,,,,,,,,"MET10004/07/20 03:53:02 METAR KFRG 070853Z 00000KT 10SM OVC120 11/M01 A2996 RMK AO2 SLP145 T01061011 58001","FM-15","7",,,,,,,,,,,,,,,,,,,,,,,,,,,,"2009-05-18"
"74486454787","2020-04-07T04:53:00","FM-15","7",,,,,,,,,,,,,,,,,,,,,,,,,,,,,,,,,,,,,,"29.95","31","50","0.00",,,,"48","29.95","OVC:08 120","29.86","10.00","42","000",,"0",,,,,,,,,,,,,,,,,,,,,,,,,,,,,,,,,,,,,"MET09404/07/20 04:53:02 METAR KFRG 070953Z 00000KT 10SM OVC120 10/M01 A2995 RMK AO2 SLP143 T01001006","FM-15","7",,,,,,,,,,,,,,,,,,,,,,,,,,,,"2009-05-18"
"74486454787","2020-04-07T05:53:00","FM-15","7",,,,,,,,,,,,,,,,,,,,,,,,,,,,,,,,,,,,,,"29.97","29","49","0.00",,,,"46","29.97","FEW:02 120","29.88","10.00","41","250",,"3",,,,,,,,,,,,,,,,,,,,,,,,,,,,,,,,,,,,,"MET09404/07/20 05:53:02 METAR KFRG 071053Z 25003KT 10SM FEW120 09/M02 A2997 RMK AO2 SLP150 T00941017","FM-15","7",,,,,,,,,,,,,,,,,,,,,,,,,,,,"2009-05-18"
"74486454787","2020-04-07T06:53:00","FM-15","7",,,,,,,,,,,,,,,,,,,,,,,,,,,,,,,,,,,,,,"29.98","31","53","0.00",,"-0.02","3","43","29.98","CLR:00","29.89","10.00","43","250",,"3",,,,,,,,,,,,,,,,,,,,,,,,,,,,,,,,,,,,,"MET10904/07/20 06:53:02 METAR KFRG 071153Z 25003KT 10SM CLR 12/M01 A2998 RMK AO2 SLP152 T01171006 10117 20094 53006","FM-15","7",,,,,,,,,,,,,,,,,,,,,,,,,,,,"2009-05-18"
"74486454787","2020-04-07T07:53:00","FM-15","7",,,,,,,,,,,,,,,,,,,,,,,,,,,,,,,,,,,,,,"29.98","30","56","0.00",,,,"37","29.98","CLR:00","29.89","10.00","45","320",,"7",,,,,,,,,,,,,,,,,,,,,,,,,,,,,,,,,,,,,"MET09104/07/20 07:53:02 METAR KFRG 071253Z 32006KT 10SM CLR 13/M01 A2998 RMK AO2 SLP152 T01331011","FM-15","7",,,,,,,,,,,,,,,,,,,,,,,,,,,,"2009-05-18"
"74486454787","2020-04-07T08:53:00","FM-15","7",,,,,,,,,,,,,,,,,,,,,,,,,,,,,,,,,,,,,,"29.98","30","58","0.00",,,,"35","29.98","CLR:00","29.89","10.00","46","VRB",,"5",,,,,,,,,,,,,,,,,,,,,,,,,,,,,,,,,,,,,"MET09104/07/20 08:53:02 METAR KFRG 071353Z VRB04KT 10SM CLR 14/M01 A2998 RMK AO2 SLP151 T01441011","FM-15","7",,,,,,,,,,,,,,,,,,,,,,,,,,,,"2009-05-18"
"74486454787","2020-04-07T09:53:00","FM-15","7",,,,,,,,,,,,,,,,,,,,,,,,,,,,,,,,,,,,,,"29.96","31","61","0.00",,"+0.02","8","32","29.96","CLR:00","29.87","10.00","47","330",,"7",,,,,,,,,,,,,,,,,,,,,,,,,,,,,,,,,,,,,"MET09704/07/20 09:53:02 METAR KFRG 071453Z 33006KT 10SM CLR 16/M01 A2996 RMK AO2 SLP146 T01611006 58007","FM-15","7",,,,,,,,,,,,,,,,,,,,,,,,,,,,"2009-05-18"
"74486454787","2020-04-07T10:53:00","FM-15","7",,,,,,,,,,,,,,,,,,,,,,,,,,,,,,,,,,,,,,"29.93","32","62","0.00",,,,"32","29.93","SCT:04 60","29.84","10.00","48","VRB",,"3",,,,,,,,,,,,,,,,,,,,,,,,,,,,,,,,,,,,,"MET09304/07/20 10:53:02 METAR KFRG 071553Z VRB03KT 10SM SCT060 17/00 A2993 RMK AO2 SLP136 T01670000","FM-15","7",,,,,,,,,,,,,,,,,,,,,,,,,,,,"2009-05-18"
"74486454787","2020-04-07T11:53:00","FM-15","7",,,,,,,,,,,,,,,,,,,,,,,,,,,,,,,,,,,,,,"29.90","32","63","0.00",,,,"31","29.90","SCT:04 60","29.81","10.00","49","VRB",,"9",,,,,,,,,,,,,,,,,,,,,,,,,,,,,,,,,,,,,"MET09304/07/20 11:53:02 METAR KFRG 071653Z 26008KT 10SM SCT060 17/00 A2990 RMK AO2 SLP124 T01720000","FM-15","7",,,,,,,,,,,,,,,,,,,,,,,,,,,,"2009-05-18"
"74486454787","2020-04-07T12:53:00","FM-15","7",,,,,,,,,,,,,,,,,,,,,,,,,,,,,,,,,,,,,,"29.87","37","63","0.00",,"+0.09","6","38","29.88","CLR:00","29.78","10.00","50","210",,"13",,,,,,,,,,,,,,,,,,,,,,,,,,,,,,,,,,,,,"MET11904/07/20 12:53:02 METAR KFRG 071753Z 21011KT 10SM CLR 17/03 A2987 RMK AO2 WSHFT 1739 SLP117 T01720028 10183 20117 56029","FM-15","7",,,,,,,,,,,,,,,,,,,,,,,,,,,,"2009-05-18"
"74486454787","2020-04-07T13:00:00","FM-16","7",,,,,,,,,,,,,,,,,,,,,,,,,,,,,,,,,,,,,,"29.87","36","64",,,,,"35",,"CLR:00","29.78","10.00","50","210",,"14",,,,,,,,,,,,,,,,,,,,,,,,,,,,,,,,,,,,,"MET09404/07/20 13:00:02 SPECI KFRG 071800Z 21012KT 10SM CLR 18/02 A2987 RMK AO2 WSHFT 1740 T01780022","FM-16","7",,,,,,,,,,,,,,,,,,,,,,,,,,,,"2009-05-18"
"74486454787","2020-04-07T13:53:00","FM-15","7",,,,,,,,,,,,,,,,,,,,,,,,,,,,,,,,,,,,,,"29.84","35","63","0.00",,,,"35","29.84","CLR:00","29.75","10.00","50","200",,"14",,,,,,,,,,,,,,,,,,,,,,,,,,,,,,,,,,,,,"MET10104/07/20 13:53:02 METAR KFRG 071853Z 20012KT 10SM CLR 17/02 A2984 RMK AO2 WSHFT 1740 SLP104 T01720017","FM-15","7",,,,,,,,,,,,,,,,,,,,,,,,,,,,"2009-05-18"
"74486454787","2020-04-07T14:53:00","FM-15","7",,,,,,,,,,,,,,,,,,,,,,,,,,,,,,,,,,,,,,"29.82","34","61","0.00",,,,"36","29.82","CLR:00","29.73","10.00","48","200",,"16",,,,,,,,,,,,,,,,,,,,,,,,,,,,,,,,,,,,,"MET09004/07/20 14:53:02 METAR KFRG 071953Z 20014KT 10SM CLR 16/01 A2982 RMK AO2 SLP097 T01610011","FM-15","7",,,,,,,,,,,,,,,,,,,,,,,,,,,,"2009-05-18"
"74486454787","2020-04-07T15:53:00","FM-15","7",,,,,,,,,,,,,,,,,,,,,,,,,,,,,,,,,,,,,,"29.80","32","59","0.00",,"+0.07","6","36","29.80","CLR:00","29.71","10.00","47","200",,"16",,,,,,,,,,,,,,,,,,,,,,,,,,,,,,,,,,,,,"MET09604/07/20 15:53:02 METAR KFRG 072053Z 20014KT 10SM CLR 15/00 A2980 RMK AO2 SLP091 T01500000 56025","FM-15","7",,,,,,,,,,,,,,,,,,,,,,,,,,,,"2009-05-18"
"74486454787","2020-04-07T16:53:00","FM-15","7",,,,,,,,,,,,,,,,,,,,,,,,,,,,,,,,,,,,,,"29.78","24","58","0.00",,,,"27","29.78","CLR:00","29.69","10.00","44","200",,"14",,,,,,,,,,,,,,,,,,,,,,,,,,,,,,,,,,,,,"MET09104/07/20 16:53:02 METAR KFRG 072153Z 20012KT 10SM CLR 14/M04 A2978 RMK AO2 SLP085 T01441044","FM-15","7",,,,,,,,,,,,,,,,,,,,,,,,,,,,"2009-05-18"
"74486454787","2020-04-07T17:53:00","FM-15","7",,,,,,,,,,,,,,,,,,,,,,,,,,,,,,,,,,,,,,"29.77","29","55","0.00",,,,"37","29.77","CLR:00","29.68","10.00","44","190",,"9",,,,,,,,,,,,,,,,,,,,,,,,,,,,,,,,,,,,,"MET09104/07/20 17:53:02 METAR KFRG 072253Z 19008KT 10SM CLR 13/M02 A2977 RMK AO2 SLP080 T01281017","FM-15","7",,,,,,,,,,,,,,,,,,,,,,,,,,,,"2009-05-18"
"74486454787","2020-04-07T18:53:00","FM-15","7",,,,,,,,,,,,,,,,,,,,,,,,,,,,,,,,,,,,,,"29.76","36","52","0.00",,"+0.04","6","55","29.76","CLR:00","29.67","10.00","45","200",,"10",,,,,,,,,,,,,,,,,,,,,,,,,,,,,,,,,,,,,"MET10804/07/20 18:53:02 METAR KFRG 072353Z 20009KT 10SM CLR 11/02 A2976 RMK AO2 SLP078 T01110022 10178 20111 56013","FM-15","7",,,,,,,,,,,,,,,,,,,,,,,,,,,,"2009-05-18"
"74486454787","2020-04-07T19:53:00","FM-15","7",,,,,,,,,,,,,,,,,,,,,,,,,,,,,,,,,,,,,,"29.76","41","52","0.00",,,,"66","29.76","CLR:00","29.67","10.00","47","200",,"9",,,,,,,,,,,,,,,,,,,,,,,,,,,,,,,,,,,,,"MET09004/07/20 19:53:01 METAR KFRG 080053Z 20008KT 10SM CLR 11/05 A2976 RMK AO2 SLP077 T01110050","FM-15","7",,,,,,,,,,,,,,,,,,,,,,,,,,,,"2009-05-18"
"74486454787","2020-04-07T20:53:00","FM-15","7",,,,,,,,,,,,,,,,,,,,,,,,,,,,,,,,,,,,,,"29.74","44","52","0.00",,,,"75","29.73","CLR:00","29.65","10.00","48","210",,"9",,,,,,,,,,,,,,,,,,,,,,,,,,,,,,,,,,,,,"MET09004/07/20 20:53:01 METAR KFRG 080153Z 21008KT 10SM CLR 11/07 A2974 RMK AO2 SLP069 T01110067","FM-15","7",,,,,,,,,,,,,,,,,,,,,,,,,,,,"2009-05-18"
"74486454787","2020-04-07T21:53:00","FM-15","7",,,,,,,,,,,,,,,,,,,,,,,,,,,,,,,,,,,,,,"29.70","45","53","0.00",,"+0.06","8","74","29.70","OVC:08 90","29.61","10.00","49","190",,"9",,,,,,,,,,,,,,,,,,,,,,,,,,,,,,,,,,,,,"MET09904/07/20 21:53:01 METAR KFRG 080253Z 19008KT 10SM OVC090 12/07 A2970 RMK AO2 SLP058 T01170072 58020","FM-15","7",,,,,,,,,,,,,,,,,,,,,,,,,,,,"2009-05-18"
"74486454787","2020-04-07T22:53:00","FM-15","7",,,,,,,,,,,,,,,,,,,,,,,,,,,,,,,,,,,,,,"29.68","45","52","0.00",,,,"77","29.67","OVC:08 75","29.59","10.00","49","200",,"6",,,,,,,,,,,,,,,,,,,,,,,,,,,,,,,,,,,,,"MET09304/07/20 22:53:02 METAR KFRG 080353Z 20005KT 10SM OVC075 11/07 A2968 RMK AO2 SLP048 T01110072","FM-15","7",,,,,,,,,,,,,,,,,,,,,,,,,,,,"2009-05-18"
"74486454787","2020-04-07T23:53:00","FM-15","7",,,,,,,,,,,,,,,,,,,,,,,,,,,,,,,,,,,,,,"29.64","46","51","0.00",,,,"83","29.63","OVC:08 80","29.55","10.00","48","180",,"7",,,,,,,,,,,,,,,,,,,,,,,,,,,,,,,,,,,,,"MET10304/07/20 23:53:02 METAR KFRG 080453Z 18006KT 10SM OVC080 11/08 A2964 RMK AO2 SLP034 T01060078 401830089","FM-15","7",,,,,,,,,,,,,,,,,,,,,,,,,,,,"2009-05-18"
"74486454787","2020-04-07T23:59:00","SOD  ","6",,,,,,,,,,,,,,,,"57",,,"29.80",,"7.4","0","10.4","8","65","48","200","23","0.00",,,"200","20",,,,,,,,,,,,,,,,,,,,,,,,,,,,,,,,,,,,,,,,,,,,,,,,,,,,,,,,,"SOD73024 HR PRECIPITATION (IN):0.00  24 HR MAX TEMP (F):65 24 HR MAX TEMP TIME (LST):1230 24 HR MIN TEMP (F):48 24 HR MIN TEMP TIME (LST):0018 AVERAGE STATION PRESSURE:29.805 MINIMUM SEA LEVEL PRESSURE:29.63 TIME OF OCCURRENCE:2359 PEAK WIND SPEED (MPH):23  PEAK WIND DIR (DEG):200 PEAK WIND TIME (LST):1525  FASTEST 2MIN SPEED (MPH):20 FASTEST 2MIN DIR (DEG):200 FASTEST 2MIN TIME (LST):1447 AVERAGE WIND SPEED (MPH):7.4  24 HR AVG TEMP (F):57 HEATING DEGREE DAYS:8   COOLING DEGREE DAYS:0   LATEST DAY MAX TEMP (0700-1900 LST):65  LATEST NIGHT MIN TEMP(1900-0800 LST):48 HOURLY INCREMENTAL PRECIPITATION VALUES (IN):.00 0.00 0.00 0.00 0.00 0.00 0.00 0.00 0.00 0.00 0.00 0.00 0.00 0.00 0.00 0.00 0.00 0.00 0.00 0.00 0.00 0.00 0.00 0.00","SOD  ","6",,,,,,,,,,,,,,,,,,,,,,,,,"0526","1826",,"2009-05-18"
"74486454787","2020-04-08T00:53:00","FM-15","7",,,,,,,,,,,,,,,,,,,,,,,,,,,,,,,,,,,,,,"29.60","46","52","0.00",,"+0.10","8","80","29.60","OVC:08 70","29.51","10.00","49","120",,"3",,,,,,,,,,,,,,,,,,,,,,,,,,,,,,,,,,,,,"MET11104/08/20 00:53:02 METAR KFRG 080553Z 12003KT 10SM OVC070 11/08 A2960 RMK AO2 SLP023 T01110078 10117 20106 58035","FM-15","7",,,,,,,,,,,,,,,,,,,,,,,,,,,,"2009-05-18"
"74486454787","2020-04-08T01:53:00","FM-15","7",,,,,,,,,,,,,,,,,,,,,,,,,,,,,,,,,,,,,,"29.55","46","52","0.00",,,,"80","29.55","OVC:08 65","29.46","10.00","49","120",,"6",,,,,,,,,,,,,,,,,,,,,,,,,,,,,,,,,,,,,"MET09304/08/20 01:53:02 METAR KFRG 080653Z 12005KT 10SM OVC065 11/08 A2955 RMK AO2 SLP006 T01110078","FM-15","7",,,,,,,,,,,,,,,,,,,,,,,,,,,,"2009-05-18"
"74486454787","2020-04-08T02:53:00","FM-15","7",,,,,,,,,,,,,,,,,,,,,,,,,,,,,,,,,,,,,,"29.53","47","51","T",,,,"86","29.53","BKN:07 55 OVC:08 70","29.44","10.00","49","170",,"7",,,,,,,,,,,,,,,,,,,,,,,,,,,,,,,,,,,,,"MET11504/08/20 02:53:02 METAR KFRG 080753Z 17006KT 10SM BKN055 OVC070 11/08 A2953 RMK AO2 RAB18E31 SLP001 P0000 T01060083","FM-15","7",,,,,,,,,,,,,,,,,,,,,,,,,,,,"2009-05-18"
"74486454787","2020-04-08T03:53:00","FM-15","7",,,,,,,,,,,,,,,,,,,,,,,,,,,,,,,,,,,,,,"29.52","47","51","0.03","-RA:02 BR:1 |RA |RA","+0.08","6","86","29.52","FEW:02 17 BKN:07 39 OVC:08 50","29.43","6.00","49","VRB",,"5",,,,,,,,,,,,,,,,,,,,,,,,,,,,,,,,,,,,,"MET13704/08/20 03:53:02 METAR KFRG 080853Z VRB04KT 6SM -RA BR FEW017 BKN039 OVC050 11/08 A2952 RMK AO2 RAB07 SLP997 P0003 60003 T01060083 56026","FM-15","7",,,,,,,,,,,,,,,,,,,,,,,,,,,,"2009-05-18"
"74486454787","2020-04-08T04:53:00","FM-15","7",,,,,,,,,,,,,,,,,,,,,,,,,,,,,,,,,,,,,,"29.48","49","52","0.10","RA:02 BR:1 |RA |RA",,,"89","29.48","OVC:08 60","29.39","4.00","50","180",,"5",,,,,,,,,,,,,,,,,,,,,,,,,,,,,,,,,,,,,"MET10404/08/20 04:53:02 METAR KFRG 080953Z 18004KT 4SM RA BR OVC060 11/09 A2948 RMK AO2 SLP984 P0010 T01110094","FM-15","7",,,,,,,,,,,,,,,,,,,,,,,,,,,,"2009-05-18"
"74486454787","2020-04-08T05:00:00","FM-16","7",,,,,,,,,,,,,,,,,,,,,,,,,,,,,,,,,,,,,,"29.47","49","52","T","-RA:02 BR:1 |RA |RA",,,"89",,"SCT:04 6 OVC:08 60","29.38","4.00","50","160",,"5",,,,,,,,,,,,,,,,,,,,,,,,,,,,,,,,,,,,,"MET11204/08/20 05:00:02 SPECI KFRG 081000Z 16004KT 4SM -RA BR SCT006 OVC060 11/09 A2947 RMK AO2 PRESFR P0000 T01110094","FM-16","7",,,,,,,,,,,,,,,,,,,,,,,,,,,,"2009-05-18"
"74486454787","2020-04-08T05:09:00","FM-16","7",,,,,,,,,,,,,,,,,,,,,,,,,,,,,,,,,,,,,,"29.45","48","52","T","-RA:02 BR:1 |RA |RA",,,"86",,"BKN:07 5 OVC:08 60","29.36","5.00","50","140",,"6",,,,,,,,,,,,,,,,,,,,,,,,,,,,,,,,,,,,,"MET11204/08/20 05:09:02 SPECI KFRG 081009Z 14005KT 5SM -RA BR BKN005 OVC060 11/09 A2945 RMK AO2 PRESFR P0000 T01110089","FM-16","7",,,,,,,,,,,,,,,,,,,,,,,,,,,,"2009-05-18"
"74486454787","2020-04-08T05:21:00","FM-16","7",,,,,,,,,,,,,,,,,,,,,,,,,,,,,,,,,,,,,,"29.45","48","52","T","BR:1 ||",,,"86",,"BKN:07 4 OVC:08 100","29.36","4.00","50","130",,"3",,,,,,,,,,,,,,,,,,,,,,,,,,,,,,,,,,,,,"MET10704/08/20 05:21:02 SPECI KFRG 081021Z 13003KT 4SM BR BKN004 OVC100 11/09 A2945 RMK AO2 RAE12 P0000 T01110089","FM-16","7",,,,,,,,,,,,,,,,,,,,,,,,,,,,"2009-05-18"
"74486454787","2020-04-08T05:53:00","FM-15","7",,,,,,,,,,,,,,,,,,,,,,,,,,,,,,,,,,,,,,"29.48","49","52","T","BR:1 ||",,,"89","29.48","OVC:08 3","29.39","3.00","50","360",,"7",,,,,,,,,,,,,,,,,,,,,,,,,,,,,,,,,,,,,"MET10704/08/20 05:53:02 METAR KFRG 081053Z 36006KT 3SM BR OVC003 11/09 A2948 RMK AO2 RAE12 SLP984 P0000 T01110094","FM-15","7",,,,,,,,,,,,,,,,,,,,,,,,,,,,"2009-05-18"
"74486454787","2020-04-08T06:22:00","FM-16","7",,,,,,,,,,,,,,,,,,,,,,,,,,,,,,,,,,,,,,"29.49","50","53",,"BR:1 ||",,,"89",,"OVC:08 5","29.40","4.00","51","350",,"5",,,,,,,,,,,,,,,,,,,,,,,,,,,,,,,,,,,,,"MET08804/08/20 06:22:02 SPECI KFRG 081122Z 35004KT 4SM BR OVC005 12/10 A2949 RMK AO2 T01170100","FM-16","7",,,,,,,,,,,,,,,,,,,,,,,,,,,,"2009-05-18"
"74486454787","2020-04-08T06:53:00","FM-15","7",,,,,,,,,,,,,,,,,,,,,,,,,,,,,,,,,,,,,,"29.50","48","52","0.00","BR:1 ||","+0.02","5","86","29.50","OVC:08 5","29.41","4.00","50","010",,"8",,,,,,,,,,,,,,,,,,,,,,,,,,,,,,,,,,,,,"MET12504/08/20 06:53:02 METAR KFRG 081153Z 01007KT 4SM BR OVC005 11/09 A2950 RMK AO2 SLP991 60013 70013 T01110089 10117 20106 55006","FM-15","7",,,,,,,,,,,,,,,,,,,,,,,,,,,,"2009-05-18"
"74486454787","2020-04-08T07:14:00","FM-16","7",,,,,,,,,,,,,,,,,,,,,,,,,,,,,,,,,,,,,,"29.51","48","52",,"BR:1 ||",,,"86",,"OVC:08 4","29.42","5.00","50","010",,"11",,,,,,,,,,,,,,,,,,,,,,,,,,,,,,,,,,,,,"MET08804/08/20 07:14:02 SPECI KFRG 081214Z 01010KT 5SM BR OVC004 11/09 A2951 RMK AO2 T01110089","FM-16","7",,,,,,,,,,,,,,,,,,,,,,,,,,,,"2009-05-18"
"74486454787","2020-04-08T07:24:00","FM-16","7",,,,,,,,,,,,,,,,,,,,,,,,,,,,,,,,,,,,,,"29.51","47","51",,"BR:1 ||",,,"86",,"OVC:08 5","29.42","5.00","49","360",,"11",,,,,,,,,,,,,,,,,,,,,,,,,,,,,,,,,,,,,"MET10004/08/20 07:24:02 SPECI KFRG 081224Z 36010KT 5SM BR OVC005 11/08 A2951 RMK AO2 CIG 004V008 T01060083","FM-16","7",,,,,,,,,,,,,,,,,,,,,,,,,,,,"2009-05-18"
"74486454787","2020-04-08T07:53:00","FM-15","7",,,,,,,,,,,,,,,,,,,,,,,,,,,,,,,,,,,,,,"29.51","46","51","0.00",,,,"83","29.51","OVC:08 5","29.42","7.00","48","020",,"14",,,,,,,,,,,,,,,,,,,,,,,,,,,,,,,,,,,,,"MET09204/08/20 07:53:02 METAR KFRG 081253Z 02012KT 7SM OVC005 11/08 A2951 RMK AO2 SLP993 T01060078","FM-15","7",,,,,,,,,,,,,,,,,,,,,,,,,,,,"2009-05-18"
"74486454787","2020-04-08T08:53:00","FM-15","7",,,,,,,,,,,,,,,,,,,,,,,,,,,,,,,,,,,,,,"29.53","46","51","0.00",,,,"83","29.53","OVC:08 6","29.44","9.00","48","030",,"13",,,,,,,,,,,,,,,,,,,,,,,,,,,,,,,,,,,,,"MET09204/08/20 08:53:02 METAR KFRG 081353Z 03011KT 9SM OVC006 11/08 A2953 RMK AO2 SLP000 T01060078","FM-15","7",,,,,,,,,,,,,,,,,,,,,,,,,,,,"2009-05-18"
"74486454787","2020-04-08T09:36:00","FM-16","7",,,,,,,,,,,,,,,,,,,,,,,,,,,,,,,,,,,,,,"29.55","45","52",,,,,"77",,"OVC:08 10","29.46","10.00","49","030",,"14",,,,,,,,,,,,,,,,,,,,,,,,,,,,,,,,,,,,,"MET09804/08/20 09:36:02 SPECI KFRG 081436Z 03012KT 10SM OVC010 11/07 A2955 RMK AO2 CIG 008V012 T01110072","FM-16","7",,,,,,,,,,,,,,,,,,,,,,,,,,,,"2009-05-18"
"74486454787","2020-04-08T09:53:00","FM-15","7",,,,,,,,,,,,,,,,,,,,,,,,,,,,,,,,,,,,,,"29.56","45","53","0.00",,"-0.06","3","74","29.56","OVC:08 11","29.47","10.00","49","040",,"13",,,,,,,,,,,,,,,,,,,,,,,,,,,,,,,,,,,,,"MET09904/08/20 09:53:02 METAR KFRG 081453Z 04011KT 10SM OVC011 12/07 A2956 RMK AO2 SLP010 T01170072 53019","FM-15","7",,,,,,,,,,,,,,,,,,,,,,,,,,,,"2009-05-18"
"74486454787","2020-04-08T10:43:00","FM-16","7",,,,,,,,,,,,,,,,,,,,,,,,,,,,,,,,,,,,,,"29.56","46","56",,,,,"70",,"OVC:08 15","29.47","10.00","51","020",,"13",,,,,,,,,,,,,,,,,,,,,,,,,,,,,,,,,,,,,"MET08604/08/20 10:43:02 SPECI KFRG 081543Z 02011KT 10SM OVC015 13/08 A2956 RMK AO2 T01330078","FM-16","7",,,,,,,,,,,,,,,,,,,,,,,,,,,,"2009-05-18"
"74486454787","2020-04-08T10:53:00","FM-15","7",,,,,,,,,,,,,,,,,,,,,,,,,,,,,,,,,,,,,,"29.56","45","56","0.00",,,,"67","29.56","OVC:08 17","29.47","10.00","50","020",,"13",,,,,,,,,,,,,,,,,,,,,,,,,,,,,,,,,,,,,"MET09304/08/20 10:53:02 METAR KFRG 081553Z 02011KT 10SM OVC017 13/07 A2956 RMK AO2 SLP011 T01330072","FM-15","7",,,,,,,,,,,,,,,,,,,,,,,,,,,,"2009-05-18"
"74486454787","2020-04-08T11:37:00","FM-16","6",,,,,,,,,,,,,,,,,,,,,,,,,,,,,,,,,,,,,,"29.56","47","58",,,,,"67",,"FEW:02 18","29.47","10.00","52","010",,"13",,,,,,,,,,,,,,,,,,,,,,,,,,,,,,,,,,,,,"MET08604/08/20 11:37:02 SPECI KFRG 081637Z 01011KT 10SM FEW018 14/08 A2956 RMK AO2 T01440083","FM-16","6",,,,,,,,,,,,,,,,,,,,,,,,,,,,"2009-05-18"
"74486454787","2020-04-08T11:53:00","FM-15","6",,,,,,,,,,,,,,,,,,,,,,,,,,,,,,,,,,,,,,"29.56","47","58","0.00",,,,"67","29.56","SCT:04 20","29.47","10.00","52","010",,"8",,,,,,,,,,,,,,,,,,,,,,,,,,,,,,,,,,,,,"MET09304/08/20 11:53:02 METAR KFRG 081653Z 01007KT 10SM SCT020 14/08 A2956 RMK AO2 SLP009 T01440083","FM-15","6",,,,,,,,,,,,,,,,,,,,,,,,,,,,"2009-05-18"
"74486454787","2020-04-08T12:22:00","FM-16","6",,,,,,,,,,,,,,,,,,,,,,,,,,,,,,,,,,,,,,"29.57","45","57",,,,,"64",,"BKN:07 21 BKN:07 29","29.48","10.00","51","350",,"9",,,,,,,,,,,,,,,,,,,,,,,,,,,,,,,,,,,,,"MET09304/08/20 12:22:02 SPECI KFRG 081722Z 35008KT 10SM BKN021 BKN029 14/07 A2957 RMK AO2 T01390072","FM-16","6",,,,,,,,,,,,,,,,,,,,,,,,,,,,"2009-05-18"
"74486454787","2020-04-08T12:53:00","FM-15","7",,,,,,,,,,,,,,,,,,,,,,,,,,,,,,,,,,,,,,"29.56","46","59","0.00",,"-0.01","3","62","29.57","SCT:04 26 BKN:07 48","29.47","10.00","52","360",,"10",,,,,,,,,,,,,,,,,,,,,,,,,,,,,,,,,,,,,"MET11804/08/20 12:53:02 METAR KFRG 081753Z 36009KT 10SM SCT026 BKN048 15/08 A2956 RMK AO2 SLP012 T01500078 10161 20106 53002","FM-15","7",,,,,,,,,,,,,,,,,,,,,,,,,,,,"2009-05-18"
"74486454787","2020-04-08T13:07:00","FM-16","7",,,,,,,,,,,,,,,,,,,,,,,,,,,,,,,,,,,,,,"29.56","46","59",,,,,"62",,"BKN:07 25 OVC:08 48","29.47","10.00","52","010",,"11",,,,,,,,,,,,,,,,,,,,,,,,,,,,,,,,,,,,,"MET09304/08/20 13:07:02 SPECI KFRG 081807Z 01010KT 10SM BKN025 OVC048 15/08 A2956 RMK AO2 T01500078","FM-16","7",,,,,,,,,,,,,,,,,,,,,,,,,,,,"2009-05-18"
"74486454787","2020-04-08T13:53:00","FM-15","7",,,,,,,,,,,,,,,,,,,,,,,,,,,,,,,,,,,,,,"29.57","45","59","0.00",,,,"60","29.57","BKN:07 28 OVC:08 48","29.48","10.00","52","340",,"10",,,,,,,,,,,,,,,,,,,,,,,,,,,,,,,,,,,,,"MET10004/08/20 13:53:02 METAR KFRG 081853Z 34009KT 10SM BKN028 OVC048 15/07 A2957 RMK AO2 SLP013 T01500072","FM-15","7",,,,,,,,,,,,,,,,,,,,,,,,,,,,"2009-05-18"
"74486454787","2020-04-08T14:00:00","FM-16","7",,,,,,,,,,,,,,,,,,,,,,,,,,,,,,,,,,,,,,"29.57","46","60",,,,,"60",,"SCT:04 26 OVC:08 48","29.48","10.00","53","360",,"10",,,,,,,,,,,,,,,,,,,,,,,,,,,,,,,,,,,,,"MET09304/08/20 14:00:02 SPECI KFRG 081900Z 36009KT 10SM SCT026 OVC048 16/08 A2957 RMK AO2 T01560078","FM-16","7",,,,,,,,,,,,,,,,,,,,,,,,,,,,"2009-05-18"
"74486454787","2020-04-08T14:53:00","FM-15","7",,,,,,,,,,,,,,,,,,,,,,,,,,,,,,,,,,,,,,"29.58","45","62","0.00",,,,"54","29.57","OVC:08 55","29.49","10.00","53","330",,"11",,,,,,,,,,,,,,,,,,,,,,,,,,,,,,,,,,,,,"MET09304/08/20 14:53:02 METAR KFRG 081953Z 33010KT 10SM OVC055 17/07 A2958 RMK AO2 SLP015 T01670072","FM-15","7",,,,,,,,,,,,,,,,,,,,,,,,,,,,"2009-05-18"
"74486454787","2020-04-08T15:53:00","FM-15","7",,,,,,,,,,,,,,,,,,,,,,,,,,,,,,,,,,,,,,"29.58","45","62","0.00",,"-0.01","1","54","29.57","FEW:02 31","29.49","10.00","53","350",,"13",,,,,,,,,,,,,,,,,,,,,,,,,,,,,,,,,,,,,"MET09904/08/20 15:53:02 METAR KFRG 082053Z 35011KT 10SM FEW031 17/07 A2958 RMK AO2 SLP015 T01670072 51005","FM-15","7",,,,,,,,,,,,,,,,,,,,,,,,,,,,"2009-05-18"
"74486454787","2020-04-08T16:53:00","FM-15","7",,,,,,,,,,,,,,,,,,,,,,,,,,,,,,,,,,,,,,"29.59","45","61","0.00",,,,"56","29.58","CLR:00","29.50","10.00","53","040",,"10",,,,,,,,,,,,,,,,,,,,,,,,,,,,,,,,,,,,,"MET09004/08/20 16:53:02 METAR KFRG 082153Z 04009KT 10SM CLR 16/07 A2959 RMK AO2 SLP017 T01610072","FM-15","7",,,,,,,,,,,,,,,,,,,,,,,,,,,,"2009-05-18"
"74486454787","2020-04-08T17:53:00","FM-15","7",,,,,,,,,,,,,,,,,,,,,,,,,,,,,,,,,,,,,,"29.60","44","60","0.00",,,,"56","29.60","CLR:00","29.51","10.00","52","040",,"10",,,,,,,,,,,,,,,,,,,,,,,,,,,,,,,,,,,,,"MET09004/08/20 17:53:02 METAR KFRG 082253Z 04009KT 10SM CLR 16/07 A2960 RMK AO2 SLP024 T01560067","FM-15","7",,,,,,,,,,,,,,,,,,,,,,,,,,,,"2009-05-18"
"74486454787","2020-04-08T18:53:00","FM-15","7",,,,,,,,,,,,,,,,,,,,,,,,,,,,,,,,,,,,,,"29.63","44","57","0.00",,"-0.05","3","62","29.62","CLR:00","29.54","10.00","50","100",,"5",,,,,,,,,,,,,,,,,,,,,,,,,,,,,,,,,,,,,"MET10804/08/20 18:53:02 METAR KFRG 082353Z 10004KT 10SM CLR 14/07 A2963 RMK AO2 SLP032 T01390067 10172 20139 53016","FM-15","7",,,,,,,,,,,,,,,,,,,,,,,,,,,,"2009-05-18"
"74486454787","2020-04-08T19:53:00","FM-15","7",,,,,,,,,,,,,,,,,,,,,,,,,,,,,,,,,,,,,,"29.68","43","50","0.00",,,,"77","29.67","CLR:00","29.59","10.00","47","200",,"10",,,,,,,,,,,,,,,,,,,,,,,,,,,,,,,,,,,,,"MET09004/08/20 19:53:01 METAR KFRG 090053Z 20009KT 10SM CLR 10/06 A2968 RMK AO2 SLP049 T01000061","FM-15","7",,,,,,,,,,,,,,,,,,,,,,,,,,,,"2009-05-18"
"74486454787","2020-04-08T20:53:00","FM-15","7",,,,,,,,,,,,,,,,,,,,,,,,,,,,,,,,,,,,,,"29.69","43","49","0.00",,,,"80","29.69","FEW:02 10","29.60","10.00","46","200",,"7",,,,,,,,,,,,,,,,,,,,,,,,,,,,,,,,,,,,,"MET09304/08/20 20:53:01 METAR KFRG 090153Z 20006KT 10SM FEW010 09/06 A2969 RMK AO2 SLP054 T00940061","FM-15","7",,,,,,,,,,,,,,,,,,,,,,,,,,,,"2009-05-18"
"74486454787","2020-04-08T21:53:00","FM-15","7",,,,,,,,,,,,,,,,,,,,,,,,,,,,,,,,,,,,,,"29.68","42","48","0.00",,"-0.06","0","80","29.68","CLR:00","29.59","10.00","45","210",,"7",,,,,,,,,,,,,,,,,,,,,,,,,,,,,,,,,,,,,"MET09604/08/20 21:53:01 METAR KFRG 090253Z 21006KT 10SM CLR 09/06 A2968 RMK AO2 SLP051 T00890056 50019","FM-15","7",,,,,,,,,,,,,,,,,,,,,,,,,,,,"2009-05-18"
"74486454787","2020-04-08T22:53:00","FM-15","7",,,,,,,,,,,,,,,,,,,,,,,,,,,,,,,,,,,,,,"29.68","42","48","0.00",,,,"80","29.67","CLR:00","29.59","10.00","45","220",,"3",,,,,,,,,,,,,,,,,,,,,,,,,,,,,,,,,,,,,"MET09004/08/20 22:53:02 METAR KFRG 090353Z 22003KT 10SM CLR 09/06 A2968 RMK AO2 SLP049 T00890056","FM-15","7",,,,,,,,,,,,,,,,,,,,,,,,,,,,"2009-05-18"
"74486454787","2020-04-08T23:53:00","FM-15","7",,,,,,,,,,,,,,,,,,,,,,,,,,,,,,,,,,,,,,"29.65","41","47","0.00",,,,"80","29.65","CLR:00","29.56","10.00","44","210",,"5",,,,,,,,,,,,,,,,,,,,,,,,,,,,,,,,,,,,,"MET10004/08/20 23:53:02 METAR KFRG 090453Z 21004KT 10SM CLR 08/05 A2965 RMK AO2 SLP039 T00830050 401720083","FM-15","7",,,,,,,,,,,,,,,,,,,,,,,,,,,,"2009-05-18"
"74486454787","2020-04-08T23:59:00","SOD  ","6",,,,,,,,,,,,,,,,"55",,,"29.49",,"8.4","0","8.1","10","63","46","360","22","0.13",,,"010","16","RA BR",,,,,,,,,,,,,,,,,,,,,,,,,,,,,,,,,,,,,,,,,,,,,,,,,,,,,,,,"SOD73024 HR PRECIPITATION (IN):0.13  24 HR MAX TEMP (F):63 24 HR MAX TEMP TIME (LST):1637 24 HR MIN TEMP (F):46 24 HR MIN TEMP TIME (LST):2358 AVERAGE STATION PRESSURE:29.485 MINIMUM SEA LEVEL PRESSURE:29.44 TIME OF OCCURRENCE:0534 PEAK WIND SPEED (MPH):22  PEAK WIND DIR (DEG):360 PEAK WIND TIME (LST):0814  FASTEST 2MIN SPEED (MPH):16 FASTEST 2MIN DIR (DEG):10  FASTEST 2MIN TIME (LST):1609 AVERAGE WIND SPEED (MPH):8.4  24 HR AVG TEMP (F):55 HEATING DEGREE DAYS:10  COOLING DEGREE DAYS:0   LATEST DAY MAX TEMP (0700-1900 LST):63  LATEST NIGHT MIN TEMP(1900-0800 LST):51 HOURLY INCREMENTAL PRECIPITATION VALUES (IN):.00 0.00 T    0.03 0.10 T    0.00 0.00 0.00 0.00 0.00 0.00 0.00 0.00 0.00 0.00 0.00 0.00 0.00 0.00 0.00 0.00 0.00 0.00","SOD  ","6",,,,,,,,,,,,,,,,,,,,,,,,,"0525","1827",,"2009-05-18"
"74486454787","2020-04-09T00:53:00","FM-15","7",,,,,,,,,,,,,,,,,,,,,,,,,,,,,,,,,,,,,,"29.64","42","47","0.00",,"+0.04","8","83","29.64","CLR:00","29.55","10.00","45","220",,"9",,,,,,,,,,,,,,,,,,,,,,,,,,,,,,,,,,,,,"MET11504/09/20 00:53:02 METAR KFRG 090553Z 22008KT 10SM CLR 08/06 A2964 RMK AO2 PRESRR SLP036 T00830056 10139 20078 58015","FM-15","7",,,,,,,,,,,,,,,,,,,,,,,,,,,,"2009-05-18"
"74486454787","2020-04-09T01:53:00","FM-15","7",,,,,,,,,,,,,,,,,,,,,,,,,,,,,,,,,,,,,,"29.62","42","46","0.00",,,,"86","29.62","CLR:00","29.53","10.00","44","200",,"3",,,,,,,,,,,,,,,,,,,,,,,,,,,,,,,,,,,,,"MET09004/09/20 01:53:02 METAR KFRG 090653Z 20003KT 10SM CLR 08/06 A2962 RMK AO2 SLP030 T00780056","FM-15","7",,,,,,,,,,,,,,,,,,,,,,,,,,,,"2009-05-18"
"74486454787","2020-04-09T02:53:00","FM-15","7",,,,,,,,,,,,,,,,,,,,,,,,,,,,,,,,,,,,,,"29.61","42","46","0.00",,,,"86","29.61","CLR:00","29.52","10.00","44","000",,"0",,,,,,,,,,,,,,,,,,,,,,,,,,,,,,,,,,,,,"MET09004/09/20 02:53:02 METAR KFRG 090753Z 00000KT 10SM CLR 08/06 A2961 RMK AO2 SLP026 T00780056","FM-15","7",,,,,,,,,,,,,,,,,,,,,,,,,,,,"2009-05-18"
"74486454787","2020-04-09T03:53:00","FM-15","7",,,,,,,,,,,,,,,,,,,,,,,,,,,,,,,,,,,,,,"29.58","42","46","0.00",,"+0.06","8","86","29.58","CLR:00","29.49","10.00","44","120",,"3",,,,,,,,,,,,,,,,,,,,,,,,,,,,,,,,,,,,,"MET09604/09/20 03:53:02 METAR KFRG 090853Z 12003KT 10SM CLR 08/06 A2958 RMK AO2 SLP017 T00780056 58019","FM-15","7",,,,,,,,,,,,,,,,,,,,,,,,,,,,"2009-05-18"
"74486454787","2020-04-09T04:01:00","FM-16","7",,,,,,,,,,,,,,,,,,,,,,,,,,,,,,,,,,,,,,"29.57","42","47",,,,,"83",,"FEW:02 9","29.48","10.00","45","110",,"3",,,,,,,,,,,,,,,,,,,,,,,,,,,,,,,,,,,,,"MET08604/09/20 04:01:02 SPECI KFRG 090901Z 11003KT 10SM FEW009 08/06 A2957 RMK AO2 T00830056","FM-16","7",,,,,,,,,,,,,,,,,,,,,,,,,,,,"2009-05-18"
"74486454787","2020-04-09T04:44:00","FM-16","7",,,,,,,,,,,,,,,,,,,,,,,,,,,,,,,,,,,,,,"29.56","42","47",,,,,"83",,"BKN:07 7","29.47","10.00","45","110",,"3",,,,,,,,,,,,,,,,,,,,,,,,,,,,,,,,,,,,,"MET08604/09/20 04:44:02 SPECI KFRG 090944Z 11003KT 10SM BKN007 08/06 A2956 RMK AO2 T00830056","FM-16","7",,,,,,,,,,,,,,,,,,,,,,,,,,,,"2009-05-18"
"74486454787","2020-04-09T04:51:00","FM-16","6",,,,,,,,,,,,,,,,,,,,,,,,,,,,,,,,,,,,,,"29.55","43","45",,,,,"93",,"SCT:04 7 BKN:07 37","29.46","10.00","44","000",,"0",,,,,,,,,,,,,,,,,,,,,,,,,,,,,,,,,,,,,"MET08804/09/20 04:51:02 SPECI KFRG 090951Z 00000KT 10SM SCT007 BKN037 07/06 A2955 RMK AO2 FIBI","FM-16","6",,,,,,,,,,,,,,,,,,,,,,,,,,,,"2009-05-18"
"74486454787","2020-04-09T04:53:00","FM-15","7",,,,,,,,,,,,,,,,,,,,,,,,,,,,,,,,,,,,,,"29.55","42","45","0.00",,,,"90","29.55","SCT:04 7 BKN:07 39","29.46","10.00","44","000",,"0",,,,,,,,,,,,,,,,,,,,,,,,,,,,,,,,,,,,,"MET10004/09/20 04:53:02 METAR KFRG 090953Z 00000KT 10SM SCT007 BKN039 07/06 A2955 RMK AO2 SLP008 T00720056","FM-15","7",,,,,,,,,,,,,,,,,,,,,,,,,,,,"2009-05-18"
"74486454787","2020-04-09T05:53:00","FM-15","7",,,,,,,,,,,,,,,,,,,,,,,,,,,,,,,,,,,,,,"29.52","45","48","0.00",,,,"89","29.52","SCT:04 7 BKN:07 33 OVC:08 47","29.43","9.00","47","110",,"5",,,,,,,,,,,,,,,,,,,,,,,,,,,,,,,,,,,,,"MET10604/09/20 05:53:02 METAR KFRG 091053Z 11004KT 9SM SCT007 BKN033 OVC047 09/07 A2952 RMK AO2 SLP997 T00890072","FM-15","7",,,,,,,,,,,,,,,,,,,,,,,,,,,,"2009-05-18"
"74486454787","2020-04-09T06:10:00","FM-16","7",,,,,,,,,,,,,,,,,,,,,,,,,,,,,,,,,,,,,,"29.52","45","49",,,,,"86",,"BKN:07 7 OVC:08 32","29.43","10.00","47","120",,"7",,,,,,,,,,,,,,,,,,,,,,,,,,,,,,,,,,,,,"MET09304/09/20 06:10:02 SPECI KFRG 091110Z 12006KT 10SM BKN007 OVC032 09/07 A2952 RMK AO2 T00940072","FM-16","7",,,,,,,,,,,,,,,,,,,,,,,,,,,,"2009-05-18"
"74486454787","2020-04-09T06:53:00","FM-15","7",,,,,,,,,,,,,,,,,,,,,,,,,,,,,,,,,,,,,,"29.49","47","51","0.00",,"+0.09","8","86","29.49","BKN:07 6 OVC:08 33","29.40","10.00","49","140",,"11",,,,,,,,,,,,,,,,,,,,,,,,,,,,,,,,,,,,,"MET11804/09/20 06:53:02 METAR KFRG 091153Z 14010KT 10SM BKN006 OVC033 11/08 A2949 RMK AO2 SLP988 T01060083 10106 20067 58029","FM-15","7",,,,,,,,,,,,,,,,,,,,,,,,,,,,"2009-05-18"
"74486454787","2020-04-09T07:20:00","FM-16","7",,,,,,,,,,,,,,,,,,,,,,,,,,,,,,,,,,,,,,"29.46","47","51",,,,,"86",,"SCT:04 6 OVC:08 31","29.37","10.00","49","150",,"15",,,,,,,,,,,,,,,,,,,,,,,,,,,,,,,,,,,,,"MET09304/09/20 07:20:02 SPECI KFRG 091220Z 15013KT 10SM SCT006 OVC031 11/08 A2946 RMK AO2 T01060083","FM-16","7",,,,,,,,,,,,,,,,,,,,,,,,,,,,"2009-05-18"
"74486454787","2020-04-09T07:37:00","FM-16","7",,,,,,,,,,,,,,,,,,,,,,,,,,,,,,,,,,,,,,"29.45","47","51",,,,,"86",,"FEW:02 7 OVC:08 29","29.36","10.00","49","150",,"15",,,,,,,,,,,,,,,,,,,,,,,,,,,,,,,,,,,,,"MET09304/09/20 07:37:02 SPECI KFRG 091237Z 15013KT 10SM FEW007 OVC029 11/08 A2945 RMK AO2 T01060083","FM-16","7",,,,,,,,,,,,,,,,,,,,,,,,,,,,"2009-05-18"
"74486454787","2020-04-09T07:53:00","FM-15","7",,,,,,,,,,,,,,,,,,,,,,,,,,,,,,,,,,,,,,"29.44","47","51","0.00",,,,"86","29.44","OVC:08 27","29.35","10.00","49","150",,"15",,,,,,,,,,,,,,,,,,,,,,,,,,,,,,,,,,,,,"MET09304/09/20 07:53:02 METAR KFRG 091253Z 15013KT 10SM OVC027 11/08 A2944 RMK AO2 SLP968 T01060083","FM-15","7",,,,,,,,,,,,,,,,,,,,,,,,,,,,"2009-05-18"
"74486454787","2020-04-09T08:17:00","FM-16","7",,,,,,,,,,,,,,,,,,,,,,,,,,,,,,,,,,,,,,"29.43","47","51","0.01","-RA:02 |RA |RA",,,"86",,"SCT:04 7 OVC:08 26","29.34","8.00","49","160",,"11",,,,,,,,,,,,,,,,,,,,,,,,,,,,,,,,,,,,,"MET10804/09/20 08:17:02 SPECI KFRG 091317Z 16010KT 8SM -RA SCT007 OVC026 11/08 A2943 RMK AO2 RAB01 P0001 T01060083","FM-16","7",,,,,,,,,,,,,,,,,,,,,,,,,,,,"2009-05-18"
"74486454787","2020-04-09T08:53:00","FM-15","7",,,,,,,,,,,,,,,,,,,,,,,,,,,,,,,,,,,,,,"29.38","47","52","0.08","+RA:02 |RA |RA",,,"83","29.38","FEW:02 9 OVC:08 29","29.29","6.00","49","160",,"11",,,,,,,,,,,,,,,,,,,,,,,,,,,,,,,,,,,,,"MET11504/09/20 08:53:02 METAR KFRG 091353Z 16010KT 6SM +RA FEW009 OVC029 11/08 A2938 RMK AO2 RAB01 SLP949 P0008 T01110083","FM-15","7",,,,,,,,,,,,,,,,,,,,,,,,,,,,"2009-05-18"
"74486454787","2020-04-09T09:53:00","FM-15","7",,,,,,,,,,,,,,,,,,,,,,,,,,,,,,,,,,,,,,"29.30","47","53","0.12","-RA:02 |RA |RA","+0.20","8","80","29.29","OVC:08 21","29.21","8.00","50","160","24","13",,,,,,,,,,,,,,,,,,,,,,,,,,,,,,,,,,,,,"MET11704/09/20 09:53:02 METAR KFRG 091453Z 16011G21KT 8SM -RA OVC021 12/08 A2930 RMK AO2 SLP920 P0005 60013 T01170083 58067","FM-15","7",,,,,,,,,,,,,,,,,,,,,,,,,,,,"2009-05-18"
"74486454787","2020-04-09T10:03:00","FM-16","7",,,,,,,,,,,,,,,,,,,,,,,,,,,,,,,,,,,,,,"29.29","47","52","0.09","+RA:02 |RA |RA",,,"83",,"BKN:07 19 OVC:08 25","29.20","1.75","49","180","30","18",,,,,,,,,,,,,,,,,,,,,,,,,,,,,,,,,,,,,"MET12704/09/20 10:03:02 SPECI KFRG 091503Z 18016G26KT 1 3/4SM +RA BKN019 OVC025 11/08 A2929 RMK AO2 PK WND 17026/1455 P0009 T01110083","FM-16","7",,,,,,,,,,,,,,,,,,,,,,,,,,,,"2009-05-18"
"74486454787","2020-04-09T10:08:00","FM-16","7",,,,,,,,,,,,,,,,,,,,,,,,,,,,,,,,,,,,,,"29.29","47","52","0.09","-RA:02 |RA |RA",,,"83",,"BKN:07 19 OVC:08 25","29.20","3.00","49","180","25","15",,,,,,,,,,,,,,,,,,,,,,,,,,,,,,,,,,,,,"MET12304/09/20 10:08:02 SPECI KFRG 091508Z 18013G22KT 3SM -RA BKN019 OVC025 11/08 A2929 RMK AO2 PK WND 17026/1455 P0009 T01110083","FM-16","7",,,,,,,,,,,,,,,,,,,,,,,,,,,,"2009-05-18"
"74486454787","2020-04-09T10:53:00","FM-15","7",,,,,,,,,,,,,,,,,,,,,,,,,,,,,,,,,,,,,,"29.22","48","54","0.02",,,,"80","29.22","FEW:02 12 BKN:07 18 OVC:08 34","29.13","10.00","51","170","26","20",,,,,,,,,,,,,,,,,,,,,,,,,,,,,,,,,,,,,"MET14704/09/20 10:53:02 METAR KFRG 091553Z 17017G23KT 10SM FEW012 BKN018 OVC034 12/09 A2922 RMK AO2 PK WND 17026/1455 RAE18 PRESFR SLP896 P0009 T01220089","FM-15","7",,,,,,,,,,,,,,,,,,,,,,,,,,,,"2009-05-18"
"74486454787","2020-04-09T11:26:00","FM-16","7",,,,,,,,,,,,,,,,,,,,,,,,,,,,,,,,,,,,,,"29.20","49","54","0.06","-RA:02 |RA |RA",,,"83",,"BKN:07 9 OVC:08 22","29.11","10.00","51","260","30","13",,,,,,,,,,,,,,,,,,,,,,,,,,,,,,,,,,,,,"MET13004/09/20 11:26:02 SPECI KFRG 091626Z 26011G26KT 10SM -RA BKN009 OVC022 12/09 A2920 RMK AO2 PK WND 16030/1614 RAB08 P0006 T01220094","FM-16","7",,,,,,,,,,,,,,,,,,,,,,,,,,,,"2009-05-18"
"74486454787","2020-04-09T11:33:00","FM-16","7",,,,,,,,,,,,,,,,,,,,,,,,,,,,,,,,,,,,,,"29.18","49","54","0.06",,,,"83",,"BKN:07 7 OVC:08 24","29.09","10.00","51","230","24","18",,,,,,,,,,,,,,,,,,,,,,,,,,,,,,,,,,,,,"MET14004/09/20 11:33:02 SPECI KFRG 091633Z 23016G21KT 10SM BKN007 OVC024 12/09 A2918 RMK AO2 PK WND 16030/1614 WSHFT 1613 RAB08E27 P0006 T01220094","FM-16","7",,,,,,,,,,,,,,,,,,,,,,,,,,,,"2009-05-18"
"74486454787","2020-04-09T11:53:00","FM-15","7",,,,,,,,,,,,,,,,,,,,,,,,,,,,,,,,,,,,,,"29.17","50","55","0.06",,,,"83","29.17","OVC:08 6","29.08","9.00","52","190","28","22",,,,,,,,,,,,,,,,,,,,,,,,,,,,,,,,,,,,,"MET13904/09/20 11:53:02 METAR KFRG 091653Z 19019G24KT 9SM OVC006 13/10 A2917 RMK AO2 PK WND 16030/1614 WSHFT 1613 RAB08E27 SLP877 P0006 T01280100","FM-15","7",,,,,,,,,,,,,,,,,,,,,,,,,,,,"2009-05-18"
"74486454787","2020-04-09T12:11:00","FM-16","7",,,,,,,,,,,,,,,,,,,,,,,,,,,,,,,,,,,,,,"29.16","51","56",,,,,"84",,"SCT:04 6 BKN:07 15 OVC:08 23","29.07","10.00","53","190","32","18",,,,,,,,,,,,,,,,,,,,,,,,,,,,,,,,,,,,,"MET12104/09/20 12:11:02 SPECI KFRG 091711Z 19016G28KT 10SM SCT006 BKN015 OVC023 13/11 A2916 RMK AO2 PK WND 19028/1656 T01330106","FM-16","7",,,,,,,,,,,,,,,,,,,,,,,,,,,,"2009-05-18"
"74486454787","2020-04-09T12:30:00","FM-16","7",,,,,,,,,,,,,,,,,,,,,,,,,,,,,,,,,,,,,,"29.15","52","57",,,,,"83",,"OVC:08 12","29.06","10.00","54","200","25","16",,,,,,,,,,,,,,,,,,,,,,,,,,,,,,,,,,,,,"MET10704/09/20 12:30:02 SPECI KFRG 091730Z 20014G22KT 10SM OVC012 14/11 A2915 RMK AO2 PK WND 19028/1656 T01390111","FM-16","7",,,,,,,,,,,,,,,,,,,,,,,,,,,,"2009-05-18"
"74486454787","2020-04-09T12:53:00","FM-15","7",,,,,,,,,,,,,,,,,,,,,,,,,,,,,,,,,,,,,,"29.15","51","56","T",,"+0.15","6","84","29.15","BKN:07 10 OVC:08 14","29.06","10.00","53","210","24","14",,,,,,,,,,,,,,,,,,,,,,,,,,,,,,,,,,,,,"MET14504/09/20 12:53:02 METAR KFRG 091753Z 21012G21KT 10SM BKN010 OVC014 13/11 A2915 RMK AO2 PK WND 19028/1656 SLP870 60028 T01330106 10139 20106 56050","FM-15","7",,,,,,,,,,,,,,,,,,,,,,,,,,,,"2009-05-18"
"74486454787","2020-04-09T13:05:00","FM-16","7",,,,,,,,,,,,,,,,,,,,,,,,,,,,,,,,,,,,,,"29.15","51","56","T","-RA:02 |RA |RA",,,"84",,"BKN:07 8 OVC:08 14","29.06","8.00","53","220",,"14",,,,,,,,,,,,,,,,,,,,,,,,,,,,,,,,,,,,,"MET13304/09/20 13:05:02 SPECI KFRG 091805Z 22012KT 8SM -RA BKN008 OVC014 13/11 A2915 RMK AO2 LTG DSNT W RAB1758 CIG 007V011 P0000 T01330106","FM-16","7",,,,,,,,,,,,,,,,,,,,,,,,,,,,"2009-05-18"
"74486454787","2020-04-09T13:35:00","FM-16","7",,,,,,,,,,,,,,,,,,,,,,,,,,,,,,,,,,,,,,"29.17","50","55","0.11","+RA:02 |RA |RA",,,"83",,"BKN:07 6 BKN:07 41 OVC:08 60","29.08","1.75","52","270","33","18",,,,,,,,,,,,,,,,,,,,,,,,,,,,,,,,,,,,,"MET16304/09/20 13:35:02 SPECI KFRG 091835Z 27016G29KT 1 3/4SM +RA BKN006 BKN041 OVC060 13/10 A2917 RMK AO2 PK WND 31029/1832 LTG DSNT SW-N RAB1758 PRESRR P0011 T01280100","FM-16","7",,,,,,,,,,,,,,,,,,,,,,,,,,,,"2009-05-18"
"74486454787","2020-04-09T13:40:00","FM-16","7",,,,,,,,,,,,,,,,,,,,,,,,,,,,,,,,,,,,,,"29.16","48","54","0.12","RA:02 |RA |RA",,,"80",,"BKN:07 6 OVC:08 55","29.07","3.00","51","280","33","15",,,,,,,,,,,,,,,,,,,,,,,,,,,,,,,,,,,,,"MET15204/09/20 13:40:02 SPECI KFRG 091840Z 28013G29KT 3SM RA BKN006 OVC055 12/09 A2916 RMK AO2 PK WND 31029/1832 WSHFT 1826 LTG DSNT S RAB1758 P0012 T01220089","FM-16","7",,,,,,,,,,,,,,,,,,,,,,,,,,,,"2009-05-18"
"74486454787","2020-04-09T13:48:00","FM-16","7",,,,,,,,,,,,,,,,,,,,,,,,,,,,,,,,,,,,,,"29.15","46","54","0.13","VCTS:7 -RA:02 |RA |RA",,,"77",,"SCT:04 6 OVC:08 60","29.06","8.00","50","280","25","10",,,,,,,,,,,,,,,,,,,,,,,,,,,,,,,,,,,,,"MET14804/09/20 13:48:02 SPECI KFRG 091848Z 28009G22KT 8SM VCTS -RA SCT006 OVC060 12/08 A2915 RMK AO2 PK WND 31029/1832 WSHFT 1826 LTG DSNT S RAB1758 P0013","FM-16","7",,,,,,,,,,,,,,,,,,,,,,,,,,,,"2009-05-18"
"74486454787","2020-04-09T13:53:00","FM-15","7",,,,,,,,,,,,,,,,,,,,,,,,,,,,,,,,,,,,,,"29.15","47","54","0.14","VCTS:7 RA:02 |RA |RA",,,"77","29.15","FEW:02 6 OVC:08 60","29.06","7.00","50","280",,"10",,,,,,,,,,,,,,,,,,,,,,,,,,,,,,,,,,,,,"MET16804/09/20 13:53:02 METAR KFRG 091853Z 28009KT 7SM VCTS RA FEW006 OVC060 12/08 A2915 RMK AO2 PK WND 31029/1832 WSHFT 1826 LTG DSNT SE AND S RAB1758 SLP871 P0014 T01220083","FM-15","7",,,,,,,,,,,,,,,,,,,,,,,,,,,,"2009-05-18"
"74486454787","2020-04-09T14:08:00","FM-16","7",,,,,,,,,,,,,,,,,,,,,,,,,,,,,,,,,,,,,,"29.19","47","55","T",,,,"74",,"BKN:07 35 OVC:08 65","29.10","10.00","51","290","32","23",,,,,,,,,,,,,,,,,,,,,,,,,,,,,,,,,,,,,"MET13304/09/20 14:08:02 SPECI KFRG 091908Z 29020G28KT 10SM BKN035 OVC065 13/08 A2919 RMK AO2 PK WND 28028/1907 RAE04 PRESRR P0000 T01280083","FM-16","7",,,,,,,,,,,,,,,,,,,,,,,,,,,,"2009-05-18"
"74486454787","2020-04-09T14:53:00","FM-15","7",,,,,,,,,,,,,,,,,,,,,,,,,,,,,,,,,,,,,,"29.20","40","53","T",,,,"61","29.20","BKN:07 75 BKN:07 95","29.11","10.00","47","320","31","15",,,,,,,,,,,,,,,,,,,,,,,,,,,,,,,,,,,,,"MET13904/09/20 14:53:02 METAR KFRG 091953Z 32013G27KT 10SM BKN075 BKN095 12/04 A2920 RMK AO2 PK WND 29045/1912 RAE04B17E33 SLP889 P0000 T01170044","FM-15","7",,,,,,,,,,,,,,,,,,,,,,,,,,,,"2009-05-18"
"74486454787","2020-04-09T15:53:00","FM-15","7",,,,,,,,,,,,,,,,,,,,,,,,,,,,,,,,,,,,,,"29.22","34","57","0.00",,"-0.07","3","42","29.22","CLR:00","29.13","10.00","46","320","32","22",,,,,,,,,,,,,,,,,,,,,,,,,,,,,,,,,,,,,"MET12304/09/20 15:53:02 METAR KFRG 092053Z 32019G28KT 10SM CLR 14/01 A2922 RMK AO2 PK WND 33028/2051 SLP895 60014 T01390011 53023","FM-15","7",,,,,,,,,,,,,,,,,,,,,,,,,,,,"2009-05-18"
"74486454787","2020-04-09T16:53:00","FM-15","7",,,,,,,,,,,,,,,,,,,,,,,,,,,,,,,,,,,,,,"29.26","30","53","0.00",,,,"41","29.26","CLR:00","29.17","10.00","43","320","40","23",,,,,,,,,,,,,,,,,,,,,,,,,,,,,,,,,,,,,"MET11204/09/20 16:53:02 METAR KFRG 092153Z 32020G35KT 10SM CLR 12/M01 A2926 RMK AO2 PK WND 33035/2149 SLP910 T01171011","FM-15","7",,,,,,,,,,,,,,,,,,,,,,,,,,,,"2009-05-18"
"74486454787","2020-04-09T17:53:00","FM-15","7",,,,,,,,,,,,,,,,,,,,,,,,,,,,,,,,,,,,,,"29.31","25","51","0.00",,,,"36","29.31","CLR:00","29.22","10.00","40","320","24","14",,,,,,,,,,,,,,,,,,,,,,,,,,,,,,,,,,,,,"MET11204/09/20 17:53:02 METAR KFRG 092253Z 32012G21KT 10SM CLR 11/M04 A2931 RMK AO2 PK WND 33033/2215 SLP925 T01061039","FM-15","7",,,,,,,,,,,,,,,,,,,,,,,,,,,,"2009-05-18"
"74486454787","2020-04-09T18:53:00","FM-15","7",,,,,,,,,,,,,,,,,,,,,,,,,,,,,,,,,,,,,,"29.33","26","50","0.00",,"-0.11","1","39","29.33","CLR:00","29.24","10.00","40","310","25","15",,,,,,,,,,,,,,,,,,,,,,,,,,,,,,,,,,,,,"MET13604/09/20 18:53:02 METAR KFRG 092353Z 31013G22KT 10SM CLR 10/M03 A2933 RMK AO2 PK WND 28026/2259 SLP932 60014 T01001033 10144 20100 51037","FM-15","7",,,,,,,,,,,,,,,,,,,,,,,,,,,,"2009-05-18"
"74486454787","2020-04-09T19:53:00","FM-15","7",,,,,,,,,,,,,,,,,,,,,,,,,,,,,,,,,,,,,,"29.36","22","49","0.00",,,,"35","29.36","CLR:00","29.27","10.00","38","310","24","15",,,,,,,,,,,,,,,,,,,,,,,,,,,,,,,,,,,,,"MET11204/09/20 19:53:01 METAR KFRG 100053Z 31013G21KT 10SM CLR 09/M06 A2936 RMK AO2 PK WND 29026/0003 SLP943 T00941056","FM-15","7",,,,,,,,,,,,,,,,,,,,,,,,,,,,"2009-05-18"
"74486454787","2020-04-09T20:53:00","FM-15","7",,,,,,,,,,,,,,,,,,,,,,,,,,,,,,,,,,,,,,"29.37","24","48","0.00",,,,"39","29.37","CLR:00","29.28","10.00","38","300",,"8",,,,,,,,,,,,,,,,,,,,,,,,,,,,,,,,,,,,,"MET09104/09/20 20:53:01 METAR KFRG 100153Z 30007KT 10SM CLR 09/M04 A2937 RMK AO2 SLP945 T00891044","FM-15","7",,,,,,,,,,,,,,,,,,,,,,,,,,,,"2009-05-18"
"74486454787","2020-04-09T21:53:00","FM-15","7",,,,,,,,,,,,,,,,,,,,,,,,,,,,,,,,,,,,,,"29.36","23","47","0.00",,"-0.03","0","39","29.36","CLR:00","29.27","10.00","38","290",,"13",,,,,,,,,,,,,,,,,,,,,,,,,,,,,,,,,,,,,"MET09704/09/20 21:53:01 METAR KFRG 100253Z 29011KT 10SM CLR 08/M05 A2936 RMK AO2 SLP941 T00831050 50009","FM-15","7",,,,,,,,,,,,,,,,,,,,,,,,,,,,"2009-05-18"
"74486454787","2020-04-09T22:53:00","FM-15","7",,,,,,,,,,,,,,,,,,,,,,,,,,,,,,,,,,,,,,"29.34","23","47","0.00",,,,"39","29.34","CLR:00","29.25","10.00","38","290",,"11",,,,,,,,,,,,,,,,,,,,,,,,,,,,,,,,,,,,,"MET09104/09/20 22:53:02 METAR KFRG 100353Z 29010KT 10SM CLR 08/M05 A2934 RMK AO2 SLP937 T00831050","FM-15","7",,,,,,,,,,,,,,,,,,,,,,,,,,,,"2009-05-18"
"74486454787","2020-04-09T23:53:00","FM-15","7",,,,,,,,,,,,,,,,,,,,,,,,,,,,,,,,,,,,,,"29.34","25","47","0.00",,,,"42","29.34","OVC:08 70","29.25","10.00","38","290","28","15",,,,,,,,,,,,,,,,,,,,,,,,,,,,,,,,,,,,,"MET10704/09/20 23:53:02 METAR KFRG 100453Z 29013G24KT 10SM OVC070 08/M04 A2934 RMK AO2 SLP937 T00831039 401440067","FM-15","7",,,,,,,,,,,,,,,,,,,,,,,,,,,,"2009-05-18"
"74486454787","2020-04-09T23:59:00","SOD  ","6",,,,,,,,,,,,,,,,"51",,,"29.31",,"12.0","0","3.7","14","58","44","290","52","0.42",,,"290","35","TS RA",,,,,,,,,,,,,,,,,,,,,,,,,,,,,,,,,,,,,,,,,,,,,,,,,,,,,,,,"SOD73024 HR PRECIPITATION (IN):0.42  24 HR MAX TEMP (F):58 24 HR MAX TEMP TIME (LST):1552 24 HR MIN TEMP (F):44 24 HR MIN TEMP TIME (LST):0422 AVERAGE STATION PRESSURE:29.310 MINIMUM SEA LEVEL PRESSURE:29.13 TIME OF OCCURRENCE:1324 PEAK WIND SPEED (MPH):52  PEAK WIND DIR (DEG):290 PEAK WIND TIME (LST):1412  FASTEST 2MIN SPEED (MPH):35 FASTEST 2MIN DIR (DEG):290 FASTEST 2MIN TIME (LST):1413 AVERAGE WIND SPEED (MPH):12.0 24 HR AVG TEMP (F):51 HEATING DEGREE DAYS:14  COOLING DEGREE DAYS:0   LATEST DAY MAX TEMP (0700-1900 LST):58  LATEST NIGHT MIN TEMP(1900-0800 LST):44 HOURLY INCREMENTAL PRECIPITATION VALUES (IN):.00 0.00 0.00 0.00 0.00 0.00 0.00 0.00 0.08 0.12 0.02 0.06 T    0.14 T    0.00 0.00 0.00 0.00 0.00 0.00 0.00 0.00 0.00","SOD  ","6",,,,,,,,,,,,,,,,,,,,,,,,,"0523","1828",,"2009-05-18"
"74486454787","2020-04-10T00:53:00","FM-15","7",,,,,,,,,,,,,,,,,,,,,,,,,,,,,,,,,,,,,,"29.32","30","43","0.00",,"+0.04","8","60","29.32","SCT:04 65","29.23","10.00","38","270",,"13",,,,,,,,,,,,,,,,,,,,,,,,,,,,,,,,,,,,,"MET13004/10/20 00:53:02 METAR KFRG 100553Z 27011KT 10SM SCT065 06/M01 A2932 RMK AO2 PK WND 29031/0505 SLP928 T00611011 10100 20061 58013","FM-15","7",,,,,,,,,,,,,,,,,,,,,,,,,,,,"2009-05-18"
"74486454787","2020-04-10T01:53:00","FM-15","7",,,,,,,,,,,,,,,,,,,,,,,,,,,,,,,,,,,,,,"29.32","31","43","0.00",,,,"63","29.31","FEW:02 110","29.23","10.00","38","270",,"16",,,,,,,,,,,,,,,,,,,,,,,,,,,,,,,,,,,,,"MET09404/10/20 01:53:02 METAR KFRG 100653Z 27014KT 10SM FEW110 06/M01 A2932 RMK AO2 SLP927 T00611006","FM-15","7",,,,,,,,,,,,,,,,,,,,,,,,,,,,"2009-05-18"
"74486454787","2020-04-10T02:53:00","FM-15","7",,,,,,,,,,,,,,,,,,,,,,,,,,,,,,,,,,,,,,"29.33","31","43","0.00",,,,"63","29.33","SCT:04 34 BKN:07 42 BKN:07 80","29.24","10.00","38","280","25","18",,,,,,,,,,,,,,,,,,,,,,,,,,,,,,,,,,,,,"MET11104/10/20 02:53:02 METAR KFRG 100753Z 28016G22KT 10SM SCT034 BKN042 BKN080 06/M01 A2933 RMK AO2 SLP932 T00611006","FM-15","7",,,,,,,,,,,,,,,,,,,,,,,,,,,,"2009-05-18"
"74486454787","2020-04-10T03:23:00","FM-16","7",,,,,,,,,,,,,,,,,,,,,,,,,,,,,,,,,,,,,,"29.34","33","40","0.01","-RA:02 |RA |RA",,,"77",,"FEW:02 19 BKN:07 27 OVC:08 50","29.25","9.00","37","280",,"14",,,,,,,,,,,,,,,,,,,,,,,,,,,,,,,,,,,,,"MET13304/10/20 03:23:02 SPECI KFRG 100823Z 28012KT 9SM -RA FEW019 BKN027 OVC050 04/01 A2934 RMK AO2 PK WND 26030/0810 RAB08 P0001 T00440006","FM-16","7",,,,,,,,,,,,,,,,,,,,,,,,,,,,"2009-05-18"
"74486454787","2020-04-10T03:51:00","FM-16","6",,,,,,,,,,,,,,,,,,,,,,,,,,,,,,,,,,,,,,"29.36","32","37",,"-RA:02 |RA |RA",,,"81",,"FEW:02 14 SCT:04 19 OVC:08 38","29.27","10.00","35","310","26","10",,,,,,,,,,,,,,,,,,,,,,,,,,,,,,,,,,,,,"MET13204/10/20 03:51:02 SPECI KFRG 100851Z 31009G23KT 10SM -RA FEW014 SCT019 OVC038 03/00 A2936 RMK AO2 PK WND 27036/0832 RAB08 P0001 FIBI","FM-16","6",,,,,,,,,,,,,,,,,,,,,,,,,,,,"2009-05-18"
"74486454787","2020-04-10T03:53:00","FM-15","7",,,,,,,,,,,,,,,,,,,,,,,,,,,,,,,,,,,,,,"29.36","32","38","0.01",,"-0.04","3","79","29.36","FEW:02 14 SCT:04 19 OVC:08 40","29.27","10.00","36","310","24","11",,,,,,,,,,,,,,,,,,,,,,,,,,,,,,,,,,,,,"MET15504/10/20 03:53:02 METAR KFRG 100853Z 31010G21KT 10SM FEW014 SCT019 OVC040 03/00 A2936 RMK AO2 PK WND 27036/0832 RAB08E52 SLP943 P0001 60001 T00330000 53015","FM-15","7",,,,,,,,,,,,,,,,,,,,,,,,,,,,"2009-05-18"
"74486454787","2020-04-10T04:53:00","FM-15","7",,,,,,,,,,,,,,,,,,,,,,,,,,,,,,,,,,,,,,"29.35","30","39","0.00",,,,"70","29.35","CLR:00","29.26","10.00","35","280","22","13",,,,,,,,,,,,,,,,,,,,,,,,,,,,,,,,,,,,,"MET09404/10/20 04:53:02 METAR KFRG 100953Z 28011G19KT 10SM CLR 04/M01 A2935 RMK AO2 SLP938 T00391011","FM-15","7",,,,,,,,,,,,,,,,,,,,,,,,,,,,"2009-05-18"
"74486454787","2020-04-10T05:53:00","FM-15","7",,,,,,,,,,,,,,,,,,,,,,,,,,,,,,,,,,,,,,"29.35","29","40","0.00",,,,"65","29.35","CLR:00","29.26","10.00","36","280",,"11",,,,,,,,,,,,,,,,,,,,,,,,,,,,,,,,,,,,,"MET09104/10/20 05:53:02 METAR KFRG 101053Z 28010KT 10SM CLR 04/M02 A2935 RMK AO2 SLP940 T00441017","FM-15","7",,,,,,,,,,,,,,,,,,,,,,,,,,,,"2009-05-18"
"74486454787","2020-04-10T06:53:00","FM-15","7",,,,,,,,,,,,,,,,,,,,,,,,,,,,,,,,,,,,,,"29.36","27","43","0.00",,"+0.00","5","53","29.36","CLR:00","29.27","10.00","37","290","31","21",,,,,,,,,,,,,,,,,,,,,,,,,,,,,,,,,,,,,"MET14204/10/20 06:53:02 METAR KFRG 101153Z 29018G27KT 10SM CLR 06/M03 A2936 RMK AO2 PK WND 26027/1149 SLP942 60001 70043 T00611028 10067 20033 55001","FM-15","7",,,,,,,,,,,,,,,,,,,,,,,,,,,,"2009-05-18"
"74486454787","2020-04-10T07:53:00","FM-15","7",,,,,,,,,,,,,,,,,,,,,,,,,,,,,,,,,,,,,,"29.36","26","44","0.00",,,,"49","29.36","BKN:07 49","29.27","10.00","37","280","32","20",,,,,,,,,,,,,,,,,,,,,,,,,,,,,,,,,,,,,"MET11504/10/20 07:53:02 METAR KFRG 101253Z 28017G28KT 10SM BKN049 07/M03 A2936 RMK AO2 PK WND 27034/1216 SLP941 T00671033","FM-15","7",,,,,,,,,,,,,,,,,,,,,,,,,,,,"2009-05-18"
"74486454787","2020-04-10T08:53:00","FM-15","7",,,,,,,,,,,,,,,,,,,,,,,,,,,,,,,,,,,,,,"29.36","23","45","0.00",,,,"42","29.36","FEW:02 49 OVC:08 60","29.27","10.00","36","VRB","36","22",,,,,,,,,,,,,,,,,,,,,,,,,,,,,,,,,,,,,"MET12204/10/20 08:53:02 METAR KFRG 101353Z 30019G31KT 10SM FEW049 OVC060 07/M05 A2936 RMK AO2 PK WND 30036/1327 SLP944 T00721050","FM-15","7",,,,,,,,,,,,,,,,,,,,,,,,,,,,"2009-05-18"
"74486454787","2020-04-10T09:53:00","FM-15","7",,,,,,,,,,,,,,,,,,,,,,,,,,,,,,,,,,,,,,"29.37","24","45","0.00",,"-0.01","3","44","29.37","OVC:08 60","29.28","10.00","37","280","32","24",,,,,,,,,,,,,,,,,,,,,,,,,,,,,,,,,,,,,"MET12104/10/20 09:53:02 METAR KFRG 101453Z 28021G28KT 10SM OVC060 07/M04 A2937 RMK AO2 PK WND 29033/1356 SLP947 T00721044 53005","FM-15","7",,,,,,,,,,,,,,,,,,,,,,,,,,,,"2009-05-18"
"74486454787","2020-04-10T10:53:00","FM-15","7",,,,,,,,,,,,,,,,,,,,,,,,,,,,,,,,,,,,,,"29.38","22","46","0.00",,,,"38","29.38","BKN:07 55 OVC:08 70","29.29","10.00","37","280","38","22",,,,,,,,,,,,,,,,,,,,,,,,,,,,,,,,,,,,,"MET12204/10/20 10:53:02 METAR KFRG 101553Z 28019G33KT 10SM BKN055 OVC070 08/M06 A2938 RMK AO2 PK WND 28033/1546 SLP948 T00781056","FM-15","7",,,,,,,,,,,,,,,,,,,,,,,,,,,,"2009-05-18"
"74486454787","2020-04-10T11:53:00","FM-15","7",,,,,,,,,,,,,,,,,,,,,,,,,,,,,,,,,,,,,,"29.37","23","47","0.00",,,,"39","29.37","BKN:07 65 OVC:08 80","29.28","10.00","38","280","32","20",,,,,,,,,,,,,,,,,,,,,,,,,,,,,,,,,,,,,"MET12204/10/20 11:53:02 METAR KFRG 101653Z 28017G28KT 10SM BKN065 OVC080 08/M05 A2937 RMK AO2 PK WND 30029/1601 SLP946 T00831050","FM-15","7",,,,,,,,,,,,,,,,,,,,,,,,,,,,"2009-05-18"
"74486454787","2020-04-10T12:53:00","FM-15","7",,,,,,,,,,,,,,,,,,,,,,,,,,,,,,,,,,,,,,"29.37","25","48","0.00",,"+0.00","8","41","29.37","BKN:07 60 BKN:07 75 OVC:08 90","29.28","10.00","39","280","32","21",,,,,,,,,,,,,,,,,,,,,,,,,,,,,,,,,,,,,"MET14704/10/20 12:53:02 METAR KFRG 101753Z 28018G28KT 10SM BKN060 BKN075 OVC090 09/M04 A2937 RMK AO2 PK WND 30028/1736 SLP947 T00891039 10094 20061 58001","FM-15","7",,,,,,,,,,,,,,,,,,,,,,,,,,,,"2009-05-18"
"74486454787","2020-04-10T13:53:00","FM-15","7",,,,,,,,,,,,,,,,,,,,,,,,,,,,,,,,,,,,,,"29.39","24","50","0.00",,,,"36","29.39","FEW:02 50 BKN:07 60 BKN:07 70","29.30","10.00","39","300","29","21",,,,,,,,,,,,,,,,,,,,,,,,,,,,,,,,,,,,,"MET12904/10/20 13:53:02 METAR KFRG 101853Z 30018G25KT 10SM FEW050 BKN060 BKN070 10/M04 A2939 RMK AO2 PK WND 30033/1830 SLP953 T01001044","FM-15","7",,,,,,,,,,,,,,,,,,,,,,,,,,,,"2009-05-18"
"74486454787","2020-04-10T14:53:00","FM-15","7",,,,,,,,,,,,,,,,,,,,,,,,,,,,,,,,,,,,,,"29.41","25","49","0.00",,,,"39","29.41","FEW:02 50 SCT:04 95","29.32","10.00","39","310","34","21",,,,,,,,,,,,,,,,,,,,,,,,,,,,,,,,,,,,,"MET12204/10/20 14:53:02 METAR KFRG 101953Z 31018G30KT 10SM FEW050 SCT095 09/M04 A2941 RMK AO2 PK WND 29034/1925 SLP960 T00941039","FM-15","7",,,,,,,,,,,,,,,,,,,,,,,,,,,,"2009-05-18"
"74486454787","2020-04-10T15:53:00","FM-15","7",,,,,,,,,,,,,,,,,,,,,,,,,,,,,,,,,,,,,,"29.45","25","48","0.00",,"-0.07","3","41","29.45","BKN:07 60 BKN:07 75","29.36","10.00","39","300","34","21",,,,,,,,,,,,,,,,,,,,,,,,,,,,,,,,,,,,,"MET12804/10/20 15:53:02 METAR KFRG 102053Z 30018G30KT 10SM BKN060 BKN075 09/M04 A2945 RMK AO2 PK WND 31037/1955 SLP972 T00891039 53025","FM-15","7",,,,,,,,,,,,,,,,,,,,,,,,,,,,"2009-05-18"
"74486454787","2020-04-10T16:53:00","FM-15","7",,,,,,,,,,,,,,,,,,,,,,,,,,,,,,,,,,,,,,"29.48","25","47","0.00",,,,"42","29.48","SCT:04 60 OVC:08 75","29.39","10.00","38","300","37","15",,,,,,,,,,,,,,,,,,,,,,,,,,,,,,,,,,,,,"MET12204/10/20 16:53:02 METAR KFRG 102153Z 30013G32KT 10SM SCT060 OVC075 08/M04 A2948 RMK AO2 PK WND 29033/2122 SLP984 T00831039","FM-15","7",,,,,,,,,,,,,,,,,,,,,,,,,,,,"2009-05-18"
"74486454787","2020-04-10T17:53:00","FM-15","7",,,,,,,,,,,,,,,,,,,,,,,,,,,,,,,,,,,,,,"29.53","24","47","0.00",,,,"41","29.53","OVC:08 75","29.44","10.00","38","320","40","22",,,,,,,,,,,,,,,,,,,,,,,,,,,,,,,,,,,,,"MET11504/10/20 17:53:02 METAR KFRG 102253Z 32019G35KT 10SM OVC075 08/M04 A2953 RMK AO2 PK WND 31035/2253 SLP999 T00831044","FM-15","7",,,,,,,,,,,,,,,,,,,,,,,,,,,,"2009-05-18"
"74486454787","2020-04-10T18:53:00","FM-15","7",,,,,,,,,,,,,,,,,,,,,,,,,,,,,,,,,,,,,,"29.58","25","46","0.00",,"-0.13","3","44","29.57","BKN:07 60","29.49","10.00","38","310","30","20",,,,,,,,,,,,,,,,,,,,,,,,,,,,,,,,,,,,,"MET13304/10/20 18:53:02 METAR KFRG 102353Z 31017G26KT 10SM BKN060 08/M04 A2958 RMK AO2 PK WND 31038/2313 SLP015 T00781039 10100 20078 53043","FM-15","7",,,,,,,,,,,,,,,,,,,,,,,,,,,,"2009-05-18"
"74486454787","2020-04-10T19:53:00","FM-15","7",,,,,,,,,,,,,,,,,,,,,,,,,,,,,,,,,,,,,,"29.64","25","46","0.00",,,,"44","29.64","OVC:08 65","29.55","10.00","38","300","26","16",,,,,,,,,,,,,,,,,,,,,,,,,,,,,,,,,,,,,"MET11504/10/20 19:53:01 METAR KFRG 110053Z 30014G23KT 10SM OVC065 08/M04 A2964 RMK AO2 PK WND 31034/0004 SLP036 T00781039","FM-15","7",,,,,,,,,,,,,,,,,,,,,,,,,,,,"2009-05-18"
"74486454787","2020-04-10T20:53:00","FM-15","7",,,,,,,,,,,,,,,,,,,,,,,,,,,,,,,,,,,,,,"29.67","26","46","0.00",,,,"46","29.67","OVC:08 60","29.58","10.00","38","300",,"10",,,,,,,,,,,,,,,,,,,,,,,,,,,,,,,,,,,,,"MET11204/10/20 20:53:01 METAR KFRG 110153Z 30009KT 10SM OVC060 08/M03 A2967 RMK AO2 PK WND 31028/0112 SLP047 T00781033","FM-15","7",,,,,,,,,,,,,,,,,,,,,,,,,,,,"2009-05-18"
"74486454787","2020-04-10T21:53:00","FM-15","7",,,,,,,,,,,,,,,,,,,,,,,,,,,,,,,,,,,,,,"29.69","28","44","0.00",,"-0.12","1","53","29.69","SCT:04 70","29.60","10.00","38","300","26","11",,,,,,,,,,,,,,,,,,,,,,,,,,,,,,,,,,,,,"MET10304/10/20 21:53:01 METAR KFRG 110253Z 30010G23KT 10SM SCT070 07/M02 A2969 RMK AO2 SLP055 T00671022 51039","FM-15","7",,,,,,,,,,,,,,,,,,,,,,,,,,,,"2009-05-18"
"74486454787","2020-04-10T22:53:00","FM-15","7",,,,,,,,,,,,,,,,,,,,,,,,,,,,,,,,,,,,,,"29.71","27","44","0.00",,,,"51","29.71","CLR:00","29.62","10.00","37","300","24","17",,,,,,,,,,,,,,,,,,,,,,,,,,,,,,,,,,,,,"MET09404/10/20 22:53:02 METAR KFRG 110353Z 30015G21KT 10SM CLR 07/M03 A2971 RMK AO2 SLP062 T00671028","FM-15","7",,,,,,,,,,,,,,,,,,,,,,,,,,,,"2009-05-18"
"74486454787","2020-04-10T23:53:00","FM-15","7",,,,,,,,,,,,,,,,,,,,,,,,,,,,,,,,,,,,,,"29.74","24","44","0.00",,,,"45","29.74","FEW:02 70","29.65","10.00","36","290","31","15",,,,,,,,,,,,,,,,,,,,,,,,,,,,,,,,,,,,,"MET12504/10/20 23:53:02 METAR KFRG 110453Z 29013G27KT 10SM FEW070 07/M04 A2974 RMK AO2 PK WND 30027/0449 SLP072 T00671044 401000033","FM-15","7",,,,,,,,,,,,,,,,,,,,,,,,,,,,"2009-05-18"
"74486454787","2020-04-10T23:59:00","SOD  ","6",,,,,,,,,,,,,,,,"44",,,"29.31",,"17.5","0","-3.7","21","50","38","310","43","0.01",,,"290","31","RA",,,,,,,,,,,,,,,,,,,,,,,,,,,,,,,,,,,,,,,,,,,,,,,,,,,,,,,,"SOD73024 HR PRECIPITATION (IN):0.01  24 HR MAX TEMP (F):50 24 HR MAX TEMP TIME (LST):1458 24 HR MIN TEMP (F):38 24 HR MIN TEMP TIME (LST):0425 AVERAGE STATION PRESSURE:29.315 MINIMUM SEA LEVEL PRESSURE:29.31 TIME OF OCCURRENCE:0207 PEAK WIND SPEED (MPH):43  PEAK WIND DIR (DEG):310 PEAK WIND TIME (LST):1813  FASTEST 2MIN SPEED (MPH):31 FASTEST 2MIN DIR (DEG):290 FASTEST 2MIN TIME (LST):1342 AVERAGE WIND SPEED (MPH):17.5 24 HR AVG TEMP (F):44 HEATING DEGREE DAYS:21  COOLING DEGREE DAYS:0   LATEST DAY MAX TEMP (0700-1900 LST):50  LATEST NIGHT MIN TEMP(1900-0800 LST):38 HOURLY INCREMENTAL PRECIPITATION VALUES (IN):.00 0.00 0.00 0.01 0.00 0.00 0.00 0.00 0.00 0.00 0.00 0.00 0.00 0.00 0.00 0.00 0.00 0.00 0.00 0.00 0.00 0.00 0.00 0.00","SOD  ","6",,,,,,,,,,,,,,,,,,,,,,,,,"0522","1829",,"2009-05-18"
"74486454787","2020-04-11T00:53:00","FM-15","7",,,,,,,,,,,,,,,,,,,,,,,,,,,,,,,,,,,,,,"29.76","23","43","0.00",,"-0.06","1","45","29.76","CLR:00","29.67","10.00","35","290","25","16",,,,,,,,,,,,,,,,,,,,,,,,,,,,,,,,,,,,,"MET11204/11/20 00:53:02 METAR KFRG 110553Z 29014G22KT 10SM CLR 06/M05 A2976 RMK AO2 SLP077 T00611050 10078 20061 51022","FM-15","7",,,,,,,,,,,,,,,,,,,,,,,,,,,,"2009-05-18"
"74486454787","2020-04-11T01:53:00","FM-15","7",,,,,,,,,,,,,,,,,,,,,,,,,,,,,,,,,,,,,,"29.77","23","42","0.00",,,,"47","29.77","CLR:00","29.68","10.00","35","290",,"13",,,,,,,,,,,,,,,,,,,,,,,,,,,,,,,,,,,,,"MET09104/11/20 01:53:02 METAR KFRG 110653Z 29011KT 10SM CLR 06/M05 A2977 RMK AO2 SLP080 T00561050","FM-15","7",,,,,,,,,,,,,,,,,,,,,,,,,,,,"2009-05-18"
"74486454787","2020-04-11T02:53:00","FM-15","7",,,,,,,,,,,,,,,,,,,,,,,,,,,,,,,,,,,,,,"29.78","22","42","0.00",,,,"45","29.78","CLR:00","29.69","10.00","35","300",,"11",,,,,,,,,,,,,,,,,,,,,,,,,,,,,,,,,,,,,"MET09104/11/20 02:53:02 METAR KFRG 110753Z 30010KT 10SM CLR 06/M06 A2978 RMK AO2 SLP086 T00561056","FM-15","7",,,,,,,,,,,,,,,,,,,,,,,,,,,,"2009-05-18"
"74486454787","2020-04-11T03:53:00","FM-15","7",,,,,,,,,,,,,,,,,,,,,,,,,,,,,,,,,,,,,,"29.80","21","41","0.00",,"-0.04","3","45","29.80","CLR:00","29.71","10.00","34","290",,"11",,,,,,,,,,,,,,,,,,,,,,,,,,,,,,,,,,,,,"MET09704/11/20 03:53:02 METAR KFRG 110853Z 29010KT 10SM CLR 05/M06 A2980 RMK AO2 SLP090 T00501061 53013","FM-15","7",,,,,,,,,,,,,,,,,,,,,,,,,,,,"2009-05-18"
"74486454787","2020-04-11T04:53:00","FM-15","7",,,,,,,,,,,,,,,,,,,,,,,,,,,,,,,,,,,,,,"29.82","21","40","0.00",,,,"47","29.82","CLR:00","29.73","10.00","33","290",,"10",,,,,,,,,,,,,,,,,,,,,,,,,,,,,,,,,,,,,"MET09104/11/20 04:53:02 METAR KFRG 110953Z 29009KT 10SM CLR 04/M06 A2982 RMK AO2 SLP099 T00441061","FM-15","7",,,,,,,,,,,,,,,,,,,,,,,,,,,,"2009-05-18"
"74486454787","2020-04-11T05:53:00","FM-15","7",,,,,,,,,,,,,,,,,,,,,,,,,,,,,,,,,,,,,,"29.86","21","40","0.00",,,,"47","29.85","CLR:00","29.77","10.00","33","290","20","10",,,,,,,,,,,,,,,,,,,,,,,,,,,,,,,,,,,,,"MET09404/11/20 05:53:02 METAR KFRG 111053Z 29009G17KT 10SM CLR 04/M06 A2986 RMK AO2 SLP110 T00441061","FM-15","7",,,,,,,,,,,,,,,,,,,,,,,,,,,,"2009-05-18"
"74486454787","2020-04-11T06:53:00","FM-15","7",,,,,,,,,,,,,,,,,,,,,,,,,,,,,,,,,,,,,,"29.89","20","42","0.00",,"-0.09","3","41","29.88","CLR:00","29.80","10.00","34","310","23","9",,,,,,,,,,,,,,,,,,,,,,,,,,,,,,,,,,,,,"MET11204/11/20 06:53:02 METAR KFRG 111153Z 31008G20KT 10SM CLR 06/M07 A2989 RMK AO2 SLP120 T00561067 10061 20039 53030","FM-15","7",,,,,,,,,,,,,,,,,,,,,,,,,,,,"2009-05-18"
"74486454787","2020-04-11T07:53:00","FM-15","7",,,,,,,,,,,,,,,,,,,,,,,,,,,,,,,,,,,,,,"29.90","20","43","0.00",,,,"40","29.90","CLR:00","29.81","10.00","35","300","24","10",,,,,,,,,,,,,,,,,,,,,,,,,,,,,,,,,,,,,"MET09404/11/20 07:53:02 METAR KFRG 111253Z 30009G21KT 10SM CLR 06/M07 A2990 RMK AO2 SLP124 T00611067","FM-15","7",,,,,,,,,,,,,,,,,,,,,,,,,,,,"2009-05-18"
"74486454787","2020-04-11T08:53:00","FM-15","7",,,,,,,,,,,,,,,,,,,,,,,,,,,,,,,,,,,,,,"29.90","21","46","0.00",,,,"37","29.90","CLR:00","29.81","10.00","37","310","21","13",,,,,,,,,,,,,,,,,,,,,,,,,,,,,,,,,,,,,"MET09404/11/20 08:53:02 METAR KFRG 111353Z 31011G18KT 10SM CLR 08/M06 A2990 RMK AO2 SLP124 T00781061","FM-15","7",,,,,,,,,,,,,,,,,,,,,,,,,,,,"2009-05-18"
"74486454787","2020-04-11T09:53:00","FM-15","7",,,,,,,,,,,,,,,,,,,,,,,,,,,,,,,,,,,,,,"29.90","20","48","0.00",,"-0.02","1","33","29.91","CLR:00","29.81","10.00","37","310","26","15",,,,,,,,,,,,,,,,,,,,,,,,,,,,,,,,,,,,,"MET10004/11/20 09:53:02 METAR KFRG 111453Z 31013G23KT 10SM CLR 09/M07 A2990 RMK AO2 SLP127 T00891067 51007","FM-15","7",,,,,,,,,,,,,,,,,,,,,,,,,,,,"2009-05-18"
"74486454787","2020-04-11T10:53:00","FM-15","7",,,,,,,,,,,,,,,,,,,,,,,,,,,,,,,,,,,,,,"29.90","20","49","0.00",,,,"32","29.90","FEW:02 60","29.81","10.00","38","310","23","13",,,,,,,,,,,,,,,,,,,,,,,,,,,,,,,,,,,,,"MET09704/11/20 10:53:02 METAR KFRG 111553Z 31011G20KT 10SM FEW060 09/M07 A2990 RMK AO2 SLP124 T00941067","FM-15","7",,,,,,,,,,,,,,,,,,,,,,,,,,,,"2009-05-18"
"74486454787","2020-04-11T11:53:00","FM-15","7",,,,,,,,,,,,,,,,,,,,,,,,,,,,,,,,,,,,,,"29.89","19","51","0.00",,,,"28","29.88","CLR:00","29.80","10.00","39","VRB","23","13",,,,,,,,,,,,,,,,,,,,,,,,,,,,,,,,,,,,,"MET09404/11/20 11:53:02 METAR KFRG 111653Z 31011G20KT 10SM CLR 11/M07 A2989 RMK AO2 SLP120 T01061072","FM-15","7",,,,,,,,,,,,,,,,,,,,,,,,,,,,"2009-05-18"
"74486454787","2020-04-11T12:53:00","FM-15","7",,,,,,,,,,,,,,,,,,,,,,,,,,,,,,,,,,,,,,"29.88","18","52","0.00",,"+0.02","6","26","29.88","CLR:00","29.79","10.00","39","270","25","16",,,,,,,,,,,,,,,,,,,,,,,,,,,,,,,,,,,,,"MET11204/11/20 12:53:02 METAR KFRG 111753Z 27014G22KT 10SM CLR 11/M08 A2988 RMK AO2 SLP119 T01111078 10111 20056 56008","FM-15","7",,,,,,,,,,,,,,,,,,,,,,,,,,,,"2009-05-18"
"74486454787","2020-04-11T13:53:00","FM-15","7",,,,,,,,,,,,,,,,,,,,,,,,,,,,,,,,,,,,,,"29.87","20","54","0.00",,,,"26","29.87","FEW:02 80","29.78","10.00","41","260","26","20",,,,,,,,,,,,,,,,,,,,,,,,,,,,,,,,,,,,,"MET09704/11/20 13:53:02 METAR KFRG 111853Z 26017G23KT 10SM FEW080 12/M07 A2987 RMK AO2 SLP116 T01221067","FM-15","7",,,,,,,,,,,,,,,,,,,,,,,,,,,,"2009-05-18"
"74486454787","2020-04-11T14:53:00","FM-15","7",,,,,,,,,,,,,,,,,,,,,,,,,,,,,,,,,,,,,,"29.87","20","54","0.00",,,,"26","29.87","CLR:00","29.78","10.00","41","300","21","13",,,,,,,,,,,,,,,,,,,,,,,,,,,,,,,,,,,,,"MET09404/11/20 14:53:02 METAR KFRG 111953Z 30011G18KT 10SM CLR 12/M07 A2987 RMK AO2 SLP116 T01221067","FM-15","7",,,,,,,,,,,,,,,,,,,,,,,,,,,,"2009-05-18"
"74486454787","2020-04-11T15:53:00","FM-15","7",,,,,,,,,,,,,,,,,,,,,,,,,,,,,,,,,,,,,,"29.88","18","55","0.00",,"+0.00","5","23","29.88","FEW:02 80","29.79","10.00","41","270","26","18",,,,,,,,,,,,,,,,,,,,,,,,,,,,,,,,,,,,,"MET10304/11/20 15:53:02 METAR KFRG 112053Z 27016G23KT 10SM FEW080 13/M08 A2988 RMK AO2 SLP119 T01281078 55000","FM-15","7",,,,,,,,,,,,,,,,,,,,,,,,,,,,"2009-05-18"
"74486454787","2020-04-11T16:53:00","FM-15","7",,,,,,,,,,,,,,,,,,,,,,,,,,,,,,,,,,,,,,"29.90","19","56","0.00",,,,"24","29.90","CLR:00","29.81","10.00","41","290","23","15",,,,,,,,,,,,,,,,,,,,,,,,,,,,,,,,,,,,,"MET09404/11/20 16:53:02 METAR KFRG 112153Z 29013G20KT 10SM CLR 13/M07 A2990 RMK AO2 SLP126 T01331072","FM-15","7",,,,,,,,,,,,,,,,,,,,,,,,,,,,"2009-05-18"
"74486454787","2020-04-11T17:53:00","FM-15","7",,,,,,,,,,,,,,,,,,,,,,,,,,,,,,,,,,,,,,"29.92","19","54","0.00",,,,"25","29.92","CLR:00","29.83","10.00","40","300","20","14",,,,,,,,,,,,,,,,,,,,,,,,,,,,,,,,,,,,,"MET09404/11/20 17:53:02 METAR KFRG 112253Z 30012G17KT 10SM CLR 12/M07 A2992 RMK AO2 SLP132 T01221072","FM-15","7",,,,,,,,,,,,,,,,,,,,,,,,,,,,"2009-05-18"
"74486454787","2020-04-11T18:53:00","FM-15","7",,,,,,,,,,,,,,,,,,,,,,,,,,,,,,,,,,,,,,"29.96","19","52","0.00",,"-0.08","3","27","29.96","CLR:00","29.87","10.00","39","320",,"5",,,,,,,,,,,,,,,,,,,,,,,,,,,,,,,,,,,,,"MET10904/11/20 18:53:02 METAR KFRG 112353Z 32004KT 10SM CLR 11/M07 A2996 RMK AO2 SLP144 T01111072 10133 20111 53026","FM-15","7",,,,,,,,,,,,,,,,,,,,,,,,,,,,"2009-05-18"
"74486454787","2020-04-11T19:53:00","FM-15","7",,,,,,,,,,,,,,,,,,,,,,,,,,,,,,,,,,,,,,"29.99","19","50","0.00",,,,"29","29.99","CLR:00","29.90","10.00","38","320",,"3",,,,,,,,,,,,,,,,,,,,,,,,,,,,,,,,,,,,,"MET09104/11/20 19:53:01 METAR KFRG 120053Z 32003KT 10SM CLR 10/M07 A2999 RMK AO2 SLP157 T01001072","FM-15","7",,,,,,,,,,,,,,,,,,,,,,,,,,,,"2009-05-18"
"74486454787","2020-04-11T20:53:00","FM-15","7",,,,,,,,,,,,,,,,,,,,,,,,,,,,,,,,,,,,,,"30.02","21","47","0.00",,,,"36","30.02","CLR:00","29.93","10.00","37","290",,"3",,,,,,,,,,,,,,,,,,,,,,,,,,,,,,,,,,,,,"MET09104/11/20 20:53:01 METAR KFRG 120153Z 29003KT 10SM CLR 08/M06 A3002 RMK AO2 SLP167 T00831061","FM-15","7",,,,,,,,,,,,,,,,,,,,,,,,,,,,"2009-05-18"
"74486454787","2020-04-11T21:53:00","FM-15","7",,,,,,,,,,,,,,,,,,,,,,,,,,,,,,,,,,,,,,"30.04","23","46","0.00",,"-0.08","1","40","30.04","CLR:00","29.95","10.00","37","000",,"0",,,,,,,,,,,,,,,,,,,,,,,,,,,,,,,,,,,,,"MET09704/11/20 21:53:02 METAR KFRG 120253Z 00000KT 10SM CLR 08/M05 A3004 RMK AO2 SLP172 T00781050 51027","FM-15","7",,,,,,,,,,,,,,,,,,,,,,,,,,,,"2009-05-18"
"74486454787","2020-04-11T22:53:00","FM-15","7",,,,,,,,,,,,,,,,,,,,,,,,,,,,,,,,,,,,,,"30.06","24","43","0.00",,,,"47","30.06","CLR:00","29.97","10.00","36","280",,"3",,,,,,,,,,,,,,,,,,,,,,,,,,,,,,,,,,,,,"MET09104/11/20 22:53:02 METAR KFRG 120353Z 28003KT 10SM CLR 06/M04 A3006 RMK AO2 SLP178 T00611044","FM-15","7",,,,,,,,,,,,,,,,,,,,,,,,,,,,"2009-05-18"
"74486454787","2020-04-11T23:53:00","FM-15","7",,,,,,,,,,,,,,,,,,,,,,,,,,,,,,,,,,,,,,"30.09","25","41","0.00",,,,"53","30.09","CLR:00","30.00","10.00","35","000",,"0",,,,,,,,,,,,,,,,,,,,,,,,,,,,,,,,,,,,,"MET10104/11/20 23:53:02 METAR KFRG 120453Z 00000KT 10SM CLR 05/M04 A3009 RMK AO2 SLP188 T00501039 401330039","FM-15","7",,,,,,,,,,,,,,,,,,,,,,,,,,,,"2009-05-18"
"74486454787","2020-04-11T23:59:00","SOD  ","6",,,,,,,,,,,,,,,,"48",,,"29.78",,"10.6","0","0.0","17","56","39","270","29","0.00",,,"290","22",,,,,,,,,,,,,,,,,,,,,,,,,,,,,,,,,,,,,,,,,,,,,,,,,,,,,,,,,"SOD73024 HR PRECIPITATION (IN):0.00  24 HR MAX TEMP (F):56 24 HR MAX TEMP TIME (LST):1653 24 HR MIN TEMP (F):39 24 HR MIN TEMP TIME (LST):0541 AVERAGE STATION PRESSURE:29.780 MINIMUM SEA LEVEL PRESSURE:29.74 TIME OF OCCURRENCE:0012 PEAK WIND SPEED (MPH):29  PEAK WIND DIR (DEG):270 PEAK WIND TIME (LST):1237  FASTEST 2MIN SPEED (MPH):22 FASTEST 2MIN DIR (DEG):290 FASTEST 2MIN TIME (LST):1541 AVERAGE WIND SPEED (MPH):10.6 24 HR AVG TEMP (F):48 HEATING DEGREE DAYS:17  COOLING DEGREE DAYS:0   LATEST DAY MAX TEMP (0700-1900 LST):56  LATEST NIGHT MIN TEMP(1900-0800 LST):39 HOURLY INCREMENTAL PRECIPITATION VALUES (IN):.00 0.00 0.00 0.00 0.00 0.00 0.00 0.00 0.00 0.00 0.00 0.00 0.00 0.00 0.00 0.00 0.00 0.00 0.00 0.00 0.00 0.00 0.00 0.00","SOD  ","6",,,,,,,,,,,,,,,,,,,,,,,,,"0520","1830",,"2009-05-18"
"74486454787","2020-04-12T00:53:00","FM-15","7",,,,,,,,,,,,,,,,,,,,,,,,,,,,,,,,,,,,,,"30.11","25","39","0.00",,"-0.07","3","57","30.11","CLR:00","30.02","10.00","34","000",,"0",,,,,,,,,,,,,,,,,,,,,,,,,,,,,,,,,,,,,"MET10904/12/20 00:53:02 METAR KFRG 120553Z 00000KT 10SM CLR 04/M04 A3011 RMK AO2 SLP195 T00391039 10111 20033 53023","FM-15","7",,,,,,,,,,,,,,,,,,,,,,,,,,,,"2009-05-18"
"74486454787","2020-04-12T01:53:00","FM-15","7",,,,,,,,,,,,,,,,,,,,,,,,,,,,,,,,,,,,,,"30.11","25","39","0.00",,,,"57","30.11","CLR:00","30.02","10.00","34","020",,"6",,,,,,,,,,,,,,,,,,,,,,,,,,,,,,,,,,,,,"MET09104/12/20 01:53:02 METAR KFRG 120653Z 02005KT 10SM CLR 04/M04 A3011 RMK AO2 SLP195 T00391039","FM-15","7",,,,,,,,,,,,,,,,,,,,,,,,,,,,"2009-05-18"
"74486454787","2020-04-12T02:53:00","FM-15","7",,,,,,,,,,,,,,,,,,,,,,,,,,,,,,,,,,,,,,"30.12","25","37","0.00",,,,"62","30.11","CLR:00","30.03","10.00","33","020",,"6",,,,,,,,,,,,,,,,,,,,,,,,,,,,,,,,,,,,,"MET09104/12/20 02:53:02 METAR KFRG 120753Z 02005KT 10SM CLR 03/M04 A3012 RMK AO2 SLP198 T00281039","FM-15","7",,,,,,,,,,,,,,,,,,,,,,,,,,,,"2009-05-18"
"74486454787","2020-04-12T03:53:00","FM-15","7",,,,,,,,,,,,,,,,,,,,,,,,,,,,,,,,,,,,,,"30.15","24","36","0.00",,"-0.04","3","62","30.15","CLR:00","30.06","10.00","32","150",,"3",,,,,,,,,,,,,,,,,,,,,,,,,,,,,,,,,,,,,"MET09704/12/20 03:53:02 METAR KFRG 120853Z 15003KT 10SM CLR 02/M04 A3015 RMK AO2 SLP209 T00221044 53014","FM-15","7",,,,,,,,,,,,,,,,,,,,,,,,,,,,"2009-05-18"
"74486454787","2020-04-12T04:53:00","FM-15","7",,,,,,,,,,,,,,,,,,,,,,,,,,,,,,,,,,,,,,"30.17","24","37","0.00",,,,"59","30.16","CLR:00","30.08","10.00","32","000",,"0",,,,,,,,,,,,,,,,,,,,,,,,,,,,,,,,,,,,,"MET09104/12/20 04:53:02 METAR KFRG 120953Z 00000KT 10SM CLR 03/M04 A3017 RMK AO2 SLP215 T00281044","FM-15","7",,,,,,,,,,,,,,,,,,,,,,,,,,,,"2009-05-18"
"74486454787","2020-04-12T05:53:00","FM-15","7",,,,,,,,,,,,,,,,,,,,,,,,,,,,,,,,,,,,,,"30.18","25","36","0.00",,,,"64","30.18","CLR:00","30.09","10.00","32","060",,"3",,,,,,,,,,,,,,,,,,,,,,,,,,,,,,,,,,,,,"MET09104/12/20 05:53:02 METAR KFRG 121053Z 06003KT 10SM CLR 02/M04 A3018 RMK AO2 SLP220 T00221039","FM-15","7",,,,,,,,,,,,,,,,,,,,,,,,,,,,"2009-05-18"
"74486454787","2020-04-12T06:53:00","FM-15","7",,,,,,,,,,,,,,,,,,,,,,,,,,,,,,,,,,,,,,"30.20","34","45","0.00",,"-0.05","3","66","30.20","CLR:00","30.11","10.00","40","090",,"5",,,,,,,,,,,,,,,,,,,,,,,,,,,,,,,,,,,,,"MET10804/12/20 06:53:02 METAR KFRG 121153Z 09004KT 10SM CLR 07/01 A3020 RMK AO2 SLP227 T00720011 10072 20017 53018","FM-15","7",,,,,,,,,,,,,,,,,,,,,,,,,,,,"2009-05-18"
"74486454787","2020-04-12T07:53:00","FM-15","7",,,,,,,,,,,,,,,,,,,,,,,,,,,,,,,,,,,,,,"30.22","34","53","0.00",,,,"48","30.22","FEW:02 100","30.13","10.00","44","160",,"8",,,,,,,,,,,,,,,,,,,,,,,,,,,,,,,,,,,,,"MET09304/12/20 07:53:02 METAR KFRG 121253Z 16007KT 10SM FEW100 12/01 A3022 RMK AO2 SLP234 T01170011","FM-15","7",,,,,,,,,,,,,,,,,,,,,,,,,,,,"2009-05-18"
"74486454787","2020-04-12T08:53:00","FM-15","7",,,,,,,,,,,,,,,,,,,,,,,,,,,,,,,,,,,,,,"30.21","31","56","0.00",,,,"39","30.21","SCT:04 95","30.12","10.00","45","170",,"10",,,,,,,,,,,,,,,,,,,,,,,,,,,,,,,,,,,,,"MET09404/12/20 08:53:02 METAR KFRG 121353Z 17009KT 10SM SCT095 13/M01 A3021 RMK AO2 SLP231 T01331006","FM-15","7",,,,,,,,,,,,,,,,,,,,,,,,,,,,"2009-05-18"
"74486454787","2020-04-12T09:53:00","FM-15","7",,,,,,,,,,,,,,,,,,,,,,,,,,,,,,,,,,,,,,"30.20","31","58","0.00",,"-0.00","0","36","30.20","CLR:00","30.11","10.00","46","160",,"11",,,,,,,,,,,,,,,,,,,,,,,,,,,,,,,,,,,,,"MET09704/12/20 09:53:02 METAR KFRG 121453Z 16010KT 10SM CLR 14/M01 A3020 RMK AO2 SLP227 T01441006 50000","FM-15","7",,,,,,,,,,,,,,,,,,,,,,,,,,,,"2009-05-18"
"74486454787","2020-04-12T10:53:00","FM-15","7",,,,,,,,,,,,,,,,,,,,,,,,,,,,,,,,,,,,,,"30.21","32","60","0.00",,,,"35","30.21","CLR:00","30.12","10.00","47","160",,"16",,,,,,,,,,,,,,,,,,,,,,,,,,,,,,,,,,,,,"MET09004/12/20 10:53:02 METAR KFRG 121553Z 16014KT 10SM CLR 16/00 A3021 RMK AO2 SLP229 T01560000","FM-15","7",,,,,,,,,,,,,,,,,,,,,,,,,,,,"2009-05-18"
"74486454787","2020-04-12T11:53:00","FM-15","7",,,,,,,,,,,,,,,,,,,,,,,,,,,,,,,,,,,,,,"30.21","31","58","0.00",,,,"36","30.21","CLR:00","30.12","10.00","46","170","25","17",,,,,,,,,,,,,,,,,,,,,,,,,,,,,,,,,,,,,"MET09404/12/20 11:53:02 METAR KFRG 121653Z 17015G22KT 10SM CLR 14/M01 A3021 RMK AO2 SLP231 T01441006","FM-15","7",,,,,,,,,,,,,,,,,,,,,,,,,,,,"2009-05-18"
"74486454787","2020-04-12T12:53:00","FM-15","7",,,,,,,,,,,,,,,,,,,,,,,,,,,,,,,,,,,,,,"30.19","40","55","0.00",,"+0.01","8","57","30.19","FEW:02 70 BKN:07 100","30.10","10.00","48","160",,"17",,,,,,,,,,,,,,,,,,,,,,,,,,,,,,,,,,,,,"MET11804/12/20 12:53:02 METAR KFRG 121753Z 16015KT 10SM FEW070 BKN100 13/04 A3019 RMK AO2 SLP222 T01280044 10156 20072 58005","FM-15","7",,,,,,,,,,,,,,,,,,,,,,,,,,,,"2009-05-18"
"74486454787","2020-04-12T13:53:00","FM-15","7",,,,,,,,,,,,,,,,,,,,,,,,,,,,,,,,,,,,,,"30.16","44","56","0.00",,,,"65","30.16","OVC:08 110","30.07","10.00","50","160",,"14",,,,,,,,,,,,,,,,,,,,,,,,,,,,,,,,,,,,,"MET09304/12/20 13:53:02 METAR KFRG 121853Z 16012KT 10SM OVC110 13/07 A3016 RMK AO2 SLP213 T01330067","FM-15","7",,,,,,,,,,,,,,,,,,,,,,,,,,,,"2009-05-18"
"74486454787","2020-04-12T14:53:00","FM-15","7",,,,,,,,,,,,,,,,,,,,,,,,,,,,,,,,,,,,,,"30.15","45","59","0.00",,,,"60","30.15","BKN:07 110","30.06","10.00","52","190",,"16",,,,,,,,,,,,,,,,,,,,,,,,,,,,,,,,,,,,,"MET09304/12/20 14:53:02 METAR KFRG 121953Z 19014KT 10SM BKN110 15/07 A3015 RMK AO2 SLP209 T01500072","FM-15","7",,,,,,,,,,,,,,,,,,,,,,,,,,,,"2009-05-18"
"74486454787","2020-04-12T15:53:00","FM-15","7",,,,,,,,,,,,,,,,,,,,,,,,,,,,,,,,,,,,,,"30.14","44","56","0.00",,"+0.05","6","65","30.14","BKN:07 120","30.05","10.00","50","180","24","14",,,,,,,,,,,,,,,,,,,,,,,,,,,,,,,,,,,,,"MET10204/12/20 15:53:02 METAR KFRG 122053Z 18012G21KT 10SM BKN120 13/07 A3014 RMK AO2 SLP205 T01330067 56017","FM-15","7",,,,,,,,,,,,,,,,,,,,,,,,,,,,"2009-05-18"
"74486454787","2020-04-12T16:53:00","FM-15","7",,,,,,,,,,,,,,,,,,,,,,,,,,,,,,,,,,,,,,"30.13","41","57","0.00",,,,"55","30.13","CLR:00","30.04","10.00","49","200","23","14",,,,,,,,,,,,,,,,,,,,,,,,,,,,,,,,,,,,,"MET09304/12/20 16:53:02 METAR KFRG 122153Z 20012G20KT 10SM CLR 14/05 A3013 RMK AO2 SLP204 T01390050","FM-15","7",,,,,,,,,,,,,,,,,,,,,,,,,,,,"2009-05-18"
"74486454787","2020-04-12T17:53:00","FM-15","7",,,,,,,,,,,,,,,,,,,,,,,,,,,,,,,,,,,,,,"30.11","41","55","0.00",,,,"59","30.11","CLR:00","30.02","10.00","48","190","23","20",,,,,,,,,,,,,,,,,,,,,,,,,,,,,,,,,,,,,"MET09304/12/20 17:53:02 METAR KFRG 122253Z 19017G20KT 10SM CLR 13/05 A3011 RMK AO2 SLP197 T01280050","FM-15","7",,,,,,,,,,,,,,,,,,,,,,,,,,,,"2009-05-18"
"74486454787","2020-04-12T18:53:00","FM-15","7",,,,,,,,,,,,,,,,,,,,,,,,,,,,,,,,,,,,,,"30.10","42","53","0.00",,"+0.04","8","66","30.10","CLR:00","30.01","10.00","48","190",,"10",,,,,,,,,,,,,,,,,,,,,,,,,,,,,,,,,,,,,"MET10804/12/20 18:53:02 METAR KFRG 122353Z 19009KT 10SM CLR 12/06 A3010 RMK AO2 SLP192 T01170056 10150 20117 58013","FM-15","7",,,,,,,,,,,,,,,,,,,,,,,,,,,,"2009-05-18"
"74486454787","2020-04-12T19:53:00","FM-15","7",,,,,,,,,,,,,,,,,,,,,,,,,,,,,,,,,,,,,,"30.14","43","54","0.00",,,,"67","30.14","CLR:00","30.05","10.00","49","190",,"13",,,,,,,,,,,,,,,,,,,,,,,,,,,,,,,,,,,,,"MET09004/12/20 19:53:01 METAR KFRG 130053Z 19011KT 10SM CLR 12/06 A3014 RMK AO2 SLP207 T01220061","FM-15","7",,,,,,,,,,,,,,,,,,,,,,,,,,,,"2009-05-18"
"74486454787","2020-04-12T20:53:00","FM-15","7",,,,,,,,,,,,,,,,,,,,,,,,,,,,,,,,,,,,,,"30.14","46","55","0.00",,,,"72","30.14","CLR:00","30.05","10.00","50","200","22","16",,,,,,,,,,,,,,,,,,,,,,,,,,,,,,,,,,,,,"MET09304/12/20 20:53:01 METAR KFRG 130153Z 20014G19KT 10SM CLR 13/08 A3014 RMK AO2 SLP207 T01280078","FM-15","7",,,,,,,,,,,,,,,,,,,,,,,,,,,,"2009-05-18"
"74486454787","2020-04-12T21:53:00","FM-15","7",,,,,,,,,,,,,,,,,,,,,,,,,,,,,,,,,,,,,,"30.13","47","54","0.00",,"-0.03","0","77","30.13","CLR:00","30.04","10.00","50","180",,"13",,,,,,,,,,,,,,,,,,,,,,,,,,,,,,,,,,,,,"MET09604/12/20 21:53:01 METAR KFRG 130253Z 18011KT 10SM CLR 12/08 A3013 RMK AO2 SLP202 T01220083 50010","FM-15","7",,,,,,,,,,,,,,,,,,,,,,,,,,,,"2009-05-18"
"74486454787","2020-04-12T22:53:00","FM-15","7",,,,,,,,,,,,,,,,,,,,,,,,,,,,,,,,,,,,,,"30.10","47","54","0.00",,,,"77","30.10","SCT:04 36 BKN:07 120","30.01","10.00","50","200",,"10",,,,,,,,,,,,,,,,,,,,,,,,,,,,,,,,,,,,,"MET10004/12/20 22:53:02 METAR KFRG 130353Z 20009KT 10SM SCT036 BKN120 12/08 A3010 RMK AO2 SLP192 T01220083","FM-15","7",,,,,,,,,,,,,,,,,,,,,,,,,,,,"2009-05-18"
"74486454787","2020-04-12T23:53:00","FM-15","7",,,,,,,,,,,,,,,,,,,,,,,,,,,,,,,,,,,,,,"30.09","48","55","0.00",,,,"77","30.08","OVC:08 110","30.00","10.00","51","200",,"14",,,,,,,,,,,,,,,,,,,,,,,,,,,,,,,,,,,,,"MET10304/12/20 23:53:02 METAR KFRG 130453Z 20012KT 10SM OVC110 13/09 A3009 RMK AO2 SLP187 T01280089 401560017","FM-15","7",,,,,,,,,,,,,,,,,,,,,,,,,,,,"2009-05-18"
"74486454787","2020-04-12T23:59:00","SOD  ","6",,,,,,,,,,,,,,,,"48",,,"30.06",,"10.7","0","-0.4","17","60","35","180","27","0.00",,,"190","21",,,,,,,,,,,,,,,,,,,,,,,,,,,,,,,,,,,,,,,,,,,,,,,,,,,,,,,,,"SOD73024 HR PRECIPITATION (IN):0.00  24 HR MAX TEMP (F):60 24 HR MAX TEMP TIME (LST):1112 24 HR MIN TEMP (F):35 24 HR MIN TEMP TIME (LST):0545 AVERAGE STATION PRESSURE:30.055 MINIMUM SEA LEVEL PRESSURE:30.08 TIME OF OCCURRENCE:2359 PEAK WIND SPEED (MPH):27  PEAK WIND DIR (DEG):180 PEAK WIND TIME (LST):1240  FASTEST 2MIN SPEED (MPH):21 FASTEST 2MIN DIR (DEG):190 FASTEST 2MIN TIME (LST):1722 AVERAGE WIND SPEED (MPH):10.7 24 HR AVG TEMP (F):48 HEATING DEGREE DAYS:17  COOLING DEGREE DAYS:0   LATEST DAY MAX TEMP (0700-1900 LST):60  LATEST NIGHT MIN TEMP(1900-0800 LST):35 HOURLY INCREMENTAL PRECIPITATION VALUES (IN):.00 0.00 0.00 0.00 0.00 0.00 0.00 0.00 0.00 0.00 0.00 0.00 0.00 0.00 0.00 0.00 0.00 0.00 0.00 0.00 0.00 0.00 0.00 0.00","SOD  ","6",,,,,,,,,,,,,,,,,,,,,,,,,"0518","1831",,"2009-05-18"
"74486454787","2020-04-13T00:53:00","FM-15","7",,,,,,,,,,,,,,,,,,,,,,,,,,,,,,,,,,,,,,"30.07","50","55","0.02s","-RA:02 |RA |RA","+0.06","6","83","30.06","OVC:08 80","29.98","10.00","52","200","22","15",,,,,,,,,,,,,,,,,,,,,,,,,,,,,,,,,,,,,"MET13604/13/20 00:53:02 METAR KFRG 130553Z 20013G19KT 10SM -RA OVC080 13/10 A3007 RMK AO2 RAB28 SLP181 P0001 60001 T01280100 10128 20117 56020","FM-15","7",,,,,,,,,,,,,,,,,,,,,,,,,,,,"2009-05-18"
"74486454787","2020-04-13T01:03:00","FM-16","7",,,,,,,,,,,,,,,,,,,,,,,,,,,,,,,,,,,,,,"30.06","50","54","0.01","-RA:02 |RA |RA",,,"87",,"FEW:02 8 FEW:02 60 OVC:08 80","29.97","9.00","52","200",,"13",,,,,,,,,,,,,,,,,,,,,,,,,,,,,,,,,,,,,"MET10904/13/20 01:03:02 SPECI KFRG 130603Z 20011KT 9SM -RA FEW008 FEW060 OVC080 12/10 A3006 RMK AO2 P0001 T01220100","FM-16","7",,,,,,,,,,,,,,,,,,,,,,,,,,,,"2009-05-18"
"74486454787","2020-04-13T01:53:00","FM-15","7",,,,,,,,,,,,,,,,,,,,,,,,,,,,,,,,,,,,,,"30.02","50","54","0.03","-RA:02 |RA |RA",,,"87","30.02","FEW:02 6 BKN:07 33 OVC:08 80","29.93","8.00","52","200",,"11",,,,,,,,,,,,,,,,,,,,,,,,,,,,,,,,,,,,,"MET11604/13/20 01:53:02 METAR KFRG 130653Z 20010KT 8SM -RA FEW006 BKN033 OVC080 12/10 A3002 RMK AO2 SLP166 P0004 T01220100","FM-15","7",,,,,,,,,,,,,,,,,,,,,,,,,,,,"2009-05-18"
"74486454787","2020-04-13T02:06:00","FM-16","7",,,,,,,,,,,,,,,,,,,,,,,,,,,,,,,,,,,,,,"30.02","50","54","0.01","-RA:02 |RA |RA",,,"87",,"FEW:02 6 BKN:07 28 OVC:08 34","29.93","8.00","52","190","21","13",,,,,,,,,,,,,,,,,,,,,,,,,,,,,,,,,,,,,"MET11204/13/20 02:06:02 SPECI KFRG 130706Z 19011G18KT 8SM -RA FEW006 BKN028 OVC034 12/10 A3002 RMK AO2 P0001 T01220100","FM-16","7",,,,,,,,,,,,,,,,,,,,,,,,,,,,"2009-05-18"
"74486454787","2020-04-13T02:40:00","FM-16","7",,,,,,,,,,,,,,,,,,,,,,,,,,,,,,,,,,,,,,"30.00","51","55","0.04","RA:02 |RA |RA",,,"87",,"FEW:02 6 BKN:07 55 OVC:08 80","29.91","8.00","53","180",,"13",,,,,,,,,,,,,,,,,,,,,,,,,,,,,,,,,,,,,"MET10804/13/20 02:40:02 SPECI KFRG 130740Z 18011KT 8SM RA FEW006 BKN055 OVC080 13/11 A3000 RMK AO2 P0004 T01280106","FM-16","7",,,,,,,,,,,,,,,,,,,,,,,,,,,,"2009-05-18"
"74486454787","2020-04-13T02:53:00","FM-15","7",,,,,,,,,,,,,,,,,,,,,,,,,,,,,,,,,,,,,,"30.00","51","54","0.05","-RA:02 |RA |RA",,,"90","30.00","FEW:02 6 BKN:07 55 OVC:08 75","29.91","9.00","52","190","22","15",,,,,,,,,,,,,,,,,,,,,,,,,,,,,,,,,,,,,"MET11904/13/20 02:53:02 METAR KFRG 130753Z 19013G19KT 9SM -RA FEW006 BKN055 OVC075 12/11 A3000 RMK AO2 SLP159 P0005 T01220106","FM-15","7",,,,,,,,,,,,,,,,,,,,,,,,,,,,"2009-05-18"
"74486454787","2020-04-13T03:23:00","FM-16","7",,,,,,,,,,,,,,,,,,,,,,,,,,,,,,,,,,,,,,"29.99","51","54","0.01","-RA:02 |RA |RA",,,"90",,"SCT:04 13 BKN:07 19 OVC:08 55","29.90","9.00","52","190","24","16",,,,,,,,,,,,,,,,,,,,,,,,,,,,,,,,,,,,,"MET11204/13/20 03:23:02 SPECI KFRG 130823Z 19014G21KT 9SM -RA SCT013 BKN019 OVC055 12/11 A2999 RMK AO2 P0001 T01220106","FM-16","7",,,,,,,,,,,,,,,,,,,,,,,,,,,,"2009-05-18"
"74486454787","2020-04-13T03:29:00","FM-16","7",,,,,,,,,,,,,,,,,,,,,,,,,,,,,,,,,,,,,,"29.99","51","54","0.01","-RA:02 |RA |RA",,,"90",,"FEW:02 7 BKN:07 13 OVC:08 31","29.90","10.00","52","190",,"13",,,,,,,,,,,,,,,,,,,,,,,,,,,,,,,,,,,,,"MET11004/13/20 03:29:02 SPECI KFRG 130829Z 19011KT 10SM -RA FEW007 BKN013 OVC031 12/11 A2999 RMK AO2 P0001 T01220106","FM-16","7",,,,,,,,,,,,,,,,,,,,,,,,,,,,"2009-05-18"
"74486454787","2020-04-13T03:51:00","FM-16","6",,,,,,,,,,,,,,,,,,,,,,,,,,,,,,,,,,,,,,"29.99","50","54",,"RA:02 |RA |RA",,,"88",,"BKN:07 7 OVC:08 13","29.90","7.00","52","200","21","11",,,,,,,,,,,,,,,,,,,,,,,,,,,,,,,,,,,,,"MET11104/13/20 03:51:02 SPECI KFRG 130851Z 20010G18KT 7SM RA BKN007 OVC013 12/10 A2999 RMK AO2 CIG 006V011 P0002 FIBI","FM-16","6",,,,,,,,,,,,,,,,,,,,,,,,,,,,"2009-05-18"
"74486454787","2020-04-13T03:53:00","FM-15","7",,,,,,,,,,,,,,,,,,,,,,,,,,,,,,,,,,,,,,"29.99","50","54","0.04","RA:02 |RA |RA","+0.08","6","87","29.99","BKN:07 7 OVC:08 13","29.90","7.00","52","200",,"10",,,,,,,,,,,,,,,,,,,,,,,,,,,,,,,,,,,,,"MET13204/13/20 03:53:01 METAR KFRG 130853Z 20009KT 7SM RA BKN007 OVC013 12/10 A2999 RMK AO2 CIG 006V011 SLP155 P0003 60012 T01220100 56026","FM-15","7",,,,,,,,,,,,,,,,,,,,,,,,,,,,"2009-05-18"
"74486454787","2020-04-13T04:53:00","FM-15","7",,,,,,,,,,,,,,,,,,,,,,,,,,,,,,,,,,,,,,"29.94","50","54","0.21","RA:02 BR:1 |RA |RA",,,"87","29.94","OVC:08 5","29.85","6.00","52","200","22","13",,,,,,,,,,,,,,,,,,,,,,,,,,,,,,,,,,,,,"MET10704/13/20 04:53:02 METAR KFRG 130953Z 20011G19KT 6SM RA BR OVC005 12/10 A2994 RMK AO2 SLP139 P0019 T01220100","FM-15","7",,,,,,,,,,,,,,,,,,,,,,,,,,,,"2009-05-18"
"74486454787","2020-04-13T05:20:00","FM-16","7",,,,,,,,,,,,,,,,,,,,,,,,,,,,,,,,,,,,,,"29.92","51","54","0.11","-RA:02 |RA |RA",,,"90",,"OVC:08 4","29.83","8.00","52","160",,"11",,,,,,,,,,,,,,,,,,,,,,,,,,,,,,,,,,,,,"MET10204/13/20 05:20:02 SPECI KFRG 131020Z 16010KT 8SM -RA OVC004 12/11 A2992 RMK AO2 PRESFR P0011 T01220106","FM-16","7",,,,,,,,,,,,,,,,,,,,,,,,,,,,"2009-05-18"
"74486454787","2020-04-13T05:53:00","FM-15","7",,,,,,,,,,,,,,,,,,,,,,,,,,,,,,,,,,,,,,"29.91","51","54","0.08",,,,"90","29.91","OVC:08 4","29.82","9.00","52","150",,"16",,,,,,,,,,,,,,,,,,,,,,,,,,,,,,,,,,,,,"MET11604/13/20 05:53:02 METAR KFRG 131053Z 15014KT 9SM OVC004 12/11 A2991 RMK AO2 RAE32 CIG 003V008 SLP129 P0011 T01220106","FM-15","7",,,,,,,,,,,,,,,,,,,,,,,,,,,,"2009-05-18"
"74486454787","2020-04-13T06:27:00","FM-16","7",,,,,,,,,,,,,,,,,,,,,,,,,,,,,,,,,,,,,,"29.91","52","55","0.03","RA:02 BR:1 |RA |RA",,,"90",,"OVC:08 5","29.82","4.00","53","160",,"18",,,,,,,,,,,,,,,,,,,,,,,,,,,,,,,,,,,,,"MET12304/13/20 06:27:02 SPECI KFRG 131127Z 16016KT 4SM RA BR OVC005 13/11 A2991 RMK AO2 PK WND 17026/1108 RAB1055 P0003 T01280111","FM-16","7",,,,,,,,,,,,,,,,,,,,,,,,,,,,"2009-05-18"
"74486454787","2020-04-13T06:53:00","FM-15","7",,,,,,,,,,,,,,,,,,,,,,,,,,,,,,,,,,,,,,"29.86","52","55","0.05","-RA:02 |RA |RA","+0.13","8","90","29.86","OVC:08 5","29.77","7.00","53","160","32","22",,,,,,,,,,,,,,,,,,,,,,,,,,,,,,,,,,,,,"MET16804/13/20 06:53:02 METAR KFRG 131153Z 16019G28KT 7SM -RA OVC005 13/11 A2986 RMK AO2 PK WND 15028/1147 RAB1055 PRESFR SLP111 P0005 60047 70048 T01280111 10128 20122 58044","FM-15","7",,,,,,,,,,,,,,,,,,,,,,,,,,,,"2009-05-18"
"74486454787","2020-04-13T07:45:00","FM-16","7",,,,,,,,,,,,,,,,,,,,,,,,,,,,,,,,,,,,,,"29.84","53","57","0.04","RA:02 BR:1 |RA |RA",,,"87",,"SCT:04 7 BKN:07 18 OVC:08 47","29.75","5.00","55","170","37","23",,,,,,,,,,,,,,,,,,,,,,,,,,,,,,,,,,,,,"MET13204/13/20 07:45:02 SPECI KFRG 131245Z 17020G32KT 5SM RA BR SCT007 BKN018 OVC047 14/12 A2984 RMK AO2 PK WND 17032/1242 P0004 T01390117","FM-16","7",,,,,,,,,,,,,,,,,,,,,,,,,,,,"2009-05-18"
"74486454787","2020-04-13T07:53:00","FM-15","7",,,,,,,,,,,,,,,,,,,,,,,,,,,,,,,,,,,,,,"29.84","53","57","0.07","RA:02 BR:1 |RA |RA",,,"87","29.84","SCT:04 7 BKN:07 18 OVC:08 26","29.75","4.00","55","170","33","23",,,,,,,,,,,,,,,,,,,,,,,,,,,,,,,,,,,,,"MET13904/13/20 07:53:02 METAR KFRG 131253Z 17020G29KT 4SM RA BR SCT007 BKN018 OVC026 14/12 A2984 RMK AO2 PK WND 17032/1242 SLP106 P0006 T01390117","FM-15","7",,,,,,,,,,,,,,,,,,,,,,,,,,,,"2009-05-18"
"74486454787","2020-04-13T08:05:00","FM-16","7",,,,,,,,,,,,,,,,,,,,,,,,,,,,,,,,,,,,,,"29.82","53","57","0.03","RA:02 BR:1 |RA |RA",,,"87",,"BKN:07 7 BKN:07 18 OVC:08 41","29.73","4.00","55","170","39","30",,,,,,,,,,,,,,,,,,,,,,,,,,,,,,,,,,,,,"MET13904/13/20 08:05:02 SPECI KFRG 131305Z 17026G34KT 4SM RA BR BKN007 BKN018 OVC041 14/12 A2982 RMK AO2 PK WND 17034/1305 PRESFR P0003 T01390117","FM-16","7",,,,,,,,,,,,,,,,,,,,,,,,,,,,"2009-05-18"
"74486454787","2020-04-13T08:51:00","FM-16","6",,,,,,,,,,,,,,,,,,,,,,,,,,,,,,,,,,,,,,"29.79","54","57",,"RA:02 BR:1 |RA |RA",,,"88",,"SCT:04 7 BKN:07 23 OVC:08 42","29.70","4.00","55","180","46","29",,,,,,,,,,,,,,,,,,,,,,,,,,,,,,,,,,,,,"MET12704/13/20 08:51:02 SPECI KFRG 131351Z 18025G40KT 4SM RA BR SCT007 BKN023 OVC042 14/12 A2979 RMK AO2 PK WND 17040/1342 P0009 FIBI","FM-16","6",,,,,,,,,,,,,,,,,,,,,,,,,,,,"2009-05-18"
"74486454787","2020-04-13T08:53:00","FM-15","7",,,,,,,,,,,,,,,,,,,,,,,,,,,,,,,,,,,,,,"29.79","54","58","0.08","RA:02 BR:1 |RA |RA",,,"87","29.78","SCT:04 7 BKN:07 23 OVC:08 60","29.70","4.00","56","180","40","31",,,,,,,,,,,,,,,,,,,,,,,,,,,,,,,,,,,,,"MET13904/13/20 08:53:02 METAR KFRG 131353Z 18027G35KT 4SM RA BR SCT007 BKN023 OVC060 14/12 A2979 RMK AO2 PK WND 17040/1342 SLP086 P0009 T01440122","FM-15","7",,,,,,,,,,,,,,,,,,,,,,,,,,,,"2009-05-18"
"74486454787","2020-04-13T09:27:00","FM-16","7",,,,,,,,,,,,,,,,,,,,,,,,,,,,,,,,,,,,,,"29.77","55","59","0.07","RA:02 BR:1 |RA |RA",,,"87",,"BKN:07 8 BKN:07 21 OVC:08 60","29.68","2.50","57","170","43","32",,,,,,,,,,,,,,,,,,,,,,,,,,,,,,,,,,,,,"MET13604/13/20 09:27:02 SPECI KFRG 131427Z 17028G37KT 2 1/2SM RA BR BKN008 BKN021 OVC060 15/13 A2977 RMK AO2 PK WND 17044/1411 P0007 T01500128","FM-16","7",,,,,,,,,,,,,,,,,,,,,,,,,,,,"2009-05-18"
"74486454787","2020-04-13T09:35:00","FM-16","7",,,,,,,,,,,,,,,,,,,,,,,,,,,,,,,,,,,,,,"29.76","55","59","0.09","RA:02 BR:1 |RA |RA",,,"87",,"BKN:07 8 BKN:07 23 OVC:08 34","29.67","3.00","57","170","41","31",,,,,,,,,,,,,,,,,,,,,,,,,,,,,,,,,,,,,"MET13204/13/20 09:35:02 SPECI KFRG 131435Z 17027G36KT 3SM RA BR BKN008 BKN023 OVC034 15/13 A2976 RMK AO2 PK WND 17044/1411 P0009 T01500128","FM-16","7",,,,,,,,,,,,,,,,,,,,,,,,,,,,"2009-05-18"
"74486454787","2020-04-13T09:45:00","FM-16","7",,,,,,,,,,,,,,,,,,,,,,,,,,,,,,,,,,,,,,"29.75","55","59","0.14","+RA:02 BR:1 |RA |RA",,,"87",,"BKN:07 6 OVC:08 22","29.66","2.00","57","170","51","30",,,,,,,,,,,,,,,,,,,,,,,,,,,,,,,,,,,,,"MET12604/13/20 09:45:02 SPECI KFRG 131445Z 17026G44KT 2SM +RA BR BKN006 OVC022 15/13 A2975 RMK AO2 PK WND 17044/1411 P0014 T01500128","FM-16","7",,,,,,,,,,,,,,,,,,,,,,,,,,,,"2009-05-18"
"74486454787","2020-04-13T09:53:00","FM-15","7",,,,,,,,,,,,,,,,,,,,,,,,,,,,,,,,,,,,,,"29.74","55","59","0.17","RA:02 BR:1 |RA |RA","+0.12","8","87","29.74","OVC:08 6","29.65","2.50","57","170","49","33",,,,,,,,,,,,,,,,,,,,,,,,,,,,,,,,,,,,,"MET14104/13/20 09:53:02 METAR KFRG 131453Z 17029G43KT 2 1/2SM RA BR OVC006 15/13 A2974 RMK AO2 PK WND 17044/1411 SLP070 P0016 60031 T01500128 58040","FM-15","7",,,,,,,,,,,,,,,,,,,,,,,,,,,,"2009-05-18"
"74486454787","2020-04-13T10:02:00","FM-16","7",,,,,,,,,,,,,,,,,,,,,,,,,,,,,,,,,,,,,,"29.72","55","59","0.02","-RA:02 BR:1 |RA |RA",,,"87",,"OVC:08 6","29.63","3.00","57","170","41","33",,,,,,,,,,,,,,,,,,,,,,,,,,,,,,,,,,,,,"MET12604/13/20 10:02:02 SPECI KFRG 131502Z 17029G36KT 3SM -RA BR OVC006 15/13 A2972 RMK AO2 PK WND 16036/1459 PRESFR P0002 T01500128","FM-16","7",,,,,,,,,,,,,,,,,,,,,,,,,,,,"2009-05-18"
"74486454787","2020-04-13T10:19:00","FM-16","7",,,,,,,,,,,,,,,,,,,,,,,,,,,,,,,,,,,,,,"29.69","55","58","0.08","RA:02 BR:1 |RA |RA",,,"90",,"OVC:08 5","29.60","2.00","56","160","40","29",,,,,,,,,,,,,,,,,,,,,,,,,,,,,,,,,,,,,"MET12504/13/20 10:19:02 SPECI KFRG 131519Z 16025G35KT 2SM RA BR OVC005 14/13 A2969 RMK AO2 PK WND 15037/1506 PRESFR P0008 T01440128","FM-16","7",,,,,,,,,,,,,,,,,,,,,,,,,,,,"2009-05-18"
"74486454787","2020-04-13T10:32:00","FM-16","7",,,,,,,,,,,,,,,,,,,,,,,,,,,,,,,,,,,,,,"29.68","54","58","0.08","-RA:02 BR:1 |RA |RA",,,"87",,"OVC:08 5","29.59","6.00","56","170","47","31",,,,,,,,,,,,,,,,,,,,,,,,,,,,,,,,,,,,,"MET11904/13/20 10:32:02 SPECI KFRG 131532Z 17027G41KT 6SM -RA BR OVC005 14/12 A2968 RMK AO2 PK WND 16043/1522 P0008 T01440122","FM-16","7",,,,,,,,,,,,,,,,,,,,,,,,,,,,"2009-05-18"
"74486454787","2020-04-13T10:53:00","FM-15","7",,,,,,,,,,,,,,,,,,,,,,,,,,,,,,,,,,,,,,"29.66","54","58","0.07",,,,"87","29.66","OVC:08 6","29.57","7.00","56","170","47","31",,,,,,,,,,,,,,,,,,,,,,,,,,,,,,,,,,,,,"MET13204/13/20 10:53:02 METAR KFRG 131553Z 17027G41KT 7SM OVC006 14/12 A2966 RMK AO2 PK WND 16043/1522 RAE33 PRESFR SLP043 P0008 T01440122","FM-15","7",,,,,,,,,,,,,,,,,,,,,,,,,,,,"2009-05-18"
"74486454787","2020-04-13T11:53:00","FM-15","7",,,,,,,,,,,,,,,,,,,,,,,,,,,,,,,,,,,,,,"29.64","54","58","0.00",,,,"87","29.63","OVC:08 8","29.55","7.00","56","180","39","25",,,,,,,,,,,,,,,,,,,,,,,,,,,,,,,,,,,,,"MET12504/13/20 11:53:02 METAR KFRG 131653Z 18022G34KT 7SM OVC008 14/12 A2964 RMK AO2 PK WND 18040/1619 CIG 007V012 SLP034 T01440122","FM-15","7",,,,,,,,,,,,,,,,,,,,,,,,,,,,"2009-05-18"
"74486454787","2020-04-13T12:48:00","FM-16","7",,,,,,,,,,,,,,,,,,,,,,,,,,,,,,,,,,,,,,"29.56","57","61","0.03","RA:02 BR:1 |RA |RA",,,"88",,"OVC:08 6","29.47","2.00","59","180","55","36",,,,,,,,,,,,,,,,,,,,,,,,,,,,,,,,,,,,,"MET11404/13/20 12:48:02 SPECI KFRG 131748Z 18031G48KT 2SM RA BR OVC006 16/14 A2956 RMK AO2 PK WND 20048/1740 RAB39 P0003","FM-16","7",,,,,,,,,,,,,,,,,,,,,,,,,,,,"2009-05-18"
"74486454787","2020-04-13T12:51:00","FM-16","6",,,,,,,,,,,,,,,,,,,,,,,,,,,,,,,,,,,,,,"29.56","57","61",,"-RA:02 BR:1 |RA |RA",,,"88",,"OVC:08 6","29.47","3.00","59","170","54","39",,,,,,,,,,,,,,,,,,,,,,,,,,,,,,,,,,,,,"MET12004/13/20 12:51:02 SPECI KFRG 131751Z 17034G47KT 3SM -RA BR OVC006 16/14 A2956 RMK AO2 PK WND 20048/1740 RAB39 P0004 FIBI","FM-16","6",,,,,,,,,,,,,,,,,,,,,,,,,,,,"2009-05-18"
"74486454787","2020-04-13T12:53:00","FM-15","7",,,,,,,,,,,,,,,,,,,,,,,,,,,,,,,,,,,,,,"29.56","57","61","0.04","-RA:02 BR:1 |RA |RA","+0.10","6","87","29.55","OVC:08 6","29.47","4.00","59","170","54","37",,,,,,,,,,,,,,,,,,,,,,,,,,,,,,,,,,,,,"MET15604/13/20 12:53:02 METAR KFRG 131753Z 17032G47KT 4SM -RA BR OVC006 16/14 A2956 RMK AO2 PK WND 20048/1740 RAB39 SLP008 P0004 60043 T01610139 10161 20133 56034","FM-15","7",,,,,,,,,,,,,,,,,,,,,,,,,,,,"2009-05-18"
"74486454787","2020-04-13T13:35:00","FM-16","7",,,,,,,,,,,,,,,,,,,,,,,,,,,,,,,,,,,,,,"29.53","55","59","0.05","-RA:02 BR:1 |RA |RA",,,"87",,"OVC:08 7","29.44","1.75","57","170","53","34",,,,,,,,,,,,,,,,,,,,,,,,,,,,,,,,,,,,,"MET13504/13/20 13:35:02 SPECI KFRG 131835Z 17030G46KT 1 3/4SM -RA BR OVC007 15/13 A2953 RMK AO2 PK WND 17048/1800 CIG 006V011 P0005 T01500128","FM-16","7",,,,,,,,,,,,,,,,,,,,,,,,,,,,"2009-05-18"
"74486454787","2020-04-13T13:51:00","FM-16","7",,,,,,,,,,,,,,,,,,,,,,,,,,,,,,,,,,,,,,"29.51","55","57","0.07","-RA:02 BR:1 |RA |RA",,,"94",,"OVC:08 7","29.42","2.50","56","170","51","34",,,,,,,,,,,,,,,,,,,,,,,,,,,,,,,,,,,,,"MET12504/13/20 13:51:02 SPECI KFRG 131851Z 17030G44KT 2 1/2SM -RA BR OVC007 14/13 A2951 RMK AO2 PK WND 17048/1800 CIG 005V010 P0007","FM-16","7",,,,,,,,,,,,,,,,,,,,,,,,,,,,"2009-05-18"
"74486454787","2020-04-13T13:53:00","FM-15","7",,,,,,,,,,,,,,,,,,,,,,,,,,,,,,,,,,,,,,"29.51","55","58","0.07","-RA:02 BR:1 |RA |RA",,,"90","29.51","OVC:08 7","29.42","2.50","56","170","51","31",,,,,,,,,,,,,,,,,,,,,,,,,,,,,,,,,,,,,"MET14204/13/20 13:53:02 METAR KFRG 131853Z 17027G44KT 2 1/2SM -RA BR OVC007 14/13 A2951 RMK AO2 PK WND 17048/1800 CIG 005V010 SLP994 P0007 T01440128","FM-15","7",,,,,,,,,,,,,,,,,,,,,,,,,,,,"2009-05-18"
"74486454787","2020-04-13T14:00:00","FM-16","7",,,,,,,,,,,,,,,,,,,,,,,,,,,,,,,,,,,,,,"29.51","55","59","T","-RA:02 BR:1 |RA |RA",,,"87",,"BKN:07 7 OVC:08 12","29.42","5.00","57","180","51","38",,,,,,,,,,,,,,,,,,,,,,,,,,,,,,,,,,,,,"MET12604/13/20 14:00:02 SPECI KFRG 131900Z 18033G44KT 5SM -RA BR BKN007 OVC012 15/13 A2951 RMK AO2 PK WND 18043/1858 P0000 T01500128","FM-16","7",,,,,,,,,,,,,,,,,,,,,,,,,,,,"2009-05-18"
"74486454787","2020-04-13T14:29:00","FM-16","7",,,,,,,,,,,,,,,,,,,,,,,,,,,,,,,,,,,,,,"29.48","54","58","0.05","+RA:02 BR:1 |RA |RA",,,"87",,"OVC:08 8","29.39","1.75","56","180","43","29",,,,,,,,,,,,,,,,,,,,,,,,,,,,,,,,,,,,,"MET14404/13/20 14:29:02 SPECI KFRG 131929Z 18025G37KT 1 3/4SM +RA BR OVC008 14/12 A2948 RMK AO2 PK WND 18043/1858 LTG DSNT SW RAE04B23 P0005 T01440122","FM-16","7",,,,,,,,,,,,,,,,,,,,,,,,,,,,"2009-05-18"
"74486454787","2020-04-13T14:53:00","FM-15","7",,,,,,,,,,,,,,,,,,,,,,,,,,,,,,,,,,,,,,"29.49","55","58","0.17","RA:02 BR:1 |RA |RA",,,"90","29.49","OVC:08 6","29.40","1.75","56","200","44","28",,,,,,,,,,,,,,,,,,,,,,,,,,,,,,,,,,,,,"MET13804/13/20 14:53:02 METAR KFRG 131953Z 20024G38KT 1 3/4SM RA BR OVC006 14/13 A2949 RMK AO2 PK WND 18043/1858 RAE04B23 SLP986 P0017 T01440128","FM-15","7",,,,,,,,,,,,,,,,,,,,,,,,,,,,"2009-05-18"
"74486454787","2020-04-13T14:58:00","FM-16","7",,,,,,,,,,,,,,,,,,,,,,,,,,,,,,,,,,,,,,"29.49","55","58","T","RA:02 BR:1 |RA |RA",,,"90",,"OVC:08 6","29.40","3.00","56","200","43","28",,,,,,,,,,,,,,,,,,,,,,,,,,,,,,,,,,,,,"MET11804/13/20 14:58:02 SPECI KFRG 131958Z 20024G37KT 3SM RA BR OVC006 14/13 A2949 RMK AO2 PK WND 20036/1954 P0000 T01440128","FM-16","7",,,,,,,,,,,,,,,,,,,,,,,,,,,,"2009-05-18"
"74486454787","2020-04-13T15:51:00","FM-16","6",,,,,,,,,,,,,,,,,,,,,,,,,,,,,,,,,,,,,,"29.46","54","59",,,,,"82",,"OVC:08 11","29.37","7.00","56","200","45","26",,,,,,,,,,,,,,,,,,,,,,,,,,,,,,,,,,,,,"MET13204/13/20 15:51:02 SPECI KFRG 132051Z 20023G39KT 7SM OVC011 15/12 A2946 RMK AO2 PK WND 21039/2042 LTG DSNT NE RAE05 PRESFR P0000 FIBI","FM-16","6",,,,,,,,,,,,,,,,,,,,,,,,,,,,"2009-05-18"
"74486454787","2020-04-13T15:53:00","FM-15","7",,,,,,,,,,,,,,,,,,,,,,,,,,,,,,,,,,,,,,"29.44","54","59","T",,"+0.08","8","83","29.43","OVC:08 11","29.35","7.00","56","190","44","28",,,,,,,,,,,,,,,,,,,,,,,,,,,,,,,,,,,,,"MET15604/13/20 15:53:02 METAR KFRG 132053Z 19024G38KT 7SM OVC011 15/12 A2944 RMK AO2 PK WND 21039/2042 LTG DSNT NE RAE05 PRESFR SLP967 P0000 60024 T01500122 58026","FM-15","7",,,,,,,,,,,,,,,,,,,,,,,,,,,,"2009-05-18"
"74486454787","2020-04-13T16:06:00","FM-16","7",,,,,,,,,,,,,,,,,,,,,,,,,,,,,,,,,,,,,,"29.49","54","59","T","-RA:02 |RA |RA",,,"83",,"BKN:07 9 OVC:08 14","29.40","6.00","56","210","40","28",,,,,,,,,,,,,,,,,,,,,,,,,,,,,,,,,,,,,"MET14104/13/20 16:06:02 SPECI KFRG 132106Z 21024G35KT 6SM -RA BKN009 OVC014 15/12 A2949 RMK AO2 PK WND 18038/2055 RAB01 CIG 007V012 P0000 T01500122","FM-16","7",,,,,,,,,,,,,,,,,,,,,,,,,,,,"2009-05-18"
"74486454787","2020-04-13T16:53:00","FM-15","7",,,,,,,,,,,,,,,,,,,,,,,,,,,,,,,,,,,,,,"29.53","55","59","T","BR:1 ||",,,"87","29.52","OVC:08 5","29.44","6.00","57","220","44","31",,,,,,,,,,,,,,,,,,,,,,,,,,,,,,,,,,,,,"MET13104/13/20 16:53:02 METAR KFRG 132153Z 22027G38KT 6SM BR OVC005 15/13 A2953 RMK AO2 PK WND 22038/2151 RAB01E10 SLP997 P0000 T01500128","FM-15","7",,,,,,,,,,,,,,,,,,,,,,,,,,,,"2009-05-18"
"74486454787","2020-04-13T17:20:00","FM-16","7",,,,,,,,,,,,,,,,,,,,,,,,,,,,,,,,,,,,,,"29.54","55","59","T","-RA:02 |RA |RA",,,"87",,"SCT:04 7 BKN:07 70 OVC:08 90","29.45","7.00","57","220","30","21",,,,,,,,,,,,,,,,,,,,,,,,,,,,,,,,,,,,,"MET13604/13/20 17:20:02 SPECI KFRG 132220Z 22018G26KT 7SM -RA SCT007 BKN070 OVC090 15/13 A2954 RMK AO2 PK WND 20033/2201 RAB00 P0000 T01500128","FM-16","7",,,,,,,,,,,,,,,,,,,,,,,,,,,,"2009-05-18"
"74486454787","2020-04-13T17:53:00","FM-15","7",,,,,,,,,,,,,,,,,,,,,,,,,,,,,,,,,,,,,,"29.57","54","59","T",,,,"83","29.57","CLR:00","29.48","9.00","56","230",,"15",,,,,,,,,,,,,,,,,,,,,,,,,,,,,,,,,,,,,"MET12904/13/20 17:53:02 METAR KFRG 132253Z 23013KT 9SM CLR 15/12 A2957 RMK AO2 PK WND 20033/2201 RAB00E21 PRESRR SLP012 P0000 T01500122","FM-15","7",,,,,,,,,,,,,,,,,,,,,,,,,,,,"2009-05-18"
"74486454787","2020-04-13T18:53:00","FM-15","7",,,,,,,,,,,,,,,,,,,,,,,,,,,,,,,,,,,,,,"29.64","55","60","0.00",,"-0.21","1","84","29.64","BKN:07 75","29.55","10.00","57","230",,"8",,,,,,,,,,,,,,,,,,,,,,,,,,,,,,,,,,,,,"MET12404/13/20 18:53:02 METAR KFRG 132353Z 23007KT 10SM BKN075 16/13 A2964 RMK AO2 PRESRR SLP037 60024 T01560128 10161 20144 51070","FM-15","7",,,,,,,,,,,,,,,,,,,,,,,,,,,,"2009-05-18"
"74486454787","2020-04-13T19:53:00","FM-15","7",,,,,,,,,,,,,,,,,,,,,,,,,,,,,,,,,,,,,,"29.70","53","58","0.00",,,,"84","29.70","CLR:00","29.61","10.00","55","210",,"7",,,,,,,,,,,,,,,,,,,,,,,,,,,,,,,,,,,,,"MET09004/13/20 19:53:01 METAR KFRG 140053Z 21006KT 10SM CLR 14/12 A2970 RMK AO2 SLP057 T01440117","FM-15","7",,,,,,,,,,,,,,,,,,,,,,,,,,,,"2009-05-18"
"74486454787","2020-04-13T20:53:00","FM-15","7",,,,,,,,,,,,,,,,,,,,,,,,,,,,,,,,,,,,,,"29.75","51","56","0.00",,,,"84","29.74","CLR:00","29.66","10.00","53","210",,"6",,,,,,,,,,,,,,,,,,,,,,,,,,,,,,,,,,,,,"MET09004/13/20 20:53:01 METAR KFRG 140153Z 21005KT 10SM CLR 13/11 A2975 RMK AO2 SLP072 T01330106","FM-15","7",,,,,,,,,,,,,,,,,,,,,,,,,,,,"2009-05-18"
"74486454787","2020-04-13T21:53:00","FM-15","7",,,,,,,,,,,,,,,,,,,,,,,,,,,,,,,,,,,,,,"29.78","50","64","0.00",,"-0.14","1","60","29.78","CLR:00","29.69","10.00","56","270",,"13",,,,,,,,,,,,,,,,,,,,,,,,,,,,,,,,,,,,,"MET09604/13/20 21:53:01 METAR KFRG 140253Z 27011KT 10SM CLR 18/10 A2978 RMK AO2 SLP084 T01780100 51047","FM-15","7",,,,,,,,,,,,,,,,,,,,,,,,,,,,"2009-05-18"
"74486454787","2020-04-13T22:53:00","FM-15","7",,,,,,,,,,,,,,,,,,,,,,,,,,,,,,,,,,,,,,"29.82","47","63","0.00",,,,"56","29.82","CLR:00","29.73","10.00","54","290","23","15",,,,,,,,,,,,,,,,,,,,,,,,,,,,,,,,,,,,,"MET09304/13/20 22:53:01 METAR KFRG 140353Z 29013G20KT 10SM CLR 17/08 A2982 RMK AO2 SLP098 T01720083","FM-15","7",,,,,,,,,,,,,,,,,,,,,,,,,,,,"2009-05-18"
"74486454787","2020-04-13T23:53:00","FM-15","7",,,,,,,,,,,,,,,,,,,,,,,,,,,,,,,,,,,,,,"29.87","40","59","0.00",,,,"49","29.87","CLR:00","29.78","10.00","50","290","24","17",,,,,,,,,,,,,,,,,,,,,,,,,,,,,,,,,,,,,"MET10304/13/20 23:53:01 METAR KFRG 140453Z 29015G21KT 10SM CLR 15/04 A2987 RMK AO2 SLP114 T01500044 401780122","FM-15","7",,,,,,,,,,,,,,,,,,,,,,,,,,,,"2009-05-18"
"74486454787","2020-04-13T23:59:00","SOD  ","6",,,,,,,,,,,,,,,,"59",,,"29.66",,"20.0","0","10.2","6","64","54","170","55","1.15",,,"180","41","RA BR",,,,,,,,,,,,,,,,,,,,,,,,,,,,,,,,,,,,,,,,,,,,,,,,,,,,,,,,"SOD75324 HR PRECIPITATION (IN): 1.15 WEATHER(CODE):1,8  24 HR MAX TEMP (F):64 24 HR MAX TEMP TIME (LST):2252 24 HR MIN TEMP (F):54 24 HR MIN TEMP TIME (LST):0600 AVERAGE STATION PRESSURE(D):29.656 MINIMUM SEA LEVEL PRESSURE:29.42 TIME OF OCCURRENCE:1554 PEAK WIND SPEED (MPH):55  PEAK WIND DIR (DEG):170 PEAK WIND TIME (LST):1300  FASTEST 2MIN SPEED (MPH):41 FASTEST 2MIN DIR (DEG):180 FASTEST 2MIN TIME (LST):1250 AVERAGE WIND SPEED (MPH):20.0 24 HR AVG TEMP (F):59 HEATING DEGREE DAYS:  6 COOLING DEGREE DAYS:  0 LATEST DAY MAX TEMP (0700-1900 LST): 61 LATEST NIGHT MIN TEMP(1900-0800 LST):53 HOURLY INCREMENTAL PRECIPITATION VALUES (IN):0.02 0.03 0.05 0.04 0.21 0.08 0.05 0.07 0.08 0.17 0.07 0.00 0.04 0.07 0.17T    T    T     0.00 0.00 0.00 0.00 0.00 0.00","SOD  ","6",,,,,,,,,,,,,,,,,,,,,,,,,"0517","1832",,"2009-05-18"
"74486454787","2020-04-14T00:53:00","FM-15","7",,,,,,,,,,,,,,,,,,,,,,,,,,,,,,,,,,,,,,"29.90","39","55","0.00",,"-0.12","1","55","29.89","CLR:00","29.81","10.00","47","320","21","14",,,,,,,,,,,,,,,,,,,,,,,,,,,,,,,,,,,,,"MET11104/14/20 00:53:02 METAR KFRG 140553Z 32012G18KT 10SM CLR 13/04 A2990 RMK AO2 SLP123 T01280039 10178 20128 51039","FM-15","7",,,,,,,,,,,,,,,,,,,,,,,,,,,,"2009-05-18"
"74486454787","2020-04-14T01:53:00","FM-15","7",,,,,,,,,,,,,,,,,,,,,,,,,,,,,,,,,,,,,,"29.94","35","52","0.00",,,,"53","29.93","CLR:00","29.85","10.00","44","330","20","13",,,,,,,,,,,,,,,,,,,,,,,,,,,,,,,,,,,,,"MET09304/14/20 01:53:02 METAR KFRG 140653Z 33011G17KT 10SM CLR 11/02 A2994 RMK AO2 SLP137 T01110017","FM-15","7",,,,,,,,,,,,,,,,,,,,,,,,,,,,"2009-05-18"
"74486454787","2020-04-14T02:53:00","FM-15","7",,,,,,,,,,,,,,,,,,,,,,,,,,,,,,,,,,,,,,"29.95","32","50","0.00",,,,"50","29.95","CLR:00","29.86","10.00","42","320","23","13",,,,,,,,,,,,,,,,,,,,,,,,,,,,,,,,,,,,,"MET09304/14/20 02:53:02 METAR KFRG 140753Z 32011G20KT 10SM CLR 10/00 A2995 RMK AO2 SLP141 T01000000","FM-15","7",,,,,,,,,,,,,,,,,,,,,,,,,,,,"2009-05-18"
"74486454787","2020-04-14T03:53:00","FM-15","7",,,,,,,,,,,,,,,,,,,,,,,,,,,,,,,,,,,,,,"29.96","30","50","0.00",,"-0.06","1","46","29.96","CLR:00","29.87","10.00","41","330","25","16",,,,,,,,,,,,,,,,,,,,,,,,,,,,,,,,,,,,,"MET10004/14/20 03:53:02 METAR KFRG 140853Z 33014G22KT 10SM CLR 10/M01 A2996 RMK AO2 SLP145 T01001011 51021","FM-15","7",,,,,,,,,,,,,,,,,,,,,,,,,,,,"2009-05-18"
"74486454787","2020-04-14T04:53:00","FM-15","7",,,,,,,,,,,,,,,,,,,,,,,,,,,,,,,,,,,,,,"29.98","28","48","0.00",,,,"46","29.98","CLR:00","29.89","10.00","40","VRB","20","9",,,,,,,,,,,,,,,,,,,,,,,,,,,,,,,,,,,,,"MET09404/14/20 04:53:02 METAR KFRG 140953Z 33008G17KT 10SM CLR 09/M02 A2998 RMK AO2 SLP152 T00891022","FM-15","7",,,,,,,,,,,,,,,,,,,,,,,,,,,,"2009-05-18"
"74486454787","2020-04-14T05:53:00","FM-15","7",,,,,,,,,,,,,,,,,,,,,,,,,,,,,,,,,,,,,,"30.03","28","48","0.00",,,,"46","30.03","CLR:00","29.94","10.00","40","VRB","20","9",,,,,,,,,,,,,,,,,,,,,,,,,,,,,,,,,,,,,"MET09404/14/20 05:53:02 METAR KFRG 141053Z 32008G17KT 10SM CLR 09/M02 A3003 RMK AO2 SLP169 T00891022","FM-15","7",,,,,,,,,,,,,,,,,,,,,,,,,,,,"2009-05-18"
"74486454787","2020-04-14T06:53:00","FM-15","7",,,,,,,,,,,,,,,,,,,,,,,,,,,,,,,,,,,,,,"30.07","29","50","0.00",,"-0.11","3","44","30.07","CLR:00","29.98","10.00","41","320","18","10",,,,,,,,,,,,,,,,,,,,,,,,,,,,,,,,,,,,,"MET11804/14/20 06:53:02 METAR KFRG 141153Z 32009G16KT 10SM CLR 10/M02 A3007 RMK AO2 SLP182 70067 T01001017 10128 20089 53037","FM-15","7",,,,,,,,,,,,,,,,,,,,,,,,,,,,"2009-05-18"
"74486454787","2020-04-14T07:53:00","FM-15","7",,,,,,,,,,,,,,,,,,,,,,,,,,,,,,,,,,,,,,"30.07","27","51","0.00",,,,"39","30.07","CLR:00","29.98","10.00","41","310","22","11",,,,,,,,,,,,,,,,,,,,,,,,,,,,,,,,,,,,,"MET09404/14/20 07:53:02 METAR KFRG 141253Z 31010G19KT 10SM CLR 11/M03 A3007 RMK AO2 SLP184 T01061028","FM-15","7",,,,,,,,,,,,,,,,,,,,,,,,,,,,"2009-05-18"
"74486454787","2020-04-14T08:53:00","FM-15","7",,,,,,,,,,,,,,,,,,,,,,,,,,,,,,,,,,,,,,"30.07","27","52","0.00",,,,"38","30.07","CLR:00","29.98","10.00","42","VRB",,"11",,,,,,,,,,,,,,,,,,,,,,,,,,,,,,,,,,,,,"MET09104/14/20 08:53:02 METAR KFRG 141353Z 31010KT 10SM CLR 11/M03 A3007 RMK AO2 SLP182 T01111028","FM-15","7",,,,,,,,,,,,,,,,,,,,,,,,,,,,"2009-05-18"
"74486454787","2020-04-14T09:53:00","FM-15","7",,,,,,,,,,,,,,,,,,,,,,,,,,,,,,,,,,,,,,"30.08","28","53","0.00",,"-0.01","3","38","30.07","CLR:00","29.99","10.00","42","310",,"9",,,,,,,,,,,,,,,,,,,,,,,,,,,,,,,,,,,,,"MET09704/14/20 09:53:02 METAR KFRG 141453Z 31008KT 10SM CLR 12/M02 A3008 RMK AO2 SLP184 T01171022 53003","FM-15","7",,,,,,,,,,,,,,,,,,,,,,,,,,,,"2009-05-18"
"74486454787","2020-04-14T10:53:00","FM-15","7",,,,,,,,,,,,,,,,,,,,,,,,,,,,,,,,,,,,,,"30.09","27","53","0.00",,,,"37","30.09","CLR:00","30.00","10.00","42","340",,"11",,,,,,,,,,,,,,,,,,,,,,,,,,,,,,,,,,,,,"MET09104/14/20 10:53:02 METAR KFRG 141553Z 34010KT 10SM CLR 12/M03 A3009 RMK AO2 SLP189 T01171028","FM-15","7",,,,,,,,,,,,,,,,,,,,,,,,,,,,"2009-05-18"
"74486454787","2020-04-14T11:53:00","FM-15","7",,,,,,,,,,,,,,,,,,,,,,,,,,,,,,,,,,,,,,"30.06","26","53","0.00",,,,"35","30.06","FEW:02 110","29.97","10.00","42","350",,"9",,,,,,,,,,,,,,,,,,,,,,,,,,,,,,,,,,,,,"MET09404/14/20 11:53:02 METAR KFRG 141653Z 35008KT 10SM FEW110 12/M03 A3006 RMK AO2 SLP179 T01171033","FM-15","7",,,,,,,,,,,,,,,,,,,,,,,,,,,,"2009-05-18"
"74486454787","2020-04-14T12:53:00","FM-15","7",,,,,,,,,,,,,,,,,,,,,,,,,,,,,,,,,,,,,,"30.04","27","54","0.00",,"+0.04","8","35","30.04","FEW:02 120","29.95","10.00","43","000",,"0",,,,,,,,,,,,,,,,,,,,,,,,,,,,,,,,,,,,,"MET11204/14/20 12:53:02 METAR KFRG 141753Z 00000KT 10SM FEW120 12/M03 A3004 RMK AO2 SLP173 T01221028 10133 20100 58013","FM-15","7",,,,,,,,,,,,,,,,,,,,,,,,,,,,"2009-05-18"
"74486454787","2020-04-14T13:53:00","FM-15","7",,,,,,,,,,,,,,,,,,,,,,,,,,,,,,,,,,,,,,"30.02","28","58","0.00",,,,"32","30.02","FEW:02 95 SCT:04 120","29.93","10.00","45","340",,"5",,,,,,,,,,,,,,,,,,,,,,,,,,,,,,,,,,,,,"MET10104/14/20 13:53:02 METAR KFRG 141853Z 34004KT 10SM FEW095 SCT120 14/M02 A3002 RMK AO2 SLP166 T01441022","FM-15","7",,,,,,,,,,,,,,,,,,,,,,,,,,,,"2009-05-18"
"74486454787","2020-04-14T14:53:00","FM-15","7",,,,,,,,,,,,,,,,,,,,,,,,,,,,,,,,,,,,,,"30.00","28","57","0.00",,,,"33","30.00","SCT:04 100 BKN:07 120","29.91","10.00","44","VRB",,"6",,,,,,,,,,,,,,,,,,,,,,,,,,,,,,,,,,,,,"MET10104/14/20 14:53:02 METAR KFRG 141953Z VRB05KT 10SM SCT100 BKN120 14/M02 A3000 RMK AO2 SLP160 T01391022","FM-15","7",,,,,,,,,,,,,,,,,,,,,,,,,,,,"2009-05-18"
"74486454787","2020-04-14T15:53:00","FM-15","7",,,,,,,,,,,,,,,,,,,,,,,,,,,,,,,,,,,,,,"29.98","31","56","0.00",,"+0.06","8","39","29.98","CLR:00","29.89","10.00","45","200",,"14",,,,,,,,,,,,,,,,,,,,,,,,,,,,,,,,,,,,,"MET09704/14/20 15:53:02 METAR KFRG 142053Z 20012KT 10SM CLR 13/M01 A2998 RMK AO2 SLP151 T01331006 58021","FM-15","7",,,,,,,,,,,,,,,,,,,,,,,,,,,,"2009-05-18"
"74486454787","2020-04-14T16:53:00","FM-15","7",,,,,,,,,,,,,,,,,,,,,,,,,,,,,,,,,,,,,,"29.97","30","56","0.00",,,,"37","29.97","CLR:00","29.88","10.00","45","190",,"11",,,,,,,,,,,,,,,,,,,,,,,,,,,,,,,,,,,,,"MET09104/14/20 16:53:02 METAR KFRG 142153Z 19010KT 10SM CLR 13/M01 A2997 RMK AO2 SLP148 T01331011","FM-15","7",,,,,,,,,,,,,,,,,,,,,,,,,,,,"2009-05-18"
"74486454787","2020-04-14T17:53:00","FM-15","7",,,,,,,,,,,,,,,,,,,,,,,,,,,,,,,,,,,,,,"29.99","33","51","0.00",,,,"50","29.99","SCT:04 90","29.90","10.00","43","200",,"14",,,,,,,,,,,,,,,,,,,,,,,,,,,,,,,,,,,,,"MET09304/14/20 17:53:02 METAR KFRG 142253Z 20012KT 10SM SCT090 11/01 A2999 RMK AO2 SLP155 T01060006","FM-15","7",,,,,,,,,,,,,,,,,,,,,,,,,,,,"2009-05-18"
"74486454787","2020-04-14T18:53:00","FM-15","7",,,,,,,,,,,,,,,,,,,,,,,,,,,,,,,,,,,,,,"29.99","37","50","0.00",,"-0.01","3","61","29.99","SCT:04 90 OVC:08 120","29.90","10.00","44","230",,"11",,,,,,,,,,,,,,,,,,,,,,,,,,,,,,,,,,,,,"MET11804/14/20 18:53:02 METAR KFRG 142353Z 23010KT 10SM SCT090 OVC120 10/03 A2999 RMK AO2 SLP155 T01000028 10144 20100 53003","FM-15","7",,,,,,,,,,,,,,,,,,,,,,,,,,,,"2009-05-18"
"74486454787","2020-04-14T19:53:00","FM-15","7",,,,,,,,,,,,,,,,,,,,,,,,,,,,,,,,,,,,,,"30.01","34","50","0.00",,,,"54","30.01","OVC:08 80","29.92","10.00","43","220",,"11",,,,,,,,,,,,,,,,,,,,,,,,,,,,,,,,,,,,,"MET09304/14/20 19:53:01 METAR KFRG 150053Z 22010KT 10SM OVC080 10/01 A3001 RMK AO2 SLP162 T01000011","FM-15","7",,,,,,,,,,,,,,,,,,,,,,,,,,,,"2009-05-18"
"74486454787","2020-04-14T20:53:00","FM-15","7",,,,,,,,,,,,,,,,,,,,,,,,,,,,,,,,,,,,,,"30.01","35","50","0.00",,,,"57","30.01","OVC:08 90","29.92","10.00","43","250",,"11",,,,,,,,,,,,,,,,,,,,,,,,,,,,,,,,,,,,,"MET09304/14/20 20:53:01 METAR KFRG 150153Z 25010KT 10SM OVC090 10/02 A3001 RMK AO2 SLP162 T01000017","FM-15","7",,,,,,,,,,,,,,,,,,,,,,,,,,,,"2009-05-18"
"74486454787","2020-04-14T21:53:00","FM-15","7",,,,,,,,,,,,,,,,,,,,,,,,,,,,,,,,,,,,,,"29.99","38","49","0.00",,"-0.00","0","66","29.99","OVC:08 90","29.90","10.00","44","260",,"9",,,,,,,,,,,,,,,,,,,,,,,,,,,,,,,,,,,,,"MET09904/14/20 21:53:01 METAR KFRG 150253Z 26008KT 10SM OVC090 09/03 A2999 RMK AO2 SLP156 T00940033 50001","FM-15","7",,,,,,,,,,,,,,,,,,,,,,,,,,,,"2009-05-18"
"74486454787","2020-04-14T22:53:00","FM-15","7",,,,,,,,,,,,,,,,,,,,,,,,,,,,,,,,,,,,,,"29.99","38","50","0.00",,,,"63","29.98","FEW:02 85","29.90","10.00","44","240",,"9",,,,,,,,,,,,,,,,,,,,,,,,,,,,,,,,,,,,,"MET09304/14/20 22:53:01 METAR KFRG 150353Z 24008KT 10SM FEW085 10/03 A2999 RMK AO2 SLP154 T01000033","FM-15","7",,,,,,,,,,,,,,,,,,,,,,,,,,,,"2009-05-18"
"74486454787","2020-04-14T23:53:00","FM-15","7",,,,,,,,,,,,,,,,,,,,,,,,,,,,,,,,,,,,,,"29.97","39","50","0.00",,,,"66","29.97","OVC:08 80","29.88","10.00","45","280",,"7",,,,,,,,,,,,,,,,,,,,,,,,,,,,,,,,,,,,,"MET10304/14/20 23:53:01 METAR KFRG 150453Z 28006KT 10SM OVC080 10/04 A2997 RMK AO2 SLP150 T01000039 401440089","FM-15","7",,,,,,,,,,,,,,,,,,,,,,,,,,,,"2009-05-18"
"74486454787","2020-04-14T23:59:00","SOD  ","6",,,,,,,,,,,,,,,,"53",,,"29.91",,"10.3","0","3.9","12","58","48","330","28","0.00",,,"330","22",,,,,,,,,,,,,,,,,,,,,,,,,,,,,,,,,,,,,,,,,,,,,,,,,,,,,,,,,"SOD73024 HR PRECIPITATION (IN):0.00  24 HR MAX TEMP (F):58 24 HR MAX TEMP TIME (LST):1424 24 HR MIN TEMP (F):48 24 HR MIN TEMP TIME (LST):0603 AVERAGE STATION PRESSURE:29.905 MINIMUM SEA LEVEL PRESSURE:29.87 TIME OF OCCURRENCE:0024 PEAK WIND SPEED (MPH):28  PEAK WIND DIR (DEG):330 PEAK WIND TIME (LST):0125  FASTEST 2MIN SPEED (MPH):22 FASTEST 2MIN DIR (DEG):330 FASTEST 2MIN TIME (LST):0221 AVERAGE WIND SPEED (MPH):10.3 24 HR AVG TEMP (F):53 HEATING DEGREE DAYS:12  COOLING DEGREE DAYS:0   LATEST DAY MAX TEMP (0700-1900 LST):58  LATEST NIGHT MIN TEMP(1900-0800 LST):48 HOURLY INCREMENTAL PRECIPITATION VALUES (IN):.00 0.00 0.00 0.00 0.00 0.00 0.00 0.00 0.00 0.00 0.00 0.00 0.00 0.00 0.00 0.00 0.00 0.00 0.00 0.00 0.00 0.00 0.00 0.00","SOD  ","6",,,,,,,,,,,,,,,,,,,,,,,,,"0515","1833",,"2009-05-18"
"74486454787","2020-04-15T00:53:00","FM-15","7",,,,,,,,,,,,,,,,,,,,,,,,,,,,,,,,,,,,,,"29.96","34","50","0.00",,"+0.03","8","54","29.96","BKN:07 70 OVC:08 90","29.87","10.00","43","300","21","14",,,,,,,,,,,,,,,,,,,,,,,,,,,,,,,,,,,,,"MET12104/15/20 00:53:02 METAR KFRG 150553Z 30012G18KT 10SM BKN070 OVC090 10/01 A2996 RMK AO2 SLP145 T01000011 10100 20094 58011","FM-15","7",,,,,,,,,,,,,,,,,,,,,,,,,,,,"2009-05-18"
"74486454787","2020-04-15T01:53:00","FM-15","7",,,,,,,,,,,,,,,,,,,,,,,,,,,,,,,,,,,,,,"29.95","34","48","T","-RA:02 |RA |RA",,,"58","29.95","BKN:07 38 OVC:08 45","29.86","10.00","42","290",,"9",,,,,,,,,,,,,,,,,,,,,,,,,,,,,,,,,,,,,"MET11604/15/20 01:53:02 METAR KFRG 150653Z 29008KT 10SM -RA BKN038 OVC045 09/01 A2995 RMK AO2 RAB11 SLP143 P0000 T00890011","FM-15","7",,,,,,,,,,,,,,,,,,,,,,,,,,,,"2009-05-18"
"74486454787","2020-04-15T02:53:00","FM-15","7",,,,,,,,,,,,,,,,,,,,,,,,,,,,,,,,,,,,,,"29.94","34","47","T",,,,"61","29.94","SCT:04 36 OVC:08 44","29.85","10.00","41","330",,"8",,,,,,,,,,,,,,,,,,,,,,,,,,,,,,,,,,,,,"MET11204/15/20 02:53:02 METAR KFRG 150753Z 33007KT 10SM SCT036 OVC044 08/01 A2994 RMK AO2 RAE28 SLP138 P0000 T00830011","FM-15","7",,,,,,,,,,,,,,,,,,,,,,,,,,,,"2009-05-18"
"74486454787","2020-04-15T03:34:00","FM-16","7",,,,,,,,,,,,,,,,,,,,,,,,,,,,,,,,,,,,,,"29.95","34","44","0.01","-RA:02 |RA |RA",,,"68",,"OVC:08 28","29.86","10.00","40","320","16","7",,,,,,,,,,,,,,,,,,,,,,,,,,,,,,,,,,,,,"MET10704/15/20 03:34:02 SPECI KFRG 150834Z 32006G14KT 10SM -RA OVC028 07/01 A2995 RMK AO2 RAB0754 P0001 T00670011","FM-16","7",,,,,,,,,,,,,,,,,,,,,,,,,,,,"2009-05-18"
"74486454787","2020-04-15T03:53:00","FM-15","7",,,,,,,,,,,,,,,,,,,,,,,,,,,,,,,,,,,,,,"29.97","34","43","0.02","-RA:02 |RA |RA","-0.01","3","71","29.97","OVC:08 26","29.88","10.00","39","310","17","11",,,,,,,,,,,,,,,,,,,,,,,,,,,,,,,,,,,,,"MET12604/15/20 03:53:02 METAR KFRG 150853Z 31010G15KT 10SM -RA OVC026 06/01 A2997 RMK AO2 RAB0754 SLP150 P0002 60002 T00610011 53005","FM-15","7",,,,,,,,,,,,,,,,,,,,,,,,,,,,"2009-05-18"
"74486454787","2020-04-15T04:10:00","FM-16","7",,,,,,,,,,,,,,,,,,,,,,,,,,,,,,,,,,,,,,"29.95","33","44","T","-RA:02 |RA |RA",,,"65",,"OVC:08 38","29.86","10.00","39","320",,"9",,,,,,,,,,,,,,,,,,,,,,,,,,,,,,,,,,,,,"MET09604/15/20 04:10:02 SPECI KFRG 150910Z 32008KT 10SM -RA OVC038 07/01 A2995 RMK AO2 P0000 T00670006","FM-16","7",,,,,,,,,,,,,,,,,,,,,,,,,,,,"2009-05-18"
"74486454787","2020-04-15T04:53:00","FM-15","7",,,,,,,,,,,,,,,,,,,,,,,,,,,,,,,,,,,,,,"29.96","33","44","T",,,,"65","29.96","OVC:08 44","29.87","10.00","39","310",,"3",,,,,,,,,,,,,,,,,,,,,,,,,,,,,,,,,,,,,"MET10504/15/20 04:53:02 METAR KFRG 150953Z 31003KT 10SM OVC044 07/01 A2996 RMK AO2 RAE13 SLP146 P0000 T00670006","FM-15","7",,,,,,,,,,,,,,,,,,,,,,,,,,,,"2009-05-18"
"74486454787","2020-04-15T05:53:00","FM-15","7",,,,,,,,,,,,,,,,,,,,,,,,,,,,,,,,,,,,,,"29.97","32","45","0.00",,,,"61","29.97","OVC:08 85","29.88","10.00","39","300",,"6",,,,,,,,,,,,,,,,,,,,,,,,,,,,,,,,,,,,,"MET09304/15/20 05:53:02 METAR KFRG 151053Z 30005KT 10SM OVC085 07/00 A2997 RMK AO2 SLP150 T00720000","FM-15","7",,,,,,,,,,,,,,,,,,,,,,,,,,,,"2009-05-18"
"74486454787","2020-04-15T06:53:00","FM-15","7",,,,,,,,,,,,,,,,,,,,,,,,,,,,,,,,,,,,,,"29.97","31","44","0.00",,"+0.01","6","60","29.96","BKN:07 33 BKN:07 42 OVC:08 95","29.88","10.00","39","340","22","16",,,,,,,,,,,,,,,,,,,,,,,,,,,,,,,,,,,,,"MET14104/15/20 06:53:02 METAR KFRG 151153Z 34014G19KT 10SM BKN033 BKN042 OVC095 07/M01 A2997 RMK AO2 SLP147 60002 70002 T00671006 10100 20061 56003","FM-15","7",,,,,,,,,,,,,,,,,,,,,,,,,,,,"2009-05-18"
"74486454787","2020-04-15T07:06:00","FM-16","7",,,,,,,,,,,,,,,,,,,,,,,,,,,,,,,,,,,,,,"29.98","32","43",,,,,"65",,"BKN:07 27 OVC:08 33","29.89","10.00","38","360","22","10",,,,,,,,,,,,,,,,,,,,,,,,,,,,,,,,,,,,,"MET09604/15/20 07:06:02 SPECI KFRG 151206Z 36009G19KT 10SM BKN027 OVC033 06/00 A2998 RMK AO2 T00610000","FM-16","7",,,,,,,,,,,,,,,,,,,,,,,,,,,,"2009-05-18"
"74486454787","2020-04-15T07:20:00","FM-16","7",,,,,,,,,,,,,,,,,,,,,,,,,,,,,,,,,,,,,,"29.96","32","43",,,,,"65",,"SCT:04 26 OVC:08 37","29.87","10.00","38","020",,"13",,,,,,,,,,,,,,,,,,,,,,,,,,,,,,,,,,,,,"MET09304/15/20 07:20:02 SPECI KFRG 151220Z 02011KT 10SM SCT026 OVC037 06/00 A2996 RMK AO2 T00610000","FM-16","7",,,,,,,,,,,,,,,,,,,,,,,,,,,,"2009-05-18"
"74486454787","2020-04-15T07:53:00","FM-15","7",,,,,,,,,,,,,,,,,,,,,,,,,,,,,,,,,,,,,,"29.97","32","43","0.00",,,,"65","29.96","OVC:08 45","29.88","10.00","38","360",,"15",,,,,,,,,,,,,,,,,,,,,,,,,,,,,,,,,,,,,"MET09304/15/20 07:53:02 METAR KFRG 151253Z 36013KT 10SM OVC045 06/00 A2997 RMK AO2 SLP147 T00610000","FM-15","7",,,,,,,,,,,,,,,,,,,,,,,,,,,,"2009-05-18"
"74486454787","2020-04-15T08:53:00","FM-15","7",,,,,,,,,,,,,,,,,,,,,,,,,,,,,,,,,,,,,,"29.98","25","44","0.00",,,,"47","29.98","FEW:02 50 SCT:04 120","29.89","10.00","37","350",,"14",,,,,,,,,,,,,,,,,,,,,,,,,,,,,,,,,,,,,"MET10804/15/20 08:53:02 METAR KFRG 151353Z 35012KT 10SM FEW050 SCT120 07/M04 A2998 RMK AO2 PRESRR SLP151 T00671039","FM-15","7",,,,,,,,,,,,,,,,,,,,,,,,,,,,"2009-05-18"
"74486454787","2020-04-15T09:53:00","FM-15","7",,,,,,,,,,,,,,,,,,,,,,,,,,,,,,,,,,,,,,"29.96","27","45","0.00",,"+0.00","8","49","29.96","CLR:00","29.87","10.00","38","350",,"13",,,,,,,,,,,,,,,,,,,,,,,,,,,,,,,,,,,,,"MET09704/15/20 09:53:02 METAR KFRG 151453Z 35011KT 10SM CLR 07/M03 A2996 RMK AO2 SLP146 T00721028 58001","FM-15","7",,,,,,,,,,,,,,,,,,,,,,,,,,,,"2009-05-18"
"74486454787","2020-04-15T10:53:00","FM-15","7",,,,,,,,,,,,,,,,,,,,,,,,,,,,,,,,,,,,,,"29.95","25","48","0.00",,,,"41","29.95","CLR:00","29.86","10.00","39","VRB","20","8",,,,,,,,,,,,,,,,,,,,,,,,,,,,,,,,,,,,,"MET09404/15/20 10:53:02 METAR KFRG 151553Z 34007G17KT 10SM CLR 09/M04 A2995 RMK AO2 SLP141 T00891039","FM-15","7",,,,,,,,,,,,,,,,,,,,,,,,,,,,"2009-05-18"
"74486454787","2020-04-15T11:53:00","FM-15","7",,,,,,,,,,,,,,,,,,,,,,,,,,,,,,,,,,,,,,"29.92","24","50","0.00",,,,"36","29.93","CLR:00","29.83","10.00","40","VRB",,"10",,,,,,,,,,,,,,,,,,,,,,,,,,,,,,,,,,,,,"MET09104/15/20 11:53:02 METAR KFRG 151653Z 33009KT 10SM CLR 10/M04 A2992 RMK AO2 SLP134 T01001044","FM-15","7",,,,,,,,,,,,,,,,,,,,,,,,,,,,"2009-05-18"
"74486454787","2020-04-15T12:53:00","FM-15","7",,,,,,,,,,,,,,,,,,,,,,,,,,,,,,,,,,,,,,"29.92","21","51","0.00",,"+0.04","6","31","29.92","FEW:02 70","29.83","10.00","39","VRB",,"10",,,,,,,,,,,,,,,,,,,,,,,,,,,,,,,,,,,,,"MET11204/15/20 12:53:02 METAR KFRG 151753Z 29009KT 10SM FEW070 11/M06 A2992 RMK AO2 SLP131 T01061061 10111 20061 56015","FM-15","7",,,,,,,,,,,,,,,,,,,,,,,,,,,,"2009-05-18"
"74486454787","2020-04-15T13:53:00","FM-15","7",,,,,,,,,,,,,,,,,,,,,,,,,,,,,,,,,,,,,,"29.90","16","51","0.00",,,,"25","29.90","CLR:00","29.81","10.00","38","310","21","13",,,,,,,,,,,,,,,,,,,,,,,,,,,,,,,,,,,,,"MET09404/15/20 13:53:02 METAR KFRG 151853Z 31011G18KT 10SM CLR 11/M09 A2990 RMK AO2 SLP125 T01061089","FM-15","7",,,,,,,,,,,,,,,,,,,,,,,,,,,,"2009-05-18"
"74486454787","2020-04-15T14:53:00","FM-15","7",,,,,,,,,,,,,,,,,,,,,,,,,,,,,,,,,,,,,,"29.89","18","53","0.00",,,,"25","29.89","SCT:04 85","29.80","10.00","40","300","21","15",,,,,,,,,,,,,,,,,,,,,,,,,,,,,,,,,,,,,"MET09704/15/20 14:53:02 METAR KFRG 151953Z 30013G18KT 10SM SCT085 12/M08 A2989 RMK AO2 SLP121 T01171078","FM-15","7",,,,,,,,,,,,,,,,,,,,,,,,,,,,"2009-05-18"
"74486454787","2020-04-15T15:53:00","FM-15","7",,,,,,,,,,,,,,,,,,,,,,,,,,,,,,,,,,,,,,"29.88","16","53","0.00",,"+0.04","6","23","29.88","CLR:00","29.79","10.00","39","320","20","9",,,,,,,,,,,,,,,,,,,,,,,,,,,,,,,,,,,,,"MET10004/15/20 15:53:02 METAR KFRG 152053Z 32008G17KT 10SM CLR 12/M09 A2988 RMK AO2 SLP119 T01171089 56012","FM-15","7",,,,,,,,,,,,,,,,,,,,,,,,,,,,"2009-05-18"
"74486454787","2020-04-15T16:53:00","FM-15","7",,,,,,,,,,,,,,,,,,,,,,,,,,,,,,,,,,,,,,"29.89","16","52","0.00",,,,"24","29.89","CLR:00","29.80","10.00","39","VRB",,"6",,,,,,,,,,,,,,,,,,,,,,,,,,,,,,,,,,,,,"MET09104/15/20 16:53:02 METAR KFRG 152153Z VRB05KT 10SM CLR 11/M09 A2989 RMK AO2 SLP121 T01111089","FM-15","7",,,,,,,,,,,,,,,,,,,,,,,,,,,,"2009-05-18"
"74486454787","2020-04-15T17:53:00","FM-15","7",,,,,,,,,,,,,,,,,,,,,,,,,,,,,,,,,,,,,,"29.90","13","51","0.00",,,,"22","29.90","FEW:02 90","29.81","10.00","37","VRB",,"6",,,,,,,,,,,,,,,,,,,,,,,,,,,,,,,,,,,,,"MET09404/15/20 17:53:02 METAR KFRG 152253Z VRB05KT 10SM FEW090 11/M11 A2990 RMK AO2 SLP125 T01061106","FM-15","7",,,,,,,,,,,,,,,,,,,,,,,,,,,,"2009-05-18"
"74486454787","2020-04-15T18:53:00","FM-15","7",,,,,,,,,,,,,,,,,,,,,,,,,,,,,,,,,,,,,,"29.93","13","50","0.00",,"-0.05","3","22","29.93","CLR:00","29.84","10.00","37","330",,"5",,,,,,,,,,,,,,,,,,,,,,,,,,,,,,,,,,,,,"MET10904/15/20 18:53:02 METAR KFRG 152353Z 33004KT 10SM CLR 10/M11 A2993 RMK AO2 SLP135 T01001106 10122 20094 53016","FM-15","7",,,,,,,,,,,,,,,,,,,,,,,,,,,,"2009-05-18"
"74486454787","2020-04-15T19:53:00","FM-15","7",,,,,,,,,,,,,,,,,,,,,,,,,,,,,,,,,,,,,,"29.96","21","45","0.00",,,,"39","29.96","CLR:00","29.87","10.00","36","180",,"7",,,,,,,,,,,,,,,,,,,,,,,,,,,,,,,,,,,,,"MET09104/15/20 19:53:01 METAR KFRG 160053Z 18006KT 10SM CLR 07/M06 A2996 RMK AO2 SLP147 T00721061","FM-15","7",,,,,,,,,,,,,,,,,,,,,,,,,,,,"2009-05-18"
"74486454787","2020-04-15T20:53:00","FM-15","7",,,,,,,,,,,,,,,,,,,,,,,,,,,,,,,,,,,,,,"29.98","34s","46","0.00",,,,"63","29.98","CLR:00","29.89","10.00","41","200",,"8",,,,,,,,,,,,,,,,,,,,,,,,,,,,,,,,,,,,,"MET09004/15/20 20:53:01 METAR KFRG 160153Z 20007KT 10SM CLR 08/01 A2998 RMK AO2 SLP151 T00780011","FM-15","7",,,,,,,,,,,,,,,,,,,,,,,,,,,,"2009-05-18"
"74486454787","2020-04-15T21:53:00","FM-15","7",,,,,,,,,,,,,,,,,,,,,,,,,,,,,,,,,,,,,,"29.97","34s","45","0.00",,"-0.04","0","66","29.97","CLR:00","29.88","10.00","40","210",,"7",,,,,,,,,,,,,,,,,,,,,,,,,,,,,,,,,,,,,"MET09604/15/20 21:53:01 METAR KFRG 160253Z 21006KT 10SM CLR 07/01 A2997 RMK AO2 SLP150 T00720011 50015","FM-15","7",,,,,,,,,,,,,,,,,,,,,,,,,,,,"2009-05-18"
"74486454787","2020-04-15T22:53:00","FM-15","7",,,,,,,,,,,,,,,,,,,,,,,,,,,,,,,,,,,,,,"29.98","29","46","0.00",,,,"51","29.98","CLR:00","29.89","10.00","39","220",,"8",,,,,,,,,,,,,,,,,,,,,,,,,,,,,,,,,,,,,"MET09104/15/20 22:53:01 METAR KFRG 160353Z 22007KT 10SM CLR 08/M02 A2998 RMK AO2 SLP151 T00781017","FM-15","7",,,,,,,,,,,,,,,,,,,,,,,,,,,,"2009-05-18"
"74486454787","2020-04-15T23:53:00","FM-15","7",,,,,,,,,,,,,,,,,,,,,,,,,,,,,,,,,,,,,,"29.98","26","46","0.00",,,,"46","29.98","CLR:00","29.89","10.00","38","240",,"8",,,,,,,,,,,,,,,,,,,,,,,,,,,,,,,,,,,,,"MET10104/15/20 23:53:01 METAR KFRG 160453Z 24007KT 10SM CLR 08/M03 A2998 RMK AO2 SLP151 T00781033 401220061","FM-15","7",,,,,,,,,,,,,,,,,,,,,,,,,,,,"2009-05-18"
"74486454787","2020-04-15T23:59:00","SOD  ","6",,,,,,,,,,,,,,,,"49",,,"29.85",,"9.5","0","-0.5","16","54","43","360","27","0.02",,,"010","18","RA",,,,,,,,,,,,,,,,,,,,,,,,,,,,,,,,,,,,,,,,,,,,,,,,,,,,,,,,"SOD73024 HR PRECIPITATION (IN):0.02  24 HR MAX TEMP (F):54 24 HR MAX TEMP TIME (LST):1507 24 HR MIN TEMP (F):43 24 HR MIN TEMP TIME (LST):0813 AVERAGE STATION PRESSURE:29.850 MINIMUM SEA LEVEL PRESSURE:29.88 TIME OF OCCURRENCE:1623 PEAK WIND SPEED (MPH):27  PEAK WIND DIR (DEG):360 PEAK WIND TIME (LST):0654  FASTEST 2MIN SPEED (MPH):18 FASTEST 2MIN DIR (DEG):10  FASTEST 2MIN TIME (LST):0827 AVERAGE WIND SPEED (MPH):9.5  24 HR AVG TEMP (F):49 HEATING DEGREE DAYS:16  COOLING DEGREE DAYS:0   LATEST DAY MAX TEMP (0700-1900 LST):54  LATEST NIGHT MIN TEMP(1900-0800 LST):43 HOURLY INCREMENTAL PRECIPITATION VALUES (IN):.00 T    T    0.02 T    0.00 0.00 0.00 0.00 0.00 0.00 0.00 0.00 0.00 0.00 0.00 0.00 0.00 0.00 0.00 0.00 0.00 0.00 0.00","SOD  ","6",,,,,,,,,,,,,,,,,,,,,,,,,"0514","1834",,"2009-05-18"
"74486454787","2020-04-16T00:53:00","FM-15","7",,,,,,,,,,,,,,,,,,,,,,,,,,,,,,,,,,,,,,"29.97","26","46","0.00",,"+0.00","8","46","29.97","CLR:00","29.88","10.00","38","230",,"10",,,,,,,,,,,,,,,,,,,,,,,,,,,,,,,,,,,,,"MET10904/16/20 00:53:02 METAR KFRG 160553Z 23009KT 10SM CLR 08/M03 A2997 RMK AO2 SLP149 T00781033 10100 20067 58001","FM-15","7",,,,,,,,,,,,,,,,,,,,,,,,,,,,"2009-05-18"
"74486454787","2020-04-16T01:53:00","FM-15","7",,,,,,,,,,,,,,,,,,,,,,,,,,,,,,,,,,,,,,"29.97","27","47","0.00",,,,"46","29.96","OVC:08 95","29.88","10.00","39","230",,"10",,,,,,,,,,,,,,,,,,,,,,,,,,,,,,,,,,,,,"MET09404/16/20 01:53:02 METAR KFRG 160653Z 23009KT 10SM OVC095 08/M03 A2997 RMK AO2 SLP147 T00831028","FM-15","7",,,,,,,,,,,,,,,,,,,,,,,,,,,,"2009-05-18"
"74486454787","2020-04-16T02:53:00","FM-15","7",,,,,,,,,,,,,,,,,,,,,,,,,,,,,,,,,,,,,,"29.96","25","48","0.00",,,,"41","29.96","FEW:02 80 OVC:08 100","29.87","10.00","39","240","22","15",,,,,,,,,,,,,,,,,,,,,,,,,,,,,,,,,,,,,"MET10404/16/20 02:53:02 METAR KFRG 160753Z 24013G19KT 10SM FEW080 OVC100 09/M04 A2996 RMK AO2 SLP147 T00891039","FM-15","7",,,,,,,,,,,,,,,,,,,,,,,,,,,,"2009-05-18"
"74486454787","2020-04-16T03:53:00","FM-15","7",,,,,,,,,,,,,,,,,,,,,,,,,,,,,,,,,,,,,,"29.97","26","47","0.00",,"-0.01","3","44","29.97","FEW:02 70 BKN:07 100 OVC:08 120","29.88","10.00","39","260","21","16",,,,,,,,,,,,,,,,,,,,,,,,,,,,,,,,,,,,,"MET11704/16/20 03:53:02 METAR KFRG 160853Z 26014G18KT 10SM FEW070 BKN100 OVC120 08/M03 A2997 RMK AO2 SLP150 T00831033 53002","FM-15","7",,,,,,,,,,,,,,,,,,,,,,,,,,,,"2009-05-18"
"74486454787","2020-04-16T04:53:00","FM-15","7",,,,,,,,,,,,,,,,,,,,,,,,,,,,,,,,,,,,,,"29.98","26","46","0.00",,,,"46","29.98","BKN:07 80 OVC:08 100","29.89","10.00","38","260",,"10",,,,,,,,,,,,,,,,,,,,,,,,,,,,,,,,,,,,,"MET10104/16/20 04:53:02 METAR KFRG 160953Z 26009KT 10SM BKN080 OVC100 08/M03 A2998 RMK AO2 SLP152 T00781033","FM-15","7",,,,,,,,,,,,,,,,,,,,,,,,,,,,"2009-05-18"
"74486454787","2020-04-16T05:53:00","FM-15","7",,,,,,,,,,,,,,,,,,,,,,,,,,,,,,,,,,,,,,"30.01","28","46","0.00",,,,"50","30.01","OVC:08 85","29.92","10.00","39","290","23","14",,,,,,,,,,,,,,,,,,,,,,,,,,,,,,,,,,,,,"MET09704/16/20 05:53:02 METAR KFRG 161053Z 29012G20KT 10SM OVC085 08/M02 A3001 RMK AO2 SLP162 T00781022","FM-15","7",,,,,,,,,,,,,,,,,,,,,,,,,,,,"2009-05-18"
"74486454787","2020-04-16T06:53:00","FM-15","7",,,,,,,,,,,,,,,,,,,,,,,,,,,,,,,,,,,,,,"30.04","29","45","0.00",,"-0.06","3","54","30.04","SCT:04 38 SCT:04 50 BKN:07 70","29.95","10.00","38","300","26","16",,,,,,,,,,,,,,,,,,,,,,,,,,,,,,,,,,,,,"MET12904/16/20 06:53:02 METAR KFRG 161153Z 30014G23KT 10SM SCT038 SCT050 BKN070 07/M02 A3004 RMK AO2 SLP172 T00721017 10089 20072 53022","FM-15","7",,,,,,,,,,,,,,,,,,,,,,,,,,,,"2009-05-18"
"74486454787","2020-04-16T07:53:00","FM-15","7",,,,,,,,,,,,,,,,,,,,,,,,,,,,,,,,,,,,,,"30.06","29","44","0.00",,,,"55","30.06","FEW:02 30 SCT:04 35","29.97","10.00","38","350","22","16",,,,,,,,,,,,,,,,,,,,,,,,,,,,,,,,,,,,,"MET10404/16/20 07:53:02 METAR KFRG 161253Z 35014G19KT 10SM FEW030 SCT035 07/M02 A3006 RMK AO2 SLP178 T00671017","FM-15","7",,,,,,,,,,,,,,,,,,,,,,,,,,,,"2009-05-18"
"74486454787","2020-04-16T08:53:00","FM-15","7",,,,,,,,,,,,,,,,,,,,,,,,,,,,,,,,,,,,,,"30.08","28","46","0.00",,,,"50","30.08","SCT:04 30","29.99","10.00","39","340","21","13",,,,,,,,,,,,,,,,,,,,,,,,,,,,,,,,,,,,,"MET09704/16/20 08:53:02 METAR KFRG 161353Z 34011G18KT 10SM SCT030 08/M02 A3008 RMK AO2 SLP185 T00781022","FM-15","7",,,,,,,,,,,,,,,,,,,,,,,,,,,,"2009-05-18"
"74486454787","2020-04-16T09:53:00","FM-15","7",,,,,,,,,,,,,,,,,,,,,,,,,,,,,,,,,,,,,,"30.07","21","47","0.00",,"-0.03","0","36","30.07","FEW:02 50","29.98","10.00","37","310","21","14",,,,,,,,,,,,,,,,,,,,,,,,,,,,,,,,,,,,,"MET10304/16/20 09:53:02 METAR KFRG 161453Z 31012G18KT 10SM FEW050 08/M06 A3007 RMK AO2 SLP182 T00831061 50010","FM-15","7",,,,,,,,,,,,,,,,,,,,,,,,,,,,"2009-05-18"
"74486454787","2020-04-16T10:53:00","FM-15","7",,,,,,,,,,,,,,,,,,,,,,,,,,,,,,,,,,,,,,"30.08","20","48","0.00",,,,"33","30.08","BKN:07 65","29.99","10.00","37","290","29","17",,,,,,,,,,,,,,,,,,,,,,,,,,,,,,,,,,,,,"MET11504/16/20 10:53:02 METAR KFRG 161553Z 29015G25KT 10SM BKN065 09/M07 A3008 RMK AO2 PK WND 29028/1543 SLP185 T00891067","FM-15","7",,,,,,,,,,,,,,,,,,,,,,,,,,,,"2009-05-18"
"74486454787","2020-04-16T11:53:00","FM-15","7",,,,,,,,,,,,,,,,,,,,,,,,,,,,,,,,,,,,,,"30.07","18","48","0.00",,,,"30","30.07","BKN:07 70","29.98","10.00","37","270","24","18",,,,,,,,,,,,,,,,,,,,,,,,,,,,,,,,,,,,,"MET09704/16/20 11:53:02 METAR KFRG 161653Z 27016G21KT 10SM BKN070 09/M08 A3007 RMK AO2 SLP182 T00891078","FM-15","7",,,,,,,,,,,,,,,,,,,,,,,,,,,,"2009-05-18"
"74486454787","2020-04-16T12:53:00","FM-15","7",,,,,,,,,,,,,,,,,,,,,,,,,,,,,,,,,,,,,,"30.07","15","47","0.00",,"-0.00","1","28","30.07","BKN:07 75","29.98","10.00","36","330","30","21",,,,,,,,,,,,,,,,,,,,,,,,,,,,,,,,,,,,,"MET13304/16/20 12:53:02 METAR KFRG 161753Z 33018G26KT 10SM BKN075 08/M09 A3007 RMK AO2 PK WND 32026/1752 SLP183 T00831094 10100 20061 51001","FM-15","7",,,,,,,,,,,,,,,,,,,,,,,,,,,,"2009-05-18"
"74486454787","2020-04-16T13:53:00","FM-15","7",,,,,,,,,,,,,,,,,,,,,,,,,,,,,,,,,,,,,,"30.08","14","50","0.00",,,,"24","30.08","BKN:07 80","29.99","10.00","37","280","29","18",,,,,,,,,,,,,,,,,,,,,,,,,,,,,,,,,,,,,"MET11504/16/20 13:53:02 METAR KFRG 161853Z 28016G25KT 10SM BKN080 10/M10 A3008 RMK AO2 PK WND 33027/1806 SLP185 T01001100","FM-15","7",,,,,,,,,,,,,,,,,,,,,,,,,,,,"2009-05-18"
"74486454787","2020-04-16T14:53:00","FM-15","7",,,,,,,,,,,,,,,,,,,,,,,,,,,,,,,,,,,,,,"30.07","14","50","0.00",,,,"24","30.07","BKN:07 85","29.98","10.00","37","300","26","14",,,,,,,,,,,,,,,,,,,,,,,,,,,,,,,,,,,,,"MET11504/16/20 14:53:02 METAR KFRG 161953Z 30012G23KT 10SM BKN085 10/M10 A3007 RMK AO2 PK WND 28026/1903 SLP183 T01001100","FM-15","7",,,,,,,,,,,,,,,,,,,,,,,,,,,,"2009-05-18"
"74486454787","2020-04-16T15:53:00","FM-15","7",,,,,,,,,,,,,,,,,,,,,,,,,,,,,,,,,,,,,,"30.08","11","48","0.00",,"-0.01","3","22","30.09","SCT:04 85","29.99","10.00","35","330","28","17",,,,,,,,,,,,,,,,,,,,,,,,,,,,,,,,,,,,,"MET12104/16/20 15:53:02 METAR KFRG 162053Z 33015G24KT 10SM SCT085 09/M12 A3008 RMK AO2 PK WND 32029/2002 SLP188 T00891117 53004","FM-15","7",,,,,,,,,,,,,,,,,,,,,,,,,,,,"2009-05-18"
"74486454787","2020-04-16T16:53:00","FM-15","7",,,,,,,,,,,,,,,,,,,,,,,,,,,,,,,,,,,,,,"30.10","11","48","0.00",,,,"22","30.09","CLR:00","30.01","10.00","35","300","24","13",,,,,,,,,,,,,,,,,,,,,,,,,,,,,,,,,,,,,"MET09404/16/20 16:53:02 METAR KFRG 162153Z 30011G21KT 10SM CLR 09/M12 A3010 RMK AO2 SLP191 T00891117","FM-15","7",,,,,,,,,,,,,,,,,,,,,,,,,,,,"2009-05-18"
"74486454787","2020-04-16T17:53:00","FM-15","7",,,,,,,,,,,,,,,,,,,,,,,,,,,,,,,,,,,,,,"30.10","12","47","0.00",,,,"24","30.10","FEW:02 90","30.01","10.00","35","330",,"10",,,,,,,,,,,,,,,,,,,,,,,,,,,,,,,,,,,,,"MET09404/16/20 17:53:02 METAR KFRG 162253Z 33009KT 10SM FEW090 08/M11 A3010 RMK AO2 SLP192 T00831111","FM-15","7",,,,,,,,,,,,,,,,,,,,,,,,,,,,"2009-05-18"
"74486454787","2020-04-16T18:53:00","FM-15","7",,,,,,,,,,,,,,,,,,,,,,,,,,,,,,,,,,,,,,"30.12","13","46","0.00",,"-0.03","3","26","30.11","BKN:07 100","30.03","10.00","35","310",,"6",,,,,,,,,,,,,,,,,,,,,,,,,,,,,,,,,,,,,"MET11204/16/20 18:53:02 METAR KFRG 162353Z 31005KT 10SM BKN100 08/M11 A3012 RMK AO2 SLP198 T00781106 10106 20072 53010","FM-15","7",,,,,,,,,,,,,,,,,,,,,,,,,,,,"2009-05-18"
"74486454787","2020-04-16T19:53:00","FM-15","7",,,,,,,,,,,,,,,,,,,,,,,,,,,,,,,,,,,,,,"30.15","17","46","0.00",,,,"31","30.14","BKN:07 75","30.06","10.00","36","280","23","18",,,,,,,,,,,,,,,,,,,,,,,,,,,,,,,,,,,,,"MET09704/16/20 19:53:01 METAR KFRG 170053Z 28016G20KT 10SM BKN075 08/M08 A3015 RMK AO2 SLP208 T00781083","FM-15","7",,,,,,,,,,,,,,,,,,,,,,,,,,,,"2009-05-18"
"74486454787","2020-04-16T20:53:00","FM-15","7",,,,,,,,,,,,,,,,,,,,,,,,,,,,,,,,,,,,,,"30.18","23","43","0.00",,,,"45","30.18","CLR:00","30.09","10.00","35","290",,"14",,,,,,,,,,,,,,,,,,,,,,,,,,,,,,,,,,,,,"MET09104/16/20 20:53:01 METAR KFRG 170153Z 29012KT 10SM CLR 06/M05 A3018 RMK AO2 SLP219 T00611050","FM-15","7",,,,,,,,,,,,,,,,,,,,,,,,,,,,"2009-05-18"
"74486454787","2020-04-16T21:53:00","FM-15","7",,,,,,,,,,,,,,,,,,,,,,,,,,,,,,,,,,,,,,"30.20","23","42","0.00",,"-0.09","1","47","30.20","SCT:04 75","30.11","10.00","35","290","25","13",,,,,,,,,,,,,,,,,,,,,,,,,,,,,,,,,,,,,"MET10304/16/20 21:53:01 METAR KFRG 170253Z 29011G22KT 10SM SCT075 06/M05 A3020 RMK AO2 SLP227 T00561050 51029","FM-15","7",,,,,,,,,,,,,,,,,,,,,,,,,,,,"2009-05-18"
"74486454787","2020-04-16T22:53:00","FM-15","7",,,,,,,,,,,,,,,,,,,,,,,,,,,,,,,,,,,,,,"30.23","23","40","0.00",,,,"51","30.23","CLR:00","30.14","10.00","34","VRB","20","9",,,,,,,,,,,,,,,,,,,,,,,,,,,,,,,,,,,,,"MET09404/16/20 22:53:01 METAR KFRG 170353Z 31008G17KT 10SM CLR 04/M05 A3023 RMK AO2 SLP236 T00441050","FM-15","7",,,,,,,,,,,,,,,,,,,,,,,,,,,,"2009-05-18"
"74486454787","2020-04-16T23:53:00","FM-15","7",,,,,,,,,,,,,,,,,,,,,,,,,,,,,,,,,,,,,,"30.23","19","39","0.00",,,,"45","30.23","CLR:00","30.14","10.00","32","320",,"8",,,,,,,,,,,,,,,,,,,,,,,,,,,,,,,,,,,,,"MET10104/16/20 23:53:02 METAR KFRG 170453Z 32007KT 10SM CLR 04/M07 A3023 RMK AO2 SLP238 T00391072 401060039","FM-15","7",,,,,,,,,,,,,,,,,,,,,,,,,,,,"2009-05-18"
"74486454787","2020-04-16T23:59:00","SOD  ","6",,,,,,,,,,,,,,,,"45",,,"29.96",,"13.8","0","-4.9","20","51","39","320","33","0.00",,,"280","23",,,,,,,,,,,,,,,,,,,,,,,,,,,,,,,,,,,,,,,,,,,,,,,,,,,,,,,,,"SOD73024 HR PRECIPITATION (IN):0.00  24 HR MAX TEMP (F):51 24 HR MAX TEMP TIME (LST):1341 24 HR MIN TEMP (F):39 24 HR MIN TEMP TIME (LST):2359 AVERAGE STATION PRESSURE:29.955 MINIMUM SEA LEVEL PRESSURE:29.96 TIME OF OCCURRENCE:0304 PEAK WIND SPEED (MPH):33  PEAK WIND DIR (DEG):320 PEAK WIND TIME (LST):1502  FASTEST 2MIN SPEED (MPH):23 FASTEST 2MIN DIR (DEG):280 FASTEST 2MIN TIME (LST):1459 AVERAGE WIND SPEED (MPH):13.8 24 HR AVG TEMP (F):45 HEATING DEGREE DAYS:20  COOLING DEGREE DAYS:0   LATEST DAY MAX TEMP (0700-1900 LST):51  LATEST NIGHT MIN TEMP(1900-0800 LST):43 HOURLY INCREMENTAL PRECIPITATION VALUES (IN):.00 0.00 0.00 0.00 0.00 0.00 0.00 0.00 0.00 0.00 0.00 0.00 0.00 0.00 0.00 0.00 0.00 0.00 0.00 0.00 0.00 0.00 0.00 0.00","SOD  ","6",,,,,,,,,,,,,,,,,,,,,,,,,"0512","1835",,"2009-05-18"
"74486454787","2020-04-17T00:53:00","FM-15","7",,,,,,,,,,,,,,,,,,,,,,,,,,,,,,,,,,,,,,"30.24","21","38","0.00",,"-0.04","1","51","30.24","CLR:00","30.15","10.00","32","300",,"7",,,,,,,,,,,,,,,,,,,,,,,,,,,,,,,,,,,,,"MET10904/17/20 00:53:02 METAR KFRG 170553Z 30006KT 10SM CLR 03/M06 A3024 RMK AO2 SLP241 T00331061 10078 20033 51014","FM-15","7",,,,,,,,,,,,,,,,,,,,,,,,,,,,"2009-05-18"
"74486454787","2020-04-17T01:53:00","FM-15","7",,,,,,,,,,,,,,,,,,,,,,,,,,,,,,,,,,,,,,"30.25","21","36","0.00",,,,"55","30.25","CLR:00","30.16","10.00","31","280",,"6",,,,,,,,,,,,,,,,,,,,,,,,,,,,,,,,,,,,,"MET09104/17/20 01:53:02 METAR KFRG 170653Z 28005KT 10SM CLR 02/M06 A3025 RMK AO2 SLP243 T00221061","FM-15","7",,,,,,,,,,,,,,,,,,,,,,,,,,,,"2009-05-18"
"74486454787","2020-04-17T02:53:00","FM-15","7",,,,,,,,,,,,,,,,,,,,,,,,,,,,,,,,,,,,,,"30.26","20","36","0.00",,,,"52","30.25","CLR:00","30.17","10.00","30","290",,"6",,,,,,,,,,,,,,,,,,,,,,,,,,,,,,,,,,,,,"MET09104/17/20 02:53:02 METAR KFRG 170753Z 29005KT 10SM CLR 02/M07 A3026 RMK AO2 SLP245 T00221067","FM-15","7",,,,,,,,,,,,,,,,,,,,,,,,,,,,"2009-05-18"
"74486454787","2020-04-17T03:53:00","FM-15","7",,,,,,,,,,,,,,,,,,,,,,,,,,,,,,,,,,,,,,"30.25","20","35","0.00",,"-0.01","0","54","30.25","CLR:00","30.16","10.00","30","270",,"6",,,,,,,,,,,,,,,,,,,,,,,,,,,,,,,,,,,,,"MET09704/17/20 03:53:02 METAR KFRG 170853Z 27005KT 10SM CLR 02/M07 A3025 RMK AO2 SLP244 T00171067 50003","FM-15","7",,,,,,,,,,,,,,,,,,,,,,,,,,,,"2009-05-18"
"74486454787","2020-04-17T04:53:00","FM-15","7",,,,,,,,,,,,,,,,,,,,,,,,,,,,,,,,,,,,,,"30.26","19","36","0.00",,,,"50","30.26","CLR:00","30.17","10.00","30","290",,"8",,,,,,,,,,,,,,,,,,,,,,,,,,,,,,,,,,,,,"MET09104/17/20 04:53:02 METAR KFRG 170953Z 29007KT 10SM CLR 02/M07 A3026 RMK AO2 SLP246 T00221072","FM-15","7",,,,,,,,,,,,,,,,,,,,,,,,,,,,"2009-05-18"
"74486454787","2020-04-17T05:53:00","FM-15","7",,,,,,,,,,,,,,,,,,,,,,,,,,,,,,,,,,,,,,"30.30","18","38","0.00",,,,"44","30.30","CLR:00","30.21","10.00","31","290",,"9",,,,,,,,,,,,,,,,,,,,,,,,,,,,,,,,,,,,,"MET09104/17/20 05:53:02 METAR KFRG 171053Z 29008KT 10SM CLR 03/M08 A3030 RMK AO2 SLP261 T00331078","FM-15","7",,,,,,,,,,,,,,,,,,,,,,,,,,,,"2009-05-18"
"74486454787","2020-04-17T06:53:00","FM-15","7",,,,,,,,,,,,,,,,,,,,,,,,,,,,,,,,,,,,,,"30.32","19","41","0.00",,"-0.07","3","41","30.32","CLR:00","30.23","10.00","33","280",,"10",,,,,,,,,,,,,,,,,,,,,,,,,,,,,,,,,,,,,"MET10904/17/20 06:53:02 METAR KFRG 171153Z 28009KT 10SM CLR 05/M07 A3032 RMK AO2 SLP267 T00501072 10050 20017 53023","FM-15","7",,,,,,,,,,,,,,,,,,,,,,,,,,,,"2009-05-18"
"74486454787","2020-04-17T07:53:00","FM-15","7",,,,,,,,,,,,,,,,,,,,,,,,,,,,,,,,,,,,,,"30.30","17","44","0.00",,,,"34","30.30","CLR:00","30.21","10.00","34","320",,"9",,,,,,,,,,,,,,,,,,,,,,,,,,,,,,,,,,,,,"MET09104/17/20 07:53:02 METAR KFRG 171253Z 32008KT 10SM CLR 07/M08 A3030 RMK AO2 SLP262 T00671083","FM-15","7",,,,,,,,,,,,,,,,,,,,,,,,,,,,"2009-05-18"
"74486454787","2020-04-17T08:53:00","FM-15","7",,,,,,,,,,,,,,,,,,,,,,,,,,,,,,,,,,,,,,"30.30","17","45","0.00",,,,"33","30.30","CLR:00","30.21","10.00","35","270","20","13",,,,,,,,,,,,,,,,,,,,,,,,,,,,,,,,,,,,,"MET09404/17/20 08:53:02 METAR KFRG 171353Z 27011G17KT 10SM CLR 07/M08 A3030 RMK AO2 SLP261 T00721083","FM-15","7",,,,,,,,,,,,,,,,,,,,,,,,,,,,"2009-05-18"
"74486454787","2020-04-17T09:53:00","FM-15","7",,,,,,,,,,,,,,,,,,,,,,,,,,,,,,,,,,,,,,"30.29","18","47","0.00",,"+0.03","6","31","30.29","CLR:00","30.20","10.00","36","290","22","13",,,,,,,,,,,,,,,,,,,,,,,,,,,,,,,,,,,,,"MET10004/17/20 09:53:02 METAR KFRG 171453Z 29011G19KT 10SM CLR 08/M08 A3029 RMK AO2 SLP256 T00831078 56011","FM-15","7",,,,,,,,,,,,,,,,,,,,,,,,,,,,"2009-05-18"
"74486454787","2020-04-17T10:53:00","FM-15","7",,,,,,,,,,,,,,,,,,,,,,,,,,,,,,,,,,,,,,"30.25","19","47","0.00",,,,"33","30.25","CLR:00","30.16","10.00","37","240",,"13",,,,,,,,,,,,,,,,,,,,,,,,,,,,,,,,,,,,,"MET09104/17/20 10:53:02 METAR KFRG 171553Z 24011KT 10SM CLR 08/M07 A3025 RMK AO2 SLP243 T00831072","FM-15","7",,,,,,,,,,,,,,,,,,,,,,,,,,,,"2009-05-18"
"74486454787","2020-04-17T11:53:00","FM-15","7",,,,,,,,,,,,,,,,,,,,,,,,,,,,,,,,,,,,,,"30.21","20","50","0.00",,,,"30","30.21","CLR:00","30.12","10.00","38","240","23","16",,,,,,,,,,,,,,,,,,,,,,,,,,,,,,,,,,,,,"MET09404/17/20 11:53:02 METAR KFRG 171653Z 24014G20KT 10SM CLR 10/M07 A3021 RMK AO2 SLP231 T01001067","FM-15","7",,,,,,,,,,,,,,,,,,,,,,,,,,,,"2009-05-18"
"74486454787","2020-04-17T12:53:00","FM-15","7",,,,,,,,,,,,,,,,,,,,,,,,,,,,,,,,,,,,,,"30.18","20","49","0.00",,"+0.11","6","32","30.18","CLR:00","30.09","10.00","38","250","26","9",,,,,,,,,,,,,,,,,,,,,,,,,,,,,,,,,,,,,"MET11204/17/20 12:53:02 METAR KFRG 171753Z 25008G23KT 10SM CLR 09/M07 A3018 RMK AO2 SLP219 T00941067 10100 20050 56037","FM-15","7",,,,,,,,,,,,,,,,,,,,,,,,,,,,"2009-05-18"
"74486454787","2020-04-17T13:53:00","FM-15","7",,,,,,,,,,,,,,,,,,,,,,,,,,,,,,,,,,,,,,"30.17","23","49","0.00",,,,"36","30.17","CLR:00","30.08","10.00","39","210","24","14",,,,,,,,,,,,,,,,,,,,,,,,,,,,,,,,,,,,,"MET09404/17/20 13:53:02 METAR KFRG 171853Z 21012G21KT 10SM CLR 09/M05 A3017 RMK AO2 SLP218 T00941050","FM-15","7",,,,,,,,,,,,,,,,,,,,,,,,,,,,"2009-05-18"
"74486454787","2020-04-17T14:53:00","FM-15","7",,,,,,,,,,,,,,,,,,,,,,,,,,,,,,,,,,,,,,"30.15","27","47","0.00",,,,"46","30.15","CLR:00","30.06","10.00","39","210","26","21",,,,,,,,,,,,,,,,,,,,,,,,,,,,,,,,,,,,,"MET09404/17/20 14:53:02 METAR KFRG 171953Z 21018G23KT 10SM CLR 08/M03 A3015 RMK AO2 SLP209 T00831028","FM-15","7",,,,,,,,,,,,,,,,,,,,,,,,,,,,"2009-05-18"
"74486454787","2020-04-17T15:53:00","FM-15","7",,,,,,,,,,,,,,,,,,,,,,,,,,,,,,,,,,,,,,"30.12","29","49","0.00",,"+0.06","8","46","30.12","BKN:07 65","30.03","10.00","41","240","22","15",,,,,,,,,,,,,,,,,,,,,,,,,,,,,,,,,,,,,"MET10304/17/20 15:53:02 METAR KFRG 172053Z 24013G19KT 10SM BKN065 09/M02 A3012 RMK AO2 SLP200 T00941017 58019","FM-15","7",,,,,,,,,,,,,,,,,,,,,,,,,,,,"2009-05-18"
"74486454787","2020-04-17T16:50:00","FM-16","7",,,,,,,,,,,,,,,,,,,,,,,,,,,,,,,,,,,,,,"30.12","28","46",,,,,"50",,"FEW:02 41 OVC:08 50","30.03","10.00","39","270",,"14",,,,,,,,,,,,,,,,,,,,,,,,,,,,,,,,,,,,,"MET09504/17/20 16:50:02 SPECI KFRG 172150Z 27012KT 10SM FEW041 OVC050 08/M02 A3012 RMK AO2 WSHFT 2130","FM-16","7",,,,,,,,,,,,,,,,,,,,,,,,,,,,"2009-05-18"
"74486454787","2020-04-17T16:53:00","FM-15","7",,,,,,,,,,,,,,,,,,,,,,,,,,,,,,,,,,,,,,"30.12","29","46","0.00",,,,"51","30.12","FEW:02 41 OVC:08 50","30.03","10.00","39","270",,"13",,,,,,,,,,,,,,,,,,,,,,,,,,,,,,,,,,,,,"MET11204/17/20 16:53:02 METAR KFRG 172153Z 27011KT 10SM FEW041 OVC050 08/M02 A3012 RMK AO2 WSHFT 2130 SLP200 T00781017","FM-15","7",,,,,,,,,,,,,,,,,,,,,,,,,,,,"2009-05-18"
"74486454787","2020-04-17T17:53:00","FM-15","7",,,,,,,,,,,,,,,,,,,,,,,,,,,,,,,,,,,,,,"30.09","33","45","T","-RA:02 |RA |RA",,,"63","30.09","OVC:08 35","30.00","10.00","40","220","17","9",,,,,,,,,,,,,,,,,,,,,,,,,,,,,,,,,,,,,"MET11204/17/20 17:53:02 METAR KFRG 172253Z 22008G15KT 10SM -RA OVC035 07/01 A3009 RMK AO2 RAB41 SLP189 P0000 T00720006","FM-15","7",,,,,,,,,,,,,,,,,,,,,,,,,,,,"2009-05-18"
"74486454787","2020-04-17T18:53:00","FM-15","7",,,,,,,,,,,,,,,,,,,,,,,,,,,,,,,,,,,,,,"30.07","33","45","0.00",,"+0.05","8","63","30.07","BKN:07 33 OVC:08 41","29.98","10.00","40","260",,"3",,,,,,,,,,,,,,,,,,,,,,,,,,,,,,,,,,,,,"MET13804/17/20 18:53:02 METAR KFRG 172353Z 26003KT 10SM BKN033 OVC041 07/01 A3007 RMK AO2 RAE2254 SLP183 P0000 60000 T00720006 10100 20067 58017","FM-15","7",,,,,,,,,,,,,,,,,,,,,,,,,,,,"2009-05-18"
"74486454787","2020-04-17T19:48:00","FM-16","7",,,,,,,,,,,,,,,,,,,,,,,,,,,,,,,,,,,,,,"30.06","34","45","T","-RA:02 |RA |RA",,,"66",,"BKN:07 27 OVC:08 35","29.97","10.00","40","180",,"3",,,,,,,,,,,,,,,,,,,,,,,,,,,,,,,,,,,,,"MET09904/17/20 19:48:01 SPECI KFRG 180048Z 18003KT 10SM -RA BKN027 OVC035 07/01 A3006 RMK AO2 RAB46 P0000","FM-16","7",,,,,,,,,,,,,,,,,,,,,,,,,,,,"2009-05-18"
"74486454787","2020-04-17T19:53:00","FM-15","7",,,,,,,,,,,,,,,,,,,,,,,,,,,,,,,,,,,,,,"30.06","35","44","T","-RA:02 |RA |RA",,,"71","30.06","BKN:07 27 OVC:08 33","29.97","10.00","40","170",,"3",,,,,,,,,,,,,,,,,,,,,,,,,,,,,,,,,,,,,"MET11604/17/20 19:53:01 METAR KFRG 180053Z 17003KT 10SM -RA BKN027 OVC033 07/02 A3006 RMK AO2 RAB46 SLP178 P0000 T00670017","FM-15","7",,,,,,,,,,,,,,,,,,,,,,,,,,,,"2009-05-18"
"74486454787","2020-04-17T20:35:00","FM-16","7",,,,,,,,,,,,,,,,,,,,,,,,,,,,,,,,,,,,,,"30.04","36","45","T",,,,"71",,"FEW:02 26 BKN:07 35 OVC:08 85","29.95","10.00","41","VRB",,"3",,,,,,,,,,,,,,,,,,,,,,,,,,,,,,,,,,,,,"MET11204/17/20 20:35:01 SPECI KFRG 180135Z VRB03KT 10SM FEW026 BKN035 OVC085 07/02 A3004 RMK AO2 RAE04 P0000 T00720022","FM-16","7",,,,,,,,,,,,,,,,,,,,,,,,,,,,"2009-05-18"
"74486454787","2020-04-17T20:53:00","FM-15","7",,,,,,,,,,,,,,,,,,,,,,,,,,,,,,,,,,,,,,"30.02","36","46","T","-RA:02 |RA |RA",,,"68","30.02","FEW:02 34 OVC:08 60","29.93","10.00","42","180",,"9",,,,,,,,,,,,,,,,,,,,,,,,,,,,,,,,,,,,,"MET11904/17/20 20:53:01 METAR KFRG 180153Z 18008KT 10SM -RA FEW034 OVC060 08/02 A3002 RMK AO2 RAE04B53 SLP166 P0000 T00780022","FM-15","7",,,,,,,,,,,,,,,,,,,,,,,,,,,,"2009-05-18"
"74486454787","2020-04-17T21:53:00","FM-15","7",,,,,,,,,,,,,,,,,,,,,,,,,,,,,,,,,,,,,,"29.98","38","45","T","-RA:02 |RA |RA","+0.08","8","77","29.98","OVC:08 50","29.89","10.00","42","110",,"5",,,,,,,,,,,,,,,,,,,,,,,,,,,,,,,,,,,,,"MET13104/17/20 21:53:01 METAR KFRG 180253Z 11004KT 10SM -RA OVC050 07/03 A2998 RMK AO2 RAE03B24 PRESFR SLP151 P0000 60000 T00720033 58027","FM-15","7",,,,,,,,,,,,,,,,,,,,,,,,,,,,"2009-05-18"
"74486454787","2020-04-17T22:53:00","FM-15","7",,,,,,,,,,,,,,,,,,,,,,,,,,,,,,,,,,,,,,"29.93","39","44","T","-RA:02 |RA |RA",,,"83","29.93","OVC:08 60","29.84","10.00","42","080",,"3",,,,,,,,,,,,,,,,,,,,,,,,,,,,,,,,,,,,,"MET10304/17/20 22:53:02 METAR KFRG 180353Z 08003KT 10SM -RA OVC060 07/04 A2993 RMK AO2 SLP135 P0000 T00670039","FM-15","7",,,,,,,,,,,,,,,,,,,,,,,,,,,,"2009-05-18"
"74486454787","2020-04-17T23:53:00","FM-15","7",,,,,,,,,,,,,,,,,,,,,,,,,,,,,,,,,,,,,,"29.90","40","44","0.01","-RA:02 |RA |RA",,,"85","29.89","SCT:04 32 SCT:04 46 OVC:08 60","29.81","10.00","42","060",,"6",,,,,,,,,,,,,,,,,,,,,,,,,,,,,,,,,,,,,"MET12704/17/20 23:53:02 METAR KFRG 180453Z 06005KT 10SM -RA SCT032 SCT046 OVC060 07/04 A2990 RMK AO2 SLP123 P0001 T00670044 401000017","FM-15","7",,,,,,,,,,,,,,,,,,,,,,,,,,,,"2009-05-18"
"74486454787","2020-04-17T23:59:00","SOD  ","6",,,,,,,,,,,,,,,,"43",,,"30.11",,"9.4","0","-7.2","22","50","35","190","28","0.01",,,"210","23","RA",,,,,,,,,,,,,,,,,,,,,,,,,,,,,,,,,,,,,,,,,,,,,,,,,,,,,,,,"SOD73024 HR PRECIPITATION (IN):0.01  24 HR MAX TEMP (F):50 24 HR MAX TEMP TIME (LST):1324 24 HR MIN TEMP (F):35 24 HR MIN TEMP TIME (LST):0357 AVERAGE STATION PRESSURE:30.110 MINIMUM SEA LEVEL PRESSURE:29.89 TIME OF OCCURRENCE:2359 PEAK WIND SPEED (MPH):28  PEAK WIND DIR (DEG):190 PEAK WIND TIME (LST):1443  FASTEST 2MIN SPEED (MPH):23 FASTEST 2MIN DIR (DEG):210 FASTEST 2MIN TIME (LST):1447 AVERAGE WIND SPEED (MPH):9.4  24 HR AVG TEMP (F):43 HEATING DEGREE DAYS:22  COOLING DEGREE DAYS:0   LATEST DAY MAX TEMP (0700-1900 LST):50  LATEST NIGHT MIN TEMP(1900-0800 LST):35 HOURLY INCREMENTAL PRECIPITATION VALUES (IN):.00 0.00 0.00 0.00 0.00 0.00 0.00 0.00 0.00 0.00 0.00 0.00 0.00 0.00 0.00 0.00 0.00 T    0.00 T    T    T    T    0.01","SOD  ","6",,,,,,,,,,,,,,,,,,,,,,,,,"0511","1836",,"2009-05-18"
"74486454787","2020-04-18T00:51:00","FM-16","6",,,,,,,,,,,,,,,,,,,,,,,,,,,,,,,,,,,,,,"29.85","39","45",,"-RA:02 |RA |RA",,,"81",,"FEW:02 9 OVC:08 35","29.76","7.00","42","050",,"7",,,,,,,,,,,,,,,,,,,,,,,,,,,,,,,,,,,,,"MET09704/18/20 00:51:02 SPECI KFRG 180551Z 05006KT 7SM -RA FEW009 OVC035 07/04 A2985 RMK AO2 P0001 FIBI","FM-16","6",,,,,,,,,,,,,,,,,,,,,,,,,,,,"2009-05-18"
"74486454787","2020-04-18T00:53:00","FM-15","7",,,,,,,,,,,,,,,,,,,,,,,,,,,,,,,,,,,,,,"29.85","40","44","0.01","-RA:02 |RA |RA","+0.12","6","85","29.85","FEW:02 9 OVC:08 35","29.76","7.00","42","050",,"7",,,,,,,,,,,,,,,,,,,,,,,,,,,,,,,,,,,,,"MET13304/18/20 00:53:02 METAR KFRG 180553Z 05006KT 7SM -RA FEW009 OVC035 07/04 A2985 RMK AO2 SLP109 P0001 60002 T00670044 10078 20067 56042","FM-15","7",,,,,,,,,,,,,,,,,,,,,,,,,,,,"2009-05-18"
"74486454787","2020-04-18T01:15:00","FM-16","7",,,,,,,,,,,,,,,,,,,,,,,,,,,,,,,,,,,,,,"29.84","40","43","T",,,,"89",,"BKN:07 7 OVC:08 31","29.75","7.00","42","060",,"9",,,,,,,,,,,,,,,,,,,,,,,,,,,,,,,,,,,,,"MET11604/18/20 01:15:02 SPECI KFRG 180615Z 06008KT 7SM BKN007 OVC031 06/04 A2984 RMK AO2 RAE09 CIG 005V009 P0000 T00610044","FM-16","7",,,,,,,,,,,,,,,,,,,,,,,,,,,,"2009-05-18"
"74486454787","2020-04-18T01:53:00","FM-15","7",,,,,,,,,,,,,,,,,,,,,,,,,,,,,,,,,,,,,,"29.82","40","44","T","-RA:02 |RA |RA",,,"85","29.82","OVC:08 7","29.73","8.00","42","030",,"11",,,,,,,,,,,,,,,,,,,,,,,,,,,,,,,,,,,,,"MET11104/18/20 01:53:02 METAR KFRG 180653Z 03010KT 8SM -RA OVC007 07/04 A2982 RMK AO2 RAE09B21 SLP098 P0000 T00670044","FM-15","7",,,,,,,,,,,,,,,,,,,,,,,,,,,,"2009-05-18"
"74486454787","2020-04-18T02:17:00","FM-16","7",,,,,,,,,,,,,,,,,,,,,,,,,,,,,,,,,,,,,,"29.81","40","44","T",,,,"85",,"SCT:04 7 BKN:07 36 OVC:08 80","29.72","10.00","42","060",,"8",,,,,,,,,,,,,,,,,,,,,,,,,,,,,,,,,,,,,"MET11204/18/20 02:17:02 SPECI KFRG 180717Z 06007KT 10SM SCT007 BKN036 OVC080 07/04 A2981 RMK AO2 RAE04 P0000 T00670044","FM-16","7",,,,,,,,,,,,,,,,,,,,,,,,,,,,"2009-05-18"
"74486454787","2020-04-18T02:53:00","FM-15","7",,,,,,,,,,,,,,,,,,,,,,,,,,,,,,,,,,,,,,"29.79","40","44","T",,,,"85","29.78","FEW:02 5 BKN:07 65 OVC:08 80","29.70","10.00","42","080",,"7",,,,,,,,,,,,,,,,,,,,,,,,,,,,,,,,,,,,,"MET11904/18/20 02:53:02 METAR KFRG 180753Z 08006KT 10SM FEW005 BKN065 OVC080 07/04 A2979 RMK AO2 RAE04 SLP086 P0000 T00670044","FM-15","7",,,,,,,,,,,,,,,,,,,,,,,,,,,,"2009-05-18"
"74486454787","2020-04-18T03:16:00","FM-16","7",,,,,,,,,,,,,,,,,,,,,,,,,,,,,,,,,,,,,,"29.78","40","44",,,,,"85",,"BKN:07 5 OVC:08 60","29.69","10.00","42","070",,"6",,,,,,,,,,,,,,,,,,,,,,,,,,,,,,,,,,,,,"MET09304/18/20 03:16:02 SPECI KFRG 180816Z 07005KT 10SM BKN005 OVC060 07/04 A2978 RMK AO2 T00670044","FM-16","7",,,,,,,,,,,,,,,,,,,,,,,,,,,,"2009-05-18"
"74486454787","2020-04-18T03:53:00","FM-15","7",,,,,,,,,,,,,,,,,,,,,,,,,,,,,,,,,,,,,,"29.76","40","44","0.00",,"+0.09","6","85","29.76","BKN:07 5 OVC:08 60","29.67","10.00","42","060",,"6",,,,,,,,,,,,,,,,,,,,,,,,,,,,,,,,,,,,,"MET11204/18/20 03:53:02 METAR KFRG 180853Z 06005KT 10SM BKN005 OVC060 07/04 A2976 RMK AO2 SLP078 60000 T00670044 56031","FM-15","7",,,,,,,,,,,,,,,,,,,,,,,,,,,,"2009-05-18"
"74486454787","2020-04-18T04:53:00","FM-15","7",,,,,,,,,,,,,,,,,,,,,,,,,,,,,,,,,,,,,,"29.75","41","44","T","-RA:02 |RA |RA",,,"89","29.75","OVC:08 5","29.66","7.00","43","040",,"5",,,,,,,,,,,,,,,,,,,,,,,,,,,,,,,,,,,,,"MET10804/18/20 04:53:02 METAR KFRG 180953Z 04004KT 7SM -RA OVC005 07/05 A2975 RMK AO2 RAB34 SLP074 P0000 T00670050","FM-15","7",,,,,,,,,,,,,,,,,,,,,,,,,,,,"2009-05-18"
"74486454787","2020-04-18T05:53:00","FM-15","7",,,,,,,,,,,,,,,,,,,,,,,,,,,,,,,,,,,,,,"29.74","41","44","T",,,,"89","29.74","OVC:08 5","29.65","10.00","43","060",,"6",,,,,,,,,,,,,,,,,,,,,,,,,,,,,,,,,,,,,"MET10504/18/20 05:53:02 METAR KFRG 181053Z 06005KT 10SM OVC005 07/05 A2974 RMK AO2 RAE39 SLP070 P0000 T00670050","FM-15","7",,,,,,,,,,,,,,,,,,,,,,,,,,,,"2009-05-18"
"74486454787","2020-04-18T06:53:00","FM-15","7",,,,,,,,,,,,,,,,,,,,,,,,,,,,,,,,,,,,,,"29.75","41","45","T","-RA:02 |RA |RA","+0.01","5","86","29.75","OVC:08 5","29.66","10.00","43","030",,"5",,,,,,,,,,,,,,,,,,,,,,,,,,,,,,,,,,,,,"MET14704/18/20 06:53:02 METAR KFRG 181153Z 03004KT 10SM -RA OVC005 07/05 A2975 RMK AO2 RAB1056E07B43 SLP074 P0000 60000 70002 T00720050 10072 20061 55004","FM-15","7",,,,,,,,,,,,,,,,,,,,,,,,,,,,"2009-05-18"
"74486454787","2020-04-18T07:53:00","FM-15","7",,,,,,,,,,,,,,,,,,,,,,,,,,,,,,,,,,,,,,"29.74","42","46","T","-RA:02 |RA |RA",,,"86","29.74","OVC:08 6","29.65","10.00","44","040",,"5",,,,,,,,,,,,,,,,,,,,,,,,,,,,,,,,,,,,,"MET11204/18/20 07:53:02 METAR KFRG 181253Z 04004KT 10SM -RA OVC006 08/06 A2974 RMK AO2 RAE22B47 SLP070 P0000 T00780056","FM-15","7",,,,,,,,,,,,,,,,,,,,,,,,,,,,"2009-05-18"
"74486454787","2020-04-18T08:53:00","FM-15","7",,,,,,,,,,,,,,,,,,,,,,,,,,,,,,,,,,,,,,"29.72","41","45","0.01",,,,"86","29.72","OVC:08 6","29.63","10.00","43","040",,"9",,,,,,,,,,,,,,,,,,,,,,,,,,,,,,,,,,,,,"MET10504/18/20 08:53:02 METAR KFRG 181353Z 04008KT 10SM OVC006 07/05 A2972 RMK AO2 RAE26 SLP063 P0001 T00720050","FM-15","7",,,,,,,,,,,,,,,,,,,,,,,,,,,,"2009-05-18"
"74486454787","2020-04-18T09:53:00","FM-15","7",,,,,,,,,,,,,,,,,,,,,,,,,,,,,,,,,,,,,,"29.74","38","42","0.00",,"+0.01","5","85","29.74","OVC:08 5","29.65","10.00","40","020",,"14",,,,,,,,,,,,,,,,,,,,,,,,,,,,,,,,,,,,,"MET10504/18/20 09:53:02 METAR KFRG 181453Z 02012KT 10SM OVC005 06/03 A2974 RMK AO2 SLP070 60001 T00560033 55004","FM-15","7",,,,,,,,,,,,,,,,,,,,,,,,,,,,"2009-05-18"
"74486454787","2020-04-18T10:53:00","FM-15","7",,,,,,,,,,,,,,,,,,,,,,,,,,,,,,,,,,,,,,"29.75","37","42","T","-RA:02 |RA |RA",,,"82","29.75","OVC:08 8","29.66","10.00","40","030",,"14",,,,,,,,,,,,,,,,,,,,,,,,,,,,,,,,,,,,,"MET10904/18/20 10:53:02 METAR KFRG 181553Z 03012KT 10SM -RA OVC008 06/03 A2975 RMK AO2 RAB39 SLP075 P0000 T00560028","FM-15","7",,,,,,,,,,,,,,,,,,,,,,,,,,,,"2009-05-18"
"74486454787","2020-04-18T11:30:00","FM-16","7",,,,,,,,,,,,,,,,,,,,,,,,,,,,,,,,,,,,,,"29.74","38","43","T",,,,"82",,"OVC:08 10","29.65","10.00","41","040",,"13",,,,,,,,,,,,,,,,,,,,,,,,,,,,,,,,,,,,,"MET11004/18/20 11:30:02 SPECI KFRG 181630Z 04011KT 10SM OVC010 06/03 A2974 RMK AO2 RAE13 CIG 008V013 P0000 T00610033","FM-16","7",,,,,,,,,,,,,,,,,,,,,,,,,,,,"2009-05-18"
"74486454787","2020-04-18T11:53:00","FM-15","7",,,,,,,,,,,,,,,,,,,,,,,,,,,,,,,,,,,,,,"29.73","37","42","T",,,,"82","29.73","OVC:08 10","29.64","10.00","40","010",,"15",,,,,,,,,,,,,,,,,,,,,,,,,,,,,,,,,,,,,"MET10504/18/20 11:53:02 METAR KFRG 181653Z 01013KT 10SM OVC010 06/03 A2973 RMK AO2 RAE13 SLP069 P0000 T00560028","FM-15","7",,,,,,,,,,,,,,,,,,,,,,,,,,,,"2009-05-18"
"74486454787","2020-04-18T12:53:00","FM-15","7",,,,,,,,,,,,,,,,,,,,,,,,,,,,,,,,,,,,,,"29.74","36","42","0.00",,"-0.00","1","79","29.74","OVC:08 12","29.65","10.00","39","010","22","13",,,,,,,,,,,,,,,,,,,,,,,,,,,,,,,,,,,,,"MET12004/18/20 12:53:02 METAR KFRG 181753Z 01011G19KT 10SM OVC012 06/02 A2974 RMK AO2 SLP070 60001 T00560022 10078 20056 51000","FM-15","7",,,,,,,,,,,,,,,,,,,,,,,,,,,,"2009-05-18"
"74486454787","2020-04-18T13:22:00","FM-16","7",,,,,,,,,,,,,,,,,,,,,,,,,,,,,,,,,,,,,,"29.73","36","44",,,,,"73",,"OVC:08 15","29.64","10.00","40","010","22","15",,,,,,,,,,,,,,,,,,,,,,,,,,,,,,,,,,,,,"MET08904/18/20 13:22:02 SPECI KFRG 181822Z 01013G19KT 10SM OVC015 07/02 A2973 RMK AO2 T00670022","FM-16","7",,,,,,,,,,,,,,,,,,,,,,,,,,,,"2009-05-18"
"74486454787","2020-04-18T13:53:00","FM-15","7",,,,,,,,,,,,,,,,,,,,,,,,,,,,,,,,,,,,,,"29.75","36","45","0.00",,,,"71","29.75","BKN:07 17 OVC:08 24","29.66","10.00","41","020",,"17",,,,,,,,,,,,,,,,,,,,,,,,,,,,,,,,,,,,,"MET10004/18/20 13:53:02 METAR KFRG 181853Z 02015KT 10SM BKN017 OVC024 07/02 A2975 RMK AO2 SLP073 T00720022","FM-15","7",,,,,,,,,,,,,,,,,,,,,,,,,,,,"2009-05-18"
"74486454787","2020-04-18T14:53:00","FM-15","7",,,,,,,,,,,,,,,,,,,,,,,,,,,,,,,,,,,,,,"29.77","37","45","T","-RA:02 |RA |RA",,,"74","29.77","BKN:07 21 OVC:08 43","29.68","10.00","41","360",,"13",,,,,,,,,,,,,,,,,,,,,,,,,,,,,,,,,,,,,"MET11604/18/20 14:53:02 METAR KFRG 181953Z 36011KT 10SM -RA BKN021 OVC043 07/03 A2977 RMK AO2 RAB44 SLP081 P0000 T00720028","FM-15","7",,,,,,,,,,,,,,,,,,,,,,,,,,,,"2009-05-18"
"74486454787","2020-04-18T15:30:00","FM-16","7",,,,,,,,,,,,,,,,,,,,,,,,,,,,,,,,,,,,,,"29.78","36","48","T",,,,"63",,"SCT:04 23 BKN:07 30 OVC:08 50","29.69","10.00","43","340",,"9",,,,,,,,,,,,,,,,,,,,,,,,,,,,,,,,,,,,,"MET11404/18/20 15:30:02 SPECI KFRG 182030Z 34008KT 10SM SCT023 BKN030 OVC050 09/02 A2978 RMK AO2 RAE1954 P0000 T00890022","FM-16","7",,,,,,,,,,,,,,,,,,,,,,,,,,,,"2009-05-18"
"74486454787","2020-04-18T15:53:00","FM-15","7",,,,,,,,,,,,,,,,,,,,,,,,,,,,,,,,,,,,,,"29.79","34","47","0.00",,"-0.05","3","61","29.79","FEW:02 21 BKN:07 36 OVC:08 50","29.70","10.00","41","350",,"10",,,,,,,,,,,,,,,,,,,,,,,,,,,,,,,,,,,,,"MET13304/18/20 15:53:02 METAR KFRG 182053Z 35009KT 10SM FEW021 BKN036 OVC050 08/01 A2979 RMK AO2 RAE1954 SLP088 P0000 60000 T00830011 53018","FM-15","7",,,,,,,,,,,,,,,,,,,,,,,,,,,,"2009-05-18"
"74486454787","2020-04-18T16:11:00","FM-16","7",,,,,,,,,,,,,,,,,,,,,,,,,,,,,,,,,,,,,,"29.80","35","46",,,,,"66",,"BKN:07 24 BKN:07 31 OVC:08 50","29.71","10.00","41","010",,"14",,,,,,,,,,,,,,,,,,,,,,,,,,,,,,,,,,,,,"MET10004/18/20 16:11:02 SPECI KFRG 182111Z 01012KT 10SM BKN024 BKN031 OVC050 08/02 A2980 RMK AO2 T00780017","FM-16","7",,,,,,,,,,,,,,,,,,,,,,,,,,,,"2009-05-18"
"74486454787","2020-04-18T16:42:00","FM-16","7",,,,,,,,,,,,,,,,,,,,,,,,,,,,,,,,,,,,,,"29.82","36","44","T",,,,"73",,"FEW:02 23 BKN:07 41 OVC:08 50","29.73","10.00","40","360",,"10",,,,,,,,,,,,,,,,,,,,,,,,,,,,,,,,,,,,,"MET11504/18/20 16:42:02 SPECI KFRG 182142Z 36009KT 10SM FEW023 BKN041 OVC050 07/02 A2982 RMK AO2 RAB12E41 P0000 T00670022","FM-16","7",,,,,,,,,,,,,,,,,,,,,,,,,,,,"2009-05-18"
"74486454787","2020-04-18T16:53:00","FM-15","7",,,,,,,,,,,,,,,,,,,,,,,,,,,,,,,,,,,,,,"29.83","37","45","T",,,,"74","29.83","FEW:02 33 SCT:04 50 OVC:08 60","29.74","10.00","41","360",,"7",,,,,,,,,,,,,,,,,,,,,,,,,,,,,,,,,,,,,"MET12204/18/20 16:53:02 METAR KFRG 182153Z 36006KT 10SM FEW033 SCT050 OVC060 07/03 A2983 RMK AO2 RAB12E41 SLP100 P0000 T00720028","FM-15","7",,,,,,,,,,,,,,,,,,,,,,,,,,,,"2009-05-18"
"74486454787","2020-04-18T17:53:00","FM-15","7",,,,,,,,,,,,,,,,,,,,,,,,,,,,,,,,,,,,,,"29.84","37","45","0.00",,,,"74","29.84","FEW:02 41 OVC:08 60","29.75","10.00","41","340",,"6",,,,,,,,,,,,,,,,,,,,,,,,,,,,,,,,,,,,,"MET10004/18/20 17:53:02 METAR KFRG 182253Z 34005KT 10SM FEW041 OVC060 07/03 A2984 RMK AO2 SLP106 T00720028","FM-15","7",,,,,,,,,,,,,,,,,,,,,,,,,,,,"2009-05-18"
"74486454787","2020-04-18T18:53:00","FM-15","7",,,,,,,,,,,,,,,,,,,,,,,,,,,,,,,,,,,,,,"29.87","31","46","0.00",,"-0.08","1","56","29.87","OVC:08 55","29.78","10.00","40","340",,"9",,,,,,,,,,,,,,,,,,,,,,,,,,,,,,,,,,,,,"MET11804/18/20 18:53:02 METAR KFRG 182353Z 34008KT 10SM OVC055 08/M01 A2987 RMK AO2 SLP116 60000 T00781006 10094 20056 51027","FM-15","7",,,,,,,,,,,,,,,,,,,,,,,,,,,,"2009-05-18"
"74486454787","2020-04-18T19:53:00","FM-15","7",,,,,,,,,,,,,,,,,,,,,,,,,,,,,,,,,,,,,,"29.90","33","44","0.00",,,,"65","29.90","CLR:00","29.81","10.00","39","300",,"6",,,,,,,,,,,,,,,,,,,,,,,,,,,,,,,,,,,,,"MET09004/18/20 19:53:01 METAR KFRG 190053Z 30005KT 10SM CLR 07/01 A2990 RMK AO2 SLP125 T00670006","FM-15","7",,,,,,,,,,,,,,,,,,,,,,,,,,,,"2009-05-18"
"74486454787","2020-04-18T20:53:00","FM-15","7",,,,,,,,,,,,,,,,,,,,,,,,,,,,,,,,,,,,,,"29.90","32","42","0.00",,,,"68","29.91","CLR:00","29.81","10.00","38","300",,"5",,,,,,,,,,,,,,,,,,,,,,,,,,,,,,,,,,,,,"MET09004/18/20 20:53:01 METAR KFRG 190153Z 30004KT 10SM CLR 06/00 A2990 RMK AO2 SLP127 T00560000","FM-15","7",,,,,,,,,,,,,,,,,,,,,,,,,,,,"2009-05-18"
"74486454787","2020-04-18T21:53:00","FM-15","7",,,,,,,,,,,,,,,,,,,,,,,,,,,,,,,,,,,,,,"29.91","30","41","0.00",,"-0.04","1","65","29.91","CLR:00","29.82","10.00","37","280",,"5",,,,,,,,,,,,,,,,,,,,,,,,,,,,,,,,,,,,,"MET09704/18/20 21:53:01 METAR KFRG 190253Z 28004KT 10SM CLR 05/M01 A2991 RMK AO2 SLP129 T00501011 51014","FM-15","7",,,,,,,,,,,,,,,,,,,,,,,,,,,,"2009-05-18"
"74486454787","2020-04-18T22:53:00","FM-15","7",,,,,,,,,,,,,,,,,,,,,,,,,,,,,,,,,,,,,,"29.92","29","39","0.00",,,,"67","29.92","CLR:00","29.83","10.00","35","280",,"6",,,,,,,,,,,,,,,,,,,,,,,,,,,,,,,,,,,,,"MET09104/18/20 22:53:02 METAR KFRG 190353Z 28005KT 10SM CLR 04/M02 A2992 RMK AO2 SLP133 T00391017","FM-15","7",,,,,,,,,,,,,,,,,,,,,,,,,,,,"2009-05-18"
"74486454787","2020-04-18T23:53:00","FM-15","7",,,,,,,,,,,,,,,,,,,,,,,,,,,,,,,,,,,,,,"29.94","28","38","0.00",,,,"68","29.93","CLR:00","29.85","10.00","34","270",,"6",,,,,,,,,,,,,,,,,,,,,,,,,,,,,,,,,,,,,"MET10104/18/20 23:53:02 METAR KFRG 190453Z 27005KT 10SM CLR 03/M02 A2994 RMK AO2 SLP137 T00331022 400940033","FM-15","7",,,,,,,,,,,,,,,,,,,,,,,,,,,,"2009-05-18"
"74486454787","2020-04-18T23:59:00","SOD  ","6",,,,,,,,,,,,,,,,"44",,,"29.71",,"8.5","0","-6.6","21","49","38","010","24","0.02",,,"010","21","RA",,,,,,,,,,,,,,,,,,,,,,,,,,,,,,,,,,,,,,,,,,,,,,,,,,,,,,,,"SOD73024 HR PRECIPITATION (IN):0.02  24 HR MAX TEMP (F):49 24 HR MAX TEMP TIME (LST):1528 24 HR MIN TEMP (F):38 24 HR MIN TEMP TIME (LST):2359 AVERAGE STATION PRESSURE:29.710 MINIMUM SEA LEVEL PRESSURE:29.71 TIME OF OCCURRENCE:0909 PEAK WIND SPEED (MPH):24  PEAK WIND DIR (DEG):10  PEAK WIND TIME (LST):1326  FASTEST 2MIN SPEED (MPH):21 FASTEST 2MIN DIR (DEG):10  FASTEST 2MIN TIME (LST):1327 AVERAGE WIND SPEED (MPH):8.5  24 HR AVG TEMP (F):44 HEATING DEGREE DAYS:21  COOLING DEGREE DAYS:0   LATEST DAY MAX TEMP (0700-1900 LST):49  LATEST NIGHT MIN TEMP(1900-0800 LST):43 HOURLY INCREMENTAL PRECIPITATION VALUES (IN):.01 T    T    0.00 T    T    T    T    0.01 0.00 T    T    0.00 0.00 T    0.00 T    0.00 0.00 0.00 0.00 0.00 0.00 0.00","SOD  ","6",,,,,,,,,,,,,,,,,,,,,,,,,"0509","1837",,"2009-05-18"
"74486454787","2020-04-19T00:53:00","FM-15","7",,,,,,,,,,,,,,,,,,,,,,,,,,,,,,,,,,,,,,"29.93","27","39","0.00",,"-0.02","0","62","29.93","CLR:00","29.84","10.00","34","280",,"7",,,,,,,,,,,,,,,,,,,,,,,,,,,,,,,,,,,,,"MET10904/19/20 00:53:02 METAR KFRG 190553Z 28006KT 10SM CLR 04/M03 A2993 RMK AO2 SLP136 T00391028 10078 20033 50006","FM-15","7",,,,,,,,,,,,,,,,,,,,,,,,,,,,"2009-05-18"
"74486454787","2020-04-19T01:53:00","FM-15","7",,,,,,,,,,,,,,,,,,,,,,,,,,,,,,,,,,,,,,"29.94","27","38","0.00",,,,"65","29.94","CLR:00","29.85","10.00","34","260",,"5",,,,,,,,,,,,,,,,,,,,,,,,,,,,,,,,,,,,,"MET09104/19/20 01:53:02 METAR KFRG 190653Z 26004KT 10SM CLR 03/M03 A2994 RMK AO2 SLP139 T00331028","FM-15","7",,,,,,,,,,,,,,,,,,,,,,,,,,,,"2009-05-18"
"74486454787","2020-04-19T02:53:00","FM-15","7",,,,,,,,,,,,,,,,,,,,,,,,,,,,,,,,,,,,,,"29.94","27","37","0.00",,,,"67","29.94","CLR:00","29.85","10.00","33","260",,"6",,,,,,,,,,,,,,,,,,,,,,,,,,,,,,,,,,,,,"MET09104/19/20 02:53:02 METAR KFRG 190753Z 26005KT 10SM CLR 03/M03 A2994 RMK AO2 SLP140 T00281028","FM-15","7",,,,,,,,,,,,,,,,,,,,,,,,,,,,"2009-05-18"
"74486454787","2020-04-19T03:53:00","FM-15","7",,,,,,,,,,,,,,,,,,,,,,,,,,,,,,,,,,,,,,"29.93","27","37","0.00",,"-0.00","0","67","29.93","CLR:00","29.84","10.00","33","000",,"0",,,,,,,,,,,,,,,,,,,,,,,,,,,,,,,,,,,,,"MET09704/19/20 03:53:02 METAR KFRG 190853Z 00000KT 10SM CLR 03/M03 A2993 RMK AO2 SLP136 T00281028 50000","FM-15","7",,,,,,,,,,,,,,,,,,,,,,,,,,,,"2009-05-18"
"74486454787","2020-04-19T04:53:00","FM-15","7",,,,,,,,,,,,,,,,,,,,,,,,,,,,,,,,,,,,,,"29.94","27","36","0.00",,,,"70","29.94","CLR:00","29.85","10.00","33","250",,"6",,,,,,,,,,,,,,,,,,,,,,,,,,,,,,,,,,,,,"MET09104/19/20 04:53:02 METAR KFRG 190953Z 25005KT 10SM CLR 02/M03 A2994 RMK AO2 SLP138 T00221028","FM-15","7",,,,,,,,,,,,,,,,,,,,,,,,,,,,"2009-05-18"
"74486454787","2020-04-19T05:53:00","FM-15","7",,,,,,,,,,,,,,,,,,,,,,,,,,,,,,,,,,,,,,"29.94","29","39","0.00",,,,"67","29.94","CLR:00","29.85","10.00","35","230",,"5",,,,,,,,,,,,,,,,,,,,,,,,,,,,,,,,,,,,,"MET09104/19/20 05:53:02 METAR KFRG 191053Z 23004KT 10SM CLR 04/M02 A2994 RMK AO2 SLP140 T00391017","FM-15","7",,,,,,,,,,,,,,,,,,,,,,,,,,,,"2009-05-18"
"74486454787","2020-04-19T06:53:00","FM-15","7",,,,,,,,,,,,,,,,,,,,,,,,,,,,,,,,,,,,,,"29.95","31","45","0.00",,"-0.01","1","58","29.95","CLR:00","29.86","10.00","39","240",,"8",,,,,,,,,,,,,,,,,,,,,,,,,,,,,,,,,,,,,"MET11504/19/20 06:53:02 METAR KFRG 191153Z 24007KT 10SM CLR 07/M01 A2995 RMK AO2 SLP141 70001 T00721006 10072 20017 51005","FM-15","7",,,,,,,,,,,,,,,,,,,,,,,,,,,,"2009-05-18"
"74486454787","2020-04-19T07:53:00","FM-15","7",,,,,,,,,,,,,,,,,,,,,,,,,,,,,,,,,,,,,,"29.95","30","49","0.00",,,,"48","29.95","CLR:00","29.86","10.00","41","260",,"15",,,,,,,,,,,,,,,,,,,,,,,,,,,,,,,,,,,,,"MET09104/19/20 07:53:02 METAR KFRG 191253Z 26013KT 10SM CLR 09/M01 A2995 RMK AO2 SLP142 T00941011","FM-15","7",,,,,,,,,,,,,,,,,,,,,,,,,,,,"2009-05-18"
"74486454787","2020-04-19T08:53:00","FM-15","7",,,,,,,,,,,,,,,,,,,,,,,,,,,,,,,,,,,,,,"29.93","31","52","0.00",,,,"45","29.93","CLR:00","29.84","10.00","43","240",,"14",,,,,,,,,,,,,,,,,,,,,,,,,,,,,,,,,,,,,"MET09104/19/20 08:53:02 METAR KFRG 191353Z 24012KT 10SM CLR 11/M01 A2993 RMK AO2 SLP136 T01111006","FM-15","7",,,,,,,,,,,,,,,,,,,,,,,,,,,,"2009-05-18"
"74486454787","2020-04-19T09:53:00","FM-15","7",,,,,,,,,,,,,,,,,,,,,,,,,,,,,,,,,,,,,,"29.91","32","54","0.00",,"+0.04","8","43","29.91","CLR:00","29.82","10.00","44","230","23","18",,,,,,,,,,,,,,,,,,,,,,,,,,,,,,,,,,,,,"MET09904/19/20 09:53:02 METAR KFRG 191453Z 23016G20KT 10SM CLR 12/00 A2991 RMK AO2 SLP128 T01220000 58013","FM-15","7",,,,,,,,,,,,,,,,,,,,,,,,,,,,"2009-05-18"
"74486454787","2020-04-19T10:53:00","FM-15","7",,,,,,,,,,,,,,,,,,,,,,,,,,,,,,,,,,,,,,"29.90","33","57","0.00",,,,"41","29.90","CLR:00","29.81","10.00","46","220","26","21",,,,,,,,,,,,,,,,,,,,,,,,,,,,,,,,,,,,,"MET09304/19/20 10:53:02 METAR KFRG 191553Z 22018G23KT 10SM CLR 14/01 A2990 RMK AO2 SLP124 T01390006","FM-15","7",,,,,,,,,,,,,,,,,,,,,,,,,,,,"2009-05-18"
"74486454787","2020-04-19T11:53:00","FM-15","7",,,,,,,,,,,,,,,,,,,,,,,,,,,,,,,,,,,,,,"29.87","37","57","0.00",,,,"47","29.86","CLR:00","29.78","10.00","48","200",,"22",,,,,,,,,,,,,,,,,,,,,,,,,,,,,,,,,,,,,"MET10804/19/20 11:53:02 METAR KFRG 191653Z 20019KT 10SM CLR 14/03 A2987 RMK AO2 PK WND 22026/1624 SLP113 T01390028","FM-15","7",,,,,,,,,,,,,,,,,,,,,,,,,,,,"2009-05-18"
"74486454787","2020-04-19T12:53:00","FM-15","7",,,,,,,,,,,,,,,,,,,,,,,,,,,,,,,,,,,,,,"29.84","37","57","0.00",,"+0.06","8","47","29.84","CLR:00","29.75","10.00","48","220","30","23",,,,,,,,,,,,,,,,,,,,,,,,,,,,,,,,,,,,,"MET12904/19/20 12:53:02 METAR KFRG 191753Z 22020G26KT 10SM CLR 14/03 A2984 RMK AO2 PK WND 21026/1747 SLP106 T01390028 10144 20072 58022","FM-15","7",,,,,,,,,,,,,,,,,,,,,,,,,,,,"2009-05-18"
"74486454787","2020-04-19T13:53:00","FM-15","7",,,,,,,,,,,,,,,,,,,,,,,,,,,,,,,,,,,,,,"29.82","39","56","0.00",,,,"53","29.82","CLR:00","29.73","10.00","48","200","32","24",,,,,,,,,,,,,,,,,,,,,,,,,,,,,,,,,,,,,"MET11104/19/20 13:53:02 METAR KFRG 191853Z 20021G28KT 10SM CLR 13/04 A2982 RMK AO2 PK WND 20029/1841 SLP097 T01330039","FM-15","7",,,,,,,,,,,,,,,,,,,,,,,,,,,,"2009-05-18"
"74486454787","2020-04-19T14:53:00","FM-15","7",,,,,,,,,,,,,,,,,,,,,,,,,,,,,,,,,,,,,,"29.78","38","54","0.00",,,,"55","29.78","CLR:00","29.69","10.00","46","210","34","25",,,,,,,,,,,,,,,,,,,,,,,,,,,,,,,,,,,,,"MET11104/19/20 14:53:02 METAR KFRG 191953Z 21022G30KT 10SM CLR 12/03 A2978 RMK AO2 PK WND 21030/1947 SLP084 T01220033","FM-15","7",,,,,,,,,,,,,,,,,,,,,,,,,,,,"2009-05-18"
"74486454787","2020-04-19T15:53:00","FM-15","7",,,,,,,,,,,,,,,,,,,,,,,,,,,,,,,,,,,,,,"29.77","39","53","0.00",,"+0.08","6","59","29.77","CLR:00","29.68","10.00","46","210","36","25",,,,,,,,,,,,,,,,,,,,,,,,,,,,,,,,,,,,,"MET11704/19/20 15:53:02 METAR KFRG 192053Z 21022G31KT 10SM CLR 12/04 A2977 RMK AO2 PK WND 21031/2047 SLP080 T01170039 56026","FM-15","7",,,,,,,,,,,,,,,,,,,,,,,,,,,,"2009-05-18"
"74486454787","2020-04-19T16:53:00","FM-15","7",,,,,,,,,,,,,,,,,,,,,,,,,,,,,,,,,,,,,,"29.76","38","53","0.00",,,,"57","29.75","CLR:00","29.67","10.00","46","220","29","23",,,,,,,,,,,,,,,,,,,,,,,,,,,,,,,,,,,,,"MET11104/19/20 16:53:02 METAR KFRG 192153Z 22020G25KT 10SM CLR 12/03 A2976 RMK AO2 PK WND 22033/2106 SLP076 T01170033","FM-15","7",,,,,,,,,,,,,,,,,,,,,,,,,,,,"2009-05-18"
"74486454787","2020-04-19T17:53:00","FM-15","7",,,,,,,,,,,,,,,,,,,,,,,,,,,,,,,,,,,,,,"29.73","40","52","0.00",,,,"64","29.73","CLR:00","29.64","10.00","46","220","33","18",,,,,,,,,,,,,,,,,,,,,,,,,,,,,,,,,,,,,"MET11104/19/20 17:53:02 METAR KFRG 192253Z 22016G29KT 10SM CLR 11/04 A2973 RMK AO2 PK WND 21029/2247 SLP069 T01110044","FM-15","7",,,,,,,,,,,,,,,,,,,,,,,,,,,,"2009-05-18"
"74486454787","2020-04-19T18:53:00","FM-15","7",,,,,,,,,,,,,,,,,,,,,,,,,,,,,,,,,,,,,,"29.74","41","52","0.00",,"+0.03","5","66","29.74","BKN:07 120","29.65","10.00","47","220",,"16",,,,,,,,,,,,,,,,,,,,,,,,,,,,,,,,,,,,,"MET11104/19/20 18:53:02 METAR KFRG 192353Z 22014KT 10SM BKN120 11/05 A2974 RMK AO2 SLP071 T01110050 10139 20106 55009","FM-15","7",,,,,,,,,,,,,,,,,,,,,,,,,,,,"2009-05-18"
"74486454787","2020-04-19T19:53:00","FM-15","7",,,,,,,,,,,,,,,,,,,,,,,,,,,,,,,,,,,,,,"29.75","41","53","0.00",,,,"64","29.75","OVC:08 100","29.66","10.00","47","220",,"14",,,,,,,,,,,,,,,,,,,,,,,,,,,,,,,,,,,,,"MET09304/19/20 19:53:01 METAR KFRG 200053Z 22012KT 10SM OVC100 12/05 A2975 RMK AO2 SLP075 T01170050","FM-15","7",,,,,,,,,,,,,,,,,,,,,,,,,,,,"2009-05-18"
"74486454787","2020-04-19T20:53:00","FM-15","7",,,,,,,,,,,,,,,,,,,,,,,,,,,,,,,,,,,,,,"29.75","42","52","0.00",,,,"69","29.75","OVC:08 110","29.66","10.00","47","220",,"9",,,,,,,,,,,,,,,,,,,,,,,,,,,,,,,,,,,,,"MET09304/19/20 20:53:01 METAR KFRG 200153Z 22008KT 10SM OVC110 11/06 A2975 RMK AO2 SLP074 T01110056","FM-15","7",,,,,,,,,,,,,,,,,,,,,,,,,,,,"2009-05-18"
"74486454787","2020-04-19T21:53:00","FM-15","7",,,,,,,,,,,,,,,,,,,,,,,,,,,,,,,,,,,,,,"29.73","43","51","0.00",,"+0.01","8","74","29.73","OVC:08 100","29.64","10.00","47","210",,"8",,,,,,,,,,,,,,,,,,,,,,,,,,,,,,,,,,,,,"MET09904/19/20 21:53:01 METAR KFRG 200253Z 21007KT 10SM OVC100 11/06 A2973 RMK AO2 SLP069 T01060061 58002","FM-15","7",,,,,,,,,,,,,,,,,,,,,,,,,,,,"2009-05-18"
"74486454787","2020-04-19T22:53:00","FM-15","7",,,,,,,,,,,,,,,,,,,,,,,,,,,,,,,,,,,,,,"29.72","43","52","0.00",,,,"72","29.72","CLR:00","29.63","10.00","48","220",,"5",,,,,,,,,,,,,,,,,,,,,,,,,,,,,,,,,,,,,"MET09004/19/20 22:53:02 METAR KFRG 200353Z 22004KT 10SM CLR 11/06 A2972 RMK AO2 SLP065 T01110061","FM-15","7",,,,,,,,,,,,,,,,,,,,,,,,,,,,"2009-05-18"
"74486454787","2020-04-19T23:53:00","FM-15","7",,,,,,,,,,,,,,,,,,,,,,,,,,,,,,,,,,,,,,"29.71","42","52","0.00",,,,"69","29.71","SCT:04 110","29.62","10.00","47","230",,"5",,,,,,,,,,,,,,,,,,,,,,,,,,,,,,,,,,,,,"MET10304/19/20 23:53:02 METAR KFRG 200453Z 23004KT 10SM SCT110 11/06 A2971 RMK AO2 SLP061 T01110056 401440017","FM-15","7",,,,,,,,,,,,,,,,,,,,,,,,,,,,"2009-05-18"
"74486454787","2020-04-19T23:59:00","SOD  ","6",,,,,,,,,,,,,,,,"47",,,"29.78",,"13.4","0","-4.0","18","58","35","220","38","0.00",,,"220","30",,,,,,,,,,,,,,,,,,,,,,,,,,,,,,,,,,,,,,,,,,,,,,,,,,,,,,,,,"SOD73024 HR PRECIPITATION (IN):0.00  24 HR MAX TEMP (F):58 24 HR MAX TEMP TIME (LST):1244 24 HR MIN TEMP (F):35 24 HR MIN TEMP TIME (LST):0447 AVERAGE STATION PRESSURE:29.775 MINIMUM SEA LEVEL PRESSURE:29.71 TIME OF OCCURRENCE:2359 PEAK WIND SPEED (MPH):38  PEAK WIND DIR (DEG):220 PEAK WIND TIME (LST):1606  FASTEST 2MIN SPEED (MPH):30 FASTEST 2MIN DIR (DEG):220 FASTEST 2MIN TIME (LST):1606 AVERAGE WIND SPEED (MPH):13.4 24 HR AVG TEMP (F):47 HEATING DEGREE DAYS:18  COOLING DEGREE DAYS:0   LATEST DAY MAX TEMP (0700-1900 LST):58  LATEST NIGHT MIN TEMP(1900-0800 LST):35 HOURLY INCREMENTAL PRECIPITATION VALUES (IN):.00 0.00 0.00 0.00 0.00 0.00 0.00 0.00 0.00 0.00 0.00 0.00 0.00 0.00 0.00 0.00 0.00 0.00 0.00 0.00 0.00 0.00 0.00 0.00","SOD  ","6",,,,,,,,,,,,,,,,,,,,,,,,,"0508","1838",,"2009-05-18"
"74486454787","2020-04-20T00:53:00","FM-15","7",,,,,,,,,,,,,,,,,,,,,,,,,,,,,,,,,,,,,,"29.69","42","52","0.00",,"+0.05","8","69","29.68","BKN:07 110","29.60","10.00","47","290",,"3",,,,,,,,,,,,,,,,,,,,,,,,,,,,,,,,,,,,,"MET11104/20/20 00:53:02 METAR KFRG 200553Z 29003KT 10SM BKN110 11/06 A2969 RMK AO2 SLP052 T01110056 10117 20106 58016","FM-15","7",,,,,,,,,,,,,,,,,,,,,,,,,,,,"2009-05-18"
"74486454787","2020-04-20T01:53:00","FM-15","7",,,,,,,,,,,,,,,,,,,,,,,,,,,,,,,,,,,,,,"29.67","41","52","0.00",,,,"66","29.67","FEW:02 120","29.58","10.00","47","000",,"0",,,,,,,,,,,,,,,,,,,,,,,,,,,,,,,,,,,,,"MET09304/20/20 01:53:02 METAR KFRG 200653Z 00000KT 10SM FEW120 11/05 A2967 RMK AO2 SLP048 T01110050","FM-15","7",,,,,,,,,,,,,,,,,,,,,,,,,,,,"2009-05-18"
"74486454787","2020-04-20T02:53:00","FM-15","7",,,,,,,,,,,,,,,,,,,,,,,,,,,,,,,,,,,,,,"29.67","41","51","0.00",,,,"69","29.67","SCT:04 110","29.58","10.00","46","000",,"0",,,,,,,,,,,,,,,,,,,,,,,,,,,,,,,,,,,,,"MET09304/20/20 02:53:02 METAR KFRG 200753Z 00000KT 10SM SCT110 11/05 A2967 RMK AO2 SLP048 T01060050","FM-15","7",,,,,,,,,,,,,,,,,,,,,,,,,,,,"2009-05-18"
"74486454787","2020-04-20T03:53:00","FM-15","7",,,,,,,,,,,,,,,,,,,,,,,,,,,,,,,,,,,,,,"29.66","37","54","0.00",,"+0.02","6","53","29.66","OVC:08 120","29.57","10.00","46","350",,"5",,,,,,,,,,,,,,,,,,,,,,,,,,,,,,,,,,,,,"MET09904/20/20 03:53:02 METAR KFRG 200853Z 35004KT 10SM OVC120 12/03 A2966 RMK AO2 SLP045 T01220028 56007","FM-15","7",,,,,,,,,,,,,,,,,,,,,,,,,,,,"2009-05-18"
"74486454787","2020-04-20T04:53:00","FM-15","7",,,,,,,,,,,,,,,,,,,,,,,,,,,,,,,,,,,,,,"29.67","36","53","0.00",,,,"52","29.67","OVC:08 110","29.58","10.00","45","060",,"5",,,,,,,,,,,,,,,,,,,,,,,,,,,,,,,,,,,,,"MET09304/20/20 04:53:02 METAR KFRG 200953Z 06004KT 10SM OVC110 12/02 A2967 RMK AO2 SLP048 T01170022","FM-15","7",,,,,,,,,,,,,,,,,,,,,,,,,,,,"2009-05-18"
"74486454787","2020-04-20T05:53:00","FM-15","7",,,,,,,,,,,,,,,,,,,,,,,,,,,,,,,,,,,,,,"29.68","37","52","0.00",,,,"57","29.68","OVC:08 110","29.59","10.00","45","050",,"6",,,,,,,,,,,,,,,,,,,,,,,,,,,,,,,,,,,,,"MET09304/20/20 05:53:02 METAR KFRG 201053Z 05005KT 10SM OVC110 11/03 A2968 RMK AO2 SLP050 T01110028","FM-15","7",,,,,,,,,,,,,,,,,,,,,,,,,,,,"2009-05-18"
"74486454787","2020-04-20T06:53:00","FM-15","7",,,,,,,,,,,,,,,,,,,,,,,,,,,,,,,,,,,,,,"29.69","38","52","0.00",,"-0.02","3","59","29.69","BKN:07 110","29.60","10.00","45","040",,"9",,,,,,,,,,,,,,,,,,,,,,,,,,,,,,,,,,,,,"MET11104/20/20 06:53:02 METAR KFRG 201153Z 04008KT 10SM BKN110 11/03 A2969 RMK AO2 SLP053 T01110033 10122 20100 53008","FM-15","7",,,,,,,,,,,,,,,,,,,,,,,,,,,,"2009-05-18"
"74486454787","2020-04-20T07:53:00","FM-15","7",,,,,,,,,,,,,,,,,,,,,,,,,,,,,,,,,,,,,,"29.68","37","52","0.00",,,,"57","29.68","CLR:00","29.59","10.00","45","030",,"16",,,,,,,,,,,,,,,,,,,,,,,,,,,,,,,,,,,,,"MET09004/20/20 07:53:02 METAR KFRG 201253Z 03014KT 10SM CLR 11/03 A2968 RMK AO2 SLP051 T01110028","FM-15","7",,,,,,,,,,,,,,,,,,,,,,,,,,,,"2009-05-18"
"74486454787","2020-04-20T08:53:00","FM-15","7",,,,,,,,,,,,,,,,,,,,,,,,,,,,,,,,,,,,,,"29.66","36","52","0.00",,,,"55","29.66","FEW:02 100","29.57","10.00","45","030",,"15",,,,,,,,,,,,,,,,,,,,,,,,,,,,,,,,,,,,,"MET09304/20/20 08:53:02 METAR KFRG 201353Z 03013KT 10SM FEW100 11/02 A2966 RMK AO2 SLP044 T01110022","FM-15","7",,,,,,,,,,,,,,,,,,,,,,,,,,,,"2009-05-18"
"74486454787","2020-04-20T09:53:00","FM-15","7",,,,,,,,,,,,,,,,,,,,,,,,,,,,,,,,,,,,,,"29.67","31","51","0.00",,"+0.02","5","46","29.67","BKN:07 100","29.58","10.00","42","030",,"17",,,,,,,,,,,,,,,,,,,,,,,,,,,,,,,,,,,,,"MET10004/20/20 09:53:02 METAR KFRG 201453Z 03015KT 10SM BKN100 11/M01 A2967 RMK AO2 SLP046 T01061006 55007","FM-15","7",,,,,,,,,,,,,,,,,,,,,,,,,,,,"2009-05-18"
"74486454787","2020-04-20T10:53:00","FM-15","7",,,,,,,,,,,,,,,,,,,,,,,,,,,,,,,,,,,,,,"29.65","30","50","0.00",,,,"46","29.65","CLR:00","29.56","10.00","41","020",,"13",,,,,,,,,,,,,,,,,,,,,,,,,,,,,,,,,,,,,"MET09104/20/20 10:53:02 METAR KFRG 201553Z 02011KT 10SM CLR 10/M01 A2965 RMK AO2 SLP040 T01001011","FM-15","7",,,,,,,,,,,,,,,,,,,,,,,,,,,,"2009-05-18"
"74486454787","2020-04-20T11:53:00","FM-15","7",,,,,,,,,,,,,,,,,,,,,,,,,,,,,,,,,,,,,,"29.63","29","52","0.00",,,,"41","29.63","CLR:00","29.54","10.00","42","010",,"11",,,,,,,,,,,,,,,,,,,,,,,,,,,,,,,,,,,,,"MET09104/20/20 11:53:02 METAR KFRG 201653Z 01010KT 10SM CLR 11/M02 A2963 RMK AO2 SLP035 T01111017","FM-15","7",,,,,,,,,,,,,,,,,,,,,,,,,,,,"2009-05-18"
"74486454787","2020-04-20T12:53:00","FM-15","7",,,,,,,,,,,,,,,,,,,,,,,,,,,,,,,,,,,,,,"29.62","29","54","0.00",,"+0.05","6","38","29.62","CLR:00","29.53","10.00","43","010","20","15",,,,,,,,,,,,,,,,,,,,,,,,,,,,,,,,,,,,,"MET11204/20/20 12:53:02 METAR KFRG 201753Z 01013G17KT 10SM CLR 12/M02 A2962 RMK AO2 SLP030 T01221017 10122 20100 56016","FM-15","7",,,,,,,,,,,,,,,,,,,,,,,,,,,,"2009-05-18"
"74486454787","2020-04-20T13:53:00","FM-15","7",,,,,,,,,,,,,,,,,,,,,,,,,,,,,,,,,,,,,,"29.61","29","55","0.00",,,,"37","29.61","CLR:00","29.52","10.00","44","040",,"11",,,,,,,,,,,,,,,,,,,,,,,,,,,,,,,,,,,,,"MET09104/20/20 13:53:02 METAR KFRG 201853Z 04010KT 10SM CLR 13/M02 A2961 RMK AO2 SLP026 T01281017","FM-15","7",,,,,,,,,,,,,,,,,,,,,,,,,,,,"2009-05-18"
"74486454787","2020-04-20T14:53:00","FM-15","7",,,,,,,,,,,,,,,,,,,,,,,,,,,,,,,,,,,,,,"29.60","29","55","0.00",,,,"37","29.60","CLR:00","29.51","10.00","44",,,,,,,,,,,,,,,,,,,,,,,,,,,,,,,,,,,,,,,,"MET09104/20/20 14:53:02 METAR KFRG 201953Z      KT 10SM CLR 13/M02 A2960 RMK AO2 SLP025 T01281017","FM-15","7",,,,,,,,,,,,,,,,,,,,,,,,,,,,"2009-05-18"
"74486454787","2020-04-20T15:53:00","FM-15","7",,,,,,,,,,,,,,,,,,,,,,,,,,,,,,,,,,,,,,"29.60","28","55","0.00",,"+0.01","6","35","29.60","CLR:00","29.51","10.00","43","090",,"5",,,,,,,,,,,,,,,,,,,,,,,,,,,,,,,,,,,,,"MET09704/20/20 15:53:02 METAR KFRG 202053Z 09004KT 10SM CLR 13/M02 A2960 RMK AO2 SLP025 T01281022 56005","FM-15","7",,,,,,,,,,,,,,,,,,,,,,,,,,,,"2009-05-18"
"74486454787","2020-04-20T16:53:00","FM-15","7",,,,,,,,,,,,,,,,,,,,,,,,,,,,,,,,,,,,,,"29.62","28","55","0.00",,,,"35","29.62","CLR:00","29.53","10.00","43","020",,"5",,,,,,,,,,,,,,,,,,,,,,,,,,,,,,,,,,,,,"MET09104/20/20 16:53:02 METAR KFRG 202153Z 02004KT 10SM CLR 13/M02 A2962 RMK AO2 SLP029 T01281022","FM-15","7",,,,,,,,,,,,,,,,,,,,,,,,,,,,"2009-05-18"
"74486454787","2020-04-20T17:53:00","FM-15","7",,,,,,,,,,,,,,,,,,,,,,,,,,,,,,,,,,,,,,"29.62","28","54","0.00",,,,"37","29.62","CLR:00","29.53","10.00","43","000",,"0",,,,,,,,,,,,,,,,,,,,,,,,,,,,,,,,,,,,,"MET09104/20/20 17:53:02 METAR KFRG 202253Z 00000KT 10SM CLR 12/M02 A2962 RMK AO2 SLP029 T01221022","FM-15","7",,,,,,,,,,,,,,,,,,,,,,,,,,,,"2009-05-18"
"74486454787","2020-04-20T18:53:00","FM-15","7",,,,,,,,,,,,,,,,,,,,,,,,,,,,,,,,,,,,,,"29.64","39","49","0.00",,"-0.03","3","69","29.64","CLR:00","29.55","10.00","44","130",,"8",,,,,,,,,,,,,,,,,,,,,,,,,,,,,,,,,,,,,"MET10804/20/20 18:53:02 METAR KFRG 202353Z 13007KT 10SM CLR 09/04 A2964 RMK AO2 SLP036 T00940039 10133 20094 53010","FM-15","7",,,,,,,,,,,,,,,,,,,,,,,,,,,,"2009-05-18"
"74486454787","2020-04-20T19:53:00","FM-15","7",,,,,,,,,,,,,,,,,,,,,,,,,,,,,,,,,,,,,,"29.66","41","48","0.00",,,,"77","29.66","CLR:00","29.57","10.00","45","140",,"7",,,,,,,,,,,,,,,,,,,,,,,,,,,,,,,,,,,,,"MET09004/20/20 19:53:01 METAR KFRG 210053Z 14006KT 10SM CLR 09/05 A2966 RMK AO2 SLP045 T00890050","FM-15","7",,,,,,,,,,,,,,,,,,,,,,,,,,,,"2009-05-18"
"74486454787","2020-04-20T20:53:00","FM-15","7",,,,,,,,,,,,,,,,,,,,,,,,,,,,,,,,,,,,,,"29.68","40","47","0.00",,,,"77","29.68","CLR:00","29.59","10.00","44","160",,"7",,,,,,,,,,,,,,,,,,,,,,,,,,,,,,,,,,,,,"MET09004/20/20 20:53:01 METAR KFRG 210153Z 16006KT 10SM CLR 08/04 A2968 RMK AO2 SLP052 T00830044","FM-15","7",,,,,,,,,,,,,,,,,,,,,,,,,,,,"2009-05-18"
"74486454787","2020-04-20T21:53:00","FM-15","7",,,,,,,,,,,,,,,,,,,,,,,,,,,,,,,,,,,,,,"29.70","39","45","0.00",,"-0.06","1","80","29.70","CLR:00","29.61","10.00","42","170",,"6",,,,,,,,,,,,,,,,,,,,,,,,,,,,,,,,,,,,,"MET09604/20/20 21:53:01 METAR KFRG 210253Z 17005KT 10SM CLR 07/04 A2970 RMK AO2 SLP056 T00720039 51020","FM-15","7",,,,,,,,,,,,,,,,,,,,,,,,,,,,"2009-05-18"
"74486454787","2020-04-20T22:53:00","FM-15","7",,,,,,,,,,,,,,,,,,,,,,,,,,,,,,,,,,,,,,"29.71","38","45","0.00",,,,"77","29.71","CLR:00","29.62","10.00","42","180",,"6",,,,,,,,,,,,,,,,,,,,,,,,,,,,,,,,,,,,,"MET09004/20/20 22:53:02 METAR KFRG 210353Z 18005KT 10SM CLR 07/03 A2971 RMK AO2 SLP062 T00720033","FM-15","7",,,,,,,,,,,,,,,,,,,,,,,,,,,,"2009-05-18"
"74486454787","2020-04-20T23:53:00","FM-15","7",,,,,,,,,,,,,,,,,,,,,,,,,,,,,,,,,,,,,,"29.71","39","45","0.00",,,,"80","29.71","CLR:00","29.62","10.00","42","170",,"9",,,,,,,,,,,,,,,,,,,,,,,,,,,,,,,,,,,,,"MET10004/20/20 23:53:02 METAR KFRG 210453Z 17008KT 10SM CLR 07/04 A2971 RMK AO2 SLP062 T00720039 401330067","FM-15","7",,,,,,,,,,,,,,,,,,,,,,,,,,,,"2009-05-18"
"74486454787","2020-04-20T23:59:00","SOD  ","6",,,,,,,,,,,,,,,,"50",,,"29.57",,"7.8","0","-1.3","15","56","44","360","24","0.00",,,"360","17",,,,,,,,,,,,,,,,,,,,,,,,,,,,,,,,,,,,,,,,,,,,,,,,,,,,,,,,,"SOD73024 HR PRECIPITATION (IN):0.00  24 HR MAX TEMP (F):56 24 HR MAX TEMP TIME (LST):1524 24 HR MIN TEMP (F):44 24 HR MIN TEMP TIME (LST):2349 AVERAGE STATION PRESSURE:29.565 MINIMUM SEA LEVEL PRESSURE:29.60 TIME OF OCCURRENCE:1604 PEAK WIND SPEED (MPH):24  PEAK WIND DIR (DEG):360 PEAK WIND TIME (LST):1222  FASTEST 2MIN SPEED (MPH):17 FASTEST 2MIN DIR (DEG):360 FASTEST 2MIN TIME (LST):1216 AVERAGE WIND SPEED (MPH):7.8  24 HR AVG TEMP (F):50 HEATING DEGREE DAYS:15  COOLING DEGREE DAYS:0   LATEST DAY MAX TEMP (0700-1900 LST):56  LATEST NIGHT MIN TEMP(1900-0800 LST):50 HOURLY INCREMENTAL PRECIPITATION VALUES (IN):.00 0.00 0.00 0.00 0.00 0.00 0.00 0.00 0.00 0.00 0.00 0.00 0.00 0.00 0.00 0.00 0.00 0.00 0.00 0.00 0.00 0.00 0.00 0.00","SOD  ","6",,,,,,,,,,,,,,,,,,,,,,,,,"0506","1839",,"2009-05-18"
"74486454787","2020-04-21T00:53:00","FM-15","7",,,,,,,,,,,,,,,,,,,,,,,,,,,,,,,,,,,,,,"29.72","40","46","0.00",,"-0.02","1","79","29.72","CLR:00","29.63","10.00","43","200",,"7",,,,,,,,,,,,,,,,,,,,,,,,,,,,,,,,,,,,,"MET10804/21/20 00:53:02 METAR KFRG 210553Z 20006KT 10SM CLR 08/04 A2972 RMK AO2 SLP063 T00780044 10094 20067 51007","FM-15","7",,,,,,,,,,,,,,,,,,,,,,,,,,,,"2009-05-18"
"74486454787","2020-04-21T01:53:00","FM-15","7",,,,,,,,,,,,,,,,,,,,,,,,,,,,,,,,,,,,,,"29.70","39","44","0.00",,,,"83","29.70","CLR:00","29.61","10.00","42","190",,"6",,,,,,,,,,,,,,,,,,,,,,,,,,,,,,,,,,,,,"MET09004/21/20 01:53:02 METAR KFRG 210653Z 19005KT 10SM CLR 07/04 A2970 RMK AO2 SLP057 T00670039","FM-15","7",,,,,,,,,,,,,,,,,,,,,,,,,,,,"2009-05-18"
"74486454787","2020-04-21T02:53:00","FM-15","7",,,,,,,,,,,,,,,,,,,,,,,,,,,,,,,,,,,,,,"29.69","39","44","0.00",,,,"83","29.69","CLR:00","29.60","10.00","42","180",,"5",,,,,,,,,,,,,,,,,,,,,,,,,,,,,,,,,,,,,"MET09004/21/20 02:53:02 METAR KFRG 210753Z 18004KT 10SM CLR 07/04 A2969 RMK AO2 SLP053 T00670039","FM-15","7",,,,,,,,,,,,,,,,,,,,,,,,,,,,"2009-05-18"
"74486454787","2020-04-21T03:53:00","FM-15","7",,,,,,,,,,,,,,,,,,,,,,,,,,,,,,,,,,,,,,"29.67","41","45","0.00",,"+0.04","6","86","29.67","FEW:02 70","29.58","10.00","43","190",,"8",,,,,,,,,,,,,,,,,,,,,,,,,,,,,,,,,,,,,"MET09904/21/20 03:53:02 METAR KFRG 210853Z 19007KT 10SM FEW070 07/05 A2967 RMK AO2 SLP049 T00720050 56015","FM-15","7",,,,,,,,,,,,,,,,,,,,,,,,,,,,"2009-05-18"
"74486454787","2020-04-21T04:53:00","FM-15","7",,,,,,,,,,,,,,,,,,,,,,,,,,,,,,,,,,,,,,"29.66","42","46","0.00",,,,"86","29.66","FEW:02 65","29.57","10.00","44","180",,"8",,,,,,,,,,,,,,,,,,,,,,,,,,,,,,,,,,,,,"MET09304/21/20 04:53:02 METAR KFRG 210953Z 18007KT 10SM FEW065 08/06 A2966 RMK AO2 SLP044 T00780056","FM-15","7",,,,,,,,,,,,,,,,,,,,,,,,,,,,"2009-05-18"
"74486454787","2020-04-21T05:53:00","FM-15","7",,,,,,,,,,,,,,,,,,,,,,,,,,,,,,,,,,,,,,"29.66","44","49","T",,,,"83","29.66","FEW:02 32 BKN:07 50 BKN:07 60","29.57","10.00","47","190",,"11",,,,,,,,,,,,,,,,,,,,,,,,,,,,,,,,,,,,,"MET10704/21/20 05:53:02 METAR KFRG 211053Z 19010KT 10SM FEW032 BKN050 BKN060 09/07 A2966 RMK AO2 SLP043 T00940067","FM-15","7",,,,,,,,,,,,,,,,,,,,,,,,,,,,"2009-05-18"
"74486454787","2020-04-21T06:53:00","FM-15","7",,,,,,,,,,,,,,,,,,,,,,,,,,,,,,,,,,,,,,"29.64","44","50","T",,"+0.04","8","80","29.64","FEW:02 13 BKN:07 40 OVC:08 55","29.55","10.00","47","190",,"13",,,,,,,,,,,,,,,,,,,,,,,,,,,,,,,,,,,,,"MET14804/21/20 06:53:02 METAR KFRG 211153Z 19011KT 10SM FEW013 BKN040 OVC055 10/07 A2964 RMK AO2 RAB1056E08 SLP037 P0000 60000 T01000067 10100 20061 58012","FM-15","7",,,,,,,,,,,,,,,,,,,,,,,,,,,,"2009-05-18"
"74486454787","2020-04-21T07:30:00","FM-16","7",,,,,,,,,,,,,,,,,,,,,,,,,,,,,,,,,,,,,,"29.63","44","50",,,,,"80",,"BKN:07 12 OVC:08 40","29.54","10.00","47","200",,"16",,,,,,,,,,,,,,,,,,,,,,,,,,,,,,,,,,,,,"MET09304/21/20 07:30:02 SPECI KFRG 211230Z 20014KT 10SM BKN012 OVC040 10/07 A2963 RMK AO2 T01000067","FM-16","7",,,,,,,,,,,,,,,,,,,,,,,,,,,,"2009-05-18"
"74486454787","2020-04-21T07:53:00","FM-15","7",,,,,,,,,,,,,,,,,,,,,,,,,,,,,,,,,,,,,,"29.62","45","51","0.00",,,,"80","29.62","OVC:08 12","29.53","10.00","48","190",,"15",,,,,,,,,,,,,,,,,,,,,,,,,,,,,,,,,,,,,"MET09304/21/20 07:53:02 METAR KFRG 211253Z 19013KT 10SM OVC012 11/07 A2962 RMK AO2 SLP031 T01060072","FM-15","7",,,,,,,,,,,,,,,,,,,,,,,,,,,,"2009-05-18"
"74486454787","2020-04-21T08:53:00","FM-15","7",,,,,,,,,,,,,,,,,,,,,,,,,,,,,,,,,,,,,,"29.60","45","52","0.00",,,,"77","29.60","OVC:08 11","29.51","10.00","49","190","25","17",,,,,,,,,,,,,,,,,,,,,,,,,,,,,,,,,,,,,"MET09604/21/20 08:53:02 METAR KFRG 211353Z 19015G22KT 10SM OVC011 11/07 A2960 RMK AO2 SLP024 T01110072","FM-15","7",,,,,,,,,,,,,,,,,,,,,,,,,,,,"2009-05-18"
"74486454787","2020-04-21T09:53:00","FM-15","7",,,,,,,,,,,,,,,,,,,,,,,,,,,,,,,,,,,,,,"29.56","45","53","0.00",,"+0.07","8","74","29.56","BKN:07 12 OVC:08 17","29.47","10.00","49","190","30","23",,,,,,,,,,,,,,,,,,,,,,,,,,,,,,,,,,,,,"MET12704/21/20 09:53:02 METAR KFRG 211453Z 19020G26KT 10SM BKN012 OVC017 12/07 A2956 RMK AO2 PK WND 19026/1453 SLP011 T01170072 58025","FM-15","7",,,,,,,,,,,,,,,,,,,,,,,,,,,,"2009-05-18"
"74486454787","2020-04-21T10:53:00","FM-15","7",,,,,,,,,,,,,,,,,,,,,,,,,,,,,,,,,,,,,,"29.52","46","55","0.00",,,,"72","29.52","BKN:07 14","29.43","10.00","50","190","38","28",,,,,,,,,,,,,,,,,,,,,,,,,,,,,,,,,,,,,"MET11404/21/20 10:53:02 METAR KFRG 211553Z 19024G33KT 10SM BKN014 13/08 A2952 RMK AO2 PK WND 20033/1545 SLP998 T01280078","FM-15","7",,,,,,,,,,,,,,,,,,,,,,,,,,,,"2009-05-18"
"74486454787","2020-04-21T11:12:00","FM-16","7",,,,,,,,,,,,,,,,,,,,,,,,,,,,,,,,,,,,,,"29.52","45","54",,,,,"72",,"OVC:08 15","29.43","10.00","49","200","39","26",,,,,,,,,,,,,,,,,,,,,,,,,,,,,,,,,,,,,"MET10704/21/20 11:12:02 SPECI KFRG 211612Z 20023G34KT 10SM OVC015 12/07 A2952 RMK AO2 PK WND 19034/1608 T01220072","FM-16","7",,,,,,,,,,,,,,,,,,,,,,,,,,,,"2009-05-18"
"74486454787","2020-04-21T11:30:00","FM-16","7",,,,,,,,,,,,,,,,,,,,,,,,,,,,,,,,,,,,,,"29.51","45","53",,,,,"74",,"OVC:08 14","29.42","10.00","49","200","34","23",,,,,,,,,,,,,,,,,,,,,,,,,,,,,,,,,,,,,"MET11804/21/20 11:30:02 SPECI KFRG 211630Z 20020G30KT 10SM OVC014 12/07 A2951 RMK AO2 PK WND 20034/1615 LTG DSNT W T01170072","FM-16","7",,,,,,,,,,,,,,,,,,,,,,,,,,,,"2009-05-18"
"74486454787","2020-04-21T11:53:00","FM-15","7",,,,,,,,,,,,,,,,,,,,,,,,,,,,,,,,,,,,,,"29.50","46","52","0.00",,,,"80","29.50","OVC:08 12","29.41","10.00","49","200","34","23",,,,,,,,,,,,,,,,,,,,,,,,,,,,,,,,,,,,,"MET13204/21/20 11:53:02 METAR KFRG 211653Z 20020G30KT 10SM OVC012 11/08 A2950 RMK AO2 PK WND 20034/1615 LTG DSNT SW AND W SLP991 T01110078","FM-15","7",,,,,,,,,,,,,,,,,,,,,,,,,,,,"2009-05-18"
"74486454787","2020-04-21T12:33:00","FM-16","7",,,,,,,,,,,,,,,,,,,,,,,,,,,,,,,,,,,,,,"29.49","47","52","0.03","-RA:02 |RA |RA",,,"83",,"BKN:07 9 BKN:07 35 OVC:08 44","29.40","10.00","49","210","26","16",,,,,,,,,,,,,,,,,,,,,,,,,,,,,,,,,,,,,"MET13704/21/20 12:33:02 SPECI KFRG 211733Z 21014G23KT 10SM -RA BKN009 BKN035 OVC044 11/08 A2949 RMK AO2 PK WND 20033/1656 RAB03 P0003 T01110083","FM-16","7",,,,,,,,,,,,,,,,,,,,,,,,,,,,"2009-05-18"
"74486454787","2020-04-21T12:44:00","FM-16","7",,,,,,,,,,,,,,,,,,,,,,,,,,,,,,,,,,,,,,"29.48","48","52","0.03","-RA:02 |RA |RA",,,"86",,"FEW:02 9 SCT:04 39 OVC:08 55","29.39","10.00","50","200","24","17",,,,,,,,,,,,,,,,,,,,,,,,,,,,,,,,,,,,,"MET13704/21/20 12:44:02 SPECI KFRG 211744Z 20015G21KT 10SM -RA FEW009 SCT039 OVC055 11/09 A2948 RMK AO2 PK WND 20033/1656 RAB03 P0003 T01110089","FM-16","7",,,,,,,,,,,,,,,,,,,,,,,,,,,,"2009-05-18"
"74486454787","2020-04-21T12:53:00","FM-15","7",,,,,,,,,,,,,,,,,,,,,,,,,,,,,,,,,,,,,,"29.47","49","53","0.03","-RA:02 |RA |RA","+0.10","6","86","29.47","FEW:02 8 SCT:04 39 OVC:08 55","29.38","9.00","51","200",,"15",,,,,,,,,,,,,,,,,,,,,,,,,,,,,,,,,,,,,"MET17104/21/20 12:53:02 METAR KFRG 211753Z 20013KT 9SM -RA FEW008 SCT039 OVC055 12/09 A2947 RMK AO2 PK WND 20033/1656 RAB03 PRESFR SLP979 P0003 60003 T01170094 10133 20100 56033","FM-15","7",,,,,,,,,,,,,,,,,,,,,,,,,,,,"2009-05-18"
"74486454787","2020-04-21T13:32:00","FM-16","7",,,,,,,,,,,,,,,,,,,,,,,,,,,,,,,,,,,,,,"29.42","50","55","T",,,,"83",,"BKN:07 7 BKN:07 80","29.33","10.00","52","190","23","16",,,,,,,,,,,,,,,,,,,,,,,,,,,,,,,,,,,,,"MET12004/21/20 13:32:02 SPECI KFRG 211832Z 19014G20KT 10SM BKN007 BKN080 13/10 A2942 RMK AO2 LTG DSNT NW RAE03 P0000 T01280100","FM-16","7",,,,,,,,,,,,,,,,,,,,,,,,,,,,"2009-05-18"
"74486454787","2020-04-21T13:40:00","FM-16","7",,,,,,,,,,,,,,,,,,,,,,,,,,,,,,,,,,,,,,"29.42","51","56","T",,,,"84",,"SCT:04 7 BKN:07 80","29.33","10.00","53","190","23","16",,,,,,,,,,,,,,,,,,,,,,,,,,,,,,,,,,,,,"MET12004/21/20 13:40:02 SPECI KFRG 211840Z 19014G20KT 10SM SCT007 BKN080 13/11 A2942 RMK AO2 LTG DSNT NW RAE03 P0000 T01330106","FM-16","7",,,,,,,,,,,,,,,,,,,,,,,,,,,,"2009-05-18"
"74486454787","2020-04-21T13:53:00","FM-15","7",,,,,,,,,,,,,,,,,,,,,,,,,,,,,,,,,,,,,,"29.41","48","54","T",,,,"80","29.41","SCT:04 8 BKN:07 80","29.32","10.00","51","190","26","20",,,,,,,,,,,,,,,,,,,,,,,,,,,,,,,,,,,,,"MET12804/21/20 13:53:02 METAR KFRG 211853Z 19017G23KT 10SM SCT008 BKN080 12/09 A2941 RMK AO2 LTG DSNT W-N RAE03 SLP958 P0000 T01220089","FM-15","7",,,,,,,,,,,,,,,,,,,,,,,,,,,,"2009-05-18"
"74486454787","2020-04-21T14:10:00","FM-16","7",,,,,,,,,,,,,,,,,,,,,,,,,,,,,,,,,,,,,,"29.40","47","53",,,,,"80",,"BKN:07 8 BKN:07 80","29.31","10.00","50","200","30","17",,,,,,,,,,,,,,,,,,,,,,,,,,,,,,,,,,,,,"MET12804/21/20 14:10:02 SPECI KFRG 211910Z 20015G26KT 10SM BKN008 BKN080 12/08 A2940 RMK AO2 PK WND 19026/1901 LTG DSNT SW-N T01170083","FM-16","7",,,,,,,,,,,,,,,,,,,,,,,,,,,,"2009-05-18"
"74486454787","2020-04-21T14:18:00","FM-16","7",,,,,,,,,,,,,,,,,,,,,,,,,,,,,,,,,,,,,,"29.46","47","53",,"VCTS:7 ||",,,"80",,"BKN:07 8 BKN:07 75","29.37","10.00","50","300","28","17",,,,,,,,,,,,,,,,,,,,,,,,,,,,,,,,,,,,,"MET15304/21/20 14:18:02 SPECI KFRG 211918Z 30015G24KT 10SM VCTS BKN008 BKN075 12/08 A2946 RMK AO2 PK WND 19026/1901 LTG DSNT ALQDS CIG 007V013 PRESRR T01170083","FM-16","7",,,,,,,,,,,,,,,,,,,,,,,,,,,,"2009-05-18"
"74486454787","2020-04-21T14:25:00","FM-16","7",,,,,,,,,,,,,,,,,,,,,,,,,,,,,,,,,,,,,,"29.48","43","50","T","VCTS:7 -RA:02 |RA |RA",,,"77",,"SCT:04 8 BKN:07 25 OVC:08 75","29.39","10.00","47","280","36","22",,,,,,,,,,,,,,,,,,,,,,,,,,,,,,,,,,,,,"MET17504/21/20 14:25:02 SPECI KFRG 211925Z 28019G31KT 10SM VCTS -RA SCT008 BKN025 OVC075 10/06 A2948 RMK AO2 PK WND 29031/1922 WSHFT 1911 LTG DSNT ALQDS RAB22 PRESRR P0000 T01000061","FM-16","7",,,,,,,,,,,,,,,,,,,,,,,,,,,,"2009-05-18"
"74486454787","2020-04-21T14:35:00","FM-16","7",,,,,,,,,,,,,,,,,,,,,,,,,,,,,,,,,,,,,,"29.48","40","46","0.08","TS:7 +RA:02 |RA TS TS |RA",,,"79",,"FEW:02 8 BKN:07 37 OVC:08 49","29.39","4.00","43","VRB","20","9",,,,,,,,,,,,,,,,,,,,,,,,,,,,,,,,,,,,,"MET17004/21/20 14:35:02 SPECI KFRG 211935Z 27008G17KT 4SM +TSRA FEW008 BKN037 OVC049 08/04 A2948 RMK AO2 PK WND 29031/1922 WSHFT 1911 LTG DSNT ALQDS RAB22 TSB35 P0008 T00780044","FM-16","7",,,,,,,,,,,,,,,,,,,,,,,,,,,,"2009-05-18"
"74486454787","2020-04-21T14:51:00","FM-16","6",,,,,,,,,,,,,,,,,,,,,,,,,,,,,,,,,,,,,,"29.46","41","46",,"VCTS:7 RA:02 |RA |RA",,,"82",,"FEW:02 25 OVC:08 36","29.37","6.00","44","280","22","11",,,,,,,,,,,,,,,,,,,,,,,,,,,,,,,,,,,,,"MET16204/21/20 14:51:02 SPECI KFRG 211951Z 28010G19KT 6SM VCTS RA FEW025 OVC036 08/05 A2946 RMK AO2 PK WND 29031/1922 WSHFT 1911 LTG DSNT NE-S RAB22 TSB35E50 P0013 FIBI","FM-16","6",,,,,,,,,,,,,,,,,,,,,,,,,,,,"2009-05-18"
"74486454787","2020-04-21T14:53:00","FM-15","7",,,,,,,,,,,,,,,,,,,,,,,,,,,,,,,,,,,,,,"29.46","41","48","0.16","VCTS:7 RA:02 |RA |RA",,,"77","29.46","OVC:08 36","29.37","6.00","45","280","22","11",,,,,,,,,,,,,,,,,,,,,,,,,,,,,,,,,,,,,"MET16704/21/20 14:53:02 METAR KFRG 211953Z 28010G19KT 6SM VCTS RA OVC036 09/05 A2946 RMK AO2 PK WND 29031/1922 WSHFT 1911 LTG DSNT NE-S RAB22 TSB35E50 SLP975 P0014 T00890050","FM-15","7",,,,,,,,,,,,,,,,,,,,,,,,,,,,"2009-05-18"
"74486454787","2020-04-21T15:15:00","FM-16","7",,,,,,,,,,,,,,,,,,,,,,,,,,,,,,,,,,,,,,"29.43","43","50","0.02",,,,"77",,"SCT:04 41 BKN:07 55 OVC:08 100","29.34","10.00","47","240",,"5",,,,,,,,,,,,,,,,,,,,,,,,,,,,,,,,,,,,,"MET13004/21/20 15:15:02 SPECI KFRG 212015Z 24004KT 10SM SCT041 BKN055 OVC100 10/06 A2943 RMK AO2 LTG DSNT NE AND E RAE11 P0002 T01000061","FM-16","7",,,,,,,,,,,,,,,,,,,,,,,,,,,,"2009-05-18"
"74486454787","2020-04-21T15:53:00","FM-15","7",,,,,,,,,,,,,,,,,,,,,,,,,,,,,,,,,,,,,,"29.46","44","51","T",,"+0.01","5","77","29.46","SCT:04 43 BKN:07 100 BKN:07 110","29.37","10.00","48","210",,"9",,,,,,,,,,,,,,,,,,,,,,,,,,,,,,,,,,,,,"MET13104/21/20 15:53:02 METAR KFRG 212053Z 21008KT 10SM SCT043 BKN100 BKN110 11/07 A2946 RMK AO2 RAE11 SLP976 P0002 60016 T01060067 55003","FM-15","7",,,,,,,,,,,,,,,,,,,,,,,,,,,,"2009-05-18"
"74486454787","2020-04-21T16:53:00","FM-15","7",,,,,,,,,,,,,,,,,,,,,,,,,,,,,,,,,,,,,,"29.48","40","54","0.00",,,,"59","29.48","FEW:02 80 SCT:04 120","29.39","10.00","47","310",,"11",,,,,,,,,,,,,,,,,,,,,,,,,,,,,,,,,,,,,"MET10004/21/20 16:53:02 METAR KFRG 212153Z 31010KT 10SM FEW080 SCT120 12/04 A2948 RMK AO2 SLP984 T01220044","FM-15","7",,,,,,,,,,,,,,,,,,,,,,,,,,,,"2009-05-18"
"74486454787","2020-04-21T17:53:00","FM-15","7",,,,,,,,,,,,,,,,,,,,,,,,,,,,,,,,,,,,,,"29.54","37","50","T","-RA:02 |RA |RA",,,"61","29.54","FEW:02 45 BKN:07 60 BKN:07 80","29.45","10.00","44","330","36","14",,,,,,,,,,,,,,,,,,,,,,,,,,,,,,,,,,,,,"MET15104/21/20 17:53:02 METAR KFRG 212253Z 33012G31KT 10SM -RA FEW045 BKN060 BKN080 10/03 A2954 RMK AO2 PK WND 33031/2247 RAB48 PRESRR SLP002 P0000 T01000028","FM-15","7",,,,,,,,,,,,,,,,,,,,,,,,,,,,"2009-05-18"
"74486454787","2020-04-21T18:53:00","FM-15","7",,,,,,,,,,,,,,,,,,,,,,,,,,,,,,,,,,,,,,"29.58","34","49","T",,"-0.12","3","56","29.58","FEW:02 95","29.49","10.00","42","330","23","14",,,,,,,,,,,,,,,,,,,,,,,,,,,,,,,,,,,,,"MET13204/21/20 18:53:02 METAR KFRG 212353Z 33012G20KT 10SM FEW095 09/01 A2958 RMK AO2 RAE02 SLP018 P0000 60016 T00940011 10133 20078 53042","FM-15","7",,,,,,,,,,,,,,,,,,,,,,,,,,,,"2009-05-18"
"74486454787","2020-04-21T19:53:00","FM-15","7",,,,,,,,,,,,,,,,,,,,,,,,,,,,,,,,,,,,,,"29.65","29","45","0.00",,,,"54","29.65","FEW:02 55 SCT:04 120","29.56","10.00","38","330","25","15",,,,,,,,,,,,,,,,,,,,,,,,,,,,,,,,,,,,,"MET10404/21/20 19:53:01 METAR KFRG 220053Z 33013G22KT 10SM FEW055 SCT120 07/M02 A2965 RMK AO2 SLP040 T00721017","FM-15","7",,,,,,,,,,,,,,,,,,,,,,,,,,,,"2009-05-18"
"74486454787","2020-04-21T20:53:00","FM-15","7",,,,,,,,,,,,,,,,,,,,,,,,,,,,,,,,,,,,,,"29.68","29","44","0.00",,,,"55","29.68","CLR:00","29.59","10.00","38","320",,"13",,,,,,,,,,,,,,,,,,,,,,,,,,,,,,,,,,,,,"MET09104/21/20 20:53:01 METAR KFRG 220153Z 32011KT 10SM CLR 07/M02 A2968 RMK AO2 SLP052 T00671017","FM-15","7",,,,,,,,,,,,,,,,,,,,,,,,,,,,"2009-05-18"
"74486454787","2020-04-21T21:53:00","FM-15","7",,,,,,,,,,,,,,,,,,,,,,,,,,,,,,,,,,,,,,"29.71","25","42","0.00",,"-0.12","1","51","29.70","CLR:00","29.62","10.00","35","320","22","9",,,,,,,,,,,,,,,,,,,,,,,,,,,,,,,,,,,,,"MET10004/21/20 21:53:01 METAR KFRG 220253Z 32008G19KT 10SM CLR 06/M04 A2971 RMK AO2 SLP059 T00561039 51041","FM-15","7",,,,,,,,,,,,,,,,,,,,,,,,,,,,"2009-05-18"
"74486454787","2020-04-21T22:53:00","FM-15","7",,,,,,,,,,,,,,,,,,,,,,,,,,,,,,,,,,,,,,"29.72","26","41","0.00",,,,"55","29.72","CLR:00","29.63","10.00","35","320","17","10",,,,,,,,,,,,,,,,,,,,,,,,,,,,,,,,,,,,,"MET09404/21/20 22:53:02 METAR KFRG 220353Z 32009G15KT 10SM CLR 05/M03 A2972 RMK AO2 SLP063 T00501033","FM-15","7",,,,,,,,,,,,,,,,,,,,,,,,,,,,"2009-05-18"
"74486454787","2020-04-21T23:53:00","FM-15","7",,,,,,,,,,,,,,,,,,,,,,,,,,,,,,,,,,,,,,"29.74","24","40","0.00",,,,"53","29.74","CLR:00","29.65","10.00","34","310","21","13",,,,,,,,,,,,,,,,,,,,,,,,,,,,,,,,,,,,,"MET10404/21/20 23:53:02 METAR KFRG 220453Z 31011G18KT 10SM CLR 04/M04 A2974 RMK AO2 SLP070 T00441044 401330044","FM-15","7",,,,,,,,,,,,,,,,,,,,,,,,,,,,"2009-05-18"
"74486454787","2020-04-21T23:59:00","SOD  ","6",,,,,,,,,,,,,,,,"48",,,"29.51",,"13.2","0","-3.7","17","56","40","200","39","0.19",,,"200","30","TS RA",,,,,,,,,,,,,,,,,,,,,,,,,,,,,,,,,,,,,,,,,,,,,,,,,,,,,,,,"SOD73024 HR PRECIPITATION (IN):0.19  24 HR MAX TEMP (F):56 24 HR MAX TEMP TIME (LST):1348 24 HR MIN TEMP (F):40 24 HR MIN TEMP TIME (LST):2359 AVERAGE STATION PRESSURE:29.510 MINIMUM SEA LEVEL PRESSURE:29.40 TIME OF OCCURRENCE:1413 PEAK WIND SPEED (MPH):39  PEAK WIND DIR (DEG):200 PEAK WIND TIME (LST):1115  FASTEST 2MIN SPEED (MPH):30 FASTEST 2MIN DIR (DEG):200 FASTEST 2MIN TIME (LST):1046 AVERAGE WIND SPEED (MPH):13.2 24 HR AVG TEMP (F):48 HEATING DEGREE DAYS:17  COOLING DEGREE DAYS:0   LATEST DAY MAX TEMP (0700-1900 LST):56  LATEST NIGHT MIN TEMP(1900-0800 LST):43 HOURLY INCREMENTAL PRECIPITATION VALUES (IN):.00 0.00 0.00 0.00 0.00 T    T    0.00 0.00 0.00 0.00 0.00 0.03 T    0.16 T    0.00 T    T    0.00 0.00 0.00 0.00 0.00","SOD  ","6",,,,,,,,,,,,,,,,,,,,,,,,,"0505","1840",,"2009-05-18"
"74486454787","2020-04-22T00:53:00","FM-15","7",,,,,,,,,,,,,,,,,,,,,,,,,,,,,,,,,,,,,,"29.74","20","39","0.00",,"-0.04","1","46","29.74","CLR:00","29.65","10.00","32","310","22","8",,,,,,,,,,,,,,,,,,,,,,,,,,,,,,,,,,,,,"MET11204/22/20 00:53:02 METAR KFRG 220553Z 31007G19KT 10SM CLR 04/M07 A2974 RMK AO2 SLP071 T00391067 10094 20039 51012","FM-15","7",,,,,,,,,,,,,,,,,,,,,,,,,,,,"2009-05-18"
"74486454787","2020-04-22T01:53:00","FM-15","7",,,,,,,,,,,,,,,,,,,,,,,,,,,,,,,,,,,,,,"29.75","18","39","0.00",,,,"43","29.75","CLR:00","29.66","10.00","32","310","26","13",,,,,,,,,,,,,,,,,,,,,,,,,,,,,,,,,,,,,"MET09404/22/20 01:53:02 METAR KFRG 220653Z 31011G23KT 10SM CLR 04/M08 A2975 RMK AO2 SLP074 T00391078","FM-15","7",,,,,,,,,,,,,,,,,,,,,,,,,,,,"2009-05-18"
"74486454787","2020-04-22T02:53:00","FM-15","7",,,,,,,,,,,,,,,,,,,,,,,,,,,,,,,,,,,,,,"29.76","17","38","0.00",,,,"43","29.76","CLR:00","29.67","10.00","31","320","21","14",,,,,,,,,,,,,,,,,,,,,,,,,,,,,,,,,,,,,"MET09404/22/20 02:53:02 METAR KFRG 220753Z 32012G18KT 10SM CLR 03/M08 A2976 RMK AO2 SLP077 T00331083","FM-15","7",,,,,,,,,,,,,,,,,,,,,,,,,,,,"2009-05-18"
"74486454787","2020-04-22T03:53:00","FM-15","7",,,,,,,,,,,,,,,,,,,,,,,,,,,,,,,,,,,,,,"29.77","17","37","0.00",,"-0.02","3","44","29.76","CLR:00","29.68","10.00","30","290","18","13",,,,,,,,,,,,,,,,,,,,,,,,,,,,,,,,,,,,,"MET10004/22/20 03:53:02 METAR KFRG 220853Z 29011G16KT 10SM CLR 03/M08 A2977 RMK AO2 SLP079 T00281083 53008","FM-15","7",,,,,,,,,,,,,,,,,,,,,,,,,,,,"2009-05-18"
"74486454787","2020-04-22T04:53:00","FM-15","7",,,,,,,,,,,,,,,,,,,,,,,,,,,,,,,,,,,,,,"29.78","16","38","0.00",,,,"41","29.78","CLR:00","29.69","10.00","31","290","24","16",,,,,,,,,,,,,,,,,,,,,,,,,,,,,,,,,,,,,"MET09404/22/20 04:53:02 METAR KFRG 220953Z 29014G21KT 10SM CLR 03/M09 A2978 RMK AO2 SLP085 T00331089","FM-15","7",,,,,,,,,,,,,,,,,,,,,,,,,,,,"2009-05-18"
"74486454787","2020-04-22T05:53:00","FM-15","7",,,,,,,,,,,,,,,,,,,,,,,,,,,,,,,,,,,,,,"29.82","16","38","0.00",,,,"41","29.82","CLR:00","29.73","10.00","31","VRB","30","14",,,,,,,,,,,,,,,,,,,,,,,,,,,,,,,,,,,,,"MET11204/22/20 05:53:02 METAR KFRG 221053Z 31012G26KT 10SM CLR 03/M09 A2982 RMK AO2 PK WND 29026/1051 SLP097 T00331089","FM-15","7",,,,,,,,,,,,,,,,,,,,,,,,,,,,"2009-05-18"
"74486454787","2020-04-22T06:53:00","FM-15","7",,,,,,,,,,,,,,,,,,,,,,,,,,,,,,,,,,,,,,"29.84","16","39","0.00",,"-0.07","3","39","29.84","CLR:00","29.75","10.00","31","300","21","13",,,,,,,,,,,,,,,,,,,,,,,,,,,,,,,,,,,,,"MET13604/22/20 06:53:02 METAR KFRG 221153Z 30011G18KT 10SM CLR 04/M09 A2984 RMK AO2 PK WND 30027/1106 SLP104 70019 T00391089 10039 20028 53024","FM-15","7",,,,,,,,,,,,,,,,,,,,,,,,,,,,"2009-05-18"
"74486454787","2020-04-22T07:53:00","FM-15","7",,,,,,,,,,,,,,,,,,,,,,,,,,,,,,,,,,,,,,"29.84","16","40","0.00",,,,"38","29.84","FEW:02 50","29.75","10.00","32","280","32","21",,,,,,,,,,,,,,,,,,,,,,,,,,,,,,,,,,,,,"MET11504/22/20 07:53:02 METAR KFRG 221253Z 28018G28KT 10SM FEW050 04/M09 A2984 RMK AO2 PK WND 27028/1253 SLP106 T00441089","FM-15","7",,,,,,,,,,,,,,,,,,,,,,,,,,,,"2009-05-18"
"74486454787","2020-04-22T08:53:00","FM-15","7",,,,,,,,,,,,,,,,,,,,,,,,,,,,,,,,,,,,,,"29.85","17","43","0.00",,,,"35","29.85","FEW:02 55","29.76","10.00","34","290","23","11",,,,,,,,,,,,,,,,,,,,,,,,,,,,,,,,,,,,,"MET11504/22/20 08:53:02 METAR KFRG 221353Z 29010G20KT 10SM FEW055 06/M08 A2985 RMK AO2 PK WND 30028/1259 SLP107 T00611083","FM-15","7",,,,,,,,,,,,,,,,,,,,,,,,,,,,"2009-05-18"
"74486454787","2020-04-22T09:53:00","FM-15","7",,,,,,,,,,,,,,,,,,,,,,,,,,,,,,,,,,,,,,"29.86","16","44","0.00",,"-0.02","3","32","29.86","FEW:02 60","29.77","10.00","34","290","34","24",,,,,,,,,,,,,,,,,,,,,,,,,,,,,,,,,,,,,"MET12104/22/20 09:53:02 METAR KFRG 221453Z 29021G30KT 10SM FEW060 07/M09 A2986 RMK AO2 PK WND 29031/1433 SLP111 T00671089 53007","FM-15","7",,,,,,,,,,,,,,,,,,,,,,,,,,,,"2009-05-18"
"74486454787","2020-04-22T10:53:00","FM-15","7",,,,,,,,,,,,,,,,,,,,,,,,,,,,,,,,,,,,,,"29.85","16","46","0.00",,,,"30","29.85","CLR:00","29.76","10.00","35","280","28","18",,,,,,,,,,,,,,,,,,,,,,,,,,,,,,,,,,,,,"MET11204/22/20 10:53:02 METAR KFRG 221553Z 28016G24KT 10SM CLR 08/M09 A2985 RMK AO2 PK WND 29031/1530 SLP109 T00781089","FM-15","7",,,,,,,,,,,,,,,,,,,,,,,,,,,,"2009-05-18"
"74486454787","2020-04-22T11:53:00","FM-15","7",,,,,,,,,,,,,,,,,,,,,,,,,,,,,,,,,,,,,,"29.85","16","48","0.00",,,,"28","29.85","FEW:02 70","29.76","10.00","36","300","29","16",,,,,,,,,,,,,,,,,,,,,,,,,,,,,,,,,,,,,"MET11504/22/20 11:53:02 METAR KFRG 221653Z 30014G25KT 10SM FEW070 09/M09 A2985 RMK AO2 PK WND 28030/1556 SLP108 T00891089","FM-15","7",,,,,,,,,,,,,,,,,,,,,,,,,,,,"2009-05-18"
"74486454787","2020-04-22T12:53:00","FM-15","7",,,,,,,,,,,,,,,,,,,,,,,,,,,,,,,,,,,,,,"29.85","14","48","0.00",,"+0.01","5","25","29.85","FEW:02 80","29.76","10.00","36","300","31","20",,,,,,,,,,,,,,,,,,,,,,,,,,,,,,,,,,,,,"MET13304/22/20 12:53:02 METAR KFRG 221753Z 30017G27KT 10SM FEW080 09/M10 A2985 RMK AO2 PK WND 27036/1737 SLP108 T00891100 10094 20039 55002","FM-15","7",,,,,,,,,,,,,,,,,,,,,,,,,,,,"2009-05-18"
"74486454787","2020-04-22T13:53:00","FM-15","7",,,,,,,,,,,,,,,,,,,,,,,,,,,,,,,,,,,,,,"29.84","16","50","0.00",,,,"26","29.84","BKN:07 80","29.75","10.00","37","270","31","18",,,,,,,,,,,,,,,,,,,,,,,,,,,,,,,,,,,,,"MET11504/22/20 13:53:02 METAR KFRG 221853Z 27016G27KT 10SM BKN080 10/M09 A2984 RMK AO2 PK WND 29030/1828 SLP106 T01001089","FM-15","7",,,,,,,,,,,,,,,,,,,,,,,,,,,,"2009-05-18"
"74486454787","2020-04-22T14:53:00","FM-15","7",,,,,,,,,,,,,,,,,,,,,,,,,,,,,,,,,,,,,,"29.84","13","51","0.00",,,,"22","29.84","SCT:04 85","29.75","10.00","37","300","34","15",,,,,,,,,,,,,,,,,,,,,,,,,,,,,,,,,,,,,"MET11504/22/20 14:53:02 METAR KFRG 221953Z 30013G30KT 10SM SCT085 11/M11 A2984 RMK AO2 PK WND 30030/1946 SLP104 T01061106","FM-15","7",,,,,,,,,,,,,,,,,,,,,,,,,,,,"2009-05-18"
"74486454787","2020-04-22T15:53:00","FM-15","7",,,,,,,,,,,,,,,,,,,,,,,,,,,,,,,,,,,,,,"29.85","11","50","0.00",,"-0.00","3","21","29.85","CLR:00","29.76","10.00","36","300","29","21",,,,,,,,,,,,,,,,,,,,,,,,,,,,,,,,,,,,,"MET11804/22/20 15:53:02 METAR KFRG 222053Z 30018G25KT 10SM CLR 10/M12 A2985 RMK AO2 PK WND 30027/2020 SLP109 T01001117 53001","FM-15","7",,,,,,,,,,,,,,,,,,,,,,,,,,,,"2009-05-18"
"74486454787","2020-04-22T16:53:00","FM-15","7",,,,,,,,,,,,,,,,,,,,,,,,,,,,,,,,,,,,,,"29.87","11","51","0.00",,,,"20","29.87","CLR:00","29.78","10.00","37","300","30","17",,,,,,,,,,,,,,,,,,,,,,,,,,,,,,,,,,,,,"MET11204/22/20 16:53:02 METAR KFRG 222153Z 30015G26KT 10SM CLR 11/M12 A2987 RMK AO2 PK WND 28026/2150 SLP115 T01061117","FM-15","7",,,,,,,,,,,,,,,,,,,,,,,,,,,,"2009-05-18"
"74486454787","2020-04-22T17:53:00","FM-15","7",,,,,,,,,,,,,,,,,,,,,,,,,,,,,,,,,,,,,,"29.89","11","50","0.00",,,,"21","29.88","CLR:00","29.80","10.00","36","320","28","16",,,,,,,,,,,,,,,,,,,,,,,,,,,,,,,,,,,,,"MET11204/22/20 17:53:02 METAR KFRG 222253Z 32014G24KT 10SM CLR 10/M12 A2989 RMK AO2 PK WND 29033/2200 SLP120 T01001117","FM-15","7",,,,,,,,,,,,,,,,,,,,,,,,,,,,"2009-05-18"
"74486454787","2020-04-22T18:53:00","FM-15","7",,,,,,,,,,,,,,,,,,,,,,,,,,,,,,,,,,,,,,"29.91","11","48","0.00",,"-0.06","3","22","29.91","CLR:00","29.82","10.00","35","320","20","13",,,,,,,,,,,,,,,,,,,,,,,,,,,,,,,,,,,,,"MET11204/22/20 18:53:02 METAR KFRG 222353Z 32011G17KT 10SM CLR 09/M12 A2991 RMK AO2 SLP129 T00891117 10111 20083 53020","FM-15","7",,,,,,,,,,,,,,,,,,,,,,,,,,,,"2009-05-18"
"74486454787","2020-04-22T19:53:00","FM-15","7",,,,,,,,,,,,,,,,,,,,,,,,,,,,,,,,,,,,,,"29.96","13","47","0.00",,,,"25","29.96","CLR:00","29.87","10.00","35","340",,"6",,,,,,,,,,,,,,,,,,,,,,,,,,,,,,,,,,,,,"MET09104/22/20 19:53:01 METAR KFRG 230053Z 34005KT 10SM CLR 08/M11 A2996 RMK AO2 SLP144 T00831106","FM-15","7",,,,,,,,,,,,,,,,,,,,,,,,,,,,"2009-05-18"
"74486454787","2020-04-22T20:53:00","FM-15","7",,,,,,,,,,,,,,,,,,,,,,,,,,,,,,,,,,,,,,"29.98","14","46","0.00",,,,"27","29.98","CLR:00","29.89","10.00","35","330",,"8",,,,,,,,,,,,,,,,,,,,,,,,,,,,,,,,,,,,,"MET09104/22/20 20:53:01 METAR KFRG 230153Z 33007KT 10SM CLR 08/M10 A2998 RMK AO2 SLP152 T00781100","FM-15","7",,,,,,,,,,,,,,,,,,,,,,,,,,,,"2009-05-18"
"74486454787","2020-04-22T21:53:00","FM-15","7",,,,,,,,,,,,,,,,,,,,,,,,,,,,,,,,,,,,,,"29.99","14","45","0.00",,"-0.08","1","29","29.99","CLR:00","29.90","10.00","34","330",,"9",,,,,,,,,,,,,,,,,,,,,,,,,,,,,,,,,,,,,"MET09704/22/20 21:53:01 METAR KFRG 230253Z 33008KT 10SM CLR 07/M10 A2999 RMK AO2 SLP155 T00721100 51026","FM-15","7",,,,,,,,,,,,,,,,,,,,,,,,,,,,"2009-05-18"
"74486454787","2020-04-22T22:53:00","FM-15","7",,,,,,,,,,,,,,,,,,,,,,,,,,,,,,,,,,,,,,"30.01","15","43","0.00",,,,"32","30.01","CLR:00","29.92","10.00","33","320",,"3",,,,,,,,,,,,,,,,,,,,,,,,,,,,,,,,,,,,,"MET09104/22/20 22:53:02 METAR KFRG 230353Z 32003KT 10SM CLR 06/M09 A3001 RMK AO2 SLP163 T00611094","FM-15","7",,,,,,,,,,,,,,,,,,,,,,,,,,,,"2009-05-18"
"74486454787","2020-04-22T23:53:00","FM-15","7",,,,,,,,,,,,,,,,,,,,,,,,,,,,,,,,,,,,,,"30.03","16","42","0.00",,,,"35","30.03","CLR:00","29.94","10.00","33","300",,"3",,,,,,,,,,,,,,,,,,,,,,,,,,,,,,,,,,,,,"MET10104/22/20 23:53:02 METAR KFRG 230453Z 30003KT 10SM CLR 06/M09 A3003 RMK AO2 SLP169 T00561089 401110028","FM-15","7",,,,,,,,,,,,,,,,,,,,,,,,,,,,"2009-05-18"
"74486454787","2020-04-22T23:59:00","SOD  ","6",,,,,,,,,,,,,,,,"45",,,"29.75",,"13.8","0","-7.1","20","52","37","270","42","0.00",,,"270","30",,,,,,,,,,,,,,,,,,,,,,,,,,,,,,,,,,,,,,,,,,,,,,,,,,,,,,,,,"SOD73024 HR PRECIPITATION (IN):0.00  24 HR MAX TEMP (F):52 24 HR MAX TEMP TIME (LST):1649 24 HR MIN TEMP (F):37 24 HR MIN TEMP TIME (LST):0540 AVERAGE STATION PRESSURE:29.745 MINIMUM SEA LEVEL PRESSURE:29.73 TIME OF OCCURRENCE:0009 PEAK WIND SPEED (MPH):42  PEAK WIND DIR (DEG):270 PEAK WIND TIME (LST):1237  FASTEST 2MIN SPEED (MPH):30 FASTEST 2MIN DIR (DEG):270 FASTEST 2MIN TIME (LST):1237 AVERAGE WIND SPEED (MPH):13.8 24 HR AVG TEMP (F):45 HEATING DEGREE DAYS:20  COOLING DEGREE DAYS:0   LATEST DAY MAX TEMP (0700-1900 LST):52  LATEST NIGHT MIN TEMP(1900-0800 LST):37 HOURLY INCREMENTAL PRECIPITATION VALUES (IN):.00 0.00 0.00 0.00 0.00 0.00 0.00 0.00 0.00 0.00 0.00 0.00 0.00 0.00 0.00 0.00 0.00 0.00 0.00 0.00 0.00 0.00 0.00 0.00","SOD  ","6",,,,,,,,,,,,,,,,,,,,,,,,,"0503","1841",,"2009-05-18"
"74486454787","2020-04-23T00:53:00","FM-15","7",,,,,,,,,,,,,,,,,,,,,,,,,,,,,,,,,,,,,,"30.05","17","41","0.00",,"-0.06","2","38","30.05","CLR:00","29.96","10.00","33","270",,"3",,,,,,,,,,,,,,,,,,,,,,,,,,,,,,,,,,,,,"MET10904/23/20 00:53:02 METAR KFRG 230553Z 27003KT 10SM CLR 05/M08 A3005 RMK AO2 SLP176 T00501083 10089 20044 52021","FM-15","7",,,,,,,,,,,,,,,,,,,,,,,,,,,,"2009-05-18"
"74486454787","2020-04-23T01:53:00","FM-15","7",,,,,,,,,,,,,,,,,,,,,,,,,,,,,,,,,,,,,,"30.05","17","39","0.00",,,,"41","30.05","CLR:00","29.96","10.00","31","300",,"3",,,,,,,,,,,,,,,,,,,,,,,,,,,,,,,,,,,,,"MET09104/23/20 01:53:02 METAR KFRG 230653Z 30003KT 10SM CLR 04/M08 A3005 RMK AO2 SLP176 T00391083","FM-15","7",,,,,,,,,,,,,,,,,,,,,,,,,,,,"2009-05-18"
"74486454787","2020-04-23T02:53:00","FM-15","7",,,,,,,,,,,,,,,,,,,,,,,,,,,,,,,,,,,,,,"30.03","18","39","0.00",,,,"43","30.03","CLR:00","29.94","10.00","32","000",,"0",,,,,,,,,,,,,,,,,,,,,,,,,,,,,,,,,,,,,"MET09104/23/20 02:53:02 METAR KFRG 230753Z 00000KT 10SM CLR 04/M08 A3003 RMK AO2 SLP170 T00391078","FM-15","7",,,,,,,,,,,,,,,,,,,,,,,,,,,,"2009-05-18"
"74486454787","2020-04-23T03:53:00","FM-15","7",,,,,,,,,,,,,,,,,,,,,,,,,,,,,,,,,,,,,,"30.04","18","39","0.00",,"+0.01","5","43","30.04","FEW:02 110","29.95","10.00","32","000",,"0",,,,,,,,,,,,,,,,,,,,,,,,,,,,,,,,,,,,,"MET10004/23/20 03:53:02 METAR KFRG 230853Z 00000KT 10SM FEW110 04/M08 A3004 RMK AO2 SLP173 T00391078 55003","FM-15","7",,,,,,,,,,,,,,,,,,,,,,,,,,,,"2009-05-18"
"74486454787","2020-04-23T04:53:00","FM-15","7",,,,,,,,,,,,,,,,,,,,,,,,,,,,,,,,,,,,,,"30.04","19","39","0.00",,,,"45","30.03","SCT:04 110","29.95","10.00","32","000",,"0",,,,,,,,,,,,,,,,,,,,,,,,,,,,,,,,,,,,,"MET09404/23/20 04:53:02 METAR KFRG 230953Z 00000KT 10SM SCT110 04/M07 A3004 RMK AO2 SLP171 T00391072","FM-15","7",,,,,,,,,,,,,,,,,,,,,,,,,,,,"2009-05-18"
"74486454787","2020-04-23T05:53:00","FM-15","7",,,,,,,,,,,,,,,,,,,,,,,,,,,,,,,,,,,,,,"30.06","21","41","0.00",,,,"45","30.06","OVC:08 80","29.97","10.00","34","270",,"5",,,,,,,,,,,,,,,,,,,,,,,,,,,,,,,,,,,,,"MET09404/23/20 05:53:02 METAR KFRG 231053Z 27004KT 10SM OVC080 05/M06 A3006 RMK AO2 SLP180 T00501061","FM-15","7",,,,,,,,,,,,,,,,,,,,,,,,,,,,"2009-05-18"
"74486454787","2020-04-23T06:53:00","FM-15","7",,,,,,,,,,,,,,,,,,,,,,,,,,,,,,,,,,,,,,"30.08","20","42","0.00",,"-0.04","3","41","30.09","OVC:08 65","29.99","10.00","34","290",,"8",,,,,,,,,,,,,,,,,,,,,,,,,,,,,,,,,,,,,"MET11204/23/20 06:53:02 METAR KFRG 231153Z 29007KT 10SM OVC065 06/M07 A3008 RMK AO2 SLP188 T00561067 10056 20033 53015","FM-15","7",,,,,,,,,,,,,,,,,,,,,,,,,,,,"2009-05-18"
"74486454787","2020-04-23T07:53:00","FM-15","7",,,,,,,,,,,,,,,,,,,,,,,,,,,,,,,,,,,,,,"30.10","19","43","0.00",,,,"38","30.10","OVC:08 60","30.01","10.00","34","330",,"5",,,,,,,,,,,,,,,,,,,,,,,,,,,,,,,,,,,,,"MET09404/23/20 07:53:02 METAR KFRG 231253Z 33004KT 10SM OVC060 06/M07 A3010 RMK AO2 SLP192 T00611072","FM-15","7",,,,,,,,,,,,,,,,,,,,,,,,,,,,"2009-05-18"
"74486454787","2020-04-23T08:53:00","FM-15","7",,,,,,,,,,,,,,,,,,,,,,,,,,,,,,,,,,,,,,"30.09","20","43","0.00",,,,"40","30.09","SCT:04 70 OVC:08 80","30.00","10.00","35","280",,"6",,,,,,,,,,,,,,,,,,,,,,,,,,,,,,,,,,,,,"MET10104/23/20 08:53:02 METAR KFRG 231353Z 28005KT 10SM SCT070 OVC080 06/M07 A3009 RMK AO2 SLP191 T00611067","FM-15","7",,,,,,,,,,,,,,,,,,,,,,,,,,,,"2009-05-18"
"74486454787","2020-04-23T09:53:00","FM-15","7",,,,,,,,,,,,,,,,,,,,,,,,,,,,,,,,,,,,,,"30.09","20","44","0.00",,"-0.01","0","38","30.09","BKN:07 75 OVC:08 90","30.00","10.00","35","290",,"6",,,,,,,,,,,,,,,,,,,,,,,,,,,,,,,,,,,,,"MET10704/23/20 09:53:02 METAR KFRG 231453Z 29005KT 10SM BKN075 OVC090 07/M07 A3009 RMK AO2 SLP190 T00671067 50002","FM-15","7",,,,,,,,,,,,,,,,,,,,,,,,,,,,"2009-05-18"
"74486454787","2020-04-23T10:53:00","FM-15","7",,,,,,,,,,,,,,,,,,,,,,,,,,,,,,,,,,,,,,"30.10","21","46","0.00",,,,"37","30.10","BKN:07 80 BKN:07 100","30.01","10.00","37","310",,"3",,,,,,,,,,,,,,,,,,,,,,,,,,,,,,,,,,,,,"MET10104/23/20 10:53:02 METAR KFRG 231553Z 31003KT 10SM BKN080 BKN100 08/M06 A3010 RMK AO2 SLP193 T00781061","FM-15","7",,,,,,,,,,,,,,,,,,,,,,,,,,,,"2009-05-18"
"74486454787","2020-04-23T11:53:00","FM-15","7",,,,,,,,,,,,,,,,,,,,,,,,,,,,,,,,,,,,,,"30.07","21","48","0.00",,,,"34","30.06","BKN:07 75 OVC:08 90","29.98","10.00","38","VRB",,"5",,,,,,,,,,,,,,,,,,,,,,,,,,,,,,,,,,,,,"MET10104/23/20 11:53:02 METAR KFRG 231653Z VRB04KT 10SM BKN075 OVC090 09/M06 A3007 RMK AO2 SLP181 T00891061","FM-15","7",,,,,,,,,,,,,,,,,,,,,,,,,,,,"2009-05-18"
"74486454787","2020-04-23T12:53:00","FM-15","7",,,,,,,,,,,,,,,,,,,,,,,,,,,,,,,,,,,,,,"30.05","23","50","0.00",,"+0.04","8","35","30.05","FEW:02 75","29.96","10.00","39","050",,"5",,,,,,,,,,,,,,,,,,,,,,,,,,,,,,,,,,,,,"MET11204/23/20 12:53:02 METAR KFRG 231753Z 05004KT 10SM FEW075 10/M05 A3005 RMK AO2 SLP176 T01001050 10100 20056 58014","FM-15","7",,,,,,,,,,,,,,,,,,,,,,,,,,,,"2009-05-18"
"74486454787","2020-04-23T13:53:00","FM-15","7",,,,,,,,,,,,,,,,,,,,,,,,,,,,,,,,,,,,,,"30.04","24","51","0.00",,,,"35","30.04","BKN:07 100","29.95","10.00","40","000",,"0",,,,,,,,,,,,,,,,,,,,,,,,,,,,,,,,,,,,,"MET09404/23/20 13:53:02 METAR KFRG 231853Z 00000KT 10SM BKN100 11/M04 A3004 RMK AO2 SLP173 T01061044","FM-15","7",,,,,,,,,,,,,,,,,,,,,,,,,,,,"2009-05-18"
"74486454787","2020-04-23T14:53:00","FM-15","7",,,,,,,,,,,,,,,,,,,,,,,,,,,,,,,,,,,,,,"30.02","25","50","0.00",,,,"38","30.02","CLR:00","29.93","10.00","40","000",,"0",,,,,,,,,,,,,,,,,,,,,,,,,,,,,,,,,,,,,"MET09104/23/20 14:53:02 METAR KFRG 231953Z 00000KT 10SM CLR 10/M04 A3002 RMK AO2 SLP167 T01001039","FM-15","7",,,,,,,,,,,,,,,,,,,,,,,,,,,,"2009-05-18"
"74486454787","2020-04-23T15:53:00","FM-15","7",,,,,,,,,,,,,,,,,,,,,,,,,,,,,,,,,,,,,,"30.02","28","49","0.00",,"+0.03","6","44","30.02","FEW:02 100","29.93","10.00","40","170",,"11",,,,,,,,,,,,,,,,,,,,,,,,,,,,,,,,,,,,,"MET10004/23/20 15:53:02 METAR KFRG 232053Z 17010KT 10SM FEW100 09/M02 A3002 RMK AO2 SLP166 T00941022 56010","FM-15","7",,,,,,,,,,,,,,,,,,,,,,,,,,,,"2009-05-18"
"74486454787","2020-04-23T16:53:00","FM-15","7",,,,,,,,,,,,,,,,,,,,,,,,,,,,,,,,,,,,,,"30.02","28","48","0.00",,,,"46","30.02","CLR:00","29.93","10.00","40","170",,"10",,,,,,,,,,,,,,,,,,,,,,,,,,,,,,,,,,,,,"MET09104/23/20 16:53:02 METAR KFRG 232153Z 17009KT 10SM CLR 09/M02 A3002 RMK AO2 SLP167 T00891022","FM-15","7",,,,,,,,,,,,,,,,,,,,,,,,,,,,"2009-05-18"
"74486454787","2020-04-23T17:53:00","FM-15","7",,,,,,,,,,,,,,,,,,,,,,,,,,,,,,,,,,,,,,"30.01","29","47","0.00",,,,"50","30.01","OVC:08 100","29.92","10.00","40","180",,"8",,,,,,,,,,,,,,,,,,,,,,,,,,,,,,,,,,,,,"MET09404/23/20 17:53:02 METAR KFRG 232253Z 18007KT 10SM OVC100 08/M02 A3001 RMK AO2 SLP162 T00831017","FM-15","7",,,,,,,,,,,,,,,,,,,,,,,,,,,,"2009-05-18"
"74486454787","2020-04-23T18:53:00","FM-15","7",,,,,,,,,,,,,,,,,,,,,,,,,,,,,,,,,,,,,,"29.99","29","46","0.00",,"+0.03","8","51","29.99","FEW:02 110","29.90","10.00","39","150",,"5",,,,,,,,,,,,,,,,,,,,,,,,,,,,,,,,,,,,,"MET11204/23/20 18:53:02 METAR KFRG 232353Z 15004KT 10SM FEW110 08/M02 A2999 RMK AO2 SLP157 T00781017 10106 20078 58009","FM-15","7",,,,,,,,,,,,,,,,,,,,,,,,,,,,"2009-05-18"
"74486454787","2020-04-23T19:53:00","FM-15","7",,,,,,,,,,,,,,,,,,,,,,,,,,,,,,,,,,,,,,"29.98","30","46","0.00",,,,"54","29.98","FEW:02 120","29.89","10.00","39","120",,"3",,,,,,,,,,,,,,,,,,,,,,,,,,,,,,,,,,,,,"MET09404/23/20 19:53:01 METAR KFRG 240053Z 12003KT 10SM FEW120 08/M01 A2998 RMK AO2 SLP153 T00781011","FM-15","7",,,,,,,,,,,,,,,,,,,,,,,,,,,,"2009-05-18"
"74486454787","2020-04-23T20:53:00","FM-15","7",,,,,,,,,,,,,,,,,,,,,,,,,,,,,,,,,,,,,,"29.98","32","46","0.00",,,,"58","29.98","SCT:04 70 OVC:08 90","29.89","10.00","40","130",,"3",,,,,,,,,,,,,,,,,,,,,,,,,,,,,,,,,,,,,"MET10004/23/20 20:53:01 METAR KFRG 240153Z 13003KT 10SM SCT070 OVC090 08/00 A2998 RMK AO2 SLP151 T00780000","FM-15","7",,,,,,,,,,,,,,,,,,,,,,,,,,,,"2009-05-18"
"74486454787","2020-04-23T21:53:00","FM-15","7",,,,,,,,,,,,,,,,,,,,,,,,,,,,,,,,,,,,,,"29.96","35","46","T","-RA:02 |RA |RA","+0.04","8","66","29.96","BKN:07 50 OVC:08 70","29.87","10.00","41","120",,"5",,,,,,,,,,,,,,,,,,,,,,,,,,,,,,,,,,,,,"MET12804/23/20 21:53:01 METAR KFRG 240253Z 12004KT 10SM -RA BKN050 OVC070 08/02 A2996 RMK AO2 RAB36 SLP145 P0000 60000 T00780017 58012","FM-15","7",,,,,,,,,,,,,,,,,,,,,,,,,,,,"2009-05-18"
"74486454787","2020-04-23T22:53:00","FM-15","7",,,,,,,,,,,,,,,,,,,,,,,,,,,,,,,,,,,,,,"29.96","37","44","0.01","-RA:02 |RA |RA",,,"76","29.96","BKN:07 40 OVC:08 65","29.87","10.00","41","130",,"6",,,,,,,,,,,,,,,,,,,,,,,,,,,,,,,,,,,,,"MET11004/23/20 22:53:02 METAR KFRG 240353Z 13005KT 10SM -RA BKN040 OVC065 07/03 A2996 RMK AO2 SLP145 P0001 T00670028","FM-15","7",,,,,,,,,,,,,,,,,,,,,,,,,,,,"2009-05-18"
"74486454787","2020-04-23T23:53:00","FM-15","7",,,,,,,,,,,,,,,,,,,,,,,,,,,,,,,,,,,,,,"29.92","40","44","0.05","-RA:02 |RA |RA",,,"85","29.92","FEW:02 34 OVC:08 65","29.83","9.00","42","060",,"7",,,,,,,,,,,,,,,,,,,,,,,,,,,,,,,,,,,,,"MET11904/23/20 23:53:02 METAR KFRG 240453Z 06006KT 9SM -RA FEW034 OVC065 07/04 A2992 RMK AO2 SLP131 P0004 T00670044 401060033","FM-15","7",,,,,,,,,,,,,,,,,,,,,,,,,,,,"2009-05-18"
"74486454787","2020-04-23T23:59:00","SOD  ","6",,,,,,,,,,,,,,,,"45",,,"29.95",,"4.5","0","-7.4","20","51","38","160","14","0.06",,,"170","13","RA",,,,,,,,,,,,,,,,,,,,,,,,,,,,,,,,,,,,,,,,,,,,,,,,,,,,,,,,"SOD73024 HR PRECIPITATION (IN):0.06  24 HR MAX TEMP (F):51 24 HR MAX TEMP TIME (LST):1356 24 HR MIN TEMP (F):38 24 HR MIN TEMP TIME (LST):0308 AVERAGE STATION PRESSURE:29.950 MINIMUM SEA LEVEL PRESSURE:29.91 TIME OF OCCURRENCE:2352 PEAK WIND SPEED (MPH):14  PEAK WIND DIR (DEG):160 PEAK WIND TIME (LST):1556  FASTEST 2MIN SPEED (MPH):13 FASTEST 2MIN DIR (DEG):170 FASTEST 2MIN TIME (LST):1559 AVERAGE WIND SPEED (MPH):4.5  24 HR AVG TEMP (F):45 HEATING DEGREE DAYS:20  COOLING DEGREE DAYS:0   LATEST DAY MAX TEMP (0700-1900 LST):51  LATEST NIGHT MIN TEMP(1900-0800 LST):38 HOURLY INCREMENTAL PRECIPITATION VALUES (IN):.00 0.00 0.00 0.00 0.00 0.00 0.00 0.00 0.00 0.00 0.00 0.00 0.00 0.00 0.00 0.00 0.00 0.00 0.00 0.00 0.00 T    0.01 0.05","SOD  ","6",,,,,,,,,,,,,,,,,,,,,,,,,"0502","1842",,"2009-05-18"
"74486454787","2020-04-24T00:02:00","FM-16","7",,,,,,,,,,,,,,,,,,,,,,,,,,,,,,,,,,,,,,"29.91","40","44","0.01","-RA:02 |RA |RA",,,"85",,"SCT:04 8 BKN:07 34 OVC:08 65","29.82","9.00","42","040",,"7",,,,,,,,,,,,,,,,,,,,,,,,,,,,,,,,,,,,,"MET10904/24/20 00:02:02 SPECI KFRG 240502Z 04006KT 9SM -RA SCT008 BKN034 OVC065 07/04 A2991 RMK AO2 P0001 T00670044","FM-16","7",,,,,,,,,,,,,,,,,,,,,,,,,,,,"2009-05-18"
"74486454787","2020-04-24T00:09:00","FM-16","7",,,,,,,,,,,,,,,,,,,,,,,,,,,,,,,,,,,,,,"29.90","40","44","0.01","-RA:02 |RA |RA",,,"85",,"BKN:07 7 OVC:08 65","29.81","9.00","42","070",,"7",,,,,,,,,,,,,,,,,,,,,,,,,,,,,,,,,,,,,"MET10204/24/20 00:09:02 SPECI KFRG 240509Z 07006KT 9SM -RA BKN007 OVC065 07/04 A2990 RMK AO2 P0001 T00670044","FM-16","7",,,,,,,,,,,,,,,,,,,,,,,,,,,,"2009-05-18"
"74486454787","2020-04-24T00:53:00","FM-15","7",,,,,,,,,,,,,,,,,,,,,,,,,,,,,,,,,,,,,,"29.86","41","44","0.04","RA:02 |RA |RA","+0.10","8","89","29.86","OVC:08 5","29.77","7.00","43","040",,"9",,,,,,,,,,,,,,,,,,,,,,,,,,,,,,,,,,,,,"MET13204/24/20 00:53:02 METAR KFRG 240553Z 04008KT 7SM RA OVC005 07/05 A2986 RMK AO2 PRESFR SLP112 P0004 60009 T00670050 10078 20067 58033","FM-15","7",,,,,,,,,,,,,,,,,,,,,,,,,,,,"2009-05-18"
"74486454787","2020-04-24T01:53:00","FM-15","7",,,,,,,,,,,,,,,,,,,,,,,,,,,,,,,,,,,,,,"29.82","42","45","0.10","RA:02 |RA |RA",,,"90","29.82","BKN:07 5 OVC:08 15","29.73","7.00","44","060",,"8",,,,,,,,,,,,,,,,,,,,,,,,,,,,,,,,,,,,,"MET10804/24/20 01:53:02 METAR KFRG 240653Z 06007KT 7SM RA BKN005 OVC015 07/06 A2982 RMK AO2 SLP097 P0009 T00720056","FM-15","7",,,,,,,,,,,,,,,,,,,,,,,,,,,,"2009-05-18"
"74486454787","2020-04-24T02:53:00","FM-15","7",,,,,,,,,,,,,,,,,,,,,,,,,,,,,,,,,,,,,,"29.78","43","46","0.06","-RA:02 |RA |RA",,,"89","29.78","BKN:07 6 BKN:07 35 OVC:08 60","29.69","10.00","45","050",,"9",,,,,,,,,,,,,,,,,,,,,,,,,,,,,,,,,,,,,"MET11704/24/20 02:53:02 METAR KFRG 240753Z 05008KT 10SM -RA BKN006 BKN035 OVC060 08/06 A2978 RMK AO2 SLP083 P0007 T00780061","FM-15","7",,,,,,,,,,,,,,,,,,,,,,,,,,,,"2009-05-18"
"74486454787","2020-04-24T03:53:00","FM-15","7",,,,,,,,,,,,,,,,,,,,,,,,,,,,,,,,,,,,,,"29.77","43","46","0.05","-RA:02 |RA |RA","+0.09","6","89","29.77","BKN:07 7 BKN:07 10 OVC:08 18","29.68","7.00","45","040",,"9",,,,,,,,,,,,,,,,,,,,,,,,,,,,,,,,,,,,,"MET12804/24/20 03:53:02 METAR KFRG 240853Z 04008KT 7SM -RA BKN007 BKN010 OVC018 08/06 A2977 RMK AO2 SLP081 P0006 60022 T00780061 56030","FM-15","7",,,,,,,,,,,,,,,,,,,,,,,,,,,,"2009-05-18"
"74486454787","2020-04-24T04:53:00","FM-15","7",,,,,,,,,,,,,,,,,,,,,,,,,,,,,,,,,,,,,,"29.74","43","46","0.01","-RA:02 |RA |RA",,,"89","29.74","OVC:08 6","29.65","10.00","45","030",,"14",,,,,,,,,,,,,,,,,,,,,,,,,,,,,,,,,,,,,"MET10304/24/20 04:53:02 METAR KFRG 240953Z 03012KT 10SM -RA OVC006 08/06 A2974 RMK AO2 SLP072 P0001 T00780061","FM-15","7",,,,,,,,,,,,,,,,,,,,,,,,,,,,"2009-05-18"
"74486454787","2020-04-24T05:53:00","FM-15","7",,,,,,,,,,,,,,,,,,,,,,,,,,,,,,,,,,,,,,"29.70","42","46","T",,,,"86","29.70","OVC:08 5","29.61","10.00","44","040",,"15",,,,,,,,,,,,,,,,,,,,,,,,,,,,,,,,,,,,,"MET10504/24/20 05:53:02 METAR KFRG 241053Z 04013KT 10SM OVC005 08/06 A2970 RMK AO2 RAE00 SLP057 P0000 T00780056","FM-15","7",,,,,,,,,,,,,,,,,,,,,,,,,,,,"2009-05-18"
"74486454787","2020-04-24T06:53:00","FM-15","7",,,,,,,,,,,,,,,,,,,,,,,,,,,,,,,,,,,,,,"29.71","41","45","0.00",,"+0.06","5","86","29.71","OVC:08 4","29.62","10.00","43","030",,"14",,,,,,,,,,,,,,,,,,,,,,,,,,,,,,,,,,,,,"MET12304/24/20 06:53:02 METAR KFRG 241153Z 03012KT 10SM OVC004 07/05 A2971 RMK AO2 SLP060 60023 70032 T00720050 10083 20072 55021","FM-15","7",,,,,,,,,,,,,,,,,,,,,,,,,,,,"2009-05-18"
"74486454787","2020-04-24T07:53:00","FM-15","7",,,,,,,,,,,,,,,,,,,,,,,,,,,,,,,,,,,,,,"29.69","41","45","0.00",,,,"86","29.69","OVC:08 4","29.60","10.00","43","040","22","13",,,,,,,,,,,,,,,,,,,,,,,,,,,,,,,,,,,,,"MET09604/24/20 07:53:02 METAR KFRG 241253Z 04011G19KT 10SM OVC004 07/05 A2969 RMK AO2 SLP055 T00720050","FM-15","7",,,,,,,,,,,,,,,,,,,,,,,,,,,,"2009-05-18"
"74486454787","2020-04-24T08:12:00","FM-16","7",,,,,,,,,,,,,,,,,,,,,,,,,,,,,,,,,,,,,,"29.69","41","45",,,,,"86",,"OVC:08 5","29.60","10.00","43","050",,"14",,,,,,,,,,,,,,,,,,,,,,,,,,,,,,,,,,,,,"MET08604/24/20 08:12:02 SPECI KFRG 241312Z 05012KT 10SM OVC005 07/05 A2969 RMK AO2 T00720050","FM-16","7",,,,,,,,,,,,,,,,,,,,,,,,,,,,"2009-05-18"
"74486454787","2020-04-24T08:37:00","FM-16","6",,,,,,,,,,,,,,,,,,,,,,,,,,,,,,,,,,,,,,"29.69","41","45",,"-RA:02 |RA |RA",,,"86",,"OVC:08 4","29.60","7.00","43","030",,"14",,,,,,,,,,,,,,,,,,,,,,,,,,,,,,,,,,,,,"MET10104/24/20 08:37:02 SPECI KFRG 241337Z 03012KT 7SM -RA OVC004 07/05 A2969 RMK AO2 RAB18 P0000 T00720050","FM-16","6",,,,,,,,,,,,,,,,,,,,,,,,,,,,"2009-05-18"
"74486454787","2020-04-24T08:53:00","FM-15","6",,,,,,,,,,,,,,,,,,,,,,,,,,,,,,,,,,,,,,"29.70","41","45","0.01","-RA:02 |RA |RA",,,"86","29.70","OVC:08 4","29.61","7.00","43","030",,"15",,,,,,,,,,,,,,,,,,,,,,,,,,,,,,,,,,,,,"MET10804/24/20 08:53:02 METAR KFRG 241353Z 03013KT 7SM -RA OVC004 07/05 A2970 RMK AO2 RAB18 SLP057 P0001 T00720050","FM-15","6",,,,,,,,,,,,,,,,,,,,,,,,,,,,"2009-05-18"
"74486454787","2020-04-24T09:03:00","FM-16","6",,,,,,,,,,,,,,,,,,,,,,,,,,,,,,,,,,,,,,"29.70","41","45",,"-RA:02 BR:1 |RA |RA",,,"86",,"OVC:08 5","29.61","6.00","43","030","22","15",,,,,,,,,,,,,,,,,,,,,,,,,,,,,,,,,,,,,"MET10104/24/20 09:03:02 SPECI KFRG 241403Z 03013G19KT 6SM -RA BR OVC005 07/05 A2970 RMK AO2 P0000 T00720050","FM-16","6",,,,,,,,,,,,,,,,,,,,,,,,,,,,"2009-05-18"
"74486454787","2020-04-24T09:53:00","FM-15","7",,,,,,,,,,,,,,,,,,,,,,,,,,,,,,,,,,,,,,"29.70","42","46","0.02","-RA:02 |RA |RA","+0.01","6","86","29.70","OVC:08 7","29.61","10.00","44","050",,"10",,,,,,,,,,,,,,,,,,,,,,,,,,,,,,,,,,,,,"MET11504/24/20 09:53:02 METAR KFRG 241453Z 05009KT 10SM -RA OVC007 08/06 A2970 RMK AO2 SLP056 P0002 60003 T00780056 56004","FM-15","7",,,,,,,,,,,,,,,,,,,,,,,,,,,,"2009-05-18"
"74486454787","2020-04-24T10:53:00","FM-15","7",,,,,,,,,,,,,,,,,,,,,,,,,,,,,,,,,,,,,,"29.67","44","48","0.01","-RA:02 |RA |RA",,,"86","29.67","BKN:07 8 BKN:07 40 OVC:08 50","29.58","10.00","46","050",,"16",,,,,,,,,,,,,,,,,,,,,,,,,,,,,,,,,,,,,"MET11704/24/20 10:53:02 METAR KFRG 241553Z 05014KT 10SM -RA BKN008 BKN040 OVC050 09/07 A2967 RMK AO2 SLP046 P0001 T00890067","FM-15","7",,,,,,,,,,,,,,,,,,,,,,,,,,,,"2009-05-18"
"74486454787","2020-04-24T11:53:00","FM-15","7",,,,,,,,,,,,,,,,,,,,,,,,,,,,,,,,,,,,,,"29.66","42","48","0.00",,,,"80","29.66","OVC:08 8","29.57","10.00","45","030",,"17",,,,,,,,,,,,,,,,,,,,,,,,,,,,,,,,,,,,,"MET11904/24/20 11:53:02 METAR KFRG 241653Z 03015KT 10SM OVC008 09/06 A2966 RMK AO2 RAE1554 CIG 007V012 SLP044 P0000 T00890056","FM-15","7",,,,,,,,,,,,,,,,,,,,,,,,,,,,"2009-05-18"
"74486454787","2020-04-24T12:51:00","FM-16","6",,,,,,,,,,,,,,,,,,,,,,,,,,,,,,,,,,,,,,"29.68","43","48",,"-RA:02 |RA |RA",,,"82",,"OVC:08 10","29.59","10.00","46","030","28","14",,,,,,,,,,,,,,,,,,,,,,,,,,,,,,,,,,,,,"MET11204/24/20 12:51:02 SPECI KFRG 241751Z 03012G24KT 10SM -RA OVC010 09/06 A2968 RMK AO2 RAB45 CIG 008V013 P0000 FIBI","FM-16","6",,,,,,,,,,,,,,,,,,,,,,,,,,,,"2009-05-18"
"74486454787","2020-04-24T12:53:00","FM-15","7",,,,,,,,,,,,,,,,,,,,,,,,,,,,,,,,,,,,,,"29.68","43","48","T","-RA:02 |RA |RA","+0.02","5","83","29.67","OVC:08 10","29.59","10.00","46","040","24","14",,,,,,,,,,,,,,,,,,,,,,,,,,,,,,,,,,,,,"MET14804/24/20 12:53:02 METAR KFRG 241753Z 04012G21KT 10SM -RA OVC010 09/06 A2968 RMK AO2 RAB45 CIG 008V013 SLP049 P0000 60004 T00890061 10094 20072 55006","FM-15","7",,,,,,,,,,,,,,,,,,,,,,,,,,,,"2009-05-18"
"74486454787","2020-04-24T13:53:00","FM-15","7",,,,,,,,,,,,,,,,,,,,,,,,,,,,,,,,,,,,,,"29.70","44","49","T","-RA:02 |RA |RA",,,"83","29.70","OVC:08 10","29.61","10.00","47","030","23","14",,,,,,,,,,,,,,,,,,,,,,,,,,,,,,,,,,,,,"MET10604/24/20 13:53:02 METAR KFRG 241853Z 03012G20KT 10SM -RA OVC010 09/07 A2970 RMK AO2 SLP056 P0000 T00940067","FM-15","7",,,,,,,,,,,,,,,,,,,,,,,,,,,,"2009-05-18"
"74486454787","2020-04-24T14:53:00","FM-15","7",,,,,,,,,,,,,,,,,,,,,,,,,,,,,,,,,,,,,,"29.72","44","49","0.00",,,,"83","29.72","OVC:08 10","29.63","10.00","47","040",,"11",,,,,,,,,,,,,,,,,,,,,,,,,,,,,,,,,,,,,"MET10704/24/20 14:53:02 METAR KFRG 241953Z 04010KT 10SM OVC010 09/07 A2972 RMK AO2 RAE1857 SLP063 P0000 T00940067","FM-15","7",,,,,,,,,,,,,,,,,,,,,,,,,,,,"2009-05-18"
"74486454787","2020-04-24T15:53:00","FM-15","7",,,,,,,,,,,,,,,,,,,,,,,,,,,,,,,,,,,,,,"29.73","44","49","0.00",,"-0.06","1","83","29.73","BKN:07 11 OVC:08 17","29.64","10.00","47","030",,"13",,,,,,,,,,,,,,,,,,,,,,,,,,,,,,,,,,,,,"MET11204/24/20 15:53:02 METAR KFRG 242053Z 03011KT 10SM BKN011 OVC017 09/07 A2973 RMK AO2 SLP068 60000 T00940067 51019","FM-15","7",,,,,,,,,,,,,,,,,,,,,,,,,,,,"2009-05-18"
"74486454787","2020-04-24T16:09:00","FM-16","7",,,,,,,,,,,,,,,,,,,,,,,,,,,,,,,,,,,,,,"29.73","44","49",,,,,"83",,"SCT:04 11 SCT:04 16 OVC:08 21","29.64","10.00","47","030",,"14",,,,,,,,,,,,,,,,,,,,,,,,,,,,,,,,,,,,,"MET10004/24/20 16:09:02 SPECI KFRG 242109Z 03012KT 10SM SCT011 SCT016 OVC021 09/07 A2973 RMK AO2 T00940067","FM-16","7",,,,,,,,,,,,,,,,,,,,,,,,,,,,"2009-05-18"
"74486454787","2020-04-24T16:53:00","FM-15","7",,,,,,,,,,,,,,,,,,,,,,,,,,,,,,,,,,,,,,"29.75","44","50","0.00",,,,"80","29.75","OVC:08 23","29.66","10.00","47","020",,"16",,,,,,,,,,,,,,,,,,,,,,,,,,,,,,,,,,,,,"MET09304/24/20 16:53:02 METAR KFRG 242153Z 02014KT 10SM OVC023 10/07 A2975 RMK AO2 SLP074 T01000067","FM-15","7",,,,,,,,,,,,,,,,,,,,,,,,,,,,"2009-05-18"
"74486454787","2020-04-24T17:38:00","FM-16","7",,,,,,,,,,,,,,,,,,,,,,,,,,,,,,,,,,,,,,"29.76","44","50",,,,,"80",,"FEW:02 13 SCT:04 26 OVC:08 65","29.67","10.00","47","030",,"9",,,,,,,,,,,,,,,,,,,,,,,,,,,,,,,,,,,,,"MET10004/24/20 17:38:02 SPECI KFRG 242238Z 03008KT 10SM FEW013 SCT026 OVC065 10/07 A2976 RMK AO2 T01000067","FM-16","7",,,,,,,,,,,,,,,,,,,,,,,,,,,,"2009-05-18"
"74486454787","2020-04-24T17:53:00","FM-15","7",,,,,,,,,,,,,,,,,,,,,,,,,,,,,,,,,,,,,,"29.77","43","50","0.00",,,,"77","29.77","OVC:08 70","29.68","10.00","47","030",,"11",,,,,,,,,,,,,,,,,,,,,,,,,,,,,,,,,,,,,"MET09304/24/20 17:53:02 METAR KFRG 242253Z 03010KT 10SM OVC070 10/06 A2977 RMK AO2 SLP080 T01000061","FM-15","7",,,,,,,,,,,,,,,,,,,,,,,,,,,,"2009-05-18"
"74486454787","2020-04-24T18:53:00","FM-15","7",,,,,,,,,,,,,,,,,,,,,,,,,,,,,,,,,,,,,,"29.81","42","49","T",,"-0.07","3","77","29.81","BKN:07 37 OVC:08 85","29.72","10.00","46","030",,"8",,,,,,,,,,,,,,,,,,,,,,,,,,,,,,,,,,,,,"MET13904/24/20 18:53:02 METAR KFRG 242353Z 03007KT 10SM BKN037 OVC085 09/06 A2981 RMK AO2 RAB28E45 SLP094 P0000 60000 T00940056 10100 20089 53025","FM-15","7",,,,,,,,,,,,,,,,,,,,,,,,,,,,"2009-05-18"
"74486454787","2020-04-24T19:53:00","FM-15","7",,,,,,,,,,,,,,,,,,,,,,,,,,,,,,,,,,,,,,"29.83","42","48","0.00",,,,"80","29.83","SCT:04 80 OVC:08 120","29.74","10.00","45","020",,"7",,,,,,,,,,,,,,,,,,,,,,,,,,,,,,,,,,,,,"MET10004/24/20 19:53:01 METAR KFRG 250053Z 02006KT 10SM SCT080 OVC120 09/06 A2983 RMK AO2 SLP100 T00890056","FM-15","7",,,,,,,,,,,,,,,,,,,,,,,,,,,,"2009-05-18"
"74486454787","2020-04-24T20:53:00","FM-15","7",,,,,,,,,,,,,,,,,,,,,,,,,,,,,,,,,,,,,,"29.86","41","48","0.00",,,,"77","29.86","CLR:00","29.77","10.00","45","340",,"3",,,,,,,,,,,,,,,,,,,,,,,,,,,,,,,,,,,,,"MET09004/24/20 20:53:01 METAR KFRG 250153Z 34003KT 10SM CLR 09/05 A2986 RMK AO2 SLP112 T00890050","FM-15","7",,,,,,,,,,,,,,,,,,,,,,,,,,,,"2009-05-18"
"74486454787","2020-04-24T21:53:00","FM-15","7",,,,,,,,,,,,,,,,,,,,,,,,,,,,,,,,,,,,,,"29.88","40","46","0.00",,"-0.07","3","79","29.88","CLR:00","29.79","10.00","43","020",,"3",,,,,,,,,,,,,,,,,,,,,,,,,,,,,,,,,,,,,"MET09604/24/20 21:53:02 METAR KFRG 250253Z 02003KT 10SM CLR 08/04 A2988 RMK AO2 SLP118 T00780044 53024","FM-15","7",,,,,,,,,,,,,,,,,,,,,,,,,,,,"2009-05-18"
"74486454787","2020-04-24T22:53:00","FM-15","7",,,,,,,,,,,,,,,,,,,,,,,,,,,,,,,,,,,,,,"29.89","39","45","0.00",,,,"80","29.89","CLR:00","29.80","10.00","42","000",,"0",,,,,,,,,,,,,,,,,,,,,,,,,,,,,,,,,,,,,"MET09004/24/20 22:53:02 METAR KFRG 250353Z 00000KT 10SM CLR 07/04 A2989 RMK AO2 SLP121 T00720039","FM-15","7",,,,,,,,,,,,,,,,,,,,,,,,,,,,"2009-05-18"
"74486454787","2020-04-24T23:53:00","FM-15","7",,,,,,,,,,,,,,,,,,,,,,,,,,,,,,,,,,,,,,"29.91","40","44","0.00",,,,"85","29.91","FEW:02 46","29.82","10.00","42","000",,"0",,,,,,,,,,,,,,,,,,,,,,,,,,,,,,,,,,,,,"MET10304/24/20 23:53:02 METAR KFRG 250453Z 00000KT 10SM FEW046 07/04 A2991 RMK AO2 SLP128 T00670044 401000067","FM-15","7",,,,,,,,,,,,,,,,,,,,,,,,,,,,"2009-05-18"
"74486454787","2020-04-24T23:59:00","SOD  ","6",,,,,,,,,,,,,,,,"47",,,"29.67",,"10.6","0","-5.8","18","50","43","050","28","0.30",,,"030","21","RA BR",,,,,,,,,,,,,,,,,,,,,,,,,,,,,,,,,,,,,,,,,,,,,,,,,,,,,,,,"SOD73024 HR PRECIPITATION (IN):0.30  24 HR MAX TEMP (F):50 24 HR MAX TEMP TIME (LST):1756 24 HR MIN TEMP (F):43 24 HR MIN TEMP TIME (LST):2359 AVERAGE STATION PRESSURE:29.670 MINIMUM SEA LEVEL PRESSURE:29.66 TIME OF OCCURRENCE:1219 PEAK WIND SPEED (MPH):28  PEAK WIND DIR (DEG):50  PEAK WIND TIME (LST):1242  FASTEST 2MIN SPEED (MPH):21 FASTEST 2MIN DIR (DEG):30  FASTEST 2MIN TIME (LST):1229 AVERAGE WIND SPEED (MPH):10.6 24 HR AVG TEMP (F):47 HEATING DEGREE DAYS:18  COOLING DEGREE DAYS:0   LATEST DAY MAX TEMP (0700-1900 LST):50  LATEST NIGHT MIN TEMP(1900-0800 LST):44 HOURLY INCREMENTAL PRECIPITATION VALUES (IN):.04 0.10 0.06 0.05 0.01 T    0.00 0.00 0.01 0.02 0.01 0.00 T    T    0.00 0.00 0.00 0.00 T    0.00 0.00 0.00 0.00 0.00","SOD  ","6",,,,,,,,,,,,,,,,,,,,,,,,,"0501","1843",,"2009-05-18"
"74486454787","2020-04-25T00:53:00","FM-15","7",,,,,,,,,,,,,,,,,,,,,,,,,,,,,,,,,,,,,,"29.92","40","44","0.00",,"-0.04","3","85","29.92","CLR:00","29.83","10.00","42","340",,"3",,,,,,,,,,,,,,,,,,,,,,,,,,,,,,,,,,,,,"MET10804/25/20 00:53:02 METAR KFRG 250553Z 34003KT 10SM CLR 07/04 A2992 RMK AO2 SLP132 T00670044 10094 20061 53014","FM-15","7",,,,,,,,,,,,,,,,,,,,,,,,,,,,"2009-05-18"
"74486454787","2020-04-25T01:53:00","FM-15","7",,,,,,,,,,,,,,,,,,,,,,,,,,,,,,,,,,,,,,"29.92","39","42","0.00",,,,"89","29.92","CLR:00","29.83","10.00","41","350",,"3",,,,,,,,,,,,,,,,,,,,,,,,,,,,,,,,,,,,,"MET09004/25/20 01:53:02 METAR KFRG 250653Z 35003KT 10SM CLR 06/04 A2992 RMK AO2 SLP132 T00560039","FM-15","7",,,,,,,,,,,,,,,,,,,,,,,,,,,,"2009-05-18"
"74486454787","2020-04-25T02:53:00","FM-15","7",,,,,,,,,,,,,,,,,,,,,,,,,,,,,,,,,,,,,,"29.94","39","42","0.00",,,,"89","29.94","CLR:00","29.85","10.00","41","000",,"0",,,,,,,,,,,,,,,,,,,,,,,,,,,,,,,,,,,,,"MET09004/25/20 02:53:02 METAR KFRG 250753Z 00000KT 10SM CLR 06/04 A2994 RMK AO2 SLP140 T00560039","FM-15","7",,,,,,,,,,,,,,,,,,,,,,,,,,,,"2009-05-18"
"74486454787","2020-04-25T03:53:00","FM-15","7",,,,,,,,,,,,,,,,,,,,,,,,,,,,,,,,,,,,,,"29.95","38","41","0.00",,"-0.04","3","89","29.95","CLR:00","29.86","10.00","40","000",,"0",,,,,,,,,,,,,,,,,,,,,,,,,,,,,,,,,,,,,"MET09604/25/20 03:53:02 METAR KFRG 250853Z 00000KT 10SM CLR 05/03 A2995 RMK AO2 SLP143 T00500033 53012","FM-15","7",,,,,,,,,,,,,,,,,,,,,,,,,,,,"2009-05-18"
"74486454787","2020-04-25T04:53:00","FM-15","7",,,,,,,,,,,,,,,,,,,,,,,,,,,,,,,,,,,,,,"29.98","37","41","0.00",,,,"86","29.98","CLR:00","29.89","10.00","39","350",,"5",,,,,,,,,,,,,,,,,,,,,,,,,,,,,,,,,,,,,"MET09004/25/20 04:53:02 METAR KFRG 250953Z 35004KT 10SM CLR 05/03 A2998 RMK AO2 SLP152 T00500028","FM-15","7",,,,,,,,,,,,,,,,,,,,,,,,,,,,"2009-05-18"
"74486454787","2020-04-25T05:53:00","FM-15","7",,,,,,,,,,,,,,,,,,,,,,,,,,,,,,,,,,,,,,"30.01","39","43","0.00",,,,"86","30.01","CLR:00","29.92","10.00","41","020",,"5",,,,,,,,,,,,,,,,,,,,,,,,,,,,,,,,,,,,,"MET09004/25/20 05:53:02 METAR KFRG 251053Z 02004KT 10SM CLR 06/04 A3001 RMK AO2 SLP162 T00610039","FM-15","7",,,,,,,,,,,,,,,,,,,,,,,,,,,,"2009-05-18"
"74486454787","2020-04-25T06:53:00","FM-15","7",,,,,,,,,,,,,,,,,,,,,,,,,,,,,,,,,,,,,,"30.04","41","50","0.00",,"-0.08","3","71","30.03","CLR:00","29.95","10.00","46","000",,"0",,,,,,,,,,,,,,,,,,,,,,,,,,,,,,,,,,,,,"MET11404/25/20 06:53:02 METAR KFRG 251153Z 00000KT 10SM CLR 10/05 A3004 RMK AO2 SLP171 70004 T01000050 10100 20044 53028","FM-15","7",,,,,,,,,,,,,,,,,,,,,,,,,,,,"2009-05-18"
"74486454787","2020-04-25T07:53:00","FM-15","7",,,,,,,,,,,,,,,,,,,,,,,,,,,,,,,,,,,,,,"30.05","39","54","0.00",,,,"57","30.04","CLR:00","29.96","10.00","47","010",,"7",,,,,,,,,,,,,,,,,,,,,,,,,,,,,,,,,,,,,"MET09004/25/20 07:53:02 METAR KFRG 251253Z 01006KT 10SM CLR 12/04 A3005 RMK AO2 SLP174 T01220039","FM-15","7",,,,,,,,,,,,,,,,,,,,,,,,,,,,"2009-05-18"
"74486454787","2020-04-25T08:53:00","FM-15","7",,,,,,,,,,,,,,,,,,,,,,,,,,,,,,,,,,,,,,"30.05","37","57","0.00",,,,"47","30.05","CLR:00","29.96","10.00","48","000",,"0",,,,,,,,,,,,,,,,,,,,,,,,,,,,,,,,,,,,,"MET09004/25/20 08:53:02 METAR KFRG 251353Z 00000KT 10SM CLR 14/03 A3005 RMK AO2 SLP176 T01390028","FM-15","7",,,,,,,,,,,,,,,,,,,,,,,,,,,,"2009-05-18"
"74486454787","2020-04-25T09:53:00","FM-15","7",,,,,,,,,,,,,,,,,,,,,,,,,,,,,,,,,,,,,,"30.06","34","59","0.00",,"-0.02","3","39","30.06","CLR:00","29.97","10.00","47","000",,"0",,,,,,,,,,,,,,,,,,,,,,,,,,,,,,,,,,,,,"MET09604/25/20 09:53:02 METAR KFRG 251453Z 00000KT 10SM CLR 15/01 A3006 RMK AO2 SLP179 T01500011 53008","FM-15","7",,,,,,,,,,,,,,,,,,,,,,,,,,,,"2009-05-18"
"74486454787","2020-04-25T10:53:00","FM-15","7",,,,,,,,,,,,,,,,,,,,,,,,,,,,,,,,,,,,,,"30.06","36","62","0.00",,,,"38","30.06","CLR:00","29.97","10.00","50","000",,"0",,,,,,,,,,,,,,,,,,,,,,,,,,,,,,,,,,,,,"MET09004/25/20 10:53:02 METAR KFRG 251553Z 00000KT 10SM CLR 17/02 A3006 RMK AO2 SLP181 T01670022","FM-15","7",,,,,,,,,,,,,,,,,,,,,,,,,,,,"2009-05-18"
"74486454787","2020-04-25T11:53:00","FM-15","7",,,,,,,,,,,,,,,,,,,,,,,,,,,,,,,,,,,,,,"30.07","38","62","0.00",,,,"41","30.07","CLR:00","29.98","10.00","50","190",,"11",,,,,,,,,,,,,,,,,,,,,,,,,,,,,,,,,,,,,"MET09004/25/20 11:53:02 METAR KFRG 251653Z 19010KT 10SM CLR 17/03 A3007 RMK AO2 SLP184 T01670033","FM-15","7",,,,,,,,,,,,,,,,,,,,,,,,,,,,"2009-05-18"
"74486454787","2020-04-25T12:53:00","FM-15","7",,,,,,,,,,,,,,,,,,,,,,,,,,,,,,,,,,,,,,"30.08","33","63","0.00",,"-0.02","3","33","30.08","CLR:00","29.99","10.00","49","190",,"13",,,,,,,,,,,,,,,,,,,,,,,,,,,,,,,,,,,,,"MET10804/25/20 12:53:02 METAR KFRG 251753Z 19011KT 10SM CLR 17/01 A3008 RMK AO2 SLP187 T01720006 10172 20100 53007","FM-15","7",,,,,,,,,,,,,,,,,,,,,,,,,,,,"2009-05-18"
"74486454787","2020-04-25T13:53:00","FM-15","7",,,,,,,,,,,,,,,,,,,,,,,,,,,,,,,,,,,,,,"30.08","31","61","0.00",,,,"32","30.08","CLR:00","29.99","10.00","47","180",,"13",,,,,,,,,,,,,,,,,,,,,,,,,,,,,,,,,,,,,"MET09104/25/20 13:53:02 METAR KFRG 251853Z 18011KT 10SM CLR 16/M01 A3008 RMK AO2 SLP187 T01611006","FM-15","7",,,,,,,,,,,,,,,,,,,,,,,,,,,,"2009-05-18"
"74486454787","2020-04-25T14:53:00","FM-15","7",,,,,,,,,,,,,,,,,,,,,,,,,,,,,,,,,,,,,,"30.06","31","61","0.00",,,,"32","30.06","CLR:00","29.97","10.00","47","180",,"14",,,,,,,,,,,,,,,,,,,,,,,,,,,,,,,,,,,,,"MET09104/25/20 14:53:02 METAR KFRG 251953Z 18012KT 10SM CLR 16/M01 A3006 RMK AO2 SLP181 T01611006","FM-15","7",,,,,,,,,,,,,,,,,,,,,,,,,,,,"2009-05-18"
"74486454787","2020-04-25T15:53:00","FM-15","7",,,,,,,,,,,,,,,,,,,,,,,,,,,,,,,,,,,,,,"30.05","27","60","0.00",,"+0.03","8","28","30.05","CLR:00","29.96","10.00","46","180",,"11",,,,,,,,,,,,,,,,,,,,,,,,,,,,,,,,,,,,,"MET09704/25/20 15:53:02 METAR KFRG 252053Z 18010KT 10SM CLR 16/M03 A3005 RMK AO2 SLP177 T01561028 58010","FM-15","7",,,,,,,,,,,,,,,,,,,,,,,,,,,,"2009-05-18"
"74486454787","2020-04-25T16:53:00","FM-15","7",,,,,,,,,,,,,,,,,,,,,,,,,,,,,,,,,,,,,,"30.07","29","56","0.00",,,,"36","30.07","CLR:00","29.98","10.00","44","170",,"14",,,,,,,,,,,,,,,,,,,,,,,,,,,,,,,,,,,,,"MET09104/25/20 16:53:02 METAR KFRG 252153Z 17012KT 10SM CLR 13/M02 A3007 RMK AO2 SLP184 T01331017","FM-15","7",,,,,,,,,,,,,,,,,,,,,,,,,,,,"2009-05-18"
"74486454787","2020-04-25T17:53:00","FM-15","7",,,,,,,,,,,,,,,,,,,,,,,,,,,,,,,,,,,,,,"30.09","31","53","0.00",,,,"43","30.09","CLR:00","30.00","10.00","43","160",,"11",,,,,,,,,,,,,,,,,,,,,,,,,,,,,,,,,,,,,"MET09104/25/20 17:53:02 METAR KFRG 252253Z 16010KT 10SM CLR 12/M01 A3009 RMK AO2 SLP188 T01171006","FM-15","7",,,,,,,,,,,,,,,,,,,,,,,,,,,,"2009-05-18"
"74486454787","2020-04-25T18:53:00","FM-15","7",,,,,,,,,,,,,,,,,,,,,,,,,,,,,,,,,,,,,,"30.09","29","51","0.00",,"-0.04","1","43","30.09","CLR:00","30.00","10.00","42","160",,"6",,,,,,,,,,,,,,,,,,,,,,,,,,,,,,,,,,,,,"MET10904/25/20 18:53:02 METAR KFRG 252353Z 16005KT 10SM CLR 11/M02 A3009 RMK AO2 SLP189 T01061017 10172 20106 51013","FM-15","7",,,,,,,,,,,,,,,,,,,,,,,,,,,,"2009-05-18"
"74486454787","2020-04-25T19:53:00","FM-15","7",,,,,,,,,,,,,,,,,,,,,,,,,,,,,,,,,,,,,,"30.10","35","50","0.00",,,,"57","30.10","CLR:00","30.01","10.00","43","150",,"6",,,,,,,,,,,,,,,,,,,,,,,,,,,,,,,,,,,,,"MET09004/25/20 19:53:01 METAR KFRG 260053Z 15005KT 10SM CLR 10/02 A3010 RMK AO2 SLP193 T01000017","FM-15","7",,,,,,,,,,,,,,,,,,,,,,,,,,,,"2009-05-18"
"74486454787","2020-04-25T20:53:00","FM-15","7",,,,,,,,,,,,,,,,,,,,,,,,,,,,,,,,,,,,,,"30.11","38","50","0.00",,,,"63","30.11","CLR:00","30.02","10.00","44","150",,"6",,,,,,,,,,,,,,,,,,,,,,,,,,,,,,,,,,,,,"MET09004/25/20 20:53:01 METAR KFRG 260153Z 15005KT 10SM CLR 10/03 A3011 RMK AO2 SLP196 T01000033","FM-15","7",,,,,,,,,,,,,,,,,,,,,,,,,,,,"2009-05-18"
"74486454787","2020-04-25T21:53:00","FM-15","7",,,,,,,,,,,,,,,,,,,,,,,,,,,,,,,,,,,,,,"30.09","40","50","0.00",,"-0.01","0","68","30.09","CLR:00","30.00","10.00","45","130",,"5",,,,,,,,,,,,,,,,,,,,,,,,,,,,,,,,,,,,,"MET09604/25/20 21:53:01 METAR KFRG 260253Z 13004KT 10SM CLR 10/04 A3009 RMK AO2 SLP191 T01000044 50002","FM-15","7",,,,,,,,,,,,,,,,,,,,,,,,,,,,"2009-05-18"
"74486454787","2020-04-25T22:53:00","FM-15","7",,,,,,,,,,,,,,,,,,,,,,,,,,,,,,,,,,,,,,"30.09","40","50","0.00",,,,"68","30.09","CLR:00","30.00","10.00","45","110",,"3",,,,,,,,,,,,,,,,,,,,,,,,,,,,,,,,,,,,,"MET09004/25/20 22:53:02 METAR KFRG 260353Z 11003KT 10SM CLR 10/04 A3009 RMK AO2 SLP190 T01000044","FM-15","7",,,,,,,,,,,,,,,,,,,,,,,,,,,,"2009-05-18"
"74486454787","2020-04-25T23:53:00","FM-15","7",,,,,,,,,,,,,,,,,,,,,,,,,,,,,,,,,,,,,,"30.09","40","50","0.00",,,,"68","30.09","CLR:00","30.00","10.00","45","080",,"3",,,,,,,,,,,,,,,,,,,,,,,,,,,,,,,,,,,,,"MET10004/25/20 23:53:02 METAR KFRG 260453Z 08003KT 10SM CLR 10/04 A3009 RMK AO2 SLP189 T01000044 401720044","FM-15","7",,,,,,,,,,,,,,,,,,,,,,,,,,,,"2009-05-18"
"74486454787","2020-04-25T23:59:00","SOD  ","6",,,,,,,,,,,,,,,,"52",,,"29.94",,"5.8","0","-1.2","13","63","40","190","22","0.00",,,"200","16",,,,,,,,,,,,,,,,,,,,,,,,,,,,,,,,,,,,,,,,,,,,,,,,,,,,,,,,,"SOD73024 HR PRECIPITATION (IN):0.00  24 HR MAX TEMP (F):63 24 HR MAX TEMP TIME (LST):1256 24 HR MIN TEMP (F):40 24 HR MIN TEMP TIME (LST):0407 AVERAGE STATION PRESSURE:29.940 MINIMUM SEA LEVEL PRESSURE:29.91 TIME OF OCCURRENCE:0141 PEAK WIND SPEED (MPH):22  PEAK WIND DIR (DEG):190 PEAK WIND TIME (LST):1316  FASTEST 2MIN SPEED (MPH):16 FASTEST 2MIN DIR (DEG):200 FASTEST 2MIN TIME (LST):1330 AVERAGE WIND SPEED (MPH):5.8  24 HR AVG TEMP (F):52 HEATING DEGREE DAYS:13  COOLING DEGREE DAYS:0   LATEST DAY MAX TEMP (0700-1900 LST):63  LATEST NIGHT MIN TEMP(1900-0800 LST):40 HOURLY INCREMENTAL PRECIPITATION VALUES (IN):.00 0.00 0.00 0.00 0.00 0.00 0.00 0.00 0.00 0.00 0.00 0.00 0.00 0.00 0.00 0.00 0.00 0.00 0.00 0.00 0.00 0.00 0.00 0.00","SOD  ","6",,,,,,,,,,,,,,,,,,,,,,,,,"0459","1844",,"2009-05-18"
"74486454787","2020-04-26T00:53:00","FM-15","7",,,,,,,,,,,,,,,,,,,,,,,,,,,,,,,,,,,,,,"30.08","41","49","0.00",,"+0.02","8","74","30.08","FEW:02 60 BKN:07 90 OVC:08 110","29.99","10.00","45","070",,"5",,,,,,,,,,,,,,,,,,,,,,,,,,,,,,,,,,,,,"MET12504/26/20 00:53:02 METAR KFRG 260553Z 07004KT 10SM FEW060 BKN090 OVC110 09/05 A3008 RMK AO2 SLP185 T00940050 10106 20094 58006","FM-15","7",,,,,,,,,,,,,,,,,,,,,,,,,,,,"2009-05-18"
"74486454787","2020-04-26T01:53:00","FM-15","7",,,,,,,,,,,,,,,,,,,,,,,,,,,,,,,,,,,,,,"30.05","41","49","T",,,,"74","30.05","FEW:02 60 OVC:08 75","29.96","10.00","45","060",,"5",,,,,,,,,,,,,,,,,,,,,,,,,,,,,,,,,,,,,"MET11504/26/20 01:53:02 METAR KFRG 260653Z 06004KT 10SM FEW060 OVC075 09/05 A3005 RMK AO2 RAB13E27 SLP176 P0000 T00940050","FM-15","7",,,,,,,,,,,,,,,,,,,,,,,,,,,,"2009-05-18"
"74486454787","2020-04-26T02:53:00","FM-15","7",,,,,,,,,,,,,,,,,,,,,,,,,,,,,,,,,,,,,,"30.01","40","49","0.00",,,,"71","30.01","OVC:08 100","29.92","10.00","45","070",,"5",,,,,,,,,,,,,,,,,,,,,,,,,,,,,,,,,,,,,"MET09304/26/20 02:53:02 METAR KFRG 260753Z 07004KT 10SM OVC100 09/04 A3001 RMK AO2 SLP164 T00940044","FM-15","7",,,,,,,,,,,,,,,,,,,,,,,,,,,,"2009-05-18"
"74486454787","2020-04-26T03:53:00","FM-15","7",,,,,,,,,,,,,,,,,,,,,,,,,,,,,,,,,,,,,,"30.03","38","49","0.00",,"+0.04","5","66","30.03","BKN:07 80 OVC:08 100","29.94","10.00","44","110",,"7",,,,,,,,,,,,,,,,,,,,,,,,,,,,,,,,,,,,,"MET11204/26/20 03:53:02 METAR KFRG 260853Z 11006KT 10SM BKN080 OVC100 09/03 A3003 RMK AO2 SLP170 60000 T00940033 55015","FM-15","7",,,,,,,,,,,,,,,,,,,,,,,,,,,,"2009-05-18"
"74486454787","2020-04-26T04:53:00","FM-15","7",,,,,,,,,,,,,,,,,,,,,,,,,,,,,,,,,,,,,,"30.01","36","50","T",,,,"59","30.01","OVC:08 75","29.92","10.00","44","090",,"10",,,,,,,,,,,,,,,,,,,,,,,,,,,,,,,,,,,,,"MET10804/26/20 04:53:02 METAR KFRG 260953Z 09009KT 10SM OVC075 10/02 A3001 RMK AO2 RAB33E42 SLP161 P0000 T01000022","FM-15","7",,,,,,,,,,,,,,,,,,,,,,,,,,,,"2009-05-18"
"74486454787","2020-04-26T05:53:00","FM-15","7",,,,,,,,,,,,,,,,,,,,,,,,,,,,,,,,,,,,,,"29.99","36","50","0.00",,,,"59","29.99","OVC:08 65","29.90","10.00","44","080",,"10",,,,,,,,,,,,,,,,,,,,,,,,,,,,,,,,,,,,,"MET09304/26/20 05:53:02 METAR KFRG 261053Z 08009KT 10SM OVC065 10/02 A2999 RMK AO2 SLP157 T01000022","FM-15","7",,,,,,,,,,,,,,,,,,,,,,,,,,,,"2009-05-18"
"74486454787","2020-04-26T06:53:00","FM-15","7",,,,,,,,,,,,,,,,,,,,,,,,,,,,,,,,,,,,,,"30.01","37","50","0.00",,"+0.03","5","61","30.01","OVC:08 65","29.92","10.00","44","100",,"11",,,,,,,,,,,,,,,,,,,,,,,,,,,,,,,,,,,,,"MET11704/26/20 06:53:02 METAR KFRG 261153Z 10010KT 10SM OVC065 10/03 A3001 RMK AO2 SLP161 60000 T01000028 10100 20094 55009","FM-15","7",,,,,,,,,,,,,,,,,,,,,,,,,,,,"2009-05-18"
"74486454787","2020-04-26T07:53:00","FM-15","7",,,,,,,,,,,,,,,,,,,,,,,,,,,,,,,,,,,,,,"29.97","39","50","T",,,,"66","29.97","OVC:08 50","29.88","10.00","45","080",,"11",,,,,,,,,,,,,,,,,,,,,,,,,,,,,,,,,,,,,"MET10804/26/20 07:53:02 METAR KFRG 261253Z 08010KT 10SM OVC050 10/04 A2997 RMK AO2 RAB19E38 SLP149 P0000 T01000039","FM-15","7",,,,,,,,,,,,,,,,,,,,,,,,,,,,"2009-05-18"
"74486454787","2020-04-26T08:53:00","FM-15","7",,,,,,,,,,,,,,,,,,,,,,,,,,,,,,,,,,,,,,"29.93","37","51","0.00",,,,"59","29.93","OVC:08 46","29.84","10.00","45","090","26","18",,,,,,,,,,,,,,,,,,,,,,,,,,,,,,,,,,,,,"MET09604/26/20 08:53:02 METAR KFRG 261353Z 09016G23KT 10SM OVC046 11/03 A2993 RMK AO2 SLP137 T01060028","FM-15","7",,,,,,,,,,,,,,,,,,,,,,,,,,,,"2009-05-18"
"74486454787","2020-04-26T09:53:00","FM-15","7",,,,,,,,,,,,,,,,,,,,,,,,,,,,,,,,,,,,,,"29.91","37","52","0.00",,"+0.09","6","57","29.91","OVC:08 33","29.82","10.00","45","080","24","15",,,,,,,,,,,,,,,,,,,,,,,,,,,,,,,,,,,,,"MET10804/26/20 09:53:02 METAR KFRG 261453Z 08013G21KT 10SM OVC033 11/03 A2991 RMK AO2 SLP129 60000 T01110028 56032","FM-15","7",,,,,,,,,,,,,,,,,,,,,,,,,,,,"2009-05-18"
"74486454787","2020-04-26T10:31:00","FM-16","7",,,,,,,,,,,,,,,,,,,,,,,,,,,,,,,,,,,,,,"29.89","39","52",,,,,"61",,"OVC:08 28","29.80","10.00","46","090",,"16",,,,,,,,,,,,,,,,,,,,,,,,,,,,,,,,,,,,,"MET08604/26/20 10:31:02 SPECI KFRG 261531Z 09014KT 10SM OVC028 11/04 A2989 RMK AO2 T01110039","FM-16","7",,,,,,,,,,,,,,,,,,,,,,,,,,,,"2009-05-18"
"74486454787","2020-04-26T10:53:00","FM-15","7",,,,,,,,,,,,,,,,,,,,,,,,,,,,,,,,,,,,,,"29.88","38","52","0.00",,,,"59","29.88","OVC:08 26","29.79","10.00","45","090","28","20",,,,,,,,,,,,,,,,,,,,,,,,,,,,,,,,,,,,,"MET09604/26/20 10:53:02 METAR KFRG 261553Z 09017G24KT 10SM OVC026 11/03 A2988 RMK AO2 SLP118 T01110033","FM-15","7",,,,,,,,,,,,,,,,,,,,,,,,,,,,"2009-05-18"
"74486454787","2020-04-26T11:22:00","FM-16","7",,,,,,,,,,,,,,,,,,,,,,,,,,,,,,,,,,,,,,"29.86","43","50","0.08","+RA:02 |RA |RA",,,"77",,"SCT:04 20 OVC:08 25","29.77","1.75","47","090","24","17",,,,,,,,,,,,,,,,,,,,,,,,,,,,,,,,,,,,,"MET13304/26/20 11:22:02 SPECI KFRG 261622Z 09015G21KT 1 3/4SM +RA SCT020 OVC025 10/06 A2986 RMK AO2 PK WND 10026/1610 RAB07 P0008 T01000061","FM-16","7",,,,,,,,,,,,,,,,,,,,,,,,,,,,"2009-05-18"
"74486454787","2020-04-26T11:30:00","FM-16","7",,,,,,,,,,,,,,,,,,,,,,,,,,,,,,,,,,,,,,"29.85","44","50","0.09","RA:02 |RA |RA",,,"80",,"FEW:02 16 OVC:08 23","29.76","3.00","47","070","23","14",,,,,,,,,,,,,,,,,,,,,,,,,,,,,,,,,,,,,"MET12804/26/20 11:30:02 SPECI KFRG 261630Z 07012G20KT 3SM RA FEW016 OVC023 10/07 A2985 RMK AO2 PK WND 10026/1610 RAB07 P0009 T01000067","FM-16","7",,,,,,,,,,,,,,,,,,,,,,,,,,,,"2009-05-18"
"74486454787","2020-04-26T11:45:00","FM-16","7",,,,,,,,,,,,,,,,,,,,,,,,,,,,,,,,,,,,,,"29.85","45","50","0.10","-RA:02 |RA |RA",,,"83",,"SCT:04 9 BKN:07 12 OVC:08 21","29.76","4.00","48","080",,"10",,,,,,,,,,,,,,,,,,,,,,,,,,,,,,,,,,,,,"MET13304/26/20 11:45:02 SPECI KFRG 261645Z 08009KT 4SM -RA SCT009 BKN012 OVC021 10/07 A2985 RMK AO2 PK WND 10026/1610 RAB07 P0010 T01000072","FM-16","7",,,,,,,,,,,,,,,,,,,,,,,,,,,,"2009-05-18"
"74486454787","2020-04-26T11:53:00","FM-15","7",,,,,,,,,,,,,,,,,,,,,,,,,,,,,,,,,,,,,,"29.84","45","50","0.11","-RA:02 |RA |RA",,,"83","29.84","BKN:07 10 BKN:07 14 OVC:08 21","29.75","3.00","48","070",,"10",,,,,,,,,,,,,,,,,,,,,,,,,,,,,,,,,,,,,"MET14004/26/20 11:53:02 METAR KFRG 261653Z 07009KT 3SM -RA BKN010 BKN014 OVC021 10/07 A2984 RMK AO2 PK WND 10026/1610 RAB07 SLP106 P0011 T01000072","FM-15","7",,,,,,,,,,,,,,,,,,,,,,,,,,,,"2009-05-18"
"74486454787","2020-04-26T12:19:00","FM-16","7",,,,,,,,,,,,,,,,,,,,,,,,,,,,,,,,,,,,,,"29.82","46","51","T","-RA:02 |RA |RA",,,"83",,"OVC:08 9","29.73","5.00","48","080","22","14",,,,,,,,,,,,,,,,,,,,,,,,,,,,,,,,,,,,,"MET09804/26/20 12:19:02 SPECI KFRG 261719Z 08012G19KT 5SM -RA OVC009 11/08 A2982 RMK AO2 P0000 T01060078","FM-16","7",,,,,,,,,,,,,,,,,,,,,,,,,,,,"2009-05-18"
"74486454787","2020-04-26T12:53:00","FM-15","7",,,,,,,,,,,,,,,,,,,,,,,,,,,,,,,,,,,,,,"29.80","46","50","0.01","-RA:02 BR:1 |RA |RA","+0.11","8","86","29.80","OVC:08 8","29.71","6.00","48","070","21","13",,,,,,,,,,,,,,,,,,,,,,,,,,,,,,,,,,,,,"MET14404/26/20 12:53:02 METAR KFRG 261753Z 07011G18KT 6SM -RA BR OVC008 10/08 A2980 RMK AO2 CIG 005V010 SLP092 P0000 60011 T01000078 10111 20100 58037","FM-15","7",,,,,,,,,,,,,,,,,,,,,,,,,,,,"2009-05-18"
"74486454787","2020-04-26T13:53:00","FM-15","7",,,,,,,,,,,,,,,,,,,,,,,,,,,,,,,,,,,,,,"29.76","46","50","0.02","-RA:02 |RA |RA",,,"86","29.76","OVC:08 6","29.67","7.00","48","050","23","11",,,,,,,,,,,,,,,,,,,,,,,,,,,,,,,,,,,,,"MET10504/26/20 13:53:02 METAR KFRG 261853Z 05010G20KT 7SM -RA OVC006 10/08 A2976 RMK AO2 SLP077 P0003 T01000078","FM-15","7",,,,,,,,,,,,,,,,,,,,,,,,,,,,"2009-05-18"
"74486454787","2020-04-26T14:19:00","FM-16","7",,,,,,,,,,,,,,,,,,,,,,,,,,,,,,,,,,,,,,"29.76","45","49","T","-RA:02 BR:1 |RA |RA",,,"86",,"OVC:08 6","29.67","2.50","47","060","22","16",,,,,,,,,,,,,,,,,,,,,,,,,,,,,,,,,,,,,"MET10504/26/20 14:19:02 SPECI KFRG 261919Z 06014G19KT 2 1/2SM -RA BR OVC006 09/07 A2976 RMK AO2 P0000 T00940072","FM-16","7",,,,,,,,,,,,,,,,,,,,,,,,,,,,"2009-05-18"
"74486454787","2020-04-26T14:37:00","FM-16","7",,,,,,,,,,,,,,,,,,,,,,,,,,,,,,,,,,,,,,"29.75","45","49","T","-RA:02 BR:1 |RA |RA",,,"86",,"OVC:08 5","29.66","4.00","47","050",,"14",,,,,,,,,,,,,,,,,,,,,,,,,,,,,,,,,,,,,"MET11004/26/20 14:37:02 SPECI KFRG 261937Z 05012KT 4SM -RA BR OVC005 09/07 A2975 RMK AO2 CIG 004V009 P0000 T00940072","FM-16","7",,,,,,,,,,,,,,,,,,,,,,,,,,,,"2009-05-18"
"74486454787","2020-04-26T14:53:00","FM-15","7",,,,,,,,,,,,,,,,,,,,,,,,,,,,,,,,,,,,,,"29.74","45","49","0.01","-RA:02 BR:1 |RA |RA",,,"86","29.74","BKN:07 7 OVC:08 11","29.65","5.00","47","050","20","13",,,,,,,,,,,,,,,,,,,,,,,,,,,,,,,,,,,,,"MET11504/26/20 14:53:02 METAR KFRG 261953Z 05011G17KT 5SM -RA BR BKN007 OVC011 09/07 A2974 RMK AO2 SLP072 P0000 T00940072","FM-15","7",,,,,,,,,,,,,,,,,,,,,,,,,,,,"2009-05-18"
"74486454787","2020-04-26T15:53:00","FM-15","7",,,,,,,,,,,,,,,,,,,,,,,,,,,,,,,,,,,,,,"29.70","44","49","T","HZ:7 |FU |HZ","+0.11","8","83","29.70","OVC:08 10","29.61","6.00","47","050","28","20",,,,,,,,,,,,,,,,,,,,,,,,,,,,,,,,,,,,,"MET12904/26/20 15:53:02 METAR KFRG 262053Z 05017G24KT 6SM HZ OVC010 09/07 A2970 RMK AO2 RAE35 PRESFR SLP056 P0001 60004 T00940067 58036","FM-15","7",,,,,,,,,,,,,,,,,,,,,,,,,,,,"2009-05-18"
"74486454787","2020-04-26T16:30:00","FM-16","7",,,,,,,,,,,,,,,,,,,,,,,,,,,,,,,,,,,,,,"29.72","44","49",,,,,"83",,"OVC:08 9","29.63","7.00","47","040","26","15",,,,,,,,,,,,,,,,,,,,,,,,,,,,,,,,,,,,,"MET10004/26/20 16:30:02 SPECI KFRG 262130Z 04013G23KT 7SM OVC009 09/07 A2972 RMK AO2 CIG 007V013 T00940067","FM-16","7",,,,,,,,,,,,,,,,,,,,,,,,,,,,"2009-05-18"
"74486454787","2020-04-26T16:53:00","FM-15","7",,,,,,,,,,,,,,,,,,,,,,,,,,,,,,,,,,,,,,"29.72","44","49","T","-RA:02 |RA |RA",,,"83","29.72","OVC:08 9","29.63","5.00","47","050","24","14",,,,,,,,,,,,,,,,,,,,,,,,,,,,,,,,,,,,,"MET12304/26/20 16:53:02 METAR KFRG 262153Z 05012G21KT 5SM -RA OVC009 09/07 A2972 RMK AO2 RAB53 CIG 007V012 SLP063 P0000 T00940067","FM-15","7",,,,,,,,,,,,,,,,,,,,,,,,,,,,"2009-05-18"
"74486454787","2020-04-26T17:07:00","FM-16","7",,,,,,,,,,,,,,,,,,,,,,,,,,,,,,,,,,,,,,"29.70","45","49","T","-RA:02 BR:1 |RA |RA",,,"86",,"OVC:08 8","29.61","2.50","47","050","23","15",,,,,,,,,,,,,,,,,,,,,,,,,,,,,,,,,,,,,"MET11704/26/20 17:07:02 SPECI KFRG 262207Z 05013G20KT 2 1/2SM -RA BR OVC008 09/07 A2970 RMK AO2 CIG 006V010 P0000 T00940072","FM-16","7",,,,,,,,,,,,,,,,,,,,,,,,,,,,"2009-05-18"
"74486454787","2020-04-26T17:17:00","FM-16","7",,,,,,,,,,,,,,,,,,,,,,,,,,,,,,,,,,,,,,"29.68","44","49","T","-RA:02 |RA |RA",,,"83",,"BKN:07 8 OVC:08 12","29.59","4.00","47","050","26","16",,,,,,,,,,,,,,,,,,,,,,,,,,,,,,,,,,,,,"MET12404/26/20 17:17:02 SPECI KFRG 262217Z 05014G23KT 4SM -RA BKN008 OVC012 09/07 A2968 RMK AO2 CIG 006V010 PRESFR P0000 T00940067","FM-16","7",,,,,,,,,,,,,,,,,,,,,,,,,,,,"2009-05-18"
"74486454787","2020-04-26T17:53:00","FM-15","7",,,,,,,,,,,,,,,,,,,,,,,,,,,,,,,,,,,,,,"29.71","43","48","T",,,,"83","29.71","OVC:08 7","29.62","7.00","46","VRB","23","14",,,,,,,,,,,,,,,,,,,,,,,,,,,,,,,,,,,,,"MET10704/26/20 17:53:02 METAR KFRG 262253Z 03012G20KT 7SM OVC007 09/06 A2971 RMK AO2 RAE21 SLP061 P0000 T00890061","FM-15","7",,,,,,,,,,,,,,,,,,,,,,,,,,,,"2009-05-18"
"74486454787","2020-04-26T18:53:00","FM-15","7",,,,,,,,,,,,,,,,,,,,,,,,,,,,,,,,,,,,,,"29.72","43","47","T",,"-0.02","1","86","29.72","OVC:08 7","29.63","9.00","45","040","26","14",,,,,,,,,,,,,,,,,,,,,,,,,,,,,,,,,,,,,"MET13604/26/20 18:53:02 METAR KFRG 262353Z 04012G23KT 9SM OVC007 08/06 A2972 RMK AO2 RAB2254E07 SLP063 P0000 60004 T00830061 10100 20083 51007","FM-15","7",,,,,,,,,,,,,,,,,,,,,,,,,,,,"2009-05-18"
"74486454787","2020-04-26T19:53:00","FM-15","7",,,,,,,,,,,,,,,,,,,,,,,,,,,,,,,,,,,,,,"29.72","42","47","0.00",,,,"83","29.72","OVC:08 7","29.63","9.00","45","040",,"17",,,,,,,,,,,,,,,,,,,,,,,,,,,,,,,,,,,,,"MET11004/26/20 19:53:01 METAR KFRG 270053Z 04015KT 9SM OVC007 08/06 A2972 RMK AO2 PK WND 02028/0003 SLP063 T00830056","FM-15","7",,,,,,,,,,,,,,,,,,,,,,,,,,,,"2009-05-18"
"74486454787","2020-04-26T20:51:00","FM-16","7",,,,,,,,,,,,,,,,,,,,,,,,,,,,,,,,,,,,,,"29.74","41","46",,,,,"82",,"OVC:08 11","29.65","10.00","44","030","25","16",,,,,,,,,,,,,,,,,,,,,,,,,,,,,,,,,,,,,"MET10904/26/20 20:51:01 SPECI KFRG 270151Z 03014G22KT 10SM OVC011 08/05 A2974 RMK AO2 PK WND 03026/0139 CIG 007V014","FM-16","7",,,,,,,,,,,,,,,,,,,,,,,,,,,,"2009-05-18"
"74486454787","2020-04-26T20:53:00","FM-15","7",,,,,,,,,,,,,,,,,,,,,,,,,,,,,,,,,,,,,,"29.74","41","46","0.00",,,,"83","29.74","OVC:08 11","29.65","10.00","44","030",,"18",,,,,,,,,,,,,,,,,,,,,,,,,,,,,,,,,,,,,"MET12304/26/20 20:53:01 METAR KFRG 270153Z 03016KT 10SM OVC011 08/05 A2974 RMK AO2 PK WND 03026/0139 CIG 008V014 SLP070 T00780050","FM-15","7",,,,,,,,,,,,,,,,,,,,,,,,,,,,"2009-05-18"
"74486454787","2020-04-26T21:53:00","FM-15","7",,,,,,,,,,,,,,,,,,,,,,,,,,,,,,,,,,,,,,"29.75","40","45","T",,"-0.03","1","83","29.75","BKN:07 10 OVC:08 15","29.66","10.00","43","040","28","15",,,,,,,,,,,,,,,,,,,,,,,,,,,,,,,,,,,,,"MET13004/26/20 21:53:01 METAR KFRG 270253Z 04013G24KT 10SM BKN010 OVC015 07/04 A2975 RMK AO2 RAB21E32 SLP073 P0000 60000 T00720044 51009","FM-15","7",,,,,,,,,,,,,,,,,,,,,,,,,,,,"2009-05-18"
"74486454787","2020-04-26T22:53:00","FM-15","7",,,,,,,,,,,,,,,,,,,,,,,,,,,,,,,,,,,,,,"29.76","40","45","0.00",,,,"83","29.76","BKN:07 10 OVC:08 15","29.67","7.00","43","030","23","11",,,,,,,,,,,,,,,,,,,,,,,,,,,,,,,,,,,,,"MET11404/26/20 22:53:02 METAR KFRG 270353Z 03010G20KT 7SM BKN010 OVC015 07/04 A2976 RMK AO2 CIG 008V013 SLP077 T00720044","FM-15","7",,,,,,,,,,,,,,,,,,,,,,,,,,,,"2009-05-18"
"74486454787","2020-04-26T23:53:00","FM-15","7",,,,,,,,,,,,,,,,,,,,,,,,,,,,,,,,,,,,,,"29.77","40","44","T","-RA:02 BR:1 |RA |RA",,,"85","29.77","SCT:04 9 OVC:08 16","29.68","6.00","42","020","21","9",,,,,,,,,,,,,,,,,,,,,,,,,,,,,,,,,,,,,"MET13104/26/20 23:53:02 METAR KFRG 270453Z 02008G18KT 6SM -RA BR SCT009 OVC016 07/04 A2977 RMK AO2 RAB34 SLP082 P0000 T00670044 401110067","FM-15","7",,,,,,,,,,,,,,,,,,,,,,,,,,,,"2009-05-18"
"74486454787","2020-04-26T23:59:00","SOD  ","6",,,,,,,,,,,,,,,,"48",,,"29.81",,"13.0","0","-5.5","17","52","44","020","32","0.15",,,"030","23","RA BR HZ",,,,,,,,,,,,,,,,,,,,,,,,,,,,,,,,,,,,,,,,,,,,,,,,,,,,,,,,"SOD72724 HR PRECIPITATION (IN):0.15  24 HR MAX TEMP (F):52 24 HR MAX TEMP TIME (LST):1109 24 HR MIN TEMP (F):44 24 HR MIN TEMP TIME (LST):2359 AVERAGE STATION PRESSURE:29.810 MINIMUM SEA LEVEL PRESSURE:29.68 TIME OF OCCURRENCE:1719 PEAK WIND SPEED (MPH):32  PEAK WIND DIR (DEG):20  PEAK WIND TIME (LST):1903  FASTEST 2MIN SPEED (MPH):23 FASTEST 2MIN DIR (DEG):30  FASTEST 2MIN TIME (LST):1859 AVERAGE WIND SPEED (MPH):13.0 24 HR AVG TEMP (F):48 HEATING DEGREE DAYS:17  COOLING DEGREE DAYS:0   LATEST DAY MAX TEMP (0700-1900 LST):52  LATEST NIGHT MIN TEMP(1900-0800 LST):49 HOURLY INCREMENTAL PRECIPITATION VALUES (IN):.00 T    0.00 0.00 T    0.00 0.00 T    0.00 0.00 0.00 0.11 0.01 0.02 0.01 T    T    T    T    0.00 0.00 T    0.00 T","SOD  ","6",,,,,,,,,,,,,,,,,,,,,,,,,"0458","1845",,"2009-05-18"
"74486454787","2020-04-27T00:03:00","FM-16","7",,,,,,,,,,,,,,,,,,,,,,,,,,,,,,,,,,,,,,"29.77","40","44","T",,,,"85",,"BKN:07 9 OVC:08 13","29.68","7.00","42","020",,"11",,,,,,,,,,,,,,,,,,,,,,,,,,,,,,,,,,,,,"MET11604/27/20 00:03:02 SPECI KFRG 270503Z 02010KT 7SM BKN009 OVC013 07/04 A2977 RMK AO2 RAE02 CIG 007V011 P0000 T00670044","FM-16","7",,,,,,,,,,,,,,,,,,,,,,,,,,,,"2009-05-18"
"74486454787","2020-04-27T00:46:00","FM-16","7",,,,,,,,,,,,,,,,,,,,,,,,,,,,,,,,,,,,,,"29.77","39","44","T",,,,"83",,"BKN:07 10 OVC:08 16","29.68","10.00","42","010",,"13",,,,,,,,,,,,,,,,,,,,,,,,,,,,,,,,,,,,,"MET11704/27/20 00:46:02 SPECI KFRG 270546Z 01011KT 10SM BKN010 OVC016 07/04 A2977 RMK AO2 RAE02 CIG 007V013 P0000 T00670039","FM-16","7",,,,,,,,,,,,,,,,,,,,,,,,,,,,"2009-05-18"
"74486454787","2020-04-27T00:53:00","FM-15","7",,,,,,,,,,,,,,,,,,,,,,,,,,,,,,,,,,,,,,"29.78","39","44","T",,"-0.03","1","83","29.78","OVC:08 12","29.69","10.00","42","010",,"13",,,,,,,,,,,,,,,,,,,,,,,,,,,,,,,,,,,,,"MET12904/27/20 00:53:02 METAR KFRG 270553Z 01011KT 10SM OVC012 07/04 A2978 RMK AO2 RAE02 SLP083 P0000 60000 T00670039 10083 20067 51010","FM-15","7",,,,,,,,,,,,,,,,,,,,,,,,,,,,"2009-05-18"
"74486454787","2020-04-27T01:50:00","FM-16","7",,,,,,,,,,,,,,,,,,,,,,,,,,,,,,,,,,,,,,"29.77","39","43",,,,,"87",,"OVC:08 9","29.68","9.00","41","010",,"13",,,,,,,,,,,,,,,,,,,,,,,,,,,,,,,,,,,,,"MET08704/27/20 01:50:02 SPECI KFRG 270650Z 01011KT 9SM OVC009 06/04 A2977 RMK AO2 CIG 007V014","FM-16","7",,,,,,,,,,,,,,,,,,,,,,,,,,,,"2009-05-18"
"74486454787","2020-04-27T01:53:00","FM-15","7",,,,,,,,,,,,,,,,,,,,,,,,,,,,,,,,,,,,,,"29.77","39","43","0.00",,,,"86","29.77","BKN:07 9 OVC:08 14","29.68","9.00","41","360",,"13",,,,,,,,,,,,,,,,,,,,,,,,,,,,,,,,,,,,,"MET09904/27/20 01:53:02 METAR KFRG 270653Z 36011KT 9SM BKN009 OVC014 06/04 A2977 RMK AO2 SLP080 T00610039","FM-15","7",,,,,,,,,,,,,,,,,,,,,,,,,,,,"2009-05-18"
"74486454787","2020-04-27T02:23:00","FM-16","7",,,,,,,,,,,,,,,,,,,,,,,,,,,,,,,,,,,,,,"29.78","39","43",,,,,"86",,"BKN:07 10 OVC:08 16","29.69","10.00","41","360","20","9",,,,,,,,,,,,,,,,,,,,,,,,,,,,,,,,,,,,,"MET10804/27/20 02:23:02 SPECI KFRG 270723Z 36008G17KT 10SM BKN010 OVC016 06/04 A2978 RMK AO2 CIG 007V013 T00610039","FM-16","7",,,,,,,,,,,,,,,,,,,,,,,,,,,,"2009-05-18"
"74486454787","2020-04-27T02:53:00","FM-15","7",,,,,,,,,,,,,,,,,,,,,,,,,,,,,,,,,,,,,,"29.78","39","43","0.00",,,,"86","29.78","BKN:07 10 OVC:08 15","29.69","10.00","41","350","17","10",,,,,,,,,,,,,,,,,,,,,,,,,,,,,,,,,,,,,"MET10304/27/20 02:53:02 METAR KFRG 270753Z 35009G15KT 10SM BKN010 OVC015 06/04 A2978 RMK AO2 SLP085 T00610039","FM-15","7",,,,,,,,,,,,,,,,,,,,,,,,,,,,"2009-05-18"
"74486454787","2020-04-27T03:17:00","FM-16","7",,,,,,,,,,,,,,,,,,,,,,,,,,,,,,,,,,,,,,"29.78","39","43",,,,,"86",,"SCT:04 10 OVC:08 17","29.69","10.00","41","360",,"10",,,,,,,,,,,,,,,,,,,,,,,,,,,,,,,,,,,,,"MET09304/27/20 03:17:02 SPECI KFRG 270817Z 36009KT 10SM SCT010 OVC017 06/04 A2978 RMK AO2 T00610039","FM-16","7",,,,,,,,,,,,,,,,,,,,,,,,,,,,"2009-05-18"
"74486454787","2020-04-27T03:38:00","FM-16","7",,,,,,,,,,,,,,,,,,,,,,,,,,,,,,,,,,,,,,"29.78","38","43",,,,,"82",,"BKN:07 10 OVC:08 17","29.69","10.00","41","010",,"11",,,,,,,,,,,,,,,,,,,,,,,,,,,,,,,,,,,,,"MET10504/27/20 03:38:02 SPECI KFRG 270838Z 01010KT 10SM BKN010 OVC017 06/03 A2978 RMK AO2 CIG 008V012 T00610033","FM-16","7",,,,,,,,,,,,,,,,,,,,,,,,,,,,"2009-05-18"
"74486454787","2020-04-27T03:53:00","FM-15","7",,,,,,,,,,,,,,,,,,,,,,,,,,,,,,,,,,,,,,"29.78","38","43","0.00",,"-0.01","0","82","29.78","BKN:07 10 OVC:08 15","29.69","10.00","41","360",,"14",,,,,,,,,,,,,,,,,,,,,,,,,,,,,,,,,,,,,"MET11804/27/20 03:53:02 METAR KFRG 270853Z 36012KT 10SM BKN010 OVC015 06/03 A2978 RMK AO2 CIG 007V011 SLP084 T00610033 50004","FM-15","7",,,,,,,,,,,,,,,,,,,,,,,,,,,,"2009-05-18"
"74486454787","2020-04-27T04:51:00","FM-16","7",,,,,,,,,,,,,,,,,,,,,,,,,,,,,,,,,,,,,,"29.79","37","43",,,,,"81",,"BKN:07 9 OVC:08 15","29.70","10.00","40","360",,"13",,,,,,,,,,,,,,,,,,,,,,,,,,,,,,,,,,,,,"MET09504/27/20 04:51:02 SPECI KFRG 270951Z 36011KT 10SM BKN009 OVC015 06/03 A2979 RMK AO2 CIG 008V012","FM-16","7",,,,,,,,,,,,,,,,,,,,,,,,,,,,"2009-05-18"
"74486454787","2020-04-27T04:53:00","FM-15","7",,,,,,,,,,,,,,,,,,,,,,,,,,,,,,,,,,,,,,"29.79","37","42","0.00",,,,"82","29.79","BKN:07 9 OVC:08 15","29.70","10.00","40","020",,"13",,,,,,,,,,,,,,,,,,,,,,,,,,,,,,,,,,,,,"MET11204/27/20 04:53:02 METAR KFRG 270953Z 02011KT 10SM BKN009 OVC015 06/03 A2979 RMK AO2 CIG 008V012 SLP087 T00560028","FM-15","7",,,,,,,,,,,,,,,,,,,,,,,,,,,,"2009-05-18"
"74486454787","2020-04-27T05:05:00","FM-16","7",,,,,,,,,,,,,,,,,,,,,,,,,,,,,,,,,,,,,,"29.79","37","42",,,,,"82",,"OVC:08 12","29.70","10.00","40","360","20","10",,,,,,,,,,,,,,,,,,,,,,,,,,,,,,,,,,,,,"MET08904/27/20 05:05:02 SPECI KFRG 271005Z 36009G17KT 10SM OVC012 06/03 A2979 RMK AO2 T00560028","FM-16","7",,,,,,,,,,,,,,,,,,,,,,,,,,,,"2009-05-18"
"74486454787","2020-04-27T05:53:00","FM-15","7",,,,,,,,,,,,,,,,,,,,,,,,,,,,,,,,,,,,,,"29.81","37","42","0.00",,,,"82","29.81","OVC:08 12","29.72","10.00","40","360",,"14",,,,,,,,,,,,,,,,,,,,,,,,,,,,,,,,,,,,,"MET09304/27/20 05:53:02 METAR KFRG 271053Z 36012KT 10SM OVC012 06/03 A2981 RMK AO2 SLP095 T00560028","FM-15","7",,,,,,,,,,,,,,,,,,,,,,,,,,,,"2009-05-18"
"74486454787","2020-04-27T06:14:00","FM-16","7",,,,,,,,,,,,,,,,,,,,,,,,,,,,,,,,,,,,,,"29.82","38","43",,,,,"82",,"OVC:08 15","29.73","10.00","41","350",,"10",,,,,,,,,,,,,,,,,,,,,,,,,,,,,,,,,,,,,"MET08604/27/20 06:14:02 SPECI KFRG 271114Z 35009KT 10SM OVC015 06/03 A2982 RMK AO2 T00610033","FM-16","7",,,,,,,,,,,,,,,,,,,,,,,,,,,,"2009-05-18"
"74486454787","2020-04-27T06:41:00","FM-16","7",,,,,,,,,,,,,,,,,,,,,,,,,,,,,,,,,,,,,,"29.82","38","43",,,,,"82",,"SCT:04 9 OVC:08 15","29.73","10.00","41","350",,"10",,,,,,,,,,,,,,,,,,,,,,,,,,,,,,,,,,,,,"MET09304/27/20 06:41:02 SPECI KFRG 271141Z 35009KT 10SM SCT009 OVC015 06/03 A2982 RMK AO2 T00610033","FM-16","7",,,,,,,,,,,,,,,,,,,,,,,,,,,,"2009-05-18"
"74486454787","2020-04-27T06:48:00","FM-16","7",,,,,,,,,,,,,,,,,,,,,,,,,,,,,,,,,,,,,,"29.82","37","43",,,,,"81",,"BKN:07 9 OVC:08 16","29.73","10.00","40","350",,"9",,,,,,,,,,,,,,,,,,,,,,,,,,,,,,,,,,,,,"MET08304/27/20 06:48:02 SPECI KFRG 271148Z 35008KT 10SM BKN009 OVC016 06/03 A2982 RMK AO2","FM-16","7",,,,,,,,,,,,,,,,,,,,,,,,,,,,"2009-05-18"
"74486454787","2020-04-27T06:53:00","FM-15","7",,,,,,,,,,,,,,,,,,,,,,,,,,,,,,,,,,,,,,"29.83","38","43","0.00",,"-0.04","1","82","29.83","BKN:07 9 BKN:07 16 OVC:08 24","29.74","10.00","41","350",,"11",,,,,,,,,,,,,,,,,,,,,,,,,,,,,,,,,,,,,"MET13104/27/20 06:53:02 METAR KFRG 271153Z 35010KT 10SM BKN009 BKN016 OVC024 06/03 A2983 RMK AO2 SLP101 70015 T00610033 10067 20056 51014","FM-15","7",,,,,,,,,,,,,,,,,,,,,,,,,,,,"2009-05-18"
"74486454787","2020-04-27T07:25:00","FM-16","7",,,,,,,,,,,,,,,,,,,,,,,,,,,,,,,,,,,,,,"29.83","38","43",,,,,"82",,"BKN:07 10 BKN:07 17 OVC:08 27","29.74","10.00","41","360",,"13",,,,,,,,,,,,,,,,,,,,,,,,,,,,,,,,,,,,,"MET10004/27/20 07:25:02 SPECI KFRG 271225Z 36011KT 10SM BKN010 BKN017 OVC027 06/03 A2983 RMK AO2 T00610033","FM-16","7",,,,,,,,,,,,,,,,,,,,,,,,,,,,"2009-05-18"
"74486454787","2020-04-27T07:51:00","FM-16","6",,,,,,,,,,,,,,,,,,,,,,,,,,,,,,,,,,,,,,"29.84","37","45",,,,,"76",,"SCT:04 10 BKN:07 21 OVC:08 26","29.75","10.00","41","360","21","11",,,,,,,,,,,,,,,,,,,,,,,,,,,,,,,,,,,,,"MET09804/27/20 07:51:02 SPECI KFRG 271251Z 36010G18KT 10SM SCT010 BKN021 OVC026 07/03 A2984 RMK AO2 FIBI","FM-16","6",,,,,,,,,,,,,,,,,,,,,,,,,,,,"2009-05-18"
"74486454787","2020-04-27T07:53:00","FM-15","7",,,,,,,,,,,,,,,,,,,,,,,,,,,,,,,,,,,,,,"29.84","39","44","0.00",,,,"83","29.84","SCT:04 10 BKN:07 23 OVC:08 28","29.75","10.00","42","350","21","13",,,,,,,,,,,,,,,,,,,,,,,,,,,,,,,,,,,,,"MET11004/27/20 07:53:02 METAR KFRG 271253Z 35011G18KT 10SM SCT010 BKN023 OVC028 07/04 A2984 RMK AO2 SLP106 T00670039","FM-15","7",,,,,,,,,,,,,,,,,,,,,,,,,,,,"2009-05-18"
"74486454787","2020-04-27T08:04:00","FM-16","7",,,,,,,,,,,,,,,,,,,,,,,,,,,,,,,,,,,,,,"29.85","38","44",,,,,"79",,"BKN:07 10 OVC:08 26","29.76","10.00","41","360","20","13",,,,,,,,,,,,,,,,,,,,,,,,,,,,,,,,,,,,,"MET09604/27/20 08:04:02 SPECI KFRG 271304Z 36011G17KT 10SM BKN010 OVC026 07/03 A2985 RMK AO2 T00670033","FM-16","7",,,,,,,,,,,,,,,,,,,,,,,,,,,,"2009-05-18"
"74486454787","2020-04-27T08:27:00","FM-16","7",,,,,,,,,,,,,,,,,,,,,,,,,,,,,,,,,,,,,,"29.84","38","45",,,,,"77",,"SCT:04 11 OVC:08 23","29.75","10.00","42","360","20","15",,,,,,,,,,,,,,,,,,,,,,,,,,,,,,,,,,,,,"MET09604/27/20 08:27:02 SPECI KFRG 271327Z 36013G17KT 10SM SCT011 OVC023 07/03 A2984 RMK AO2 T00720033","FM-16","7",,,,,,,,,,,,,,,,,,,,,,,,,,,,"2009-05-18"
"74486454787","2020-04-27T08:53:00","FM-15","7",,,,,,,,,,,,,,,,,,,,,,,,,,,,,,,,,,,,,,"29.85","38","45","0.00",,,,"77","29.85","FEW:02 13 OVC:08 23","29.76","10.00","42","360","21","11",,,,,,,,,,,,,,,,,,,,,,,,,,,,,,,,,,,,,"MET10304/27/20 08:53:02 METAR KFRG 271353Z 36010G18KT 10SM FEW013 OVC023 07/03 A2985 RMK AO2 SLP108 T00720033","FM-15","7",,,,,,,,,,,,,,,,,,,,,,,,,,,,"2009-05-18"
"74486454787","2020-04-27T09:53:00","FM-15","7",,,,,,,,,,,,,,,,,,,,,,,,,,,,,,,,,,,,,,"29.86","38","46","0.00",,"-0.02","3","73","29.86","SCT:04 16 BKN:07 24 OVC:08 39","29.77","10.00","42","350","23","14",,,,,,,,,,,,,,,,,,,,,,,,,,,,,,,,,,,,,"MET11604/27/20 09:53:02 METAR KFRG 271453Z 35012G20KT 10SM SCT016 BKN024 OVC039 08/03 A2986 RMK AO2 SLP113 T00780033 53008","FM-15","7",,,,,,,,,,,,,,,,,,,,,,,,,,,,"2009-05-18"
"74486454787","2020-04-27T10:13:00","FM-16","7",,,,,,,,,,,,,,,,,,,,,,,,,,,,,,,,,,,,,,"29.87","38","46",,,,,"73",,"BKN:07 14 BKN:07 24 OVC:08 42","29.78","10.00","42","350","20","11",,,,,,,,,,,,,,,,,,,,,,,,,,,,,,,,,,,,,"MET10304/27/20 10:13:02 SPECI KFRG 271513Z 35010G17KT 10SM BKN014 BKN024 OVC042 08/03 A2987 RMK AO2 T00780033","FM-16","7",,,,,,,,,,,,,,,,,,,,,,,,,,,,"2009-05-18"
"74486454787","2020-04-27T10:22:00","FM-16","7",,,,,,,,,,,,,,,,,,,,,,,,,,,,,,,,,,,,,,"29.87","40","47",,,,,"77",,"SCT:04 13 BKN:07 27 OVC:08 43","29.78","10.00","44","010",,"14",,,,,,,,,,,,,,,,,,,,,,,,,,,,,,,,,,,,,"MET10004/27/20 10:22:02 SPECI KFRG 271522Z 01012KT 10SM SCT013 BKN027 OVC043 08/04 A2987 RMK AO2 T00830044","FM-16","7",,,,,,,,,,,,,,,,,,,,,,,,,,,,"2009-05-18"
"74486454787","2020-04-27T10:32:00","FM-16","7",,,,,,,,,,,,,,,,,,,,,,,,,,,,,,,,,,,,,,"29.88","39","46",,,,,"77",,"BKN:07 13 BKN:07 19 OVC:08 28","29.79","10.00","43","350",,"13",,,,,,,,,,,,,,,,,,,,,,,,,,,,,,,,,,,,,"MET10004/27/20 10:32:02 SPECI KFRG 271532Z 35011KT 10SM BKN013 BKN019 OVC028 08/04 A2988 RMK AO2 T00780039","FM-16","7",,,,,,,,,,,,,,,,,,,,,,,,,,,,"2009-05-18"
"74486454787","2020-04-27T10:53:00","FM-15","7",,,,,,,,,,,,,,,,,,,,,,,,,,,,,,,,,,,,,,"29.87","39","47","0.00",,,,"74","29.87","BKN:07 13 BKN:07 18 OVC:08 28","29.78","10.00","43","010","21","13",,,,,,,,,,,,,,,,,,,,,,,,,,,,,,,,,,,,,"MET11004/27/20 10:53:02 METAR KFRG 271553Z 01011G18KT 10SM BKN013 BKN018 OVC028 08/04 A2987 RMK AO2 SLP116 T00830039","FM-15","7",,,,,,,,,,,,,,,,,,,,,,,,,,,,"2009-05-18"
"74486454787","2020-04-27T11:04:00","FM-16","7",,,,,,,,,,,,,,,,,,,,,,,,,,,,,,,,,,,,,,"29.87","39","47",,,,,"74",,"BKN:07 15 OVC:08 27","29.78","10.00","43","360",,"14",,,,,,,,,,,,,,,,,,,,,,,,,,,,,,,,,,,,,"MET09304/27/20 11:04:02 SPECI KFRG 271604Z 36012KT 10SM BKN015 OVC027 08/04 A2987 RMK AO2 T00830039","FM-16","7",,,,,,,,,,,,,,,,,,,,,,,,,,,,"2009-05-18"
"74486454787","2020-04-27T11:51:00","FM-16","6",,,,,,,,,,,,,,,,,,,,,,,,,,,,,,,,,,,,,,"29.88","36","48",,,,,"62",,"FEW:02 20 OVC:08 30","29.79","10.00","43","360",,"14",,,,,,,,,,,,,,,,,,,,,,,,,,,,,,,,,,,,,"MET08804/27/20 11:51:02 SPECI KFRG 271651Z 36012KT 10SM FEW020 OVC030 09/02 A2988 RMK AO2 FIBI","FM-16","6",,,,,,,,,,,,,,,,,,,,,,,,,,,,"2009-05-18"
"74486454787","2020-04-27T11:53:00","FM-15","7",,,,,,,,,,,,,,,,,,,,,,,,,,,,,,,,,,,,,,"29.88","36","47","0.00",,,,"66","29.88","FEW:02 20 OVC:08 30","29.79","10.00","42","010",,"16",,,,,,,,,,,,,,,,,,,,,,,,,,,,,,,,,,,,,"MET10004/27/20 11:53:02 METAR KFRG 271653Z 01014KT 10SM FEW020 OVC030 08/02 A2988 RMK AO2 SLP118 T00830022","FM-15","7",,,,,,,,,,,,,,,,,,,,,,,,,,,,"2009-05-18"
"74486454787","2020-04-27T12:22:00","FM-16","7",,,,,,,,,,,,,,,,,,,,,,,,,,,,,,,,,,,,,,"29.88","37","47",,,,,"69",,"BKN:07 25 OVC:08 32","29.79","10.00","42","010","22","16",,,,,,,,,,,,,,,,,,,,,,,,,,,,,,,,,,,,,"MET09604/27/20 12:22:02 SPECI KFRG 271722Z 01014G19KT 10SM BKN025 OVC032 08/03 A2988 RMK AO2 T00830028","FM-16","7",,,,,,,,,,,,,,,,,,,,,,,,,,,,"2009-05-18"
"74486454787","2020-04-27T12:35:00","FM-16","7",,,,,,,,,,,,,,,,,,,,,,,,,,,,,,,,,,,,,,"29.88","36","48",,,,,"63",,"SCT:04 23 OVC:08 33","29.79","10.00","43","010","22","17",,,,,,,,,,,,,,,,,,,,,,,,,,,,,,,,,,,,,"MET09604/27/20 12:35:02 SPECI KFRG 271735Z 01015G19KT 10SM SCT023 OVC033 09/02 A2988 RMK AO2 T00890022","FM-16","7",,,,,,,,,,,,,,,,,,,,,,,,,,,,"2009-05-18"
"74486454787","2020-04-27T12:53:00","FM-15","7",,,,,,,,,,,,,,,,,,,,,,,,,,,,,,,,,,,,,,"29.88","36","49","0.00",,"-0.02","1","61","29.88","FEW:02 26 SCT:04 34 OVC:08 43","29.79","10.00","43","360","22","11",,,,,,,,,,,,,,,,,,,,,,,,,,,,,,,,,,,,,"MET12804/27/20 12:53:02 METAR KFRG 271753Z 36010G19KT 10SM FEW026 SCT034 OVC043 09/02 A2988 RMK AO2 SLP119 T00940022 10094 20061 51007","FM-15","7",,,,,,,,,,,,,,,,,,,,,,,,,,,,"2009-05-18"
"74486454787","2020-04-27T13:07:00","FM-16","7",,,,,,,,,,,,,,,,,,,,,,,,,,,,,,,,,,,,,,"29.88","38","49",,,,,"66",,"SCT:04 24 BKN:07 29 OVC:08 40","29.79","10.00","44","010",,"15",,,,,,,,,,,,,,,,,,,,,,,,,,,,,,,,,,,,,"MET10004/27/20 13:07:02 SPECI KFRG 271807Z 01013KT 10SM SCT024 BKN029 OVC040 09/03 A2988 RMK AO2 T00940033","FM-16","7",,,,,,,,,,,,,,,,,,,,,,,,,,,,"2009-05-18"
"74486454787","2020-04-27T13:15:00","FM-16","7",,,,,,,,,,,,,,,,,,,,,,,,,,,,,,,,,,,,,,"29.89","37","49",,,,,"64",,"SCT:04 26 BKN:07 31 OVC:08 42","29.80","10.00","44","350","25","13",,,,,,,,,,,,,,,,,,,,,,,,,,,,,,,,,,,,,"MET10304/27/20 13:15:02 SPECI KFRG 271815Z 35011G22KT 10SM SCT026 BKN031 OVC042 09/03 A2989 RMK AO2 T00940028","FM-16","7",,,,,,,,,,,,,,,,,,,,,,,,,,,,"2009-05-18"
"74486454787","2020-04-27T13:22:00","FM-16","7",,,,,,,,,,,,,,,,,,,,,,,,,,,,,,,,,,,,,,"29.89","37","48","T","-RA:02 |RA |RA",,,"66",,"BKN:07 26 BKN:07 34 OVC:08 41","29.80","10.00","43","350","20","11",,,,,,,,,,,,,,,,,,,,,,,,,,,,,,,,,,,,,"MET11904/27/20 13:22:02 SPECI KFRG 271822Z 35010G17KT 10SM -RA BKN026 BKN034 OVC041 09/03 A2989 RMK AO2 RAB18 P0000 T00890028","FM-16","7",,,,,,,,,,,,,,,,,,,,,,,,,,,,"2009-05-18"
"74486454787","2020-04-27T13:37:00","FM-16","7",,,,,,,,,,,,,,,,,,,,,,,,,,,,,,,,,,,,,,"29.90","39","49","T","-RA:02 |RA |RA",,,"69",,"SCT:04 26 OVC:08 35","29.81","10.00","44","350",,"11",,,,,,,,,,,,,,,,,,,,,,,,,,,,,,,,,,,,,"MET10904/27/20 13:37:02 SPECI KFRG 271837Z 35010KT 10SM -RA SCT026 OVC035 09/04 A2990 RMK AO2 RAB18 P0000 T00940039","FM-16","7",,,,,,,,,,,,,,,,,,,,,,,,,,,,"2009-05-18"
"74486454787","2020-04-27T13:51:00","FM-16","7",,,,,,,,,,,,,,,,,,,,,,,,,,,,,,,,,,,,,,"29.90","39","48","T","-RA:02 |RA |RA",,,"71",,"BKN:07 27 OVC:08 35","29.81","10.00","44","360","22","15",,,,,,,,,,,,,,,,,,,,,,,,,,,,,,,,,,,,,"MET10204/27/20 13:51:02 SPECI KFRG 271851Z 36013G19KT 10SM -RA BKN027 OVC035 09/04 A2990 RMK AO2 RAB18 P0000","FM-16","7",,,,,,,,,,,,,,,,,,,,,,,,,,,,"2009-05-18"
"74486454787","2020-04-27T13:53:00","FM-15","7",,,,,,,,,,,,,,,,,,,,,,,,,,,,,,,,,,,,,,"29.90","39","49","T","-RA:02 |RA |RA",,,"69","29.90","SCT:04 27 OVC:08 35","29.81","10.00","44","360","22","15",,,,,,,,,,,,,,,,,,,,,,,,,,,,,,,,,,,,,"MET11904/27/20 13:53:02 METAR KFRG 271853Z 36013G19KT 10SM -RA SCT027 OVC035 09/04 A2990 RMK AO2 RAB18 SLP124 P0000 T00940039","FM-15","7",,,,,,,,,,,,,,,,,,,,,,,,,,,,"2009-05-18"
"74486454787","2020-04-27T14:53:00","FM-15","7",,,,,,,,,,,,,,,,,,,,,,,,,,,,,,,,,,,,,,"29.91","37","48","T","-RA:02 |RA |RA",,,"66","29.91","BKN:07 31 BKN:07 41 OVC:08 50","29.82","10.00","43","340","22","11",,,,,,,,,,,,,,,,,,,,,,,,,,,,,,,,,,,,,"MET12904/27/20 14:53:02 METAR KFRG 271953Z 34010G19KT 10SM -RA BKN031 BKN041 OVC050 09/03 A2991 RMK AO2 RAE11B48 SLP129 P0000 T00890028","FM-15","7",,,,,,,,,,,,,,,,,,,,,,,,,,,,"2009-05-18"
"74486454787","2020-04-27T15:53:00","FM-15","7",,,,,,,,,,,,,,,,,,,,,,,,,,,,,,,,,,,,,,"29.93","36","49","0.00",,"-0.03","3","61","29.93","FEW:02 30 SCT:04 41 OVC:08 60","29.84","10.00","43","350",,"9",,,,,,,,,,,,,,,,,,,,,,,,,,,,,,,,,,,,,"MET13304/27/20 15:53:02 METAR KFRG 272053Z 35008KT 10SM FEW030 SCT041 OVC060 09/02 A2993 RMK AO2 RAE1959 SLP136 P0000 60000 T00940022 53011","FM-15","7",,,,,,,,,,,,,,,,,,,,,,,,,,,,"2009-05-18"
"74486454787","2020-04-27T16:53:00","FM-15","7",,,,,,,,,,,,,,,,,,,,,,,,,,,,,,,,,,,,,,"29.96","35","49","T",,,,"59","29.96","FEW:02 31 SCT:04 41 OVC:08 60","29.87","10.00","43","360","23","13",,,,,,,,,,,,,,,,,,,,,,,,,,,,,,,,,,,,,"MET11004/27/20 16:53:02 METAR KFRG 272153Z 36011G20KT 10SM FEW031 SCT041 OVC060 09/02 A2996 RMK AO2 SLP146 T00940017","FM-15","7",,,,,,,,,,,,,,,,,,,,,,,,,,,,"2009-05-18"
"74486454787","2020-04-27T17:53:00","FM-15","7",,,,,,,,,,,,,,,,,,,,,,,,,,,,,,,,,,,,,,"29.99","37","46","T","-RA:02 |RA |RA",,,"71","29.99","FEW:02 23 BKN:07 35 OVC:08 90","29.90","10.00","42","350","24","13",,,,,,,,,,,,,,,,,,,,,,,,,,,,,,,,,,,,,"MET13404/27/20 17:53:02 METAR KFRG 272253Z 35011G21KT 10SM -RA FEW023 BKN035 OVC090 08/03 A2999 RMK AO2 RAB2156E16B52 SLP155 P0000 T00780028","FM-15","7",,,,,,,,,,,,,,,,,,,,,,,,,,,,"2009-05-18"
"74486454787","2020-04-27T18:53:00","FM-15","7",,,,,,,,,,,,,,,,,,,,,,,,,,,,,,,,,,,,,,"30.00","37","46","T",,"-0.07","1","71","30.00","OVC:08 100","29.91","10.00","42","350","24","14",,,,,,,,,,,,,,,,,,,,,,,,,,,,,,,,,,,,,"MET13204/27/20 18:53:02 METAR KFRG 272353Z 35012G21KT 10SM OVC100 08/03 A3000 RMK AO2 RAE04 SLP160 P0000 60000 T00780028 10100 20078 51024","FM-15","7",,,,,,,,,,,,,,,,,,,,,,,,,,,,"2009-05-18"
"74486454787","2020-04-27T19:53:00","FM-15","7",,,,,,,,,,,,,,,,,,,,,,,,,,,,,,,,,,,,,,"30.02","36","45","0.00",,,,"71","30.02","FEW:02 95","29.93","10.00","41","350",,"8",,,,,,,,,,,,,,,,,,,,,,,,,,,,,,,,,,,,,"MET09304/27/20 19:53:01 METAR KFRG 280053Z 35007KT 10SM FEW095 07/02 A3002 RMK AO2 SLP167 T00720022","FM-15","7",,,,,,,,,,,,,,,,,,,,,,,,,,,,"2009-05-18"
"74486454787","2020-04-27T20:53:00","FM-15","7",,,,,,,,,,,,,,,,,,,,,,,,,,,,,,,,,,,,,,"30.04","36","45","0.00",,,,"71","30.04","FEW:02 100","29.95","10.00","41","350",,"9",,,,,,,,,,,,,,,,,,,,,,,,,,,,,,,,,,,,,"MET09304/27/20 20:53:01 METAR KFRG 280153Z 35008KT 10SM FEW100 07/02 A3004 RMK AO2 SLP172 T00720022","FM-15","7",,,,,,,,,,,,,,,,,,,,,,,,,,,,"2009-05-18"
"74486454787","2020-04-27T21:53:00","FM-15","7",,,,,,,,,,,,,,,,,,,,,,,,,,,,,,,,,,,,,,"30.05","36","45","0.00",,"-0.05","1","71","30.05","SCT:04 27","29.96","10.00","41","340",,"11",,,,,,,,,,,,,,,,,,,,,,,,,,,,,,,,,,,,,"MET09904/27/20 21:53:01 METAR KFRG 280253Z 34010KT 10SM SCT027 07/02 A3005 RMK AO2 SLP176 T00720022 51016","FM-15","7",,,,,,,,,,,,,,,,,,,,,,,,,,,,"2009-05-18"
"74486454787","2020-04-27T22:00:00","FM-16","7",,,,,,,,,,,,,,,,,,,,,,,,,,,,,,,,,,,,,,"30.05","36","45",,,,,"71",,"BKN:07 26","29.96","10.00","41","340",,"11",,,,,,,,,,,,,,,,,,,,,,,,,,,,,,,,,,,,,"MET08604/27/20 22:00:01 SPECI KFRG 280300Z 34010KT 10SM BKN026 07/02 A3005 RMK AO2 T00720022","FM-16","7",,,,,,,,,,,,,,,,,,,,,,,,,,,,"2009-05-18"
"74486454787","2020-04-27T22:53:00","FM-15","7",,,,,,,,,,,,,,,,,,,,,,,,,,,,,,,,,,,,,,"30.06","35","44","0.00",,,,"71","30.06","BKN:07 28","29.97","10.00","40","340",,"9",,,,,,,,,,,,,,,,,,,,,,,,,,,,,,,,,,,,,"MET09304/27/20 22:53:02 METAR KFRG 280353Z 34008KT 10SM BKN028 07/02 A3006 RMK AO2 SLP178 T00670017","FM-15","7",,,,,,,,,,,,,,,,,,,,,,,,,,,,"2009-05-18"
"74486454787","2020-04-27T23:30:00","FM-16","7",,,,,,,,,,,,,,,,,,,,,,,,,,,,,,,,,,,,,,"30.06","35","44",,,,,"71",,"SCT:04 28","29.97","10.00","40","350",,"9",,,,,,,,,,,,,,,,,,,,,,,,,,,,,,,,,,,,,"MET08604/27/20 23:30:02 SPECI KFRG 280430Z 35008KT 10SM SCT028 07/02 A3006 RMK AO2 T00670017","FM-16","7",,,,,,,,,,,,,,,,,,,,,,,,,,,,"2009-05-18"
"74486454787","2020-04-27T23:53:00","FM-15","7",,,,,,,,,,,,,,,,,,,,,,,,,,,,,,,,,,,,,,"30.07","35","44","0.00",,,,"71","30.07","BKN:07 29","29.98","10.00","40","340",,"7",,,,,,,,,,,,,,,,,,,,,,,,,,,,,,,,,,,,,"MET10304/27/20 23:53:02 METAR KFRG 280453Z 34006KT 10SM BKN029 07/02 A3007 RMK AO2 SLP182 T00670017 401000056","FM-15","7",,,,,,,,,,,,,,,,,,,,,,,,,,,,"2009-05-18"
"74486454787","2020-04-27T23:59:00","SOD  ","6",,,,,,,,,,,,,,,,"46",,,"29.79",,"11.7","0","-7.9","19","50","42","360","29","T",,,"360","21","RA",,,,,,,,,,,,,,,,,,,,,,,,,,,,,,,,,,,,,,,,,,,,,,,,,,,,,,,,"SOD73424 HR PRECIPITATION (IN):T     24 HR MAX TEMP (F):50 24 HR MAX TEMP TIME (LST):1416 24 HR MIN TEMP (F):42 24 HR MIN TEMP TIME (LST):0631 AVERAGE STATION PRESSURE(D):29.787 MINIMUM SEA LEVEL PRESSURE:29.77 TIME OF OCCURRENCE:0402 PEAK WIND SPEED (MPH):29  PEAK WIND DIR (DEG):360 PEAK WIND TIME (LST):1654  FASTEST 2MIN SPEED (MPH):21 FASTEST 2MIN DIR (DEG):360 FASTEST 2MIN TIME (LST):1656 AVERAGE WIND SPEED (MPH):11.7 24 HR AVG TEMP (F):46 HEATING DEGREE DAYS: 19 COOLING DEGREE DAYS:  0 LATEST DAY MAX TEMP (0700-1900 LST): 50 LATEST NIGHT MIN TEMP(1900-0800 LST):42 HOURLY INCREMENTAL PRECIPITATION VALUES (IN):     0.00 0.00 0.00 0.00 0.00 0.00 0.00 0.00 0.00 0.00 0.00 0.00T    T     0.00T    T    T     0.00 0.00 0.00 0.00 0.00","SOD  ","6",,,,,,,,,,,,,,,,,,,,,,,,,"0457","1846",,"2009-05-18"
"74486454787","2020-04-28T00:00:00","FM-16","7",,,,,,,,,,,,,,,,,,,,,,,,,,,,,,,,,,,,,,"30.07","35","44",,,,,"71",,"OVC:08 31","29.98","10.00","40","340",,"9",,,,,,,,,,,,,,,,,,,,,,,,,,,,,,,,,,,,,"MET08604/28/20 00:00:02 SPECI KFRG 280500Z 34008KT 10SM OVC031 07/02 A3007 RMK AO2 T00670017","FM-16","7",,,,,,,,,,,,,,,,,,,,,,,,,,,,"2009-05-18"
"74486454787","2020-04-28T00:53:00","FM-15","7",,,,,,,,,,,,,,,,,,,,,,,,,,,,,,,,,,,,,,"30.07","35","44","0.00",,"-0.01","0","71","30.06","BKN:07 32","29.98","10.00","40","330",,"8",,,,,,,,,,,,,,,,,,,,,,,,,,,,,,,,,,,,,"MET11104/28/20 00:53:02 METAR KFRG 280553Z 33007KT 10SM BKN032 07/02 A3007 RMK AO2 SLP181 T00670017 10072 20067 50005","FM-15","7",,,,,,,,,,,,,,,,,,,,,,,,,,,,"2009-05-18"
"74486454787","2020-04-28T01:53:00","FM-15","7",,,,,,,,,,,,,,,,,,,,,,,,,,,,,,,,,,,,,,"30.06","35","43","0.00",,,,"74","30.06","FEW:02 30 SCT:04 37","29.97","10.00","40","360",,"9",,,,,,,,,,,,,,,,,,,,,,,,,,,,,,,,,,,,,"MET10004/28/20 01:53:02 METAR KFRG 280653Z 36008KT 10SM FEW030 SCT037 06/02 A3006 RMK AO2 SLP179 T00610017","FM-15","7",,,,,,,,,,,,,,,,,,,,,,,,,,,,"2009-05-18"
"74486454787","2020-04-28T02:53:00","FM-15","7",,,,,,,,,,,,,,,,,,,,,,,,,,,,,,,,,,,,,,"30.08","35","42","0.00",,,,"76","30.09","CLR:00","29.99","10.00","39","320",,"5",,,,,,,,,,,,,,,,,,,,,,,,,,,,,,,,,,,,,"MET09004/28/20 02:53:02 METAR KFRG 280753Z 32004KT 10SM CLR 06/02 A3008 RMK AO2 SLP188 T00560017","FM-15","7",,,,,,,,,,,,,,,,,,,,,,,,,,,,"2009-05-18"
"74486454787","2020-04-28T03:53:00","FM-15","7",,,,,,,,,,,,,,,,,,,,,,,,,,,,,,,,,,,,,,"30.10","35","42","0.00",,"-0.03","3","76","30.10","CLR:00","30.01","10.00","39","330",,"6",,,,,,,,,,,,,,,,,,,,,,,,,,,,,,,,,,,,,"MET09604/28/20 03:53:02 METAR KFRG 280853Z 33005KT 10SM CLR 06/02 A3010 RMK AO2 SLP192 T00560017 53010","FM-15","7",,,,,,,,,,,,,,,,,,,,,,,,,,,,"2009-05-18"
"74486454787","2020-04-28T04:53:00","FM-15","7",,,,,,,,,,,,,,,,,,,,,,,,,,,,,,,,,,,,,,"30.11","35","41","0.00",,,,"79","30.11","FEW:02 39 OVC:08 60","30.02","10.00","38","000",,"0",,,,,,,,,,,,,,,,,,,,,,,,,,,,,,,,,,,,,"MET10004/28/20 04:53:02 METAR KFRG 280953Z 00000KT 10SM FEW039 OVC060 05/02 A3011 RMK AO2 SLP195 T00500017","FM-15","7",,,,,,,,,,,,,,,,,,,,,,,,,,,,"2009-05-18"
"74486454787","2020-04-28T05:53:00","FM-15","7",,,,,,,,,,,,,,,,,,,,,,,,,,,,,,,,,,,,,,"30.13","36","43","0.00",,,,"76","30.13","CLR:00","30.04","10.00","40","320",,"6",,,,,,,,,,,,,,,,,,,,,,,,,,,,,,,,,,,,,"MET09004/28/20 05:53:02 METAR KFRG 281053Z 32005KT 10SM CLR 06/02 A3013 RMK AO2 SLP203 T00610022","FM-15","7",,,,,,,,,,,,,,,,,,,,,,,,,,,,"2009-05-18"
"74486454787","2020-04-28T06:53:00","FM-15","7",,,,,,,,,,,,,,,,,,,,,,,,,,,,,,,,,,,,,,"30.14","35","46","0.00",,"-0.04","1","66","30.14","CLR:00","30.05","10.00","41","340",,"10",,,,,,,,,,,,,,,,,,,,,,,,,,,,,,,,,,,,,"MET10804/28/20 06:53:02 METAR KFRG 281153Z 34009KT 10SM CLR 08/02 A3014 RMK AO2 SLP206 T00780017 10078 20050 51014","FM-15","7",,,,,,,,,,,,,,,,,,,,,,,,,,,,"2009-05-18"
"74486454787","2020-04-28T07:53:00","FM-15","7",,,,,,,,,,,,,,,,,,,,,,,,,,,,,,,,,,,,,,"30.13","34","49","0.00",,,,"56","30.13","CLR:00","30.04","10.00","42","350",,"10",,,,,,,,,,,,,,,,,,,,,,,,,,,,,,,,,,,,,"MET09004/28/20 07:53:02 METAR KFRG 281253Z 35009KT 10SM CLR 09/01 A3013 RMK AO2 SLP204 T00940011","FM-15","7",,,,,,,,,,,,,,,,,,,,,,,,,,,,"2009-05-18"
"74486454787","2020-04-28T08:53:00","FM-15","7",,,,,,,,,,,,,,,,,,,,,,,,,,,,,,,,,,,,,,"30.13","35","51","0.00",,,,"54","30.13","FEW:02 35","30.04","10.00","44","350",,"9",,,,,,,,,,,,,,,,,,,,,,,,,,,,,,,,,,,,,"MET09304/28/20 08:53:02 METAR KFRG 281353Z 35008KT 10SM FEW035 11/02 A3013 RMK AO2 SLP203 T01060017","FM-15","7",,,,,,,,,,,,,,,,,,,,,,,,,,,,"2009-05-18"
"74486454787","2020-04-28T09:53:00","FM-15","7",,,,,,,,,,,,,,,,,,,,,,,,,,,,,,,,,,,,,,"30.14","34","52","0.00",,"+0.00","5","50","30.14","BKN:07 39","30.05","10.00","44","330",,"10",,,,,,,,,,,,,,,,,,,,,,,,,,,,,,,,,,,,,"MET09904/28/20 09:53:02 METAR KFRG 281453Z 33009KT 10SM BKN039 11/01 A3014 RMK AO2 SLP205 T01110011 55001","FM-15","7",,,,,,,,,,,,,,,,,,,,,,,,,,,,"2009-05-18"
"74486454787","2020-04-28T10:53:00","FM-15","7",,,,,,,,,,,,,,,,,,,,,,,,,,,,,,,,,,,,,,"30.12","34","55","0.00",,,,"45","30.12","CLR:00","30.03","10.00","45","330","18","10",,,,,,,,,,,,,,,,,,,,,,,,,,,,,,,,,,,,,"MET09304/28/20 10:53:02 METAR KFRG 281553Z 33009G16KT 10SM CLR 13/01 A3012 RMK AO2 SLP201 T01280011","FM-15","7",,,,,,,,,,,,,,,,,,,,,,,,,,,,"2009-05-18"
"74486454787","2020-04-28T11:53:00","FM-15","7",,,,,,,,,,,,,,,,,,,,,,,,,,,,,,,,,,,,,,"30.11","33","57","0.00",,,,"41","30.11","CLR:00","30.02","10.00","46","330","17","9",,,,,,,,,,,,,,,,,,,,,,,,,,,,,,,,,,,,,"MET09304/28/20 11:53:02 METAR KFRG 281653Z 33008G15KT 10SM CLR 14/01 A3011 RMK AO2 SLP195 T01390006","FM-15","7",,,,,,,,,,,,,,,,,,,,,,,,,,,,"2009-05-18"
"74486454787","2020-04-28T12:53:00","FM-15","7",,,,,,,,,,,,,,,,,,,,,,,,,,,,,,,,,,,,,,"30.10","31","59","0.00",,"+0.04","6","35","30.10","CLR:00","30.01","10.00","46","VRB","24","11",,,,,,,,,,,,,,,,,,,,,,,,,,,,,,,,,,,,,"MET11204/28/20 12:53:02 METAR KFRG 281753Z 29010G21KT 10SM CLR 15/M01 A3010 RMK AO2 SLP192 T01501006 10150 20078 56014","FM-15","7",,,,,,,,,,,,,,,,,,,,,,,,,,,,"2009-05-18"
"74486454787","2020-04-28T13:53:00","FM-15","7",,,,,,,,,,,,,,,,,,,,,,,,,,,,,,,,,,,,,,"30.08","29","62","0.00",,,,"29","30.08","CLR:00","29.99","10.00","47","330","18","14",,,,,,,,,,,,,,,,,,,,,,,,,,,,,,,,,,,,,"MET09404/28/20 13:53:02 METAR KFRG 281853Z 33012G16KT 10SM CLR 17/M02 A3008 RMK AO2 SLP186 T01671017","FM-15","7",,,,,,,,,,,,,,,,,,,,,,,,,,,,"2009-05-18"
"74486454787","2020-04-28T14:53:00","FM-15","7",,,,,,,,,,,,,,,,,,,,,,,,,,,,,,,,,,,,,,"30.07","31","65","0.00",,,,"28","30.07","CLR:00","29.98","10.00","49","340",,"11",,,,,,,,,,,,,,,,,,,,,,,,,,,,,,,,,,,,,"MET09104/28/20 14:53:02 METAR KFRG 281953Z 34010KT 10SM CLR 18/M01 A3007 RMK AO2 SLP184 T01831006","FM-15","7",,,,,,,,,,,,,,,,,,,,,,,,,,,,"2009-05-18"
"74486454787","2020-04-28T15:53:00","FM-15","7",,,,,,,,,,,,,,,,,,,,,,,,,,,,,,,,,,,,,,"30.07","33","64","0.00",,"+0.02","6","32","30.07","CLR:00","29.98","10.00","49",,,,,,,,,,,,,,,,,,,,,,,,,,,,,,,,,,,,,,,,"MET09604/28/20 15:53:02 METAR KFRG 282053Z      KT 10SM CLR 18/01 A3007 RMK AO2 SLP183 T01780006 56008","FM-15","7",,,,,,,,,,,,,,,,,,,,,,,,,,,,"2009-05-18"
"74486454787","2020-04-28T16:53:00","FM-15","7",,,,,,,,,,,,,,,,,,,,,,,,,,,,,,,,,,,,,,"30.09","40","56","0.00",,,,"55","30.09","CLR:00","30.00","10.00","48","230",,"11",,,,,,,,,,,,,,,,,,,,,,,,,,,,,,,,,,,,,"MET09004/28/20 16:53:02 METAR KFRG 282153Z 23010KT 10SM CLR 13/04 A3009 RMK AO2 SLP188 T01330044","FM-15","7",,,,,,,,,,,,,,,,,,,,,,,,,,,,"2009-05-18"
"74486454787","2020-04-28T17:53:00","FM-15","7",,,,,,,,,,,,,,,,,,,,,,,,,,,,,,,,,,,,,,"30.10","38","54","0.00",,,,"55","30.10","CLR:00","30.01","10.00","46","220",,"9",,,,,,,,,,,,,,,,,,,,,,,,,,,,,,,,,,,,,"MET09004/28/20 17:53:02 METAR KFRG 282253Z 22008KT 10SM CLR 12/03 A3010 RMK AO2 SLP193 T01220033","FM-15","7",,,,,,,,,,,,,,,,,,,,,,,,,,,,"2009-05-18"
"74486454787","2020-04-28T18:53:00","FM-15","7",,,,,,,,,,,,,,,,,,,,,,,,,,,,,,,,,,,,,,"30.10","39","52","0.00",,"-0.03","1","61","30.10","CLR:00","30.01","10.00","46","000",,"0",,,,,,,,,,,,,,,,,,,,,,,,,,,,,,,,,,,,,"MET10804/28/20 18:53:02 METAR KFRG 282353Z 00000KT 10SM CLR 11/04 A3010 RMK AO2 SLP194 T01110039 10183 20111 51011","FM-15","7",,,,,,,,,,,,,,,,,,,,,,,,,,,,"2009-05-18"
"74486454787","2020-04-28T19:53:00","FM-15","7",,,,,,,,,,,,,,,,,,,,,,,,,,,,,,,,,,,,,,"30.12","41","50","0.00",,,,"71","30.12","CLR:00","30.03","10.00","46","190",,"6",,,,,,,,,,,,,,,,,,,,,,,,,,,,,,,,,,,,,"MET09004/28/20 19:53:01 METAR KFRG 290053Z 19005KT 10SM CLR 10/05 A3012 RMK AO2 SLP200 T01000050","FM-15","7",,,,,,,,,,,,,,,,,,,,,,,,,,,,"2009-05-18"
"74486454787","2020-04-28T20:53:00","FM-15","7",,,,,,,,,,,,,,,,,,,,,,,,,,,,,,,,,,,,,,"30.14","42","50","0.00",,,,"74","30.14","CLR:00","30.05","10.00","46","120",,"3",,,,,,,,,,,,,,,,,,,,,,,,,,,,,,,,,,,,,"MET09004/28/20 20:53:01 METAR KFRG 290153Z 12003KT 10SM CLR 10/06 A3014 RMK AO2 SLP207 T01000056","FM-15","7",,,,,,,,,,,,,,,,,,,,,,,,,,,,"2009-05-18"
"74486454787","2020-04-28T21:53:00","FM-15","7",,,,,,,,,,,,,,,,,,,,,,,,,,,,,,,,,,,,,,"30.15","41","48","0.00",,"-0.04","1","77","30.15","CLR:00","30.06","10.00","45","110",,"3",,,,,,,,,,,,,,,,,,,,,,,,,,,,,,,,,,,,,"MET09604/28/20 21:53:01 METAR KFRG 290253Z 11003KT 10SM CLR 09/05 A3015 RMK AO2 SLP209 T00890050 51015","FM-15","7",,,,,,,,,,,,,,,,,,,,,,,,,,,,"2009-05-18"
"74486454787","2020-04-28T22:53:00","FM-15","7",,,,,,,,,,,,,,,,,,,,,,,,,,,,,,,,,,,,,,"30.15","41","47","0.00",,,,"80","30.15","CLR:00","30.06","10.00","44","090",,"5",,,,,,,,,,,,,,,,,,,,,,,,,,,,,,,,,,,,,"MET09004/28/20 22:53:02 METAR KFRG 290353Z 09004KT 10SM CLR 08/05 A3015 RMK AO2 SLP209 T00830050","FM-15","7",,,,,,,,,,,,,,,,,,,,,,,,,,,,"2009-05-18"
"74486454787","2020-04-28T23:53:00","FM-15","7",,,,,,,,,,,,,,,,,,,,,,,,,,,,,,,,,,,,,,"30.15","41","46","0.00",,,,"83","30.15","CLR:00","30.06","10.00","44","080",,"3",,,,,,,,,,,,,,,,,,,,,,,,,,,,,,,,,,,,,"MET10004/28/20 23:53:02 METAR KFRG 290453Z 08003KT 10SM CLR 08/05 A3015 RMK AO2 SLP210 T00780050 401830050","FM-15","7",,,,,,,,,,,,,,,,,,,,,,,,,,,,"2009-05-18"
"74486454787","2020-04-28T23:59:00","SOD  ","6",,,,,,,,,,,,,,,,"53",,,"30.01",,"7.5","0","-1.2","12","65","41","300","26","0.00",,,"200","18",,,,,,,,,,,,,,,,,,,,,,,,,,,,,,,,,,,,,,,,,,,,,,,,,,,,,,,,,"SOD73024 HR PRECIPITATION (IN):0.00  24 HR MAX TEMP (F):65 24 HR MAX TEMP TIME (LST):1552 24 HR MIN TEMP (F):41 24 HR MIN TEMP TIME (LST):0545 AVERAGE STATION PRESSURE:30.010 MINIMUM SEA LEVEL PRESSURE:30.06 TIME OF OCCURRENCE:0205 PEAK WIND SPEED (MPH):26  PEAK WIND DIR (DEG):300 PEAK WIND TIME (LST):1307  FASTEST 2MIN SPEED (MPH):18 FASTEST 2MIN DIR (DEG):200 FASTEST 2MIN TIME (LST):1607 AVERAGE WIND SPEED (MPH):7.5  24 HR AVG TEMP (F):53 HEATING DEGREE DAYS:12  COOLING DEGREE DAYS:0   LATEST DAY MAX TEMP (0700-1900 LST):65  LATEST NIGHT MIN TEMP(1900-0800 LST):41 HOURLY INCREMENTAL PRECIPITATION VALUES (IN):.00 0.00 0.00 0.00 0.00 0.00 0.00 0.00 0.00 0.00 0.00 0.00 0.00 0.00 0.00 0.00 0.00 0.00 0.00 0.00 0.00 0.00 0.00 0.00","SOD  ","6",,,,,,,,,,,,,,,,,,,,,,,,,"0455","1848",,"2009-05-18"
"74486454787","2020-04-29T00:53:00","FM-15","7",,,,,,,,,,,,,,,,,,,,,,,,,,,,,,,,,,,,,,"30.15","41","46","0.00",,"-0.01","3","83","30.15","CLR:00","30.06","10.00","44","000",,"0",,,,,,,,,,,,,,,,,,,,,,,,,,,,,,,,,,,,,"MET10804/29/20 00:53:02 METAR KFRG 290553Z 00000KT 10SM CLR 08/05 A3015 RMK AO2 SLP210 T00780050 10111 20078 53002","FM-15","7",,,,,,,,,,,,,,,,,,,,,,,,,,,,"2009-05-18"
"74486454787","2020-04-29T01:53:00","FM-15","7",,,,,,,,,,,,,,,,,,,,,,,,,,,,,,,,,,,,,,"30.15","41","45","0.00",,,,"86","30.15","CLR:00","30.06","10.00","43","000",,"0",,,,,,,,,,,,,,,,,,,,,,,,,,,,,,,,,,,,,"MET09004/29/20 01:53:02 METAR KFRG 290653Z 00000KT 10SM CLR 07/05 A3015 RMK AO2 SLP209 T00720050","FM-15","7",,,,,,,,,,,,,,,,,,,,,,,,,,,,"2009-05-18"
"74486454787","2020-04-29T02:53:00","FM-15","7",,,,,,,,,,,,,,,,,,,,,,,,,,,,,,,,,,,,,,"30.15","41","45","0.00",,,,"86","30.15","CLR:00","30.06","10.00","43","050",,"6",,,,,,,,,,,,,,,,,,,,,,,,,,,,,,,,,,,,,"MET09004/29/20 02:53:02 METAR KFRG 290753Z 05005KT 10SM CLR 07/05 A3015 RMK AO2 SLP210 T00720050","FM-15","7",,,,,,,,,,,,,,,,,,,,,,,,,,,,"2009-05-18"
"74486454787","2020-04-29T03:44:00","FM-16","7",,,,,,,,,,,,,,,,,,,,,,,,,,,,,,,,,,,,,,"30.16","41","45",,,,,"86",,"SCT:04 4","30.07","10.00","43","070",,"7",,,,,,,,,,,,,,,,,,,,,,,,,,,,,,,,,,,,,"MET08604/29/20 03:44:02 SPECI KFRG 290844Z 07006KT 10SM SCT004 07/05 A3016 RMK AO2 T00720050","FM-16","7",,,,,,,,,,,,,,,,,,,,,,,,,,,,"2009-05-18"
"74486454787","2020-04-29T03:53:00","FM-15","7",,,,,,,,,,,,,,,,,,,,,,,,,,,,,,,,,,,,,,"30.17","41","44","0.00",,"-0.02","3","89","30.17","BKN:07 4","30.08","10.00","43","060",,"5",,,,,,,,,,,,,,,,,,,,,,,,,,,,,,,,,,,,,"MET09904/29/20 03:53:02 METAR KFRG 290853Z 06004KT 10SM BKN004 07/05 A3017 RMK AO2 SLP217 T00670050 53006","FM-15","7",,,,,,,,,,,,,,,,,,,,,,,,,,,,"2009-05-18"
"74486454787","2020-04-29T04:53:00","FM-15","7",,,,,,,,,,,,,,,,,,,,,,,,,,,,,,,,,,,,,,"30.19","42","45","0.00",,,,"90","30.19","OVC:08 4","30.10","10.00","44","060",,"6",,,,,,,,,,,,,,,,,,,,,,,,,,,,,,,,,,,,,"MET09304/29/20 04:53:02 METAR KFRG 290953Z 06005KT 10SM OVC004 07/06 A3019 RMK AO2 SLP223 T00720056","FM-15","7",,,,,,,,,,,,,,,,,,,,,,,,,,,,"2009-05-18"
"74486454787","2020-04-29T05:06:00","FM-16","7",,,,,,,,,,,,,,,,,,,,,,,,,,,,,,,,,,,,,,"30.19","42","46",,,,,"86",,"OVC:08 5","30.10","10.00","44","070",,"6",,,,,,,,,,,,,,,,,,,,,,,,,,,,,,,,,,,,,"MET08604/29/20 05:06:02 SPECI KFRG 291006Z 07005KT 10SM OVC005 08/06 A3019 RMK AO2 T00780056","FM-16","7",,,,,,,,,,,,,,,,,,,,,,,,,,,,"2009-05-18"
"74486454787","2020-04-29T05:53:00","FM-15","7",,,,,,,,,,,,,,,,,,,,,,,,,,,,,,,,,,,,,,"30.18","43","47","0.00",,,,"86","30.18","BKN:07 5 OVC:08 80","30.09","10.00","45","080",,"8",,,,,,,,,,,,,,,,,,,,,,,,,,,,,,,,,,,,,"MET10004/29/20 05:53:02 METAR KFRG 291053Z 08007KT 10SM BKN005 OVC080 08/06 A3018 RMK AO2 SLP221 T00830061","FM-15","7",,,,,,,,,,,,,,,,,,,,,,,,,,,,"2009-05-18"
"74486454787","2020-04-29T06:04:00","FM-16","7",,,,,,,,,,,,,,,,,,,,,,,,,,,,,,,,,,,,,,"30.19","43","47",,,,,"86",,"SCT:04 6 OVC:08 80","30.10","10.00","45","080",,"8",,,,,,,,,,,,,,,,,,,,,,,,,,,,,,,,,,,,,"MET09304/29/20 06:04:02 SPECI KFRG 291104Z 08007KT 10SM SCT006 OVC080 08/06 A3019 RMK AO2 T00830061","FM-16","7",,,,,,,,,,,,,,,,,,,,,,,,,,,,"2009-05-18"
"74486454787","2020-04-29T06:53:00","FM-15","7",,,,,,,,,,,,,,,,,,,,,,,,,,,,,,,,,,,,,,"30.21","44","49","0.00",,"-0.04","3","83","30.21","FEW:02 7 OVC:08 75","30.12","10.00","47","090",,"9",,,,,,,,,,,,,,,,,,,,,,,,,,,,,,,,,,,,,"MET11804/29/20 06:53:02 METAR KFRG 291153Z 09008KT 10SM FEW007 OVC075 09/07 A3021 RMK AO2 SLP231 T00940067 10094 20067 53015","FM-15","7",,,,,,,,,,,,,,,,,,,,,,,,,,,,"2009-05-18"
"74486454787","2020-04-29T07:53:00","FM-15","7",,,,,,,,,,,,,,,,,,,,,,,,,,,,,,,,,,,,,,"30.23","44","50","0.00",,,,"80","30.23","OVC:08 65","30.14","10.00","47","060",,"8",,,,,,,,,,,,,,,,,,,,,,,,,,,,,,,,,,,,,"MET09304/29/20 07:53:02 METAR KFRG 291253Z 06007KT 10SM OVC065 10/07 A3023 RMK AO2 SLP237 T01000067","FM-15","7",,,,,,,,,,,,,,,,,,,,,,,,,,,,"2009-05-18"
"74486454787","2020-04-29T08:53:00","FM-15","7",,,,,,,,,,,,,,,,,,,,,,,,,,,,,,,,,,,,,,"30.24","44","50","T","-RA:02 |RA |RA",,,"80","30.24","OVC:08 55","30.15","10.00","47","080",,"6",,,,,,,,,,,,,,,,,,,,,,,,,,,,,,,,,,,,,"MET10904/29/20 08:53:02 METAR KFRG 291353Z 08005KT 10SM -RA OVC055 10/07 A3024 RMK AO2 RAB44 SLP239 P0000 T01000067","FM-15","7",,,,,,,,,,,,,,,,,,,,,,,,,,,,"2009-05-18"
"74486454787","2020-04-29T09:53:00","FM-15","7",,,,,,,,,,,,,,,,,,,,,,,,,,,,,,,,,,,,,,"30.25","45","51","0.01",,"-0.03","1","80","30.24","FEW:02 49 OVC:08 70","30.16","10.00","48","100",,"8",,,,,,,,,,,,,,,,,,,,,,,,,,,,,,,,,,,,,"MET12404/29/20 09:53:02 METAR KFRG 291453Z 10007KT 10SM FEW049 OVC070 11/07 A3025 RMK AO2 RAE40 SLP242 P0001 60001 T01060072 51011","FM-15","7",,,,,,,,,,,,,,,,,,,,,,,,,,,,"2009-05-18"
"74486454787","2020-04-29T10:53:00","FM-15","7",,,,,,,,,,,,,,,,,,,,,,,,,,,,,,,,,,,,,,"30.27","45","52","0.00",,,,"77","30.27","OVC:08 50","30.18","10.00","49","110",,"10",,,,,,,,,,,,,,,,,,,,,,,,,,,,,,,,,,,,,"MET09304/29/20 10:53:02 METAR KFRG 291553Z 11009KT 10SM OVC050 11/07 A3027 RMK AO2 SLP249 T01110072","FM-15","7",,,,,,,,,,,,,,,,,,,,,,,,,,,,"2009-05-18"
"74486454787","2020-04-29T11:53:00","FM-15","7",,,,,,,,,,,,,,,,,,,,,,,,,,,,,,,,,,,,,,"30.25","44","53","0.00",,,,"72","30.25","OVC:08 48","30.16","10.00","49","100",,"11",,,,,,,,,,,,,,,,,,,,,,,,,,,,,,,,,,,,,"MET09304/29/20 11:53:02 METAR KFRG 291653Z 10010KT 10SM OVC048 12/07 A3025 RMK AO2 SLP243 T01170067","FM-15","7",,,,,,,,,,,,,,,,,,,,,,,,,,,,"2009-05-18"
"74486454787","2020-04-29T12:53:00","FM-15","7",,,,,,,,,,,,,,,,,,,,,,,,,,,,,,,,,,,,,,"30.24","43","54","0.00",,"+0.01","8","67","30.24","OVC:08 46","30.15","10.00","49","120",,"13",,,,,,,,,,,,,,,,,,,,,,,,,,,,,,,,,,,,,"MET11704/29/20 12:53:02 METAR KFRG 291753Z 12011KT 10SM OVC046 12/06 A3024 RMK AO2 SLP240 60001 T01220061 10122 20094 58002","FM-15","7",,,,,,,,,,,,,,,,,,,,,,,,,,,,"2009-05-18"
"74486454787","2020-04-29T13:53:00","FM-15","7",,,,,,,,,,,,,,,,,,,,,,,,,,,,,,,,,,,,,,"30.25","44","53","0.00",,,,"72","30.24","OVC:08 43","30.16","10.00","49","110","25","17",,,,,,,,,,,,,,,,,,,,,,,,,,,,,,,,,,,,,"MET09604/29/20 13:53:02 METAR KFRG 291853Z 11015G22KT 10SM OVC043 12/07 A3025 RMK AO2 SLP242 T01170067","FM-15","7",,,,,,,,,,,,,,,,,,,,,,,,,,,,"2009-05-18"
"74486454787","2020-04-29T14:53:00","FM-15","7",,,,,,,,,,,,,,,,,,,,,,,,,,,,,,,,,,,,,,"30.24","43","53","0.00",,,,"69","30.24","OVC:08 42","30.15","10.00","48","110","25","16",,,,,,,,,,,,,,,,,,,,,,,,,,,,,,,,,,,,,"MET09604/29/20 14:53:02 METAR KFRG 291953Z 11014G22KT 10SM OVC042 12/06 A3024 RMK AO2 SLP242 T01170061","FM-15","7",,,,,,,,,,,,,,,,,,,,,,,,,,,,"2009-05-18"
"74486454787","2020-04-29T15:53:00","FM-15","7",,,,,,,,,,,,,,,,,,,,,,,,,,,,,,,,,,,,,,"30.24","44","52","0.00",,"-0.00","0","75","30.24","OVC:08 42","30.15","10.00","48","110","25","18",,,,,,,,,,,,,,,,,,,,,,,,,,,,,,,,,,,,,"MET10204/29/20 15:53:02 METAR KFRG 292053Z 11016G22KT 10SM OVC042 11/07 A3024 RMK AO2 SLP241 T01110067 50000","FM-15","7",,,,,,,,,,,,,,,,,,,,,,,,,,,,"2009-05-18"
"74486454787","2020-04-29T16:53:00","FM-15","7",,,,,,,,,,,,,,,,,,,,,,,,,,,,,,,,,,,,,,"30.24","44","52","0.00",,,,"75","30.24","OVC:08 38","30.15","10.00","48","110","25","16",,,,,,,,,,,,,,,,,,,,,,,,,,,,,,,,,,,,,"MET09604/29/20 16:53:02 METAR KFRG 292153Z 11014G22KT 10SM OVC038 11/07 A3024 RMK AO2 SLP239 T01110067","FM-15","7",,,,,,,,,,,,,,,,,,,,,,,,,,,,"2009-05-18"
"74486454787","2020-04-29T17:53:00","FM-15","7",,,,,,,,,,,,,,,,,,,,,,,,,,,,,,,,,,,,,,"30.24","41","51","0.00",,,,"69","30.24","OVC:08 35","30.15","10.00","46","110","25","20",,,,,,,,,,,,,,,,,,,,,,,,,,,,,,,,,,,,,"MET09604/29/20 17:53:02 METAR KFRG 292253Z 11017G22KT 10SM OVC035 11/05 A3024 RMK AO2 SLP241 T01060050","FM-15","7",,,,,,,,,,,,,,,,,,,,,,,,,,,,"2009-05-18"
"74486454787","2020-04-29T18:53:00","FM-15","7",,,,,,,,,,,,,,,,,,,,,,,,,,,,,,,,,,,,,,"30.23","41","50","T","-RA:02 |RA |RA","+0.01","8","71","30.23","OVC:08 33","30.14","10.00","46","110","24","15",,,,,,,,,,,,,,,,,,,,,,,,,,,,,,,,,,,,,"MET13604/29/20 18:53:02 METAR KFRG 292353Z 11013G21KT 10SM -RA OVC033 10/05 A3023 RMK AO2 RAB22 SLP238 P0000 60000 T01000050 10122 20100 58003","FM-15","7",,,,,,,,,,,,,,,,,,,,,,,,,,,,"2009-05-18"
"74486454787","2020-04-29T19:53:00","FM-15","7",,,,,,,,,,,,,,,,,,,,,,,,,,,,,,,,,,,,,,"30.24","42","50","T",,,,"74","30.24","OVC:08 32","30.15","10.00","46","110","24","16",,,,,,,,,,,,,,,,,,,,,,,,,,,,,,,,,,,,,"MET10804/29/20 19:53:03 METAR KFRG 300053Z 11014G21KT 10SM OVC032 10/06 A3024 RMK AO2 RAE13 SLP240 P0000 T01000056","FM-15","7",,,,,,,,,,,,,,,,,,,,,,,,,,,,"2009-05-18"
"74486454787","2020-04-29T20:53:00","FM-15","7",,,,,,,,,,,,,,,,,,,,,,,,,,,,,,,,,,,,,,"30.25","41","50","T",,,,"71","30.25","OVC:08 32","30.16","10.00","46","110","25","13",,,,,,,,,,,,,,,,,,,,,,,,,,,,,,,,,,,,,"MET11304/29/20 20:53:03 METAR KFRG 300153Z 11011G22KT 10SM OVC032 10/05 A3025 RMK AO2 RAB0059E08 SLP244 P0000 T01000050","FM-15","7",,,,,,,,,,,,,,,,,,,,,,,,,,,,"2009-05-18"
"74486454787","2020-04-29T21:15:00","FM-16","7",,,,,,,,,,,,,,,,,,,,,,,,,,,,,,,,,,,,,,"30.23","41","50",,,,,"71",,"OVC:08 29","30.14","10.00","46","100","30","17",,,,,,,,,,,,,,,,,,,,,,,,,,,,,,,,,,,,,"MET10704/29/20 21:15:03 SPECI KFRG 300215Z 10015G26KT 10SM OVC029 10/05 A3023 RMK AO2 PK WND 12026/0209 T01000050","FM-16","7",,,,,,,,,,,,,,,,,,,,,,,,,,,,"2009-05-18"
"74486454787","2020-04-29T21:53:00","FM-15","7",,,,,,,,,,,,,,,,,,,,,,,,,,,,,,,,,,,,,,"30.23","41","50","0.00",,"+0.00","8","71","30.23","OVC:08 28","30.14","10.00","46","110","24","16",,,,,,,,,,,,,,,,,,,,,,,,,,,,,,,,,,,,,"MET12604/29/20 21:53:03 METAR KFRG 300253Z 11014G21KT 10SM OVC028 10/05 A3023 RMK AO2 PK WND 12026/0209 SLP238 60000 T01000050 58000","FM-15","7",,,,,,,,,,,,,,,,,,,,,,,,,,,,"2009-05-18"
"74486454787","2020-04-29T22:53:00","FM-15","7",,,,,,,,,,,,,,,,,,,,,,,,,,,,,,,,,,,,,,"30.22","41","51","0.00",,,,"69","30.22","OVC:08 26","30.13","10.00","46","120","24","17",,,,,,,,,,,,,,,,,,,,,,,,,,,,,,,,,,,,,"MET09604/29/20 22:53:03 METAR KFRG 300353Z 12015G21KT 10SM OVC026 11/05 A3022 RMK AO2 SLP232 T01060050","FM-15","7",,,,,,,,,,,,,,,,,,,,,,,,,,,,"2009-05-18"
"74486454787","2020-04-29T23:53:00","FM-15","7",,,,,,,,,,,,,,,,,,,,,,,,,,,,,,,,,,,,,,"30.21","41","51","0.00",,,,"69","30.21","OVC:08 24","30.12","10.00","46","110","30","21",,,,,,,,,,,,,,,,,,,,,,,,,,,,,,,,,,,,,"MET12404/29/20 23:53:03 METAR KFRG 300453Z 11018G26KT 10SM OVC024 11/05 A3021 RMK AO2 PK WND 12026/0452 SLP230 T01060050 401220067","FM-15","7",,,,,,,,,,,,,,,,,,,,,,,,,,,,"2009-05-18"
"74486454787","2020-04-29T23:59:00","SOD  ","6",,,,,,,,,,,,,,,,"49",,,"30.11",,"11.5","0","-5.5","16","54","44","120","30","0.01",,,"110","22","RA",,,,,,,,,,,,,,,,,,,,,,,,,,,,,,,,,,,,,,,,,,,,,,,,,,,,,,,,"SOD73024 HR PRECIPITATION (IN):0.01  24 HR MAX TEMP (F):54 24 HR MAX TEMP TIME (LST):1419 24 HR MIN TEMP (F):44 24 HR MIN TEMP TIME (LST):0357 AVERAGE STATION PRESSURE:30.115 MINIMUM SEA LEVEL PRESSURE:30.14 TIME OF OCCURRENCE:0218 PEAK WIND SPEED (MPH):30  PEAK WIND DIR (DEG):120 PEAK WIND TIME (LST):2109  FASTEST 2MIN SPEED (MPH):22 FASTEST 2MIN DIR (DEG):110 FASTEST 2MIN TIME (LST):1746 AVERAGE WIND SPEED (MPH):11.5 24 HR AVG TEMP (F):49 HEATING DEGREE DAYS:16  COOLING DEGREE DAYS:0   LATEST DAY MAX TEMP (0700-1900 LST):54  LATEST NIGHT MIN TEMP(1900-0800 LST):44 HOURLY INCREMENTAL PRECIPITATION VALUES (IN):.00 0.00 0.00 0.00 0.00 0.00 0.00 0.00 T    0.01 0.00 0.00 0.00 0.00 0.00 0.00 0.00 0.00 T    T    T    0.00 0.00 0.00","SOD  ","6",,,,,,,,,,,,,,,,,,,,,,,,,"0454","1849",,"2009-05-18"
"74486454787","2020-04-30T00:53:00","FM-15","7",,,,,,,,,,,,,,,,,,,,,,,,,,,,,,,,,,,,,,"30.18","42","51","0.00",,"+0.06","8","71","30.18","OVC:08 21","30.09","10.00","47","110",,"18",,,,,,,,,,,,,,,,,,,,,,,,,,,,,,,,,,,,,"MET13504/30/20 00:53:02 METAR KFRG 300553Z 11016KT 10SM OVC021 11/06 A3018 RMK AO2 PK WND 10026/0520 SLP219 60000 T01060056 10106 20094 58019","FM-15","7",,,,,,,,,,,,,,,,,,,,,,,,,,,,"2009-05-18"
"74486454787","2020-04-30T01:53:00","FM-15","7",,,,,,,,,,,,,,,,,,,,,,,,,,,,,,,,,,,,,,"30.17","44","50","0.05","-RA:02 |RA |RA",,,"80","30.16","OVC:08 15","30.08","9.00","47","120","25","18",,,,,,,,,,,,,,,,,,,,,,,,,,,,,,,,,,,,,"MET12904/30/20 01:53:02 METAR KFRG 300653Z 12016G22KT 9SM -RA OVC015 10/07 A3017 RMK AO2 PK WND 12026/0609 RAB14 SLP215 P0005 T01000067","FM-15","7",,,,,,,,,,,,,,,,,,,,,,,,,,,,"2009-05-18"
"74486454787","2020-04-30T02:12:00","FM-16","7",,,,,,,,,,,,,,,,,,,,,,,,,,,,,,,,,,,,,,"30.16","45","50","T",,,,"83",,"OVC:08 13","30.07","10.00","48","120","24","14",,,,,,,,,,,,,,,,,,,,,,,,,,,,,,,,,,,,,"MET10304/30/20 02:12:02 SPECI KFRG 300712Z 12012G21KT 10SM OVC013 10/07 A3016 RMK AO2 RAE0657 P0000 T01000072","FM-16","7",,,,,,,,,,,,,,,,,,,,,,,,,,,,"2009-05-18"
"74486454787","2020-04-30T02:53:00","FM-15","7",,,,,,,,,,,,,,,,,,,,,,,,,,,,,,,,,,,,,,"30.15","45","50","T",,,,"83","30.15","BKN:07 9 OVC:08 12","30.06","10.00","48","120","25","17",,,,,,,,,,,,,,,,,,,,,,,,,,,,,,,,,,,,,"MET13504/30/20 02:53:02 METAR KFRG 300753Z 12015G22KT 10SM BKN009 OVC012 10/07 A3015 RMK AO2 RAE0657B44E50 CIG 008V012 SLP210 P0000 T01000072","FM-15","7",,,,,,,,,,,,,,,,,,,,,,,,,,,,"2009-05-18"
"74486454787","2020-04-30T03:53:00","FM-15","7",,,,,,,,,,,,,,,,,,,,,,,,,,,,,,,,,,,,,,"30.14","46","50","0.03","-RA:02 |RA |RA","+0.03","6","86","30.14","OVC:08 6","30.05","10.00","48","120","26","16",,,,,,,,,,,,,,,,,,,,,,,,,,,,,,,,,,,,,"MET12404/30/20 03:53:02 METAR KFRG 300853Z 12014G23KT 10SM -RA OVC006 10/08 A3014 RMK AO2 RAB11 SLP208 P0003 60008 T01000078 56011","FM-15","7",,,,,,,,,,,,,,,,,,,,,,,,,,,,"2009-05-18"
"74486454787","2020-04-30T04:53:00","FM-15","7",,,,,,,,,,,,,,,,,,,,,,,,,,,,,,,,,,,,,,"30.13","47","51","0.06","-RA:02 |RA |RA",,,"86","30.13","OVC:08 5","30.04","10.00","49","120","24","15",,,,,,,,,,,,,,,,,,,,,,,,,,,,,,,,,,,,,"MET10604/30/20 04:53:02 METAR KFRG 300953Z 12013G21KT 10SM -RA OVC005 11/08 A3013 RMK AO2 SLP204 P0006 T01060083","FM-15","7",,,,,,,,,,,,,,,,,,,,,,,,,,,,"2009-05-18"
"74486454787","2020-04-30T05:53:00","FM-15","7",,,,,,,,,,,,,,,,,,,,,,,,,,,,,,,,,,,,,,"30.13","48","51","0.01","-RA:02 |RA |RA",,,"89","30.13","OVC:08 5","30.04","9.00","49","130","26","18",,,,,,,,,,,,,,,,,,,,,,,,,,,,,,,,,,,,,"MET12304/30/20 05:53:02 METAR KFRG 301053Z 13016G23KT 9SM -RA OVC005 11/09 A3013 RMK AO2 PK WND 13029/1016 SLP204 P0001 T01060089","FM-15","7",,,,,,,,,,,,,,,,,,,,,,,,,,,,"2009-05-18"
"74486454787","2020-04-30T06:25:00","FM-16","7",,,,,,,,,,,,,,,,,,,,,,,,,,,,,,,,,,,,,,"30.12","48","51","T",,,,"89",,"OVC:08 4","30.03","10.00","49","130","30","17",,,,,,,,,,,,,,,,,,,,,,,,,,,,,,,,,,,,,"MET11904/30/20 06:25:02 SPECI KFRG 301125Z 13015G26KT 10SM OVC004 11/09 A3012 RMK AO2 PK WND 12026/1119 RAE15 P0000 T01060089","FM-16","7",,,,,,,,,,,,,,,,,,,,,,,,,,,,"2009-05-18"
"74486454787","2020-04-30T06:53:00","FM-15","7",,,,,,,,,,,,,,,,,,,,,,,,,,,,,,,,,,,,,,"30.11","48","52","0.01",,"+0.03","8","86","30.11","OVC:08 4","30.02","10.00","50","130","29","22",,,,,,,,,,,,,,,,,,,,,,,,,,,,,,,,,,,,,"MET17404/30/20 06:53:02 METAR KFRG 301153Z 13019G25KT 10SM OVC004 11/09 A3011 RMK AO2 PK WND 12026/1119 RAE15B29E50 CIG 004V008 SLP197 P0001 60016 70017 T01110089 10111 20100 58011","FM-15","7",,,,,,,,,,,,,,,,,,,,,,,,,,,,"2009-05-18"
"74486454787","2020-04-30T07:03:00","FM-16","7",,,,,,,,,,,,,,,,,,,,,,,,,,,,,,,,,,,,,,"30.11","48","52",,,,,"86",,"BKN:07 6 OVC:08 10","30.02","10.00","50","130","26","23",,,,,,,,,,,,,,,,,,,,,,,,,,,,,,,,,,,,,"MET10804/30/20 07:03:02 SPECI KFRG 301203Z 13020G23KT 10SM BKN006 OVC010 11/09 A3011 RMK AO2 CIG 004V009 T01110089","FM-16","7",,,,,,,,,,,,,,,,,,,,,,,,,,,,"2009-05-18"
"74486454787","2020-04-30T07:53:00","FM-15","7",,,,,,,,,,,,,,,,,,,,,,,,,,,,,,,,,,,,,,"30.10","49","53","T",,,,"86","30.10","OVC:08 8","30.01","10.00","51","130","26","18",,,,,,,,,,,,,,,,,,,,,,,,,,,,,,,,,,,,,"MET12904/30/20 07:53:02 METAR KFRG 301253Z 13016G23KT 10SM OVC008 12/09 A3010 RMK AO2 PK WND 13031/1232 RAB35E45 SLP193 P0000 T01170094","FM-15","7",,,,,,,,,,,,,,,,,,,,,,,,,,,,"2009-05-18"
"74486454787","2020-04-30T08:53:00","FM-15","7",,,,,,,,,,,,,,,,,,,,,,,,,,,,,,,,,,,,,,"30.09","51","56","0.00",,,,"84","30.09","BKN:07 7 OVC:08 21","30.00","3.00","53","140","37","25",,,,,,,,,,,,,,,,,,,,,,,,,,,,,,,,,,,,,"MET13604/30/20 08:53:02 METAR KFRG 301353Z 14022G32KT 3SM BKN007 OVC021 13/11 A3009 RMK AO2 PK WND 13032/1351 SFC VIS 10 SLP191 T01330106 (AN)","FM-15","7",,,,,,,,,,,,,,,,,,,,,,,,,,,,"2009-05-18"
"74486454787","2020-04-30T09:53:00","FM-15","7",,,,,,,,,,,,,,,,,,,,,,,,,,,,,,,,,,,,,,"30.09","52","57","0.00",,"+0.02","6","83","30.09","BKN:07 9 BKN:07 16 OVC:08 26","30.00","3.00","54","140","38","22",,,,,,,,,,,,,,,,,,,,,,,,,,,,,,,,,,,,,"MET15504/30/20 09:53:02 METAR KFRG 301453Z 14019G33KT 3SM BKN009 BKN016 OVC026 14/11 A3009 RMK AO2 PK WND 14033/1429 SFC VIS 10 SLP189 60000 T01390111 56008 (AN)","FM-15","7",,,,,,,,,,,,,,,,,,,,,,,,,,,,"2009-05-18"
"74486454787","2020-04-30T10:31:00","FM-16","7",,,,,,,,,,,,,,,,,,,,,,,,,,,,,,,,,,,,,,"30.08","52","58","T",,,,"81",,"SCT:04 9 BKN:07 35 OVC:08 45","29.99","10.00","55","140","37","23",,,,,,,,,,,,,,,,,,,,,,,,,,,,,,,,,,,,,"MET14104/30/20 10:31:02 SPECI KFRG 301531Z 14020G32KT 10SM SCT009 BKN035 OVC045 14/11 A3008 RMK AO2 PK WND 14033/1518 RAB13E22 P0000 T01440111 (AN)","FM-16","7",,,,,,,,,,,,,,,,,,,,,,,,,,,,"2009-05-18"
"74486454787","2020-04-30T10:53:00","FM-15","7",,,,,,,,,,,,,,,,,,,,,,,,,,,,,,,,,,,,,,"30.07","52","58","T",,,,"81","30.07","FEW:02 10 BKN:07 39 OVC:08 48","29.98","10.00","55","140","39","26",,,,,,,,,,,,,,,,,,,,,,,,,,,,,,,,,,,,,"MET14804/30/20 10:53:02 METAR KFRG 301553Z 14023G34KT 10SM FEW010 BKN039 OVC048 14/11 A3007 RMK AO2 PK WND 15034/1550 RAB13E22 SLP184 P0000 T01440111 (AN)","FM-15","7",,,,,,,,,,,,,,,,,,,,,,,,,,,,"2009-05-18"
"74486454787","2020-04-30T11:53:00","FM-15","7",,,,,,,,,,,,,,,,,,,,,,,,,,,,,,,,,,,,,,"30.06","51","58","0.00",,,,"78","30.06","FEW:02 43 OVC:08 70","29.97","10.00","54","150","37","26",,,,,,,,,,,,,,,,,,,,,,,,,,,,,,,,,,,,,"MET12604/30/20 11:53:02 METAR KFRG 301653Z 15023G32KT 10SM FEW043 OVC070 14/11 A3006 RMK AO2 PK WND 13037/1638 SLP179 T01440106 (AN)","FM-15","7",,,,,,,,,,,,,,,,,,,,,,,,,,,,"2009-05-18"
"74486454787","2020-04-30T12:53:00","FM-15","7",,,,,,,,,,,,,,,,,,,,,,,,,,,,,,,,,,,,,,"30.03","52","62","0.00",,"+0.06","8","70","30.02","SCT:04 70 SCT:04 90","29.94","10.00","56","140","43","28",,,,,,,,,,,,,,,,,,,,,,,,,,,,,,,,,,,,,"MET15004/30/20 12:53:02 METAR KFRG 301753Z 14024G37KT 10SM SCT070 SCT090 17/11 A3003 RMK AO2 PK WND 14044/1738 SLP167 60000 T01670111 10167 20111 58021 (AN)","FM-15","7",,,,,,,,,,,,,,,,,,,,,,,,,,,,"2009-05-18"
"74486454787","2020-04-30T13:53:00","FM-15","7",,,,,,,,,,,,,,,,,,,,,,,,,,,,,,,,,,,,,,"30.00","51","60","0.00",,,,"72","30.01","SCT:04 65 BKN:07 85","29.91","10.00","55","140","34","23",,,,,,,,,,,,,,,,,,,,,,,,,,,,,,,,,,,,,"MET12604/30/20 13:53:02 METAR KFRG 301853Z 14020G30KT 10SM SCT065 BKN085 16/11 A3000 RMK AO2 PK WND 13037/1802 SLP161 T01560106 (AN)","FM-15","7",,,,,,,,,,,,,,,,,,,,,,,,,,,,"2009-05-18"
"74486454787","2020-04-30T14:53:00","FM-15","6",,,,,,,,,,,,,,,,,,,,,,,,,,,,,,,,,,,,,,"29.98","51","59","0.00",,,,"75","29.98","OVC:08 65","29.89","10.00","55","140","41","29",,,,,,,,,,,,,,,,,,,,,,,,,,,,,,,,,,,,,"MET12404/30/20 14:53:02 METAR KFRG 301953Z 14025G36KT 10SM OVC065 15/11 A2998 RMK AO2 PK WND 14036/1946 SLP151 T01500106 FIBI (AN)","FM-15","6",,,,,,,,,,,,,,,,,,,,,,,,,,,,"2009-05-18"
"74486454787","2020-04-30T15:53:00","FM-15","6",,,,,,,,,,,,,,,,,,,,,,,,,,,,,,,,,,,,,,"29.94","51","59","0.00",,"+0.08","8","75","29.94","BKN:07 80","29.85","10.00","55","130","40","26",,,,,,,,,,,,,,,,,,,,,,,,,,,,,,,,,,,,,"MET13004/30/20 15:53:02 METAR KFRG 302053Z 13023G35KT 10SM BKN080 15/11 A2994 RMK AO2 PK WND 14037/2027 SLP140 T01500106 58027 TSNO FIBI","FM-15","6",,,,,,,,,,,,,,,,,,,,,,,,,,,,"2009-05-18"
"74486454787","2020-04-30T16:53:00","FM-15","6",,,,,,,,,,,,,,,,,,,,,,,,,,,,,,,,,,,,,,"29.94","50","56","0.00",,,,"81","29.94","BKN:07 75","29.85","10.00","53","130","40","26",,,,,,,,,,,,,,,,,,,,,,,,,,,,,,,,,,,,,"MET12404/30/20 16:53:02 METAR KFRG 302153Z 13023G35KT 10SM BKN075 13/10 A2994 RMK AO2 PK WND 13036/2109 SLP138 T01330100 TSNO FIBI","FM-15","6",,,,,,,,,,,,,,,,,,,,,,,,,,,,"2009-05-18"
"74486454787","2020-04-30T17:53:00","FM-15","6",,,,,,,,,,,,,,,,,,,,,,,,,,,,,,,,,,,,,,"29.91","50","56","0.00",,,,"81","29.91","SCT:04 10 OVC:08 75","29.82","10.00","53","120","34","22",,,,,,,,,,,,,,,,,,,,,,,,,,,,,,,,,,,,,"MET13104/30/20 17:53:02 METAR KFRG 302253Z 12019G30KT 10SM SCT010 OVC075 13/10 A2991 RMK AO2 PK WND 12031/2202 SLP128 T01330100 TSNO FIBI","FM-15","6",,,,,,,,,,,,,,,,,,,,,,,,,,,,"2009-05-18"
"74486454787","2020-04-30T18:53:00","FM-15","6",,,,,,,,,,,,,,,,,,,,,,,,,,,,,,,,,,,,,,"29.89","51","57","0.00",,"+0.06","8","81","29.89","FEW:02 10 BKN:07 55 OVC:08 80","29.80","10.00","54","120","39","28",,,,,,,,,,,,,,,,,,,,,,,,,,,,,,,,,,,,,"MET15604/30/20 18:53:02 METAR KFRG 302353Z 12024G34KT 10SM FEW010 BKN055 OVC080 14/11 A2989 RMK AO2 PK WND 11034/2352 SLP121 T01390106 10167 20133 58019 TSNO FIBI","FM-15","6",,,,,,,,,,,,,,,,,,,,,,,,,,,,"2009-05-18"
"74486454787","2020-04-30T19:53:00","FM-15","6",,,,,,,,,,,,,,,,,,,,,,,,,,,,,,,,,,,,,,"29.86","50","56","0.00",,,,"81","29.86","BKN:07 42 OVC:08 50","29.77","10.00","53","120","38","24",,,,,,,,,,,,,,,,,,,,,,,,,,,,,,,,,,,,,"MET13104/30/20 19:53:03 METAR KFRG 010053Z 12021G33KT 10SM BKN042 OVC050 13/10 A2986 RMK AO2 PK WND 12033/0021 SLP113 T01330100 TSNO FIBI","FM-15","6",,,,,,,,,,,,,,,,,,,,,,,,,,,,"2009-05-18"
"74486454787","2020-04-30T20:53:00","FM-15","6",,,,,,,,,,,,,,,,,,,,,,,,,,,,,,,,,,,,,,"29.84","51","56","0.03","RA:02 |RA |RA",,,"84","29.84","FEW:02 12 OVC:08 32","29.75","5.00","53","130","38","23",,,,,,,,,,,,,,,,,,,,,,,,,,,,,,,,,,,,,"MET14504/30/20 20:53:03 METAR KFRG 010153Z 13020G33KT 5SM RA FEW012 OVC032 13/11 A2984 RMK AO2 PK WND 12033/0145 RAB41 SLP106 P0003 T01330106 TSNO FIBI","FM-15","6",,,,,,,,,,,,,,,,,,,,,,,,,,,,"2009-05-18"
"74486454787","2020-04-30T21:19:00","FM-16","6",,,,,,,,,,,,,,,,,,,,,,,,,,,,,,,,,,,,,,"29.84","52","57",,"-RA:02 |RA |RA",,,"83",,"OVC:08 29","29.75","7.00","54","140","36","25",,,,,,,,,,,,,,,,,,,,,,,,,,,,,,,,,,,,,"MET12604/30/20 21:19:03 SPECI KFRG 010219Z 14022G31KT 7SM -RA OVC029 14/11 A2984 RMK AO2 PK WND 14032/0206 P0000 T01390111 TSNO FIBI","FM-16","6",,,,,,,,,,,,,,,,,,,,,,,,,,,,"2009-05-18"
"74486454787","2020-04-30T21:53:00","FM-15","6",,,,,,,,,,,,,,,,,,,,,,,,,,,,,,,,,,,,,,"29.83","52","56","0.06","-RA:02 |RA |RA","+0.06","6","87","29.83","BKN:07 8 BKN:07 16 OVC:08 24","29.74","8.00","54","150","36","18",,,,,,,,,,,,,,,,,,,,,,,,,,,,,,,,,,,,,"MET17104/30/20 21:53:03 METAR KFRG 010253Z 15016G31KT 8SM -RA BKN008 BKN016 OVC024 13/11 A2983 RMK AO2 PK WND 14032/0222 CIG 006V011 SLP101 P0006 60009 T01330111 56019 TSNO FIBI","FM-15","6",,,,,,,,,,,,,,,,,,,,,,,,,,,,"2009-05-18"
"74486454787","2020-04-30T22:51:00","FM-16","6",,,,,,,,,,,,,,,,,,,,,,,,,,,,,,,,,,,,,,"29.81","52","55",,"-RA:02 |RA |RA",,,"88",,"SCT:04 6 OVC:08 75","29.72","10.00","53","160",,"15",,,,,,,,,,,,,,,,,,,,,,,,,,,,,,,,,,,,,"MET13204/30/20 22:51:03 SPECI KFRG 010351Z 16013KT 10SM -RA SCT006 OVC075 13/11 A2981 RMK AO2 PK WND 13026/0255 RAE0254B42 P0000 TSNO FIBI","FM-16","6",,,,,,,,,,,,,,,,,,,,,,,,,,,,"2009-05-18"
"74486454787","2020-04-30T22:53:00","FM-15","6",,,,,,,,,,,,,,,,,,,,,,,,,,,,,,,,,,,,,,"29.81","52","56","T","-RA:02 |RA |RA",,,"87","29.81","SCT:04 6 OVC:08 75","29.72","10.00","54","160",,"18",,,,,,,,,,,,,,,,,,,,,,,,,,,,,,,,,,,,,"MET14904/30/20 22:53:03 METAR KFRG 010353Z 16016KT 10SM -RA SCT006 OVC075 13/11 A2981 RMK AO2 PK WND 13026/0255 RAE0254B42 SLP094 P0000 T01330111 TSNO FIBI","FM-15","6",,,,,,,,,,,,,,,,,,,,,,,,,,,,"2009-05-18"
"74486454787","2020-04-30T23:53:00","FM-15","6",,,,,,,,,,,,,,,,,,,,,,,,,,,,,,,,,,,,,,"29.79","52","57","T",,,,"83","29.78","FEW:02 60 SCT:04 70 OVC:08 85","29.70","10.00","54","110",,"7",,,,,,,,,,,,,,,,,,,,,,,,,,,,,,,,,,,,,"MET13904/30/20 23:53:03 METAR KFRG 010453Z 11006KT 10SM FEW060 SCT070 OVC085 14/11 A2979 RMK AO2 RAE16 SLP086 P0000 T01390111 401670100 TSNO FIBI","FM-15","6",,,,,,,,,,,,,,,,,,,,,,,,,,,,"2009-05-18"
"74486454787","2020-04-30T23:59:00","SOD  ","6",,,,,,,,,,,,,,,,"56",,,"29.96",,"21.7","0","1.1","9","62","50","140","51","0.25",,,"150","35","RA",,,,,,,,,,,,,,,,,,,,,,,,,,,,,,,,,,,,,,,,,,,,,,,,,,,,,,,,"SOD72724 HR PRECIPITATION (IN):0.25  24 HR MAX TEMP (F):62 24 HR MAX TEMP TIME (LST):1311 24 HR MIN TEMP (F):50 24 HR MIN TEMP TIME (LST):0427 AVERAGE STATION PRESSURE:29.960 MINIMUM SEA LEVEL PRESSURE:29.78 TIME OF OCCURRENCE:2359 PEAK WIND SPEED (MPH):51  PEAK WIND DIR (DEG):140 PEAK WIND TIME (LST):1238  FASTEST 2MIN SPEED (MPH):35 FASTEST 2MIN DIR (DEG):150 FASTEST 2MIN TIME (LST):1239 AVERAGE WIND SPEED (MPH):21.7 24 HR AVG TEMP (F):56 HEATING DEGREE DAYS:9   COOLING DEGREE DAYS:0   LATEST DAY MAX TEMP (0700-1900 LST):62  LATEST NIGHT MIN TEMP(1900-0800 LST):49 HOURLY INCREMENTAL PRECIPITATION VALUES (IN):.00 0.05 T    0.03 0.06 0.01 0.01 T    0.00 0.00 T    0.00 0.00 0.00 0.00 0.00 0.00 0.00 0.00 0.00 0.03 0.06 T    T","SOD  ","6",,,,,,,,,,,,,,,,,,,,,,,,,"0453","1850",,"2009-05-18"
"74486454787","2020-04-30T23:59:00","SOM  ","6","11.2",,,,,,,,,,,"0","0",,,,,,,,,,,,,,,,,,,,,,"4324","467",,,,,,,,,,,,,,,,,,,"15","8","0","0","0","0s","-0.2","-4","4","-1.8","1.3","-1.49s",,"1.15","13-13",,,,,"30.32","17","0705","56.7","49.5","29.13","09","1324","42.2","29.87","29.78","2.85s",,,"4","463","SOM802PCP MTOT:2.85 PCP GT 24HRS:1.15 DATE(S):13 DAYS W/PCP >=.01:15 DAYS W/PCP >=.10:8  DAYS W/ PCP >=.50:1 DAYS W/PCP >=1.00:1 MSDP AMTS W/DATE-TIME TAGS:MIN:5 0.09  09/1331 MIN:10 0.11  09/1337 MIN:15 0.11  09/1337 MIN:20 0.13  13/1445 MIN:30 0.17  13/1452 MIN:45 0.18  13/0515 MIN:60 0.22  13/0515 MIN:80 0.30  13/0515 MIN:100 0.32  13/0515 MIN:120 0.32  13/0515 MIN:150 0.34  13/1019 MIN:180 0.38  13/1019 AVG DLY MIN:42.2  AVG DLY MAX:56.7  AVG MLY TMP:49.5  MIN TMP:35 DATE(S):19 17 12 MAX TMP:65  DATE(S):28 07 06 DAYS MAX <=32:0 DAYS MAX >=90:0  DAYS MIN <=32:0  DAYS MIN  <=0:0  AVG STP:29.780 LWST SLP:29.13 DATE/TIME:091324 HGST SLP:30.32 DATE/TIME:170705 HDD MTH TOT:459 DEP NORM:-2553 SEASON(JUL 1-JUN 30):4273 DEP NORM:-25536 CDD MTH TOT:0 DEP NORM:-2553 SEASON(JAN 1-DEC 31):0 DEP NORM:-25536","SOM  ","6","2020-04-09 13:31","2020-04-09 13:37","2020-04-09 13:37","2020-04-13 14:45","2020-04-13 14:52","2020-04-13 05:15","2020-04-13 05:15","2020-04-13 05:15","2020-04-13 05:15","2020-04-13 05:15","2020-04-13 10:19","2020-04-13 10:19","0.09","0.11","0.11","0.13","0.17","0.18","0.22","0.30","0.32","0.32","0.34","0.38",,,,"2009-05-18"
