"STATION","DATE","REPORT_TYPE","SOURCE","AWND","BackupDirection","BackupDistance","BackupDistanceUnit","BackupElements","BackupElevation","BackupElevationUnit","BackupEquipment","BackupLatitude","BackupLongitude","BackupName","CDSD","CLDD","DSNW","DailyAverageDewPointTemperature","DailyAverageDryBulbTemperature","DailyAverageRelativeHumidity","DailyAverageSeaLevelPressure","DailyAverageStationPressure","DailyAverageWetBulbTemperature","DailyAverageWindSpeed","DailyCoolingDegreeDays","DailyDepartureFromNormalAverageTemperature","DailyHeatingDegreeDays","DailyMaximumDryBulbTemperature","DailyMinimumDryBulbTemperature","DailyPeakWindDirection","DailyPeakWindSpeed","DailyPrecipitation","DailySnowDepth","DailySnowfall","DailySustainedWindDirection","DailySustainedWindSpeed","DailyWeather","HDSD","HTDD","HeavyFog","HourlyAltimeterSetting","HourlyDewPointTemperature","HourlyDryBulbTemperature","HourlyPrecipitation","HourlyPresentWeatherType","HourlyPressureChange","HourlyPressureTendency","HourlyRelativeHumidity","HourlySeaLevelPressure","HourlySkyConditions","HourlyStationPressure","HourlyVisibility","HourlyWetBulbTemperature","HourlyWindDirection","HourlyWindGustSpeed","HourlyWindSpeed","MonthlyAverageRH","MonthlyDaysWithGT001Precip","MonthlyDaysWithGT010Precip","MonthlyDaysWithGT32Temp","MonthlyDaysWithGT90Temp","MonthlyDaysWithLT0Temp","MonthlyDaysWithLT32Temp","MonthlyDepartureFromNormalAverageTemperature","MonthlyDepartureFromNormalCoolingDegreeDays","MonthlyDepartureFromNormalHeatingDegreeDays","MonthlyDepartureFromNormalMaximumTemperature","MonthlyDepartureFromNormalMinimumTemperature","MonthlyDepartureFromNormalPrecipitation","MonthlyDewpointTemperature","MonthlyGreatestPrecip","MonthlyGreatestPrecipDate","MonthlyGreatestSnowDepth","MonthlyGreatestSnowDepthDate","MonthlyGreatestSnowfall","MonthlyGreatestSnowfallDate","MonthlyMaxSeaLevelPressureValue","MonthlyMaxSeaLevelPressureValueDate","MonthlyMaxSeaLevelPressureValueTime","MonthlyMaximumTemperature","MonthlyMeanTemperature","MonthlyMinSeaLevelPressureValue","MonthlyMinSeaLevelPressureValueDate","MonthlyMinSeaLevelPressureValueTime","MonthlyMinimumTemperature","MonthlySeaLevelPressure","MonthlyStationPressure","MonthlyTotalLiquidPrecipitation","MonthlyTotalSnowfall","MonthlyWetBulb","NormalsCoolingDegreeDay","NormalsHeatingDegreeDay","REM","REPORT_TYPE","SOURCE","ShortDurationEndDate005","ShortDurationEndDate010","ShortDurationEndDate015","ShortDurationEndDate020","ShortDurationEndDate030","ShortDurationEndDate045","ShortDurationEndDate060","ShortDurationEndDate080","ShortDurationEndDate100","ShortDurationEndDate120","ShortDurationEndDate150","ShortDurationEndDate180","ShortDurationPrecipitationValue005","ShortDurationPrecipitationValue010","ShortDurationPrecipitationValue015","ShortDurationPrecipitationValue020","ShortDurationPrecipitationValue030","ShortDurationPrecipitationValue045","ShortDurationPrecipitationValue060","ShortDurationPrecipitationValue080","ShortDurationPrecipitationValue100","ShortDurationPrecipitationValue120","ShortDurationPrecipitationValue150","ShortDurationPrecipitationValue180","Sunrise","Sunset","TStorms","WindEquipmentChangeDate"
"72503794745","2020-03-12T00:56:00","FM-15","7",,,,,,,,,,,,,,,,,,,,,,,,,,,,,,,,,,,,,,"30.07","21","34","0.00",,"+0.01","5","59","30.09","CLR:00","29.64","10.00","29","300",,"5",,,,,,,,,,,,,,,,,,,,,,,,,,,,,,,,,,,,,"MET11403/12/20 00:56:02 METAR KHPN 120556Z 30004KT 10SM CLR 01/M06 A3007 RMK AO2 SLP188 T00111061 10089 20011 55005 (MM)","FM-15","7",,,,,,,,,,,,,,,,,,,,,,,,,,,,"2009-05-22"
"72503794745","2020-03-12T01:56:00","FM-15","7",,,,,,,,,,,,,,,,,,,,,,,,,,,,,,,,,,,,,,"30.06","22","35","0.00",,,,"59","30.08","CLR:00","29.63","10.00","30","300",,"3",,,,,,,,,,,,,,,,,,,,,,,,,,,,,,,,,,,,,"MET09603/12/20 01:56:02 METAR KHPN 120656Z 30003KT 10SM CLR 02/M06 A3006 RMK AO2 SLP185 T00171056 (MM)","FM-15","7",,,,,,,,,,,,,,,,,,,,,,,,,,,,"2009-05-22"
"72503794745","2020-03-12T02:56:00","FM-15","7",,,,,,,,,,,,,,,,,,,,,,,,,,,,,,,,,,,,,,"30.07","22","33","0.00",,,,"64","30.08","CLR:00","29.64","10.00","29","310",,"5",,,,,,,,,,,,,,,,,,,,,,,,,,,,,,,,,,,,,"MET09603/12/20 02:56:02 METAR KHPN 120756Z 31004KT 10SM CLR 01/M06 A3007 RMK AO2 SLP186 T00061056 (MM)","FM-15","7",,,,,,,,,,,,,,,,,,,,,,,,,,,,"2009-05-22"
"72503794745","2020-03-12T03:56:00","FM-15","7",,,,,,,,,,,,,,,,,,,,,,,,,,,,,,,,,,,,,,"30.09","21","35","0.00",,"-0.02","3","57","30.10","CLR:00","29.66","10.00","30","310",,"6",,,,,,,,,,,,,,,,,,,,,,,,,,,,,,,,,,,,,"MET10203/12/20 03:56:02 METAR KHPN 120856Z 31005KT 10SM CLR 02/M06 A3009 RMK AO2 SLP193 T00171061 53006 (MM)","FM-15","7",,,,,,,,,,,,,,,,,,,,,,,,,,,,"2009-05-22"
"72503794745","2020-03-12T04:56:00","FM-15","7",,,,,,,,,,,,,,,,,,,,,,,,,,,,,,,,,,,,,,"30.10","20","39","0.00",,,,"46","30.11","BKN:07 55","29.67","10.00","32","080",,"5",,,,,,,,,,,,,,,,,,,,,,,,,,,,,,,,,,,,,"MET09903/12/20 04:56:02 METAR KHPN 120956Z 08004KT 10SM BKN055 04/M07 A3010 RMK AO2 SLP198 T00391067 (MM)","FM-15","7",,,,,,,,,,,,,,,,,,,,,,,,,,,,"2009-05-22"
"72503794745","2020-03-12T05:56:00","FM-15","7",,,,,,,,,,,,,,,,,,,,,,,,,,,,,,,,,,,,,,"30.10","22","38","0.00",,,,"52","30.12","BKN:07 55","29.67","10.00","32","090",,"7",,,,,,,,,,,,,,,,,,,,,,,,,,,,,,,,,,,,,"MET09903/12/20 05:56:02 METAR KHPN 121056Z 09006KT 10SM BKN055 03/M06 A3010 RMK AO2 SLP199 T00331056 (MM)","FM-15","7",,,,,,,,,,,,,,,,,,,,,,,,,,,,"2009-05-22"
"72503794745","2020-03-12T06:56:00","FM-15","7",,,,,,,,,,,,,,,,,,,,,,,,,,,,,,,,,,,,,,"30.12","26","38","0.00",,"-0.04","3","62","30.14","BKN:07 60","29.69","10.00","33","080",,"5",,,,,,,,,,,,,,,,,,,,,,,,,,,,,,,,,,,,,"MET11703/12/20 06:56:02 METAR KHPN 121156Z 08004KT 10SM BKN060 03/M03 A3012 RMK AO2 SLP206 T00331033 10039 20000 53013 (ML)","FM-15","7",,,,,,,,,,,,,,,,,,,,,,,,,,,,"2009-05-22"
"72503794745","2020-03-12T07:56:00","FM-15","7",,,,,,,,,,,,,,,,,,,,,,,,,,,,,,,,,,,,,,"30.15","31","40","0.00",,,,"70","30.16","FEW:02 15 BKN:07 60 BKN:07 90","29.72","10.00","36","070",,"8",,,,,,,,,,,,,,,,,,,,,,,,,,,,,,,,,,,,,"MET11303/12/20 07:56:02 METAR KHPN 121256Z 07007KT 10SM FEW015 BKN060 BKN090 04/M01 A3015 RMK AO2 SLP213 T00441006 (ML)","FM-15","7",,,,,,,,,,,,,,,,,,,,,,,,,,,,"2009-05-22"
"72503794745","2020-03-12T08:11:00","FM-16","7",,,,,,,,,,,,,,,,,,,,,,,,,,,,,,,,,,,,,,"30.15","33","41",,,,,"73",,"SCT:04 7 BKN:07 60 BKN:07 90","29.72","10.00","38","080",,"6",,,,,,,,,,,,,,,,,,,,,,,,,,,,,,,,,,,,,"MET10503/12/20 08:11:02 SPECI KHPN 121311Z 08005KT 10SM SCT007 BKN060 BKN090 05/01 A3015 RMK AO2 T00500006 (ML)","FM-16","7",,,,,,,,,,,,,,,,,,,,,,,,,,,,"2009-05-22"
"72503794745","2020-03-12T08:46:00","FM-16","7",,,,,,,,,,,,,,,,,,,,,,,,,,,,,,,,,,,,,,"30.16","35","41",,,,,"79",,"BKN:07 7 BKN:07 15","29.73","10.00","38","100",,"10",,,,,,,,,,,,,,,,,,,,,,,,,,,,,,,,,,,,,"MET09803/12/20 08:46:02 SPECI KHPN 121346Z 10009KT 10SM BKN007 BKN015 05/02 A3016 RMK AO2 T00500017 (ML)","FM-16","7",,,,,,,,,,,,,,,,,,,,,,,,,,,,"2009-05-22"
"72503794745","2020-03-12T08:56:00","FM-15","7",,,,,,,,,,,,,,,,,,,,,,,,,,,,,,,,,,,,,,"30.16","36","41","0.00",,,,"82","30.18","BKN:07 7 OVC:08 15","29.73","8.00","39","100",,"7",,,,,,,,,,,,,,,,,,,,,,,,,,,,,,,,,,,,,"MET10403/12/20 08:56:02 METAR KHPN 121356Z 10006KT 8SM BKN007 OVC015 05/02 A3016 RMK AO2 SLP220 T00500022 (ML)","FM-15","7",,,,,,,,,,,,,,,,,,,,,,,,,,,,"2009-05-22"
"72503794745","2020-03-12T09:56:00","FM-15","7",,,,,,,,,,,,,,,,,,,,,,,,,,,,,,,,,,,,,,"30.18","37","42","0.00",,"-0.05","1","82","30.19","BKN:07 9 OVC:08 50","29.75","10.00","40","120",,"10",,,,,,,,,,,,,,,,,,,,,,,,,,,,,,,,,,,,,"MET12303/12/20 09:56:02 METAR KHPN 121456Z 12009KT 10SM BKN009 OVC050 06/03 A3018 RMK AO2 CIG 008V012 SLP225 T00560028 51018 (ML)","FM-15","7",,,,,,,,,,,,,,,,,,,,,,,,,,,,"2009-05-22"
"72503794745","2020-03-12T10:54:00","FM-16","6",,,,,,,,,,,,,,,,,,,,,,,,,,,,,,,,,,,,,,"30.18","37","43",,,,,"81",,"BKN:07 12 OVC:08 50","29.75","10.00","40","120",,"5",,,,,,,,,,,,,,,,,,,,,,,,,,,,,,,,,,,,,"MET09303/12/20 10:54:02 SPECI KHPN 121554Z 12004KT 10SM BKN012 OVC050 06/03 A3018 RMK AO2 FIBI (ML)","FM-16","6",,,,,,,,,,,,,,,,,,,,,,,,,,,,"2009-05-22"
"72503794745","2020-03-12T10:56:00","FM-15","7",,,,,,,,,,,,,,,,,,,,,,,,,,,,,,,,,,,,,,"30.18","37","43","0.00",,,,"80","30.19","BKN:07 12 OVC:08 50","29.75","10.00","40","120",,"7",,,,,,,,,,,,,,,,,,,,,,,,,,,,,,,,,,,,,"MET10503/12/20 10:56:02 METAR KHPN 121556Z 12006KT 10SM BKN012 OVC050 06/03 A3018 RMK AO2 SLP225 T00610028 (ML)","FM-15","7",,,,,,,,,,,,,,,,,,,,,,,,,,,,"2009-05-22"
"72503794745","2020-03-12T11:56:00","FM-15","7",,,,,,,,,,,,,,,,,,,,,,,,,,,,,,,,,,,,,,"30.18","37","45","0.00",,,,"74","30.19","BKN:07 12 OVC:08 50","29.75","10.00","41","140",,"9",,,,,,,,,,,,,,,,,,,,,,,,,,,,,,,,,,,,,"MET10503/12/20 11:56:02 METAR KHPN 121656Z 14008KT 10SM BKN012 OVC050 07/03 A3018 RMK AO2 SLP224 T00720028 (ML)","FM-15","7",,,,,,,,,,,,,,,,,,,,,,,,,,,,"2009-05-22"
"72503794745","2020-03-12T12:54:00","FM-16","6",,,,,,,,,,,,,,,,,,,,,,,,,,,,,,,,,,,,,,"30.17","37","45",,,,,"76",,"SCT:04 15 OVC:08 47","29.74","10.00","41","120",,"9",,,,,,,,,,,,,,,,,,,,,,,,,,,,,,,,,,,,,"MET09303/12/20 12:54:02 SPECI KHPN 121754Z 12008KT 10SM SCT015 OVC047 07/03 A3017 RMK AO2 FIBI (ML)","FM-16","6",,,,,,,,,,,,,,,,,,,,,,,,,,,,"2009-05-22"
"72503794745","2020-03-12T12:56:00","FM-15","7",,,,,,,,,,,,,,,,,,,,,,,,,,,,,,,,,,,,,,"30.17","37","44","0.00",,"+0.01","8","76","30.19","SCT:04 15 OVC:08 47","29.74","10.00","41","130",,"9",,,,,,,,,,,,,,,,,,,,,,,,,,,,,,,,,,,,,"MET12303/12/20 12:56:02 METAR KHPN 121756Z 13008KT 10SM SCT015 OVC047 07/03 A3017 RMK AO2 SLP222 T00670028 10078 20033 58004 (ML)","FM-15","7",,,,,,,,,,,,,,,,,,,,,,,,,,,,"2009-05-22"
"72503794745","2020-03-12T13:56:00","FM-15","7",,,,,,,,,,,,,,,,,,,,,,,,,,,,,,,,,,,,,,"30.15","36","45","0.00",,,,"71","30.16","FEW:02 15 OVC:08 47","29.72","10.00","41","110",,"8",,,,,,,,,,,,,,,,,,,,,,,,,,,,,,,,,,,,,"MET10503/12/20 13:56:02 METAR KHPN 121856Z 11007KT 10SM FEW015 OVC047 07/02 A3015 RMK AO2 SLP214 T00720022 (ML)","FM-15","7",,,,,,,,,,,,,,,,,,,,,,,,,,,,"2009-05-22"
"72503794745","2020-03-12T14:56:00","FM-15","7",,,,,,,,,,,,,,,,,,,,,,,,,,,,,,,,,,,,,,"30.14","36","46","0.00",,,,"68","30.16","BKN:07 46","29.71","10.00","42","100",,"9",,,,,,,,,,,,,,,,,,,,,,,,,,,,,,,,,,,,,"MET09803/12/20 14:56:02 METAR KHPN 121956Z 10008KT 10SM BKN046 08/02 A3014 RMK AO2 SLP213 T00780022 (ML)","FM-15","7",,,,,,,,,,,,,,,,,,,,,,,,,,,,"2009-05-22"
"72503794745","2020-03-12T15:56:00","FM-15","7",,,,,,,,,,,,,,,,,,,,,,,,,,,,,,,,,,,,,,"30.15","35","45","0.00",,"+0.02","5","68","30.16","BKN:07 44","29.72","10.00","41","110",,"11",,,,,,,,,,,,,,,,,,,,,,,,,,,,,,,,,,,,,"MET10403/12/20 15:56:02 METAR KHPN 122056Z 11010KT 10SM BKN044 07/02 A3015 RMK AO2 SLP215 T00720017 55006 (JR)","FM-15","7",,,,,,,,,,,,,,,,,,,,,,,,,,,,"2009-05-22"
"72503794745","2020-03-12T16:54:00","FM-16","6",,,,,,,,,,,,,,,,,,,,,,,,,,,,,,,,,,,,,,"30.14","36","45",,,,,"71",,"BKN:07 20","29.71","10.00","41","080",,"8",,,,,,,,,,,,,,,,,,,,,,,,,,,,,,,,,,,,,"MET08603/12/20 16:54:02 SPECI KHPN 122154Z 08007KT 10SM BKN020 07/02 A3014 RMK AO2 FIBI (JR)","FM-16","6",,,,,,,,,,,,,,,,,,,,,,,,,,,,"2009-05-22"
"72503794745","2020-03-12T16:56:00","FM-15","7",,,,,,,,,,,,,,,,,,,,,,,,,,,,,,,,,,,,,,"30.13","35","44","0.00",,,,"71","30.15","OVC:08 20","29.70","10.00","40","090",,"8",,,,,,,,,,,,,,,,,,,,,,,,,,,,,,,,,,,,,"MET09803/12/20 16:56:02 METAR KHPN 122156Z 09007KT 10SM OVC020 07/02 A3013 RMK AO2 SLP210 T00670017 (JR)","FM-15","7",,,,,,,,,,,,,,,,,,,,,,,,,,,,"2009-05-22"
"72503794745","2020-03-12T17:56:00","FM-15","7",,,,,,,,,,,,,,,,,,,,,,,,,,,,,,,,,,,,,,"30.14","37","43","0.00",,,,"80","30.15","OVC:08 16","29.71","10.00","40","080",,"7",,,,,,,,,,,,,,,,,,,,,,,,,,,,,,,,,,,,,"MET09803/12/20 17:56:02 METAR KHPN 122256Z 08006KT 10SM OVC016 06/03 A3014 RMK AO2 SLP210 T00610028 (JR)","FM-15","7",,,,,,,,,,,,,,,,,,,,,,,,,,,,"2009-05-22"
"72503794745","2020-03-12T18:54:00","FM-16","6",,,,,,,,,,,,,,,,,,,,,,,,,,,,,,,,,,,,,,"30.14","37","43",,,,,"81",,"BKN:07 13","29.71","10.00","40","080",,"7",,,,,,,,,,,,,,,,,,,,,,,,,,,,,,,,,,,,,"MET08603/12/20 18:54:02 SPECI KHPN 122354Z 08006KT 10SM BKN013 06/03 A3014 RMK AO2 FIBI (JR)","FM-16","6",,,,,,,,,,,,,,,,,,,,,,,,,,,,"2009-05-22"
"72503794745","2020-03-12T18:56:00","FM-15","7",,,,,,,,,,,,,,,,,,,,,,,,,,,,,,,,,,,,,,"30.14","37","43","0.00",,"+0.01","6","80","30.15","BKN:07 13","29.71","10.00","40","080",,"6",,,,,,,,,,,,,,,,,,,,,,,,,,,,,,,,,,,,,"MET11603/12/20 18:56:02 METAR KHPN 122356Z 08005KT 10SM BKN013 06/03 A3014 RMK AO2 SLP210 T00610028 10078 20061 56005 (JR)","FM-15","7",,,,,,,,,,,,,,,,,,,,,,,,,,,,"2009-05-22"
"72503794745","2020-03-12T19:56:00","FM-15","7",,,,,,,,,,,,,,,,,,,,,,,,,,,,,,,,,,,,,,"30.14","38","42","T","-RA:02 |RA |RA",,,"85","30.16","OVC:08 10","29.71","9.00","40","080",,"13",,,,,,,,,,,,,,,,,,,,,,,,,,,,,,,,,,,,,"MET12603/12/20 19:56:01 METAR KHPN 130056Z 08011KT 9SM -RA OVC010 06/03 A3014 RMK AO2 RAB16E25B52 CIG 009V012 SLP213 P0000 T00560033","FM-15","7",,,,,,,,,,,,,,,,,,,,,,,,,,,,"2009-05-22"
"72503794745","2020-03-12T20:22:00","FM-16","7",,,,,,,,,,,,,,,,,,,,,,,,,,,,,,,,,,,,,,"30.13","38","42","T",,,,"85",,"OVC:08 7","29.70","10.00","40","090","18","8",,,,,,,,,,,,,,,,,,,,,,,,,,,,,,,,,,,,,"MET10103/12/20 20:22:01 SPECI KHPN 130122Z 09007G16KT 10SM OVC007 06/03 A3013 RMK AO2 RAE10 P0000 T00560033","FM-16","7",,,,,,,,,,,,,,,,,,,,,,,,,,,,"2009-05-22"
"72503794745","2020-03-12T20:56:00","FM-15","7",,,,,,,,,,,,,,,,,,,,,,,,,,,,,,,,,,,,,,"30.12","38","41","T",,,,"89","30.14","OVC:08 6","29.69","10.00","40","100",,"10",,,,,,,,,,,,,,,,,,,,,,,,,,,,,,,,,,,,,"MET11103/12/20 20:56:01 METAR KHPN 130156Z 10009KT 10SM OVC006 05/03 A3012 RMK AO2 RAE10B29E52 SLP206 P0000 T00500033","FM-15","7",,,,,,,,,,,,,,,,,,,,,,,,,,,,"2009-05-22"
"72503794745","2020-03-12T21:56:00","FM-15","7",,,,,,,,,,,,,,,,,,,,,,,,,,,,,,,,,,,,,,"30.12","39","41","0.00",,"+0.01","8","93","30.14","OVC:08 5","29.69","10.00","40","100",,"11",,,,,,,,,,,,,,,,,,,,,,,,,,,,,,,,,,,,,"MET10503/12/20 21:56:01 METAR KHPN 130256Z 10010KT 10SM OVC005 05/04 A3012 RMK AO2 SLP205 60000 T00500039 58005","FM-15","7",,,,,,,,,,,,,,,,,,,,,,,,,,,,"2009-05-22"
"72503794745","2020-03-12T22:56:00","FM-15","7",,,,,,,,,,,,,,,,,,,,,,,,,,,,,,,,,,,,,,"30.09","39","41","T","-RA:02 |RA |RA",,,"93","30.11","OVC:08 5","29.66","7.00","40","100","20","11",,,,,,,,,,,,,,,,,,,,,,,,,,,,,,,,,,,,,"MET11103/12/20 22:56:02 METAR KHPN 130356Z 10010G17KT 7SM -RA OVC005 05/04 A3009 RMK AO2 RAB15 SLP196 P0000 T00500039","FM-15","7",,,,,,,,,,,,,,,,,,,,,,,,,,,,"2009-05-22"
"72503794745","2020-03-12T23:56:00","FM-15","6",,,,,,,,,,,,,,,,,,,,,,,,,,,,,,,,,,,,,,"30.08","39","41","T",,,,"93","30.09","OVC:08 4","29.65","10.00","40","090",,"6",,,,,,,,,,,,,,,,,,,,,,,,,,,,,,,,,,,,,"MET11503/12/20 23:56:02 METAR KHPN 130456Z 09005KT 10SM OVC004 05/04 A3008 RMK AO2 RAE04 SLP189 P0000 T00500039 400780000","FM-15","6",,,,,,,,,,,,,,,,,,,,,,,,,,,,"2009-05-22"
"72503794745","2020-03-12T23:59:00","SOD  ","6",,,,,,,,,,,,,,,,"39",,,"29.70",,"7.8","0","2.4","26","46","32","100","21","T",,,"100","14","RA",,,,,,,,,,,,,,,,,,,,,,,,,,,,,,,,,,,,,,,,,,,,,,,,,,,,,,,,"SOD72724 HR PRECIPITATION (IN):T     24 HR MAX TEMP (F):46 24 HR MAX TEMP TIME (LST):1503 24 HR MIN TEMP (F):32 24 HR MIN TEMP TIME (LST):0255 AVERAGE STATION PRESSURE:29.695 MINIMUM SEA LEVEL PRESSURE:30.07 TIME OF OCCURRENCE:0223 PEAK WIND SPEED (MPH):21  PEAK WIND DIR (DEG):100 PEAK WIND TIME (LST):1916  FASTEST 2MIN SPEED (MPH):14 FASTEST 2MIN DIR (DEG):100 FASTEST 2MIN TIME (LST):2246 AVERAGE WIND SPEED (MPH):7.8  24 HR AVG TEMP (F):39 HEATING DEGREE DAYS:26  COOLING DEGREE DAYS:0   LATEST DAY MAX TEMP (0700-1900 LST):46  LATEST NIGHT MIN TEMP(1900-0800 LST):32 HOURLY INCREMENTAL PRECIPITATION VALUES (IN):.00 0.00 0.00 0.00 0.00 0.00 0.00 0.00 0.00 0.00 0.00 0.00 0.00 0.00 0.00 0.00 0.00 0.00 0.00 T    T    0.00 T    T","SOD  ","6",,,,,,,,,,,,,,,,,,,,,,,,,"0610","1759",,"2009-05-22"
"72503794745","2020-03-13T00:56:00","FM-15","6",,,,,,,,,,,,,,,,,,,,,,,,,,,,,,,,,,,,,,"30.04","40","42","0.01","BR:1 ||","+0.08","8","92","30.06","BKN:07 3 OVC:08 5","29.61","5.00","41","090","17","11",,,,,,,,,,,,,,,,,,,,,,,,,,,,,,,,,,,,,"MET14903/13/20 00:56:02 METAR KHPN 130556Z 09010G15KT 5SM BR BKN003 OVC005 06/04 A3004 RMK AO2 RAB14E52 SLP178 P0001 60001 T00560044 10061 20050 58026 (AF)","FM-15","6",,,,,,,,,,,,,,,,,,,,,,,,,,,,"2009-05-22"
"72503794745","2020-03-13T01:56:00","FM-15","7",,,,,,,,,,,,,,,,,,,,,,,,,,,,,,,,,,,,,,"30.01","41","42","T","BR:1 ||",,,"96","30.03","VV:09 2","29.58","3.00","42","100",,"14",,,,,,,,,,,,,,,,,,,,,,,,,,,,,,,,,,,,,"MET11403/13/20 01:56:02 METAR KHPN 130656Z 10012KT 3SM BR VV002 06/05 A3001 RMK AO2 RAB06E40 SLP168 P0000 T00560050 (AF)","FM-15","7",,,,,,,,,,,,,,,,,,,,,,,,,,,,"2009-05-22"
"72503794745","2020-03-13T02:54:00","FM-16","6",,,,,,,,,,,,,,,,,,,,,,,,,,,,,,,,,,,,,,"29.97","41","43",,"-RA:02 BR:1 |RA |RA",,,"93",,"VV:09 1","29.54","0.75","42","090","22","15",,,,,,,,,,,,,,,,,,,,,,,,,,,,,,,,,,,,,"MET12003/13/20 02:54:02 SPECI KHPN 130754Z 09013G19KT 3/4SM R16/P6000FT -RA BR VV001 06/05 A2997 RMK AO2 RAB48 P0000 FIBI (AF)","FM-16","6",,,,,,,,,,,,,,,,,,,,,,,,,,,,"2009-05-22"
"72503794745","2020-03-13T02:56:00","FM-15","7",,,,,,,,,,,,,,,,,,,,,,,,,,,,,,,,,,,,,,"29.97","41","42","T","-RA:02 BR:1 |RA |RA",,,"96","29.98","VV:09 1","29.54","0.75","42","090","22","11",,,,,,,,,,,,,,,,,,,,,,,,,,,,,,,,,,,,,"MET13203/13/20 02:56:02 METAR KHPN 130756Z 09010G19KT 3/4SM R16/P6000FT -RA BR VV001 06/05 A2997 RMK AO2 RAB48 SLP151 P0000 T00560050 (AF)","FM-15","7",,,,,,,,,,,,,,,,,,,,,,,,,,,,"2009-05-22"
"72503794745","2020-03-13T03:56:00","FM-15","6",,,,,,,,,,,,,,,,,,,,,,,,,,,,,,,,,,,,,,"29.94","42","43","T","-RA:02 FG:2 |FG RA |RA","+0.10","6","97","29.96","VV:09 1","29.51","0.50","43","100",,"11",,,,,,,,,,,,,,,,,,,,,,,,,,,,,,,,,,,,,"MET13903/13/20 03:56:02 METAR KHPN 130856Z 10010KT 1/2SM R16/4000V6000FT -RA FG VV001 06/06 A2994 RMK AO2 SLP144 P0000 60000 T00610056 56034 (AF)","FM-15","6",,,,,,,,,,,,,,,,,,,,,,,,,,,,"2009-05-22"
"72503794745","2020-03-13T04:56:00","FM-15","7",,,,,,,,,,,,,,,,,,,,,,,,,,,,,,,,,,,,,,"29.90","43","44","T","FG:2 |FG |",,,"96","29.91","VV:09 1","29.47","0.50","44","090",,"9",,,,,,,,,,,,,,,,,,,,,,,,,,,,,,,,,,,,,"MET12903/13/20 04:56:02 METAR KHPN 130956Z 09008KT 1/2SM R16/3500V6000FT FG VV001 07/06 A2990 RMK AO2 RAE52 SLP130 P0000 T00670061 (AF)","FM-15","7",,,,,,,,,,,,,,,,,,,,,,,,,,,,"2009-05-22"
"72503794745","2020-03-13T05:56:00","FM-15","7",,,,,,,,,,,,,,,,,,,,,,,,,,,,,,,,,,,,,,"29.86","44","45","0.07","-RA:02 FG:2 |FG RA |RA",,,"97","29.87","VV:09 1","29.43","0.50","45","090",,"7",,,,,,,,,,,,,,,,,,,,,,,,,,,,,,,,,,,,,"MET13403/13/20 05:56:02 METAR KHPN 131056Z 09006KT 1/2SM R16/5000VP6000FT -RA FG VV001 07/07 A2986 RMK AO2 RAB02 SLP115 P0006 T00720067 (AF)","FM-15","7",,,,,,,,,,,,,,,,,,,,,,,,,,,,"2009-05-22"
"72503794745","2020-03-13T06:54:00","FM-16","6",,,,,,,,,,,,,,,,,,,,,,,,,,,,,,,,,,,,,,"29.84","46","48",,"-RA:02 BR:1 |RA |RA",,,"94",,"VV:09 4","29.41","1.25","47","110",,"8",,,,,,,,,,,,,,,,,,,,,,,,,,,,,,,,,,,,,"MET10803/13/20 06:54:02 SPECI KHPN 131154Z 11007KT 1 1/4SM -RA BR VV004 09/08 A2984 RMK AO2 PRESFR P0017 FIBI (AF)","FM-16","6",,,,,,,,,,,,,,,,,,,,,,,,,,,,"2009-05-22"
"72503794745","2020-03-13T06:56:00","FM-15","6",,,,,,,,,,,,,,,,,,,,,,,,,,,,,,,,,,,,,,"29.83","47","48","0.16","-RA:02 BR:1 |RA |RA","+0.11","6","96","29.84","VV:09 4","29.40","1.25","48","110",,"8",,,,,,,,,,,,,,,,,,,,,,,,,,,,,,,,,,,,,"MET15003/13/20 06:56:02 METAR KHPN 131156Z 11007KT 1 1/4SM -RA BR VV004 09/08 A2983 RMK AO2 PRESFR SLP106 P0017 60023 70024 T00890083 10089 20056 56037 (AF)","FM-15","6",,,,,,,,,,,,,,,,,,,,,,,,,,,,"2009-05-22"
"72503794745","2020-03-13T07:14:00","FM-16","6",,,,,,,,,,,,,,,,,,,,,,,,,,,,,,,,,,,,,,"29.83","47","48",,"-RA:02 FG:2 |FG RA |RA",,,"96",,"VV:09 4","29.40","0.50","48","120",,"7",,,,,,,,,,,,,,,,,,,,,,,,,,,,,,,,,,,,,"MET11603/13/20 07:14:02 SPECI KHPN 131214Z 12006KT 1/2SM R16/P6000FT -RA FG VV004 09/08 A2983 RMK AO2 P0000 T00890083 (AF)","FM-16","6",,,,,,,,,,,,,,,,,,,,,,,,,,,,"2009-05-22"
"72503794745","2020-03-13T07:37:00","FM-16","6",,,,,,,,,,,,,,,,,,,,,,,,,,,,,,,,,,,,,,"29.82","49","49",,"-RA:02 FG:2 |FG RA |RA",,,"100",,"VV:09 4","29.39","0.50","49","150",,"7",,,,,,,,,,,,,,,,,,,,,,,,,,,,,,,,,,,,,"MET12003/13/20 07:37:02 SPECI KHPN 131237Z 15006KT 1/2SM R16/1600V2000FT -RA FG VV004 09/09 A2982 RMK AO2 P0000 T00940094 (AF)","FM-16","6",,,,,,,,,,,,,,,,,,,,,,,,,,,,"2009-05-22"
"72503794745","2020-03-13T07:45:00","FM-16","6",,,,,,,,,,,,,,,,,,,,,,,,,,,,,,,,,,,,,,"29.82","49","50",,"-RA:02 FG:2 |FG RA |RA",,,"96",,"VV:09 4","29.39","0.50","49","160",,"7",,,,,,,,,,,,,,,,,,,,,,,,,,,,,,,,,,,,,"MET12003/13/20 07:45:02 SPECI KHPN 131245Z 16006KT 1/2SM R16/2000V3500FT -RA FG VV004 10/09 A2982 RMK AO2 P0001 T01000094 (AF)","FM-16","6",,,,,,,,,,,,,,,,,,,,,,,,,,,,"2009-05-22"
"72503794745","2020-03-13T07:54:00","FM-16","6",,,,,,,,,,,,,,,,,,,,,,,,,,,,,,,,,,,,,,"29.82","50","50",,"-RA:02 FG:2 |FG RA |RA",,,"100",,"VV:09 2","29.39","0.25","50","170",,"8",,,,,,,,,,,,,,,,,,,,,,,,,,,,,,,,,,,,,"MET11603/13/20 07:54:02 SPECI KHPN 131254Z 17007KT 1/4SM R16/3500VP6000FT -RA FG VV002 10/10 A2982 RMK AO2 P0002 FIBI (AF)","FM-16","6",,,,,,,,,,,,,,,,,,,,,,,,,,,,"2009-05-22"
"72503794745","2020-03-13T07:56:00","FM-15","6",,,,,,,,,,,,,,,,,,,,,,,,,,,,,,,,,,,,,,"29.82","50","50","0.03","-RA:02 FG:2 |FG RA |RA",,,"100","29.83","VV:09 2","29.39","0.25","50","170",,"9",,,,,,,,,,,,,,,,,,,,,,,,,,,,,,,,,,,,,"MET12803/13/20 07:56:02 METAR KHPN 131256Z 17008KT 1/4SM R16/2800VP6000FT -RA FG VV002 10/10 A2982 RMK AO2 SLP100 P0002 T01000100 (AF)","FM-15","6",,,,,,,,,,,,,,,,,,,,,,,,,,,,"2009-05-22"
"72503794745","2020-03-13T08:54:00","FM-16","6",,,,,,,,,,,,,,,,,,,,,,,,,,,,,,,,,,,,,,"29.79","52","52",,"-RA:02 BR:1 |RA |RA",,,"100",,"VV:09 2","29.36","1.00","52","160","16","6",,,,,,,,,,,,,,,,,,,,,,,,,,,,,,,,,,,,,"MET11203/13/20 08:54:02 SPECI KHPN 131354Z 16005G14KT 1SM R16/P6000FT -RA BR VV002 11/11 A2979 RMK AO2 P0005 FIBI (AF)","FM-16","6",,,,,,,,,,,,,,,,,,,,,,,,,,,,"2009-05-22"
"72503794745","2020-03-13T08:56:00","FM-15","7",,,,,,,,,,,,,,,,,,,,,,,,,,,,,,,,,,,,,,"29.79","52","52","0.04","-RA:02 BR:1 |RA |RA",,,"100","29.80","VV:09 2","29.36","1.00","52","160","16","7",,,,,,,,,,,,,,,,,,,,,,,,,,,,,,,,,,,,,"MET11903/13/20 08:56:02 METAR KHPN 131356Z 16006G14KT 1SM R16/P6000FT -RA BR VV002 11/11 A2979 RMK AO2 SLP090 P0005 T01110111","FM-15","7",,,,,,,,,,,,,,,,,,,,,,,,,,,,"2009-05-22"
"72503794745","2020-03-13T09:54:00","FM-16","6",,,,,,,,,,,,,,,,,,,,,,,,,,,,,,,,,,,,,,"29.77","52","52",,"-DZ:01 BR:1 |DZ |DZ",,,"100",,"VV:09 2","29.34","0.75","52","VRB",,"9",,,,,,,,,,,,,,,,,,,,,,,,,,,,,,,,,,,,,"MET12203/13/20 09:54:02 SPECI KHPN 131454Z 17008KT 3/4SM R16/P6000FT -DZ BR VV002 11/11 A2977 RMK AO2 RAE52DZB54 P0003 FIBI (RV)","FM-16","6",,,,,,,,,,,,,,,,,,,,,,,,,,,,"2009-05-22"
"72503794745","2020-03-13T09:56:00","FM-15","7",,,,,,,,,,,,,,,,,,,,,,,,,,,,,,,,,,,,,,"29.76","52","52","0.03","-DZ:01 BR:1 |DZ |DZ","+0.07","8","100","29.77","VV:09 2","29.34","0.75","52","170",,"9",,,,,,,,,,,,,,,,,,,,,,,,,,,,,,,,,,,,,"MET14603/13/20 09:56:02 METAR KHPN 131456Z 17008KT 3/4SM R16/P6000FT -DZ BR VV002 11/11 A2976 RMK AO2 RAE52DZB54 SLP081 P0003 60010 T01110111 58024 (RV)","FM-15","7",,,,,,,,,,,,,,,,,,,,,,,,,,,,"2009-05-22"
"72503794745","2020-03-13T10:35:00","FM-16","7",,,,,,,,,,,,,,,,,,,,,,,,,,,,,,,,,,,,,,"29.74","52","52","T","DZ:01 FG:2 |FG DZ |DZ",,,"100",,"VV:09 2","29.31","0.25","52","190","17","6",,,,,,,,,,,,,,,,,,,,,,,,,,,,,,,,,,,,,"MET12203/13/20 10:35:02 SPECI KHPN 131535Z 19005G15KT 1/4SM R16/1800V2200FT DZ FG VV002 11/11 A2974 RMK AO2 P0000 T01110111 (RV)","FM-16","7",,,,,,,,,,,,,,,,,,,,,,,,,,,,"2009-05-22"
"72503794745","2020-03-13T10:44:00","FM-16","7",,,,,,,,,,,,,,,,,,,,,,,,,,,,,,,,,,,,,,"29.74","52","52","T","DZ:01 FG:2 |FG DZ |DZ",,,"100",,"VV:09 2","29.31","0.25","52","200",,"6",,,,,,,,,,,,,,,,,,,,,,,,,,,,,,,,,,,,,"MET11903/13/20 10:44:02 SPECI KHPN 131544Z 20005KT 1/4SM R16/1800V2600FT DZ FG VV002 11/11 A2974 RMK AO2 P0000 T01110111 (RV)","FM-16","7",,,,,,,,,,,,,,,,,,,,,,,,,,,,"2009-05-22"
"72503794745","2020-03-13T10:54:00","FM-16","6",,,,,,,,,,,,,,,,,,,,,,,,,,,,,,,,,,,,,,"29.74","52","54",,"FG:2 |FG |",,,"94",,"VV:09 1","29.31","0.50","53","VRB",,"7",,,,,,,,,,,,,,,,,,,,,,,,,,,,,,,,,,,,,"MET11703/13/20 10:54:02 SPECI KHPN 131554Z VRB06KT 1/2SM R16/2800V5000FT FG VV001 12/11 A2974 RMK AO2 DZE53 P0000 FIBI (RV)","FM-16","6",,,,,,,,,,,,,,,,,,,,,,,,,,,,"2009-05-22"
"72503794745","2020-03-13T10:56:00","FM-15","7",,,,,,,,,,,,,,,,,,,,,,,,,,,,,,,,,,,,,,"29.74","52","53","T","FG:2 |FG |",,,"96","29.75","VV:09 1","29.31","0.50","52","220",,"6",,,,,,,,,,,,,,,,,,,,,,,,,,,,,,,,,,,,,"MET13903/13/20 10:56:02 METAR KHPN 131556Z 22005KT 1/2SM R16/4000V5000FT FG VV001 12/11 A2974 RMK SFC VIS 1 AO2 DZE53 SLP074 P0000 T01170111 (RV)","FM-15","7",,,,,,,,,,,,,,,,,,,,,,,,,,,,"2009-05-22"
"72503794745","2020-03-13T11:54:00","FM-16","6",,,,,,,,,,,,,,,,,,,,,,,,,,,,,,,,,,,,,,"29.74","54","55",,"BR:1 ||",,,"94",,"OVC:08 3","29.31","1.25","54","240",,"9",,,,,,,,,,,,,,,,,,,,,,,,,,,,,,,,,,,,,"MET10403/13/20 11:54:02 SPECI KHPN 131654Z 24008KT 1 1/4SM BR OVC003 13/12 A2974 RMK AO2 CIG 002V006 FIBI (RV)","FM-16","6",,,,,,,,,,,,,,,,,,,,,,,,,,,,"2009-05-22"
"72503794745","2020-03-13T11:56:00","FM-15","7",,,,,,,,,,,,,,,,,,,,,,,,,,,,,,,,,,,,,,"29.74","54","55","0.00","BR:1 ||",,,"96","29.75","OVC:08 3","29.31","1.25","54","250","17","9",,,,,,,,,,,,,,,,,,,,,,,,,,,,,,,,,,,,,"MET11903/13/20 11:56:02 METAR KHPN 131656Z 25008G15KT 1 1/4SM BR OVC003 13/12 A2974 RMK AO2 CIG 002V006 SLP074 T01280122 (RV)","FM-15","7",,,,,,,,,,,,,,,,,,,,,,,,,,,,"2009-05-22"
"72503794745","2020-03-13T12:14:00","FM-16","7",,,,,,,,,,,,,,,,,,,,,,,,,,,,,,,,,,,,,,"29.73","55","57",,,,,"93",,"SCT:04 6 BKN:07 12","29.31","8.00","56","VRB","18","10",,,,,,,,,,,,,,,,,,,,,,,,,,,,,,,,,,,,,"MET10003/13/20 12:14:02 SPECI KHPN 131714Z 25009G16KT 8SM SCT006 BKN012 14/13 A2973 RMK AO2 T01390128 (RV)","FM-16","7",,,,,,,,,,,,,,,,,,,,,,,,,,,,"2009-05-22"
"72503794745","2020-03-13T12:54:00","FM-16","6",,,,,,,,,,,,,,,,,,,,,,,,,,,,,,,,,,,,,,"29.72","54","61",,,,,"77",,"SCT:04 16","29.30","10.00","57","VRB","22","9",,,,,,,,,,,,,,,,,,,,,,,,,,,,,,,,,,,,,"MET08903/13/20 12:54:02 SPECI KHPN 131754Z 25008G19KT 10SM SCT016 16/12 A2972 RMK AO2 FIBI (RV)","FM-16","6",,,,,,,,,,,,,,,,,,,,,,,,,,,,"2009-05-22"
"72503794745","2020-03-13T12:56:00","FM-15","7",,,,,,,,,,,,,,,,,,,,,,,,,,,,,,,,,,,,,,"29.72","53","61","0.00",,"+0.04","8","75","29.72","SCT:04 16","29.30","10.00","57","VRB","22","13",,,,,,,,,,,,,,,,,,,,,,,,,,,,,,,,,,,,,"MET12503/13/20 12:56:02 METAR KHPN 131756Z 26011G19KT 10SM SCT016 16/12 A2972 RMK AO2 SLP065 60010 T01610117 10161 20083 58015 (RV)","FM-15","7",,,,,,,,,,,,,,,,,,,,,,,,,,,,"2009-05-22"
"72503794745","2020-03-13T13:56:00","FM-15","7",,,,,,,,,,,,,,,,,,,,,,,,,,,,,,,,,,,,,,"29.71","51","65","0.00",,,,"61","29.71","SCT:04 31","29.28","10.00","57","260","21","10",,,,,,,,,,,,,,,,,,,,,,,,,,,,,,,,,,,,,"MET11903/13/20 13:56:02 METAR KHPN 131856Z 26009G18KT 10SM SCT031 18/11 A2971 RMK AO2 PK WND 28026/1845 SLP061 T01830106 (RV)","FM-15","7",,,,,,,,,,,,,,,,,,,,,,,,,,,,"2009-05-22"
"72503794745","2020-03-13T14:56:00","FM-15","7",,,,,,,,,,,,,,,,,,,,,,,,,,,,,,,,,,,,,,"29.73","46","68","0.00",,,,"45","29.73","FEW:02 50 SCT:04 60","29.31","10.00","56","270","33","17",,,,,,,,,,,,,,,,,,,,,,,,,,,,,,,,,,,,,"MET12603/13/20 14:56:02 METAR KHPN 131956Z 27015G29KT 10SM FEW050 SCT060 20/08 A2973 RMK AO2 PK WND 27029/1950 SLP068 T02000078 (RV)","FM-15","7",,,,,,,,,,,,,,,,,,,,,,,,,,,,"2009-05-22"
"72503794745","2020-03-13T15:56:00","FM-15","7",,,,,,,,,,,,,,,,,,,,,,,,,,,,,,,,,,,,,,"29.75","39","68","0.00",,"-0.03","3","35","29.75","SCT:04 70","29.33","10.00","53","270","26","16",,,,,,,,,,,,,,,,,,,,,,,,,,,,,,,,,,,,,"MET12503/13/20 15:56:02 METAR KHPN 132056Z 27014G23KT 10SM SCT070 20/04 A2975 RMK AO2 PK WND 27028/2025 SLP074 T02000039 53010 (RV)","FM-15","7",,,,,,,,,,,,,,,,,,,,,,,,,,,,"2009-05-22"
"72503794745","2020-03-13T16:56:00","FM-15","7",,,,,,,,,,,,,,,,,,,,,,,,,,,,,,,,,,,,,,"29.78","19","66","0.00",,,,"16","29.78","FEW:02 60","29.36","10.00","46","270","36","15",,,,,,,,,,,,,,,,,,,,,,,,,,,,,,,,,,,,,"MET12003/13/20 16:56:02 METAR KHPN 132156Z 27013G31KT 10SM FEW060 19/M07 A2978 RMK AO2 PK WND 29033/2132 SLP085 T01891072 (RV)","FM-15","7",,,,,,,,,,,,,,,,,,,,,,,,,,,,"2009-05-22"
"72503794745","2020-03-13T17:56:00","FM-15","7",,,,,,,,,,,,,,,,,,,,,,,,,,,,,,,,,,,,,,"29.84","16s","62","0.00",,,,"17","29.84","CLR:00","29.41","10.00","44","270","25","15",,,,,,,,,,,,,,,,,,,,,,,,,,,,,,,,,,,,,"MET11703/13/20 17:56:02 METAR KHPN 132256Z 27013G22KT 10SM CLR 17/M09 A2984 RMK AO2 PK WND 28029/2229 SLP106 T01671089 (RV)","FM-15","7",,,,,,,,,,,,,,,,,,,,,,,,,,,,"2009-05-22"
"72503794745","2020-03-13T18:56:00","FM-15","7",,,,,,,,,,,,,,,,,,,,,,,,,,,,,,,,,,,,,,"29.89","16s","59","0.00",,"-0.14","3","18","29.89","CLR:00","29.46","10.00","42","270","21","9",,,,,,,,,,,,,,,,,,,,,,,,,,,,,,,,,,,,,"MET11703/13/20 18:56:02 METAR KHPN 132356Z 27008G18KT 10SM CLR 15/M09 A2989 RMK AO2 SLP123 T01501089 10200 20150 53048 (JR)","FM-15","7",,,,,,,,,,,,,,,,,,,,,,,,,,,,"2009-05-22"
"72503794745","2020-03-13T19:56:00","FM-15","7",,,,,,,,,,,,,,,,,,,,,,,,,,,,,,,,,,,,,,"29.95","21","55","0.00",,,,"26","29.96","CLR:00","29.52","10.00","41","300",,"18",,,,,,,,,,,,,,,,,,,,,,,,,,,,,,,,,,,,,"MET09103/13/20 19:56:01 METAR KHPN 140056Z 30016KT 10SM CLR 13/M06 A2995 RMK AO2 SLP144 T01281061","FM-15","7",,,,,,,,,,,,,,,,,,,,,,,,,,,,"2009-05-22"
"72503794745","2020-03-13T20:56:00","FM-15","7",,,,,,,,,,,,,,,,,,,,,,,,,,,,,,,,,,,,,,"30.00","19","53","0.00",,,,"26","30.00","CLR:00","29.57","10.00","40","300",,"13",,,,,,,,,,,,,,,,,,,,,,,,,,,,,,,,,,,,,"MET09103/13/20 20:56:01 METAR KHPN 140156Z 30011KT 10SM CLR 12/M07 A3000 RMK AO2 SLP159 T01171072","FM-15","7",,,,,,,,,,,,,,,,,,,,,,,,,,,,"2009-05-22"
"72503794745","2020-03-13T21:56:00","FM-15","7",,,,,,,,,,,,,,,,,,,,,,,,,,,,,,,,,,,,,,"30.05","23","49","0.00",,"-0.16","1","36","30.06","CLR:00","29.62","10.00","39","320","29","20",,,,,,,,,,,,,,,,,,,,,,,,,,,,,,,,,,,,,"MET11803/13/20 21:56:02 METAR KHPN 140256Z 32017G25KT 10SM CLR 09/M05 A3005 RMK AO2 PK WND 34026/0230 SLP179 T00941050 51054","FM-15","7",,,,,,,,,,,,,,,,,,,,,,,,,,,,"2009-05-22"
"72503794745","2020-03-13T22:56:00","FM-15","7",,,,,,,,,,,,,,,,,,,,,,,,,,,,,,,,,,,,,,"30.10","21","46","0.00",,,,"37","30.10","CLR:00","29.67","10.00","36","310","24","15",,,,,,,,,,,,,,,,,,,,,,,,,,,,,,,,,,,,,"MET11203/13/20 22:56:02 METAR KHPN 140356Z 31013G21KT 10SM CLR 08/M06 A3010 RMK AO2 PK WND 31027/0334 SLP194 T00781061","FM-15","7",,,,,,,,,,,,,,,,,,,,,,,,,,,,"2009-05-22"
"72503794745","2020-03-13T23:56:00","FM-15","7",,,,,,,,,,,,,,,,,,,,,,,,,,,,,,,,,,,,,,"30.12","18","44","0.00",,,,"35","30.13","CLR:00","29.69","10.00","35","310","28","17",,,,,,,,,,,,,,,,,,,,,,,,,,,,,,,,,,,,,"MET12203/13/20 23:56:02 METAR KHPN 140456Z 31015G24KT 10SM CLR 07/M08 A3012 RMK AO2 PK WND 30029/0424 SLP202 T00671078 402000050","FM-15","7",,,,,,,,,,,,,,,,,,,,,,,,,,,,"2009-05-22"
"72503794745","2020-03-13T23:59:00","SOD  ","6",,,,,,,,,,,,,,,,"55",,,"29.44",,"12.1","0","18.1","10","68","41","290","38","0.34",,,"310","25","RA DZ FG BR",,,,,,,,,,,,,,,,,,,,,,,,,,,,,,,,,,,,,,,,,,,,,,,,,,,,,,,,"SOD73024 HR PRECIPITATION (IN):0.34  24 HR MAX TEMP (F):68 24 HR MAX TEMP TIME (LST):1624 24 HR MIN TEMP (F):41 24 HR MIN TEMP TIME (LST):0055 AVERAGE STATION PRESSURE:29.445 MINIMUM SEA LEVEL PRESSURE:29.71 TIME OF OCCURRENCE:1435 PEAK WIND SPEED (MPH):38  PEAK WIND DIR (DEG):290 PEAK WIND TIME (LST):1632  FASTEST 2MIN SPEED (MPH):25 FASTEST 2MIN DIR (DEG):310 FASTEST 2MIN TIME (LST):2339 AVERAGE WIND SPEED (MPH):12.1 24 HR AVG TEMP (F):55 HEATING DEGREE DAYS:10  COOLING DEGREE DAYS:0   LATEST DAY MAX TEMP (0700-1900 LST):68  LATEST NIGHT MIN TEMP(1900-0800 LST):41 HOURLY INCREMENTAL PRECIPITATION VALUES (IN):.01 T    T    T    T    0.07 0.16 0.03 0.04 0.03 T    0.00 0.00 0.00 0.00 0.00 0.00 0.00 0.00 0.00 0.00 0.00 0.00 0.00","SOD  ","6",,,,,,,,,,,,,,,,,,,,,,,,,"0609","1800",,"2009-05-22"
"72503794745","2020-03-14T00:56:00","FM-15","6",,,,,,,,,,,,,,,,,,,,,,,,,,,,,,,,,,,,,,"30.14","19","43","0.00",,"-0.09","1","38","30.15","CLR:00","29.71","10.00","34","300","28","21",,,,,,,,,,,,,,,,,,,,,,,,,,,,,,,,,,,,,"MET13503/14/20 00:56:02 METAR KHPN 140556Z 30018G24KT 10SM CLR 06/M07 A3014 RMK AO2 PK WND 29027/0522 SLP209 T00611072 10156 20061 51031 (EC)","FM-15","6",,,,,,,,,,,,,,,,,,,,,,,,,,,,"2009-05-22"
"72503794745","2020-03-14T01:56:00","FM-15","6",,,,,,,,,,,,,,,,,,,,,,,,,,,,,,,,,,,,,,"30.16","18","43","0.00",,,,"37","30.16","CLR:00","29.73","10.00","34","270","21","14",,,,,,,,,,,,,,,,,,,,,,,,,,,,,,,,,,,,,"MET11703/14/20 01:56:02 METAR KHPN 140656Z 27012G18KT 10SM CLR 06/M08 A3016 RMK AO2 PK WND 31030/0558 SLP215 T00611078 (EC)","FM-15","6",,,,,,,,,,,,,,,,,,,,,,,,,,,,"2009-05-22"
"72503794745","2020-03-14T02:56:00","FM-15","6",,,,,,,,,,,,,,,,,,,,,,,,,,,,,,,,,,,,,,"30.16","19","42","0.00",,,,"40","30.16","CLR:00","29.73","10.00","34","280","20","10",,,,,,,,,,,,,,,,,,,,,,,,,,,,,,,,,,,,,"MET09903/14/20 02:56:02 METAR KHPN 140756Z 28009G17KT 10SM CLR 06/M07 A3016 RMK AO2 SLP214 T00561072 (EC)","FM-15","6",,,,,,,,,,,,,,,,,,,,,,,,,,,,"2009-05-22"
"72503794745","2020-03-14T03:56:00","FM-15","6",,,,,,,,,,,,,,,,,,,,,,,,,,,,,,,,,,,,,,"30.17","19","42","0.00",,"-0.03","1","40","30.17","CLR:00","29.74","10.00","34","290",,"14",,,,,,,,,,,,,,,,,,,,,,,,,,,,,,,,,,,,,"MET10203/14/20 03:56:02 METAR KHPN 140856Z 29012KT 10SM CLR 06/M07 A3017 RMK AO2 SLP217 T00561072 51009 (EC)","FM-15","6",,,,,,,,,,,,,,,,,,,,,,,,,,,,"2009-05-22"
"72503794745","2020-03-14T04:56:00","FM-15","6",,,,,,,,,,,,,,,,,,,,,,,,,,,,,,,,,,,,,,"30.20","20","41","0.00",,,,"43","30.20","CLR:00","29.77","10.00","33","280",,"13",,,,,,,,,,,,,,,,,,,,,,,,,,,,,,,,,,,,,"MET09603/14/20 04:56:02 METAR KHPN 140956Z 28011KT 10SM CLR 05/M07 A3020 RMK AO2 SLP227 T00501067 (EC)","FM-15","6",,,,,,,,,,,,,,,,,,,,,,,,,,,,"2009-05-22"
"72503794745","2020-03-14T05:56:00","FM-15","6",,,,,,,,,,,,,,,,,,,,,,,,,,,,,,,,,,,,,,"30.22","21","40","0.00",,,,"47","30.23","CLR:00","29.79","10.00","33","280",,"9",,,,,,,,,,,,,,,,,,,,,,,,,,,,,,,,,,,,,"MET09603/14/20 05:56:02 METAR KHPN 141056Z 28008KT 10SM CLR 04/M06 A3022 RMK AO2 SLP237 T00441061 (EC)","FM-15","6",,,,,,,,,,,,,,,,,,,,,,,,,,,,"2009-05-22"
"72503794745","2020-03-14T06:56:00","FM-15","6",,,,,,,,,,,,,,,,,,,,,,,,,,,,,,,,,,,,,,"30.26","21","40","0.00",,"-0.09","3","47","30.26","CLR:00","29.83","10.00","33","290",,"14",,,,,,,,,,,,,,,,,,,,,,,,,,,,,,,,,,,,,"MET12003/14/20 06:56:02 METAR KHPN 141156Z 29012KT 10SM CLR 04/M06 A3026 RMK AO2 SLP248 70010 T00441061 10061 20039 53029 (EC)","FM-15","6",,,,,,,,,,,,,,,,,,,,,,,,,,,,"2009-05-22"
"72503794745","2020-03-14T07:56:00","FM-15","7",,,,,,,,,,,,,,,,,,,,,,,,,,,,,,,,,,,,,,"30.25","21","42","0.00",,,,"43","30.26","CLR:00","29.82","10.00","34","280","23","14",,,,,,,,,,,,,,,,,,,,,,,,,,,,,,,,,,,,,"MET09903/14/20 07:56:02 METAR KHPN 141256Z 28012G20KT 10SM CLR 06/M06 A3025 RMK AO2 SLP247 T00561061 (ML)","FM-15","7",,,,,,,,,,,,,,,,,,,,,,,,,,,,"2009-05-22"
"72503794745","2020-03-14T08:56:00","FM-15","7",,,,,,,,,,,,,,,,,,,,,,,,,,,,,,,,,,,,,,"30.26","21","43","0.00",,,,"42","30.27","CLR:00","29.83","10.00","35","300",,"23",,,,,,,,,,,,,,,,,,,,,,,,,,,,,,,,,,,,,"MET09603/14/20 08:56:02 METAR KHPN 141356Z 30020KT 10SM CLR 06/M06 A3026 RMK AO2 SLP249 T00611061 (ML)","FM-15","7",,,,,,,,,,,,,,,,,,,,,,,,,,,,"2009-05-22"
"72503794745","2020-03-14T09:56:00","FM-15","7",,,,,,,,,,,,,,,,,,,,,,,,,,,,,,,,,,,,,,"30.28","21","44","0.00",,"-0.02","3","40","30.29","CLR:00","29.85","10.00","35","290","26","17",,,,,,,,,,,,,,,,,,,,,,,,,,,,,,,,,,,,,"MET12303/14/20 09:56:02 METAR KHPN 141456Z 29015G23KT 10SM CLR 07/M06 A3028 RMK AO2 PK WND 30026/1404 SLP256 T00671061 53006 (ML)","FM-15","7",,,,,,,,,,,,,,,,,,,,,,,,,,,,"2009-05-22"
"72503794745","2020-03-14T10:56:00","FM-15","7",,,,,,,,,,,,,,,,,,,,,,,,,,,,,,,,,,,,,,"30.28","22","47","0.00",,,,"37","30.29","CLR:00","29.85","10.00","37","290",,"20",,,,,,,,,,,,,,,,,,,,,,,,,,,,,,,,,,,,,"MET09603/14/20 10:56:02 METAR KHPN 141556Z 29017KT 10SM CLR 08/M06 A3028 RMK AO2 SLP258 T00831056 (ML)","FM-15","7",,,,,,,,,,,,,,,,,,,,,,,,,,,,"2009-05-22"
"72503794745","2020-03-14T11:56:00","FM-15","7",,,,,,,,,,,,,,,,,,,,,,,,,,,,,,,,,,,,,,"30.30","22","48","0.00",,,,"36","30.30","CLR:00","29.87","10.00","38","310",,"11",,,,,,,,,,,,,,,,,,,,,,,,,,,,,,,,,,,,,"MET09603/14/20 11:56:02 METAR KHPN 141656Z 31010KT 10SM CLR 09/M06 A3030 RMK AO2 SLP262 T00891056 (ML)","FM-15","7",,,,,,,,,,,,,,,,,,,,,,,,,,,,"2009-05-22"
"72503794745","2020-03-14T12:56:00","FM-15","7",,,,,,,,,,,,,,,,,,,,,,,,,,,,,,,,,,,,,,"30.29","22","50","0.00",,"-0.01","0","33","30.29","CLR:00","29.86","10.00","39","300","20","13",,,,,,,,,,,,,,,,,,,,,,,,,,,,,,,,,,,,,"MET11703/14/20 12:56:02 METAR KHPN 141756Z 30011G17KT 10SM CLR 10/M06 A3029 RMK AO2 SLP259 T01001056 10100 20044 50003 (ML)","FM-15","7",,,,,,,,,,,,,,,,,,,,,,,,,,,,"2009-05-22"
"72503794745","2020-03-14T13:56:00","FM-15","7",,,,,,,,,,,,,,,,,,,,,,,,,,,,,,,,,,,,,,"30.27","22","50","0.00",,,,"33","30.28","CLR:00","29.84","10.00","39","310","22","14",,,,,,,,,,,,,,,,,,,,,,,,,,,,,,,,,,,,,"MET10103/14/20 13:56:02 METAR KHPN 141856Z 31012G19KT 10SM CLR 10/M06 A3027 RMK AO2 SLP255 T01001056 $ (ML)","FM-15","7",,,,,,,,,,,,,,,,,,,,,,,,,,,,"2009-05-22"
"72503794745","2020-03-14T14:56:00","FM-15","7",,,,,,,,,,,,,,,,,,,,,,,,,,,,,,,,,,,,,,"30.27","22","51","0.00",,,,"32","30.28","CLR:00","29.84","10.00","40","330",,"16",,,,,,,,,,,,,,,,,,,,,,,,,,,,,,,,,,,,,"MET09803/14/20 14:56:02 METAR KHPN 141956Z 33014KT 10SM CLR 11/M06 A3027 RMK AO2 SLP253 T01061056 $ (ML)","FM-15","7",,,,,,,,,,,,,,,,,,,,,,,,,,,,"2009-05-22"
"72503794745","2020-03-14T15:56:00","FM-15","7",,,,,,,,,,,,,,,,,,,,,,,,,,,,,,,,,,,,,,"30.28","22","49","0.00",,"+0.01","5","35","30.29","CLR:00","29.85","10.00","38","300","23","15",,,,,,,,,,,,,,,,,,,,,,,,,,,,,,,,,,,,,"MET10703/14/20 15:56:02 METAR KHPN 142056Z 30013G20KT 10SM CLR 09/M06 A3028 RMK AO2 SLP256 T00941056 55003 $ (ML)","FM-15","7",,,,,,,,,,,,,,,,,,,,,,,,,,,,"2009-05-22"
"72503794745","2020-03-14T16:56:00","FM-15","7",,,,,,,,,,,,,,,,,,,,,,,,,,,,,,,,,,,,,,"30.31","22","48","0.00",,,,"36","30.32","CLR:00","29.88","10.00","38","300",,"14",,,,,,,,,,,,,,,,,,,,,,,,,,,,,,,,,,,,,"MET09303/14/20 16:56:02 METAR KHPN 142156Z 30012KT 10SM CLR 09/M06 A3031 RMK AO2 SLP268 T00891056 $","FM-15","7",,,,,,,,,,,,,,,,,,,,,,,,,,,,"2009-05-22"
"72503794745","2020-03-14T17:56:00","FM-15","7",,,,,,,,,,,,,,,,,,,,,,,,,,,,,,,,,,,,,,"30.30","22","47","0.00",,,,"37","30.32","CLR:00","29.87","10.00","37","320",,"8",,,,,,,,,,,,,,,,,,,,,,,,,,,,,,,,,,,,,"MET09803/14/20 17:56:02 METAR KHPN 142256Z 32007KT 10SM CLR 08/M06 A3030 RMK AO2 SLP266 T00831056 $ (TC)","FM-15","7",,,,,,,,,,,,,,,,,,,,,,,,,,,,"2009-05-22"
"72503794745","2020-03-14T18:56:00","FM-15","7",,,,,,,,,,,,,,,,,,,,,,,,,,,,,,,,,,,,,,"30.30","23","46","0.00",,"-0.02","0","40","30.31","BKN:07 120","29.87","10.00","37","300",,"11",,,,,,,,,,,,,,,,,,,,,,,,,,,,,,,,,,,,,"MET11903/14/20 18:56:02 METAR KHPN 142356Z 30010KT 10SM BKN120 08/M05 A3030 RMK AO2 SLP265 T00781050 10111 20078 50008 $ (TC)","FM-15","7",,,,,,,,,,,,,,,,,,,,,,,,,,,,"2009-05-22"
"72503794745","2020-03-14T19:56:00","FM-15","7",,,,,,,,,,,,,,,,,,,,,,,,,,,,,,,,,,,,,,"30.34","22","45","0.00",,,,"40","30.35","BKN:07 110","29.91","10.00","36","300",,"13",,,,,,,,,,,,,,,,,,,,,,,,,,,,,,,,,,,,,"MET09603/14/20 19:56:01 METAR KHPN 150056Z 30011KT 10SM BKN110 07/M06 A3034 RMK AO2 SLP277 T00721056 $","FM-15","7",,,,,,,,,,,,,,,,,,,,,,,,,,,,"2009-05-22"
"72503794745","2020-03-14T20:56:00","FM-15","7",,,,,,,,,,,,,,,,,,,,,,,,,,,,,,,,,,,,,,"30.35","23","44","0.00",,,,"43","30.36","BKN:07 85 OVC:08 110","29.92","10.00","36","300",,"11",,,,,,,,,,,,,,,,,,,,,,,,,,,,,,,,,,,,,"MET10303/14/20 20:56:01 METAR KHPN 150156Z 30010KT 10SM BKN085 OVC110 07/M05 A3035 RMK AO2 SLP282 T00671050 $","FM-15","7",,,,,,,,,,,,,,,,,,,,,,,,,,,,"2009-05-22"
"72503794745","2020-03-14T21:56:00","FM-15","7",,,,,,,,,,,,,,,,,,,,,,,,,,,,,,,,,,,,,,"30.35","23","43","0.00",,"-0.05","1","45","30.36","BKN:07 100","29.92","10.00","35","330",,"14",,,,,,,,,,,,,,,,,,,,,,,,,,,,,,,,,,,,,"MET10203/14/20 21:56:01 METAR KHPN 150256Z 33012KT 10SM BKN100 06/M05 A3035 RMK AO2 SLP282 T00611050 51016 $","FM-15","7",,,,,,,,,,,,,,,,,,,,,,,,,,,,"2009-05-22"
"72503794745","2020-03-14T22:56:00","FM-15","7",,,,,,,,,,,,,,,,,,,,,,,,,,,,,,,,,,,,,,"30.35","24","43","0.00",,,,"47","30.37","OVC:08 90","29.92","10.00","36","320",,"11",,,,,,,,,,,,,,,,,,,,,,,,,,,,,,,,,,,,,"MET09603/14/20 22:56:02 METAR KHPN 150356Z 32010KT 10SM OVC090 06/M04 A3035 RMK AO2 SLP283 T00611044 $","FM-15","7",,,,,,,,,,,,,,,,,,,,,,,,,,,,"2009-05-22"
"72503794745","2020-03-14T23:56:00","FM-15","7",,,,,,,,,,,,,,,,,,,,,,,,,,,,,,,,,,,,,,"30.36","24","42","0.00",,,,"49","30.37","OVC:08 90","29.93","10.00","35","350",,"13",,,,,,,,,,,,,,,,,,,,,,,,,,,,,,,,,,,,,"MET10603/14/20 23:56:02 METAR KHPN 150456Z 35011KT 10SM OVC090 06/M04 A3036 RMK AO2 SLP285 T00561044 401110039 $","FM-15","7",,,,,,,,,,,,,,,,,,,,,,,,,,,,"2009-05-22"
"72503794745","2020-03-14T23:59:00","SOD  ","6",,,,,,,,,,,,,,,,"46",,,"29.81",,"13.8","0","8.8","19","52","39","310","35","0.00",,,"300","26",,,,,,,,,,,,,,,,,,,,,,,,,,,,,,,,,,,,,,,,,,,,,,,,,,,,,,,,,"SOD73024 HR PRECIPITATION (IN):0.00  24 HR MAX TEMP (F):52 24 HR MAX TEMP TIME (LST):1509 24 HR MIN TEMP (F):39 24 HR MIN TEMP TIME (LST):0627 AVERAGE STATION PRESSURE:29.810 MINIMUM SEA LEVEL PRESSURE:30.13 TIME OF OCCURRENCE:0015 PEAK WIND SPEED (MPH):35  PEAK WIND DIR (DEG):310 PEAK WIND TIME (LST):0058  FASTEST 2MIN SPEED (MPH):26 FASTEST 2MIN DIR (DEG):300 FASTEST 2MIN TIME (LST):0059 AVERAGE WIND SPEED (MPH):13.8 24 HR AVG TEMP (F):46 HEATING DEGREE DAYS:19  COOLING DEGREE DAYS:0   LATEST DAY MAX TEMP (0700-1900 LST):52  LATEST NIGHT MIN TEMP(1900-0800 LST):39 HOURLY INCREMENTAL PRECIPITATION VALUES (IN):.00 0.00 0.00 0.00 0.00 0.00 0.00 0.00 0.00 0.00 0.00 0.00 0.00 0.00 0.00 0.00 0.00 0.00 0.00 0.00 0.00 0.00 0.00 0.00","SOD  ","6",,,,,,,,,,,,,,,,,,,,,,,,,"0607","1801",,"2009-05-22"
"72503794745","2020-03-15T00:56:00","FM-15","7",,,,,,,,,,,,,,,,,,,,,,,,,,,,,,,,,,,,,,"30.36","24","41","0.00",,"-0.01","1","51","30.37","BKN:07 70 BKN:07 90 OVC:08 110","29.93","10.00","35","340",,"9",,,,,,,,,,,,,,,,,,,,,,,,,,,,,,,,,,,,,"MET13303/15/20 00:56:02 METAR KHPN 150556Z 34008KT 10SM BKN070 BKN090 OVC110 05/M04 A3036 RMK AO2 SLP284 T00501044 10078 20044 51004 $ (EC)","FM-15","7",,,,,,,,,,,,,,,,,,,,,,,,,,,,"2009-05-22"
"72503794745","2020-03-15T01:56:00","FM-15","7",,,,,,,,,,,,,,,,,,,,,,,,,,,,,,,,,,,,,,"30.35","23","40","0.00",,,,"51","30.36","BKN:07 80 OVC:08 90","29.92","10.00","34","340",,"7",,,,,,,,,,,,,,,,,,,,,,,,,,,,,,,,,,,,,"MET10803/15/20 01:56:02 METAR KHPN 150656Z 34006KT 10SM BKN080 OVC090 04/M05 A3035 RMK AO2 SLP282 T00441050 $ (EC)","FM-15","7",,,,,,,,,,,,,,,,,,,,,,,,,,,,"2009-05-22"
"72503794745","2020-03-15T02:56:00","FM-15","7",,,,,,,,,,,,,,,,,,,,,,,,,,,,,,,,,,,,,,"30.34","23","39","0.00",,,,"53","30.35","BKN:07 80 OVC:08 100","29.91","10.00","33","320",,"3",,,,,,,,,,,,,,,,,,,,,,,,,,,,,,,,,,,,,"MET10803/15/20 02:56:02 METAR KHPN 150756Z 32003KT 10SM BKN080 OVC100 04/M05 A3034 RMK AO2 SLP277 T00391050 $ (EC)","FM-15","7",,,,,,,,,,,,,,,,,,,,,,,,,,,,"2009-05-22"
"72503794745","2020-03-15T03:56:00","FM-15","7",,,,,,,,,,,,,,,,,,,,,,,,,,,,,,,,,,,,,,"30.35","24","38","0.00",,"+0.01","5","57","30.36","BKN:07 90","29.92","10.00","33","330",,"3",,,,,,,,,,,,,,,,,,,,,,,,,,,,,,,,,,,,,"MET10703/15/20 03:56:02 METAR KHPN 150856Z 33003KT 10SM BKN090 03/M04 A3035 RMK AO2 SLP282 T00331044 55004 $ (AF)","FM-15","7",,,,,,,,,,,,,,,,,,,,,,,,,,,,"2009-05-22"
"72503794745","2020-03-15T04:56:00","FM-15","7",,,,,,,,,,,,,,,,,,,,,,,,,,,,,,,,,,,,,,"30.38","24","38","0.00",,,,"57","30.39","BKN:07 90","29.95","10.00","33","330",,"6",,,,,,,,,,,,,,,,,,,,,,,,,,,,,,,,,,,,,"MET10103/15/20 04:56:02 METAR KHPN 150956Z 33005KT 10SM BKN090 03/M04 A3038 RMK AO2 SLP292 T00331044 $ (AF)","FM-15","7",,,,,,,,,,,,,,,,,,,,,,,,,,,,"2009-05-22"
"72503794745","2020-03-15T05:56:00","FM-15","7",,,,,,,,,,,,,,,,,,,,,,,,,,,,,,,,,,,,,,"30.40","23","38","0.00",,,,"55","30.41","BKN:07 100","29.97","10.00","32","330",,"7",,,,,,,,,,,,,,,,,,,,,,,,,,,,,,,,,,,,,"MET10103/15/20 05:56:02 METAR KHPN 151056Z 33006KT 10SM BKN100 03/M05 A3040 RMK AO2 SLP299 T00331050 $ (AF)","FM-15","7",,,,,,,,,,,,,,,,,,,,,,,,,,,,"2009-05-22"
"72503794745","2020-03-15T06:56:00","FM-15","7",,,,,,,,,,,,,,,,,,,,,,,,,,,,,,,,,,,,,,"30.42","23","38","0.00",,"-0.07","1","55","30.44","BKN:07 95","29.99","10.00","32","340",,"7",,,,,,,,,,,,,,,,,,,,,,,,,,,,,,,,,,,,,"MET11903/15/20 06:56:02 METAR KHPN 151156Z 34006KT 10SM BKN095 03/M05 A3042 RMK AO2 SLP308 T00331050 10050 20028 51025 $ (AF)","FM-15","7",,,,,,,,,,,,,,,,,,,,,,,,,,,,"2009-05-22"
"72503794745","2020-03-15T07:56:00","FM-15","7",,,,,,,,,,,,,,,,,,,,,,,,,,,,,,,,,,,,,,"30.44","23","39","0.00",,,,"53","30.45","BKN:07 95","30.01","10.00","33","340",,"11",,,,,,,,,,,,,,,,,,,,,,,,,,,,,,,,,,,,,"MET10103/15/20 07:56:02 METAR KHPN 151256Z 34010KT 10SM BKN095 04/M05 A3044 RMK AO2 SLP313 T00391050 $ (AF)","FM-15","7",,,,,,,,,,,,,,,,,,,,,,,,,,,,"2009-05-22"
"72503794745","2020-03-15T08:56:00","FM-15","7",,,,,,,,,,,,,,,,,,,,,,,,,,,,,,,,,,,,,,"30.44","22","42","0.00",,,,"45","30.45","SCT:04 100","30.01","10.00","35","010",,"11",,,,,,,,,,,,,,,,,,,,,,,,,,,,,,,,,,,,,"MET10103/15/20 08:56:02 METAR KHPN 151356Z 01010KT 10SM SCT100 06/M06 A3044 RMK AO2 SLP313 T00561056 $ (AF)","FM-15","7",,,,,,,,,,,,,,,,,,,,,,,,,,,,"2009-05-22"
"72503794745","2020-03-15T09:56:00","FM-15","7",,,,,,,,,,,,,,,,,,,,,,,,,,,,,,,,,,,,,,"30.44","20","44","0.00",,"-0.02","1","38","30.46","SCT:04 100","30.01","10.00","35","340","20","16",,,,,,,,,,,,,,,,,,,,,,,,,,,,,,,,,,,,,"MET11003/15/20 09:56:02 METAR KHPN 151456Z 34014G17KT 10SM SCT100 07/M07 A3044 RMK AO2 SLP314 T00671067 51007 $ (AF)","FM-15","7",,,,,,,,,,,,,,,,,,,,,,,,,,,,"2009-05-22"
"72503794745","2020-03-15T10:56:00","FM-15","7",,,,,,,,,,,,,,,,,,,,,,,,,,,,,,,,,,,,,,"30.44","19","46","0.00",,,,"34","30.45","SCT:04 100","30.01","10.00","36","360",,"13",,,,,,,,,,,,,,,,,,,,,,,,,,,,,,,,,,,,,"MET10103/15/20 10:56:02 METAR KHPN 151556Z 36011KT 10SM SCT100 08/M07 A3044 RMK AO2 SLP312 T00781072 $ (AF)","FM-15","7",,,,,,,,,,,,,,,,,,,,,,,,,,,,"2009-05-22"
"72503794745","2020-03-15T11:56:00","FM-15","7",,,,,,,,,,,,,,,,,,,,,,,,,,,,,,,,,,,,,,"30.43","19","48","0.00",,,,"32","30.44","CLR:00","30.00","10.00","37","VRB",,"9",,,,,,,,,,,,,,,,,,,,,,,,,,,,,,,,,,,,,"MET09803/15/20 11:56:02 METAR KHPN 151656Z 33008KT 10SM CLR 09/M07 A3043 RMK AO2 SLP309 T00891072 $ (AF)","FM-15","7",,,,,,,,,,,,,,,,,,,,,,,,,,,,"2009-05-22"
"72503794745","2020-03-15T12:56:00","FM-15","7",,,,,,,,,,,,,,,,,,,,,,,,,,,,,,,,,,,,,,"30.41","19","48","0.00",,"+0.04","8","32","30.42","CLR:00","29.98","10.00","37","VRB",,"5",,,,,,,,,,,,,,,,,,,,,,,,,,,,,,,,,,,,,"MET11103/15/20 12:56:02 METAR KHPN 151756Z VRB04KT 10SM CLR 09/M07 A3041 RMK AO2 SLP302 T00891072 10094 20033 58012 $","FM-15","7",,,,,,,,,,,,,,,,,,,,,,,,,,,,"2009-05-22"
"72503794745","2020-03-15T13:56:00","FM-15","7",,,,,,,,,,,,,,,,,,,,,,,,,,,,,,,,,,,,,,"30.39","14","50","0.00",,,,"24","30.40","FEW:02 30","29.96","10.00","37","360","22","15",,,,,,,,,,,,,,,,,,,,,,,,,,,,,,,,,,,,,"MET10403/15/20 13:56:02 METAR KHPN 151856Z 36013G19KT 10SM FEW030 10/M10 A3039 RMK AO2 SLP295 T01001100 $ (AH)","FM-15","7",,,,,,,,,,,,,,,,,,,,,,,,,,,,"2009-05-22"
"72503794745","2020-03-15T14:56:00","FM-15","7",,,,,,,,,,,,,,,,,,,,,,,,,,,,,,,,,,,,,,"30.39","14","50","0.00",,,,"24","30.40","CLR:00","29.96","10.00","37","350",,"14",,,,,,,,,,,,,,,,,,,,,,,,,,,,,,,,,,,,,"MET09803/15/20 14:56:02 METAR KHPN 151956Z 35012KT 10SM CLR 10/M10 A3039 RMK AO2 SLP296 T01001100 $ (AH)","FM-15","7",,,,,,,,,,,,,,,,,,,,,,,,,,,,"2009-05-22"
"72503794745","2020-03-15T15:56:00","FM-15","7",,,,,,,,,,,,,,,,,,,,,,,,,,,,,,,,,,,,,,"30.39","14","50","0.00",,"+0.01","5","24","30.40","CLR:00","29.96","10.00","37","350",,"9",,,,,,,,,,,,,,,,,,,,,,,,,,,,,,,,,,,,,"MET10403/15/20 15:56:02 METAR KHPN 152056Z 35008KT 10SM CLR 10/M10 A3039 RMK AO2 SLP296 T01001100 55005 $ (AH)","FM-15","7",,,,,,,,,,,,,,,,,,,,,,,,,,,,"2009-05-22"
"72503794745","2020-03-15T16:56:00","FM-15","7",,,,,,,,,,,,,,,,,,,,,,,,,,,,,,,,,,,,,,"30.39","14","49","0.00",,,,"25","30.40","CLR:00","29.96","10.00","36","030",,"10",,,,,,,,,,,,,,,,,,,,,,,,,,,,,,,,,,,,,"MET09803/15/20 16:56:02 METAR KHPN 152156Z 03009KT 10SM CLR 09/M10 A3039 RMK AO2 SLP295 T00941100 $ (AH)","FM-15","7",,,,,,,,,,,,,,,,,,,,,,,,,,,,"2009-05-22"
"72503794745","2020-03-15T17:56:00","FM-15","7",,,,,,,,,,,,,,,,,,,,,,,,,,,,,,,,,,,,,,"30.41","11","46","0.00",,,,"24","30.43","CLR:00","29.98","10.00","34","360",,"6",,,,,,,,,,,,,,,,,,,,,,,,,,,,,,,,,,,,,"MET09803/15/20 17:56:02 METAR KHPN 152256Z 36005KT 10SM CLR 08/M12 A3041 RMK AO2 SLP304 T00781117 $ (AH)","FM-15","7",,,,,,,,,,,,,,,,,,,,,,,,,,,,"2009-05-22"
"72503794745","2020-03-15T18:56:00","FM-15","7",,,,,,,,,,,,,,,,,,,,,,,,,,,,,,,,,,,,,,"30.44","9","44","0.00",,"-0.05","3","24","30.46","CLR:00","30.01","10.00","33","010",,"8",,,,,,,,,,,,,,,,,,,,,,,,,,,,,,,,,,,,,"MET11603/15/20 18:56:02 METAR KHPN 152356Z 01007KT 10SM CLR 07/M13 A3044 RMK AO2 SLP314 T00671128 10106 20067 53016 $ (AH)","FM-15","7",,,,,,,,,,,,,,,,,,,,,,,,,,,,"2009-05-22"
"72503794745","2020-03-15T19:56:00","FM-15","7",,,,,,,,,,,,,,,,,,,,,,,,,,,,,,,,,,,,,,"30.46","8","42","0.00",,,,"24","30.48","CLR:00","30.03","10.00","31","010",,"7",,,,,,,,,,,,,,,,,,,,,,,,,,,,,,,,,,,,,"MET09303/15/20 19:56:01 METAR KHPN 160056Z 01006KT 10SM CLR 06/M13 A3046 RMK AO2 SLP321 T00561133 $","FM-15","7",,,,,,,,,,,,,,,,,,,,,,,,,,,,"2009-05-22"
"72503794745","2020-03-15T20:56:00","FM-15","7",,,,,,,,,,,,,,,,,,,,,,,,,,,,,,,,,,,,,,"30.47","10","39","0.00",,,,"30","30.49","CLR:00","30.04","10.00","30","350",,"10",,,,,,,,,,,,,,,,,,,,,,,,,,,,,,,,,,,,,"MET09303/15/20 20:56:01 METAR KHPN 160156Z 35009KT 10SM CLR 04/M12 A3047 RMK AO2 SLP325 T00391122 $","FM-15","7",,,,,,,,,,,,,,,,,,,,,,,,,,,,"2009-05-22"
"72503794745","2020-03-15T21:56:00","FM-15","7",,,,,,,,,,,,,,,,,,,,,,,,,,,,,,,,,,,,,,"30.49","8","38","0.00",,"-0.05","1","29","30.51","CLR:00","30.06","10.00","29","360",,"6",,,,,,,,,,,,,,,,,,,,,,,,,,,,,,,,,,,,,"MET09903/15/20 21:56:01 METAR KHPN 160256Z 36005KT 10SM CLR 03/M13 A3049 RMK AO2 SLP331 T00331133 51018 $","FM-15","7",,,,,,,,,,,,,,,,,,,,,,,,,,,,"2009-05-22"
"72503794745","2020-03-15T22:56:00","FM-15","7",,,,,,,,,,,,,,,,,,,,,,,,,,,,,,,,,,,,,,"30.51","9","35","0.00",,,,"34","30.53","CLR:00","30.08","10.00","27","340",,"10",,,,,,,,,,,,,,,,,,,,,,,,,,,,,,,,,,,,,"MET09303/15/20 22:56:02 METAR KHPN 160356Z 34009KT 10SM CLR 02/M13 A3051 RMK AO2 SLP337 T00171128 $","FM-15","7",,,,,,,,,,,,,,,,,,,,,,,,,,,,"2009-05-22"
"72503794745","2020-03-15T23:56:00","FM-15","7",,,,,,,,,,,,,,,,,,,,,,,,,,,,,,,,,,,,,,"30.52","9","34","0.00",,,,"35","30.54","CLR:00","30.09","10.00","27","350",,"8",,,,,,,,,,,,,,,,,,,,,,,,,,,,,,,,,,,,,"MET10303/15/20 23:56:02 METAR KHPN 160456Z 35007KT 10SM CLR 01/M13 A3052 RMK AO2 SLP341 T00111128 401060011 $","FM-15","7",,,,,,,,,,,,,,,,,,,,,,,,,,,,"2009-05-22"
"72503794745","2020-03-15T23:59:00","SOD  ","6",,,,,,,,,,,,,,,,"43",,,"29.97",,"8.8","0","5.5","22","51","34","330","23","0.00",,,"350","17",,,,,,,,,,,,,,,,,,,,,,,,,,,,,,,,,,,,,,,,,,,,,,,,,,,,,,,,,"SOD73024 HR PRECIPITATION (IN):0.00  24 HR MAX TEMP (F):51 24 HR MAX TEMP TIME (LST):1613 24 HR MIN TEMP (F):34 24 HR MIN TEMP TIME (LST):2357 AVERAGE STATION PRESSURE:29.970 MINIMUM SEA LEVEL PRESSURE:30.34 TIME OF OCCURRENCE:0237 PEAK WIND SPEED (MPH):23  PEAK WIND DIR (DEG):330 PEAK WIND TIME (LST):1103  FASTEST 2MIN SPEED (MPH):17 FASTEST 2MIN DIR (DEG):350 FASTEST 2MIN TIME (LST):1427 AVERAGE WIND SPEED (MPH):8.8  24 HR AVG TEMP (F):43 HEATING DEGREE DAYS:22  COOLING DEGREE DAYS:0   LATEST DAY MAX TEMP (0700-1900 LST):51  LATEST NIGHT MIN TEMP(1900-0800 LST):37 HOURLY INCREMENTAL PRECIPITATION VALUES (IN):.00 0.00 0.00 0.00 0.00 0.00 0.00 0.00 0.00 0.00 0.00 0.00 0.00 0.00 0.00 0.00 0.00 0.00 0.00 0.00 0.00 0.00 0.00 0.00","SOD  ","6",,,,,,,,,,,,,,,,,,,,,,,,,"0605","1802",,"2009-05-22"
"72503794745","2020-03-16T00:56:00","FM-15","7",,,,,,,,,,,,,,,,,,,,,,,,,,,,,,,,,,,,,,"30.53","10","33","0.00",,"-0.04","1","38","30.55","CLR:00","30.10","10.00","26","030",,"6",,,,,,,,,,,,,,,,,,,,,,,,,,,,,,,,,,,,,"MET11603/16/20 00:56:02 METAR KHPN 160556Z 03005KT 10SM CLR 01/M12 A3053 RMK AO2 SLP346 T00061122 10067 20006 51014 $ (EC)","FM-15","7",,,,,,,,,,,,,,,,,,,,,,,,,,,,"2009-05-22"
"72503794745","2020-03-16T01:56:00","FM-15","7",,,,,,,,,,,,,,,,,,,,,,,,,,,,,,,,,,,,,,"30.54","11","32","0.00",,,,"41","30.56","CLR:00","30.11","10.00","26","020",,"5",,,,,,,,,,,,,,,,,,,,,,,,,,,,,,,,,,,,,"MET09803/16/20 01:56:02 METAR KHPN 160656Z 02004KT 10SM CLR 00/M12 A3054 RMK AO2 SLP348 T00001117 $ (EC)","FM-15","7",,,,,,,,,,,,,,,,,,,,,,,,,,,,"2009-05-22"
"72503794745","2020-03-16T02:56:00","FM-15","7",,,,,,,,,,,,,,,,,,,,,,,,,,,,,,,,,,,,,,"30.53","10","31","0.00",,,,"42","30.55","CLR:00","30.10","10.00","25","VRB",,"5",,,,,,,,,,,,,,,,,,,,,,,,,,,,,,,,,,,,,"MET09903/16/20 02:56:02 METAR KHPN 160756Z VRB04KT 10SM CLR M01/M12 A3053 RMK AO2 SLP345 T10061122 $ (EC)","FM-15","7",,,,,,,,,,,,,,,,,,,,,,,,,,,,"2009-05-22"
"72503794745","2020-03-16T03:56:00","FM-15","7",,,,,,,,,,,,,,,,,,,,,,,,,,,,,,,,,,,,,,"30.55","9","30","0.00",,"-0.01","3","41","30.57","CLR:00","30.11","10.00","24","050",,"3",,,,,,,,,,,,,,,,,,,,,,,,,,,,,,,,,,,,,"MET10503/16/20 03:56:02 METAR KHPN 160856Z 05003KT 10SM CLR M01/M13 A3055 RMK AO2 SLP351 T10111128 53005 $ (EC)","FM-15","7",,,,,,,,,,,,,,,,,,,,,,,,,,,,"2009-05-22"
"72503794745","2020-03-16T04:56:00","FM-15","7",,,,,,,,,,,,,,,,,,,,,,,,,,,,,,,,,,,,,,"30.56","8","29","0.00",,,,"41","30.58","CLR:00","30.13","10.00","23","030",,"5",,,,,,,,,,,,,,,,,,,,,,,,,,,,,,,,,,,,,"MET09903/16/20 04:56:02 METAR KHPN 160956Z 03004KT 10SM CLR M02/M13 A3056 RMK AO2 SLP356 T10171133 $ (EC)","FM-15","7",,,,,,,,,,,,,,,,,,,,,,,,,,,,"2009-05-22"
"72503794745","2020-03-16T05:56:00","FM-15","7",,,,,,,,,,,,,,,,,,,,,,,,,,,,,,,,,,,,,,"30.57","5","29","0.00",,,,"36","30.59","CLR:00","30.14","10.00","23","050",,"6",,,,,,,,,,,,,,,,,,,,,,,,,,,,,,,,,,,,,"MET09903/16/20 05:56:02 METAR KHPN 161056Z 05005KT 10SM CLR M02/M15 A3057 RMK AO2 SLP358 T10171150 $ (EC)","FM-15","7",,,,,,,,,,,,,,,,,,,,,,,,,,,,"2009-05-22"
"72503794745","2020-03-16T06:56:00","FM-15","7",,,,,,,,,,,,,,,,,,,,,,,,,,,,,,,,,,,,,,"30.59","6","29","0.00",,"-0.04","3","38","30.61","CLR:00","30.16","10.00","23","050",,"8",,,,,,,,,,,,,,,,,,,,,,,,,,,,,,,,,,,,,"MET11703/16/20 06:56:02 METAR KHPN 161156Z 05007KT 10SM CLR M02/M14 A3059 RMK AO2 SLP365 T10171144 10011 21022 53013 $ (EC)","FM-15","7",,,,,,,,,,,,,,,,,,,,,,,,,,,,"2009-05-22"
"72503794745","2020-03-16T07:56:00","FM-15","7",,,,,,,,,,,,,,,,,,,,,,,,,,,,,,,,,,,,,,"30.60","3","31","0.00",,,,"30","30.62","CLR:00","30.16","10.00","24","050",,"10",,,,,,,,,,,,,,,,,,,,,,,,,,,,,,,,,,,,,"MET09903/16/20 07:56:02 METAR KHPN 161256Z 05009KT 10SM CLR M01/M16 A3060 RMK AO2 SLP369 T10061161 $ (EC)","FM-15","7",,,,,,,,,,,,,,,,,,,,,,,,,,,,"2009-05-22"
"72503794745","2020-03-16T08:56:00","FM-15","7",,,,,,,,,,,,,,,,,,,,,,,,,,,,,,,,,,,,,,"30.60","5","33","0.00",,,,"30","30.62","CLR:00","30.16","10.00","25","080",,"8",,,,,,,,,,,,,,,,,,,,,,,,,,,,,,,,,,,,,"MET09803/16/20 08:56:02 METAR KHPN 161356Z 08007KT 10SM CLR 01/M15 A3060 RMK AO2 SLP370 T00061150 $ (EC)","FM-15","7",,,,,,,,,,,,,,,,,,,,,,,,,,,,"2009-05-22"
"72503794745","2020-03-16T09:56:00","FM-15","7",,,,,,,,,,,,,,,,,,,,,,,,,,,,,,,,,,,,,,"30.61","8","34","0.00",,"-0.02","1","34","30.63","CLR:00","30.17","10.00","26","120",,"11",,,,,,,,,,,,,,,,,,,,,,,,,,,,,,,,,,,,,"MET10203/16/20 09:56:02 METAR KHPN 161456Z 12010KT 10SM CLR 01/M13 A3061 RMK AO2 SLP371 T00111133 51006 (ML)","FM-15","7",,,,,,,,,,,,,,,,,,,,,,,,,,,,"2009-05-22"
"72503794745","2020-03-16T10:56:00","FM-15","7",,,,,,,,,,,,,,,,,,,,,,,,,,,,,,,,,,,,,,"30.60","13","37","0.00",,,,"37","30.63","FEW:02 40","30.16","10.00","29","110",,"11",,,,,,,,,,,,,,,,,,,,,,,,,,,,,,,,,,,,,"MET09903/16/20 10:56:02 METAR KHPN 161556Z 11010KT 10SM FEW040 03/M11 A3060 RMK AO2 SLP371 T00281106 (ML)","FM-15","7",,,,,,,,,,,,,,,,,,,,,,,,,,,,"2009-05-22"
"72503794745","2020-03-16T11:56:00","FM-15","7",,,,,,,,,,,,,,,,,,,,,,,,,,,,,,,,,,,,,,"30.59","16","37","0.00",,,,"42","30.61","BKN:07 35","30.16","10.00","30","080",,"8",,,,,,,,,,,,,,,,,,,,,,,,,,,,,,,,,,,,,"MET09903/16/20 11:56:02 METAR KHPN 161656Z 08007KT 10SM BKN035 03/M09 A3059 RMK AO2 SLP365 T00281089 (ML)","FM-15","7",,,,,,,,,,,,,,,,,,,,,,,,,,,,"2009-05-22"
"72503794745","2020-03-16T12:56:00","FM-15","7",,,,,,,,,,,,,,,,,,,,,,,,,,,,,,,,,,,,,,"30.55","19","40","0.00",,"+0.05","8","43","30.57","FEW:02 40","30.11","10.00","33","130",,"10",,,,,,,,,,,,,,,,,,,,,,,,,,,,,,,,,,,,,"MET11703/16/20 12:56:02 METAR KHPN 161756Z 13009KT 10SM FEW040 04/M07 A3055 RMK AO2 SLP352 T00441072 10044 21017 58018 (ML)","FM-15","7",,,,,,,,,,,,,,,,,,,,,,,,,,,,"2009-05-22"
"72503794745","2020-03-16T13:56:00","FM-15","7",,,,,,,,,,,,,,,,,,,,,,,,,,,,,,,,,,,,,,"30.51","21","41","0.00",,,,"45","30.53","FEW:02 40","30.08","10.00","34","080",,"9",,,,,,,,,,,,,,,,,,,,,,,,,,,,,,,,,,,,,"MET09903/16/20 13:56:02 METAR KHPN 161856Z 08008KT 10SM FEW040 05/M06 A3051 RMK AO2 SLP339 T00501061 (ML)","FM-15","7",,,,,,,,,,,,,,,,,,,,,,,,,,,,"2009-05-22"
"72503794745","2020-03-16T14:56:00","FM-15","7",,,,,,,,,,,,,,,,,,,,,,,,,,,,,,,,,,,,,,"30.49","25","42","0.00",,,,"51","30.51","FEW:02 40","30.06","10.00","35","130",,"13",,,,,,,,,,,,,,,,,,,,,,,,,,,,,,,,,,,,,"MET09903/16/20 14:56:02 METAR KHPN 161956Z 13011KT 10SM FEW040 06/M04 A3049 RMK AO2 SLP333 T00561039 (ML)","FM-15","7",,,,,,,,,,,,,,,,,,,,,,,,,,,,"2009-05-22"
"72503794745","2020-03-16T15:56:00","FM-15","7",,,,,,,,,,,,,,,,,,,,,,,,,,,,,,,,,,,,,,"30.48","27","40","0.00",,"+0.07","6","60","30.50","BKN:07 32","30.05","10.00","35","130","21","11",,,,,,,,,,,,,,,,,,,,,,,,,,,,,,,,,,,,,"MET10803/16/20 15:56:02 METAR KHPN 162056Z 13010G18KT 10SM BKN032 04/M03 A3048 RMK AO2 SLP329 T00441028 56024 (MM)","FM-15","7",,,,,,,,,,,,,,,,,,,,,,,,,,,,"2009-05-22"
"72503794745","2020-03-16T16:56:00","FM-15","7",,,,,,,,,,,,,,,,,,,,,,,,,,,,,,,,,,,,,,"30.47","27","39","0.00",,,,"62","30.49","FEW:02 27 BKN:07 40","30.04","10.00","34","120",,"9",,,,,,,,,,,,,,,,,,,,,,,,,,,,,,,,,,,,,"MET10603/16/20 16:56:02 METAR KHPN 162156Z 12008KT 10SM FEW027 BKN040 04/M03 A3047 RMK AO2 SLP325 T00391028 (MM)","FM-15","7",,,,,,,,,,,,,,,,,,,,,,,,,,,,"2009-05-22"
"72503794745","2020-03-16T17:56:00","FM-15","7",,,,,,,,,,,,,,,,,,,,,,,,,,,,,,,,,,,,,,"30.47","26","38","0.00",,,,"62","30.50","SCT:04 30 BKN:07 38","30.04","10.00","33","140",,"14",,,,,,,,,,,,,,,,,,,,,,,,,,,,,,,,,,,,,"MET10603/16/20 17:56:02 METAR KHPN 162256Z 14012KT 10SM SCT030 BKN038 03/M03 A3047 RMK AO2 SLP327 T00331033 (MM)","FM-15","7",,,,,,,,,,,,,,,,,,,,,,,,,,,,"2009-05-22"
"72503794745","2020-03-16T18:56:00","FM-15","7",,,,,,,,,,,,,,,,,,,,,,,,,,,,,,,,,,,,,,"30.47","26","37","0.00",,"+0.01","6","65","30.50","SCT:04 26 BKN:07 34 BKN:07 42","30.04","10.00","33","140",,"10",,,,,,,,,,,,,,,,,,,,,,,,,,,,,,,,,,,,,"MET13103/16/20 18:56:02 METAR KHPN 162356Z 14009KT 10SM SCT026 BKN034 BKN042 03/M03 A3047 RMK AO2 SLP327 T00281033 10056 20028 56002 (MM)","FM-15","7",,,,,,,,,,,,,,,,,,,,,,,,,,,,"2009-05-22"
"72503794745","2020-03-16T19:56:00","FM-15","7",,,,,,,,,,,,,,,,,,,,,,,,,,,,,,,,,,,,,,"30.47","26","36","0.00",,,,"67","30.50","FEW:02 80","30.04","10.00","32","120",,"10",,,,,,,,,,,,,,,,,,,,,,,,,,,,,,,,,,,,,"MET09403/16/20 19:56:01 METAR KHPN 170056Z 12009KT 10SM FEW080 02/M03 A3047 RMK AO2 SLP327 T00221033","FM-15","7",,,,,,,,,,,,,,,,,,,,,,,,,,,,"2009-05-22"
"72503794745","2020-03-16T20:56:00","FM-15","7",,,,,,,,,,,,,,,,,,,,,,,,,,,,,,,,,,,,,,"30.44","27","36","0.00",,,,"70","30.47","SCT:04 35 BKN:07 70","30.01","10.00","33","120",,"9",,,,,,,,,,,,,,,,,,,,,,,,,,,,,,,,,,,,,"MET10103/16/20 20:56:01 METAR KHPN 170156Z 12008KT 10SM SCT035 BKN070 02/M03 A3044 RMK AO2 SLP317 T00221028","FM-15","7",,,,,,,,,,,,,,,,,,,,,,,,,,,,"2009-05-22"
"72503794745","2020-03-16T21:56:00","FM-15","7",,,,,,,,,,,,,,,,,,,,,,,,,,,,,,,,,,,,,,"30.44","28","37","0.00",,"+0.03","8","70","30.46","SCT:04 35 BKN:07 70","30.01","10.00","34","120",,"9",,,,,,,,,,,,,,,,,,,,,,,,,,,,,,,,,,,,,"MET10703/16/20 21:56:01 METAR KHPN 170256Z 12008KT 10SM SCT035 BKN070 03/M02 A3044 RMK AO2 SLP314 T00281022 58011","FM-15","7",,,,,,,,,,,,,,,,,,,,,,,,,,,,"2009-05-22"
"72503794745","2020-03-16T22:54:00","FM-16","6",,,,,,,,,,,,,,,,,,,,,,,,,,,,,,,,,,,,,,"30.40","28","37",,,,,"70",,"BKN:07 18 OVC:08 40","29.97","10.00","34","120",,"9",,,,,,,,,,,,,,,,,,,,,,,,,,,,,,,,,,,,,"MET09403/16/20 22:54:03 SPECI KHPN 170354Z 12008KT 10SM BKN018 OVC040 03/M02 A3040 RMK AO2 FIBI (MM)","FM-16","6",,,,,,,,,,,,,,,,,,,,,,,,,,,,"2009-05-22"
"72503794745","2020-03-16T22:56:00","FM-15","7",,,,,,,,,,,,,,,,,,,,,,,,,,,,,,,,,,,,,,"30.40","29","37","0.00",,,,"73","30.42","BKN:07 18 OVC:08 40","29.97","10.00","34","120",,"8",,,,,,,,,,,,,,,,,,,,,,,,,,,,,,,,,,,,,"MET10103/16/20 22:56:02 METAR KHPN 170356Z 12007KT 10SM BKN018 OVC040 03/M02 A3040 RMK AO2 SLP303 T00281017","FM-15","7",,,,,,,,,,,,,,,,,,,,,,,,,,,,"2009-05-22"
"72503794745","2020-03-16T23:56:00","FM-15","7",,,,,,,,,,,,,,,,,,,,,,,,,,,,,,,,,,,,,,"30.38","30","37","0.00",,,,"76","30.40","BKN:07 17","29.95","10.00","34","120",,"8",,,,,,,,,,,,,,,,,,,,,,,,,,,,,,,,,,,,,"MET10403/16/20 23:56:02 METAR KHPN 170456Z 12007KT 10SM BKN017 03/M01 A3038 RMK AO2 SLP295 T00281011 400561022","FM-15","7",,,,,,,,,,,,,,,,,,,,,,,,,,,,"2009-05-22"
"72503794745","2020-03-16T23:59:00","SOD  ","6",,,,,,,,,,,,,,,,"35",,,"30.10",,"8.7","0","-2.9","30","42","28","130s","20s","0.00",,,"140","16",,,,,,,,,,,,,,,,,,,,,,,,,,,,,,,,,,,,,,,,,,,,,,,,,,,,,,,,,"SOD73024 HR PRECIPITATION (IN):0.00  24 HR MAX TEMP (F):42 24 HR MAX TEMP TIME (LST):1512 24 HR MIN TEMP (F):28 24 HR MIN TEMP TIME (LST):0639 AVERAGE STATION PRESSURE:30.100 MINIMUM SEA LEVEL PRESSURE:30.40 TIME OF OCCURRENCE:2359 PEAK WIND SPEED (MPH):20  PEAK WIND DIR (DEG):130 PEAK WIND TIME (LST):1723  FASTEST 2MIN SPEED (MPH):16 FASTEST 2MIN DIR (DEG):140 FASTEST 2MIN TIME (LST):1734 AVERAGE WIND SPEED (MPH):8.7  24 HR AVG TEMP (F):35 HEATING DEGREE DAYS:30  COOLING DEGREE DAYS:0   LATEST DAY MAX TEMP (0700-1900 LST):42  LATEST NIGHT MIN TEMP(1900-0800 LST):28 HOURLY INCREMENTAL PRECIPITATION VALUES (IN):.00 0.00 0.00 0.00 0.00 0.00 0.00 0.00 0.00 0.00 0.00 0.00 0.00 0.00 0.00 0.00 0.00 0.00 0.00 0.00 0.00 0.00 0.00 0.00","SOD  ","6",,,,,,,,,,,,,,,,,,,,,,,,,"0604","1803",,"2009-05-22"
"72503794745","2020-03-17T00:56:00","FM-15","7",,,,,,,,,,,,,,,,,,,,,,,,,,,,,,,,,,,,,,"30.36","31","37","0.00",,"+0.08","6","79","30.37","BKN:07 16","29.93","10.00","35","130",,"8",,,,,,,,,,,,,,,,,,,,,,,,,,,,,,,,,,,,,"MET11703/17/20 00:56:02 METAR KHPN 170556Z 13007KT 10SM BKN016 03/M01 A3036 RMK AO2 SLP286 T00281006 10028 20017 56027 (RV)","FM-15","7",,,,,,,,,,,,,,,,,,,,,,,,,,,,"2009-05-22"
"72503794745","2020-03-17T01:46:00","FM-16","7",,,,,,,,,,,,,,,,,,,,,,,,,,,,,,,,,,,,,,"30.32","32","37","T","-RA:02 |RA |RA",,,"82",,"OVC:08 14","29.89","10.00","35","120",,"10",,,,,,,,,,,,,,,,,,,,,,,,,,,,,,,,,,,,,"MET10703/17/20 01:46:02 SPECI KHPN 170646Z 12009KT 10SM -RA OVC014 03/00 A3032 RMK AO2 RAB37 P0000 T00280000 (RV)","FM-16","7",,,,,,,,,,,,,,,,,,,,,,,,,,,,"2009-05-22"
"72503794745","2020-03-17T01:56:00","FM-15","7",,,,,,,,,,,,,,,,,,,,,,,,,,,,,,,,,,,,,,"30.32","32","37","T",,,,"82","30.33","OVC:08 14","29.89","10.00","35","120",,"8",,,,,,,,,,,,,,,,,,,,,,,,,,,,,,,,,,,,,"MET11303/17/20 01:56:02 METAR KHPN 170656Z 12007KT 10SM OVC014 03/00 A3032 RMK AO2 RAB37E51 SLP272 P0000 T00280000 (RV)","FM-15","7",,,,,,,,,,,,,,,,,,,,,,,,,,,,"2009-05-22"
"72503794745","2020-03-17T02:56:00","FM-15","7",,,,,,,,,,,,,,,,,,,,,,,,,,,,,,,,,,,,,,"30.29","33","37","0.01","-RA:02 |RA |RA",,,"86","30.30","OVC:08 11","29.86","10.00","35","120",,"6",,,,,,,,,,,,,,,,,,,,,,,,,,,,,,,,,,,,,"MET12203/17/20 02:56:02 METAR KHPN 170756Z 12005KT 10SM -RA OVC011 03/01 A3029 RMK AO2 UPB32E40RAB40 SLP261 P0001 T00280006 (RV)","FM-15","7",,,,,,,,,,,,,,,,,,,,,,,,,,,,"2009-05-22"
"72503794745","2020-03-17T03:56:00","FM-15","7",,,,,,,,,,,,,,,,,,,,,,,,,,,,,,,,,,,,,,"30.25","34","36","0.06","-RA:02 |RA |RA","+0.11","6","93","30.27","BKN:07 10","29.82","10.00","35","110",,"8",,,,,,,,,,,,,,,,,,,,,,,,,,,,,,,,,,,,,"MET12003/17/20 03:56:02 METAR KHPN 170856Z 11007KT 10SM -RA BKN010 02/01 A3025 RMK AO2 SLP250 P0006 60007 T00220011 56037 (RV)","FM-15","7",,,,,,,,,,,,,,,,,,,,,,,,,,,,"2009-05-22"
"72503794745","2020-03-17T04:54:00","FM-16","6",,,,,,,,,,,,,,,,,,,,,,,,,,,,,,,,,,,,,,"30.24","36","37",,"-RA:02 |RA |RA",,,"93",,"BKN:07 5 OVC:08 10","29.81","9.00","37","090",,"3",,,,,,,,,,,,,,,,,,,,,,,,,,,,,,,,,,,,,"MET11403/17/20 04:54:02 SPECI KHPN 170954Z 09003KT 9SM -RA BKN005 OVC010 03/02 A3024 RMK AO2 CIG 003V008 P0001 FIBI (AF)","FM-16","6",,,,,,,,,,,,,,,,,,,,,,,,,,,,"2009-05-22"
"72503794745","2020-03-17T04:56:00","FM-15","7",,,,,,,,,,,,,,,,,,,,,,,,,,,,,,,,,,,,,,"30.24","36","37","0.01","-RA:02 |RA |RA",,,"96","30.26","BKN:07 5 OVC:08 10","29.81","9.00","37","090",,"5",,,,,,,,,,,,,,,,,,,,,,,,,,,,,,,,,,,,,"MET11403/17/20 04:56:02 METAR KHPN 170956Z 09004KT 9SM -RA BKN005 OVC010 03/02 A3024 RMK AO2 SLP246 P0001 T00280022 (AF)","FM-15","7",,,,,,,,,,,,,,,,,,,,,,,,,,,,"2009-05-22"
"72503794745","2020-03-17T05:56:00","FM-15","7",,,,,,,,,,,,,,,,,,,,,,,,,,,,,,,,,,,,,,"30.23","36","38","0.01","-RA:02 |RA |RA",,,"93","30.25","BKN:07 5 OVC:08 10","29.80","9.00","37","110",,"6",,,,,,,,,,,,,,,,,,,,,,,,,,,,,,,,,,,,,"MET11403/17/20 05:56:02 METAR KHPN 171056Z 11005KT 9SM -RA BKN005 OVC010 03/02 A3023 RMK AO2 SLP243 P0000 T00330022 (AF)","FM-15","7",,,,,,,,,,,,,,,,,,,,,,,,,,,,"2009-05-22"
"72503794745","2020-03-17T06:42:00","FM-16","7",,,,,,,,,,,,,,,,,,,,,,,,,,,,,,,,,,,,,,"30.21","37","38","0.01","-RA:02 BR:1 |RA |RA",,,"97",,"VV:09 3","29.78","2.00","38","110",,"7",,,,,,,,,,,,,,,,,,,,,,,,,,,,,,,,,,,,,"MET10203/17/20 06:42:02 SPECI KHPN 171142Z 11006KT 2SM -RA BR VV003 03/03 A3021 RMK AO2 P0001 T00330028 (AF)","FM-16","7",,,,,,,,,,,,,,,,,,,,,,,,,,,,"2009-05-22"
"72503794745","2020-03-17T06:56:00","FM-15","7",,,,,,,,,,,,,,,,,,,,,,,,,,,,,,,,,,,,,,"30.21","37","38","T","BR:1 ||","+0.04","8","97","30.22","VV:09 3","29.78","2.00","38","110",,"6",,,,,,,,,,,,,,,,,,,,,,,,,,,,,,,,,,,,,"MET14103/17/20 06:56:02 METAR KHPN 171156Z 11005KT 2SM BR VV003 03/03 A3021 RMK AO2 RAE55 SLP235 P0001 60009 70009 T00330028 10033 20022 58014 (AF)","FM-15","7",,,,,,,,,,,,,,,,,,,,,,,,,,,,"2009-05-22"
"72503794745","2020-03-17T07:08:00","FM-16","7",,,,,,,,,,,,,,,,,,,,,,,,,,,,,,,,,,,,,,"30.20","37","38","T","-RA:02 BR:1 |RA |RA",,,"97",,"VV:09 2","29.77","0.75","38","110",,"6",,,,,,,,,,,,,,,,,,,,,,,,,,,,,,,,,,,,,"MET12203/17/20 07:08:02 SPECI KHPN 171208Z 11005KT 3/4SM R16/P6000FT -RA BR VV002 03/03 A3020 RMK AO2 RAB07 P0000 T00330028 (AF)","FM-16","7",,,,,,,,,,,,,,,,,,,,,,,,,,,,"2009-05-22"
"72503794745","2020-03-17T07:54:00","FM-16","6",,,,,,,,,,,,,,,,,,,,,,,,,,,,,,,,,,,,,,"30.20","37","39",,"-RA:02 BR:1 |RA |RA",,,"93",,"VV:09 2","29.77","1.50","38","070",,"3",,,,,,,,,,,,,,,,,,,,,,,,,,,,,,,,,,,,,"MET10703/17/20 07:54:02 SPECI KHPN 171254Z 07003KT 1 1/2SM -RA BR VV002 04/03 A3020 RMK AO2 RAB07 P0001 FIBI (AF)","FM-16","6",,,,,,,,,,,,,,,,,,,,,,,,,,,,"2009-05-22"
"72503794745","2020-03-17T07:56:00","FM-15","7",,,,,,,,,,,,,,,,,,,,,,,,,,,,,,,,,,,,,,"30.20","38","39","0.01","-RA:02 BR:1 |RA |RA",,,"96","30.22","VV:09 2","29.77","1.50","39","050",,"5",,,,,,,,,,,,,,,,,,,,,,,,,,,,,,,,,,,,,"MET11903/17/20 07:56:02 METAR KHPN 171256Z 05004KT 1 1/2SM -RA BR VV002 04/03 A3020 RMK AO2 RAB07 SLP233 P0001 T00390033 (AF)","FM-15","7",,,,,,,,,,,,,,,,,,,,,,,,,,,,"2009-05-22"
"72503794745","2020-03-17T08:56:00","FM-15","7",,,,,,,,,,,,,,,,,,,,,,,,,,,,,,,,,,,,,,"30.18","39","40","T","-RA:02 BR:1 |RA |RA",,,"97","30.20","VV:09 2","29.75","1.25","40","100",,"3",,,,,,,,,,,,,,,,,,,,,,,,,,,,,,,,,,,,,"MET11303/17/20 08:56:02 METAR KHPN 171356Z 10003KT 1 1/4SM -RA BR VV002 04/04 A3018 RMK AO2 SLP227 P0000 T00440039 (AF)","FM-15","7",,,,,,,,,,,,,,,,,,,,,,,,,,,,"2009-05-22"
"72503794745","2020-03-17T09:56:00","FM-15","7",,,,,,,,,,,,,,,,,,,,,,,,,,,,,,,,,,,,,,"30.16","40","42","0.01","-RA:02 BR:1 |RA |RA","+0.05","8","92","30.17","VV:09 2","29.73","3.00","41","160",,"7",,,,,,,,,,,,,,,,,,,,,,,,,,,,,,,,,,,,,"MET12103/17/20 09:56:02 METAR KHPN 171456Z 16006KT 3SM -RA BR VV002 06/04 A3016 RMK AO2 SLP218 P0001 60002 T00560044 58016 (AF)","FM-15","7",,,,,,,,,,,,,,,,,,,,,,,,,,,,"2009-05-22"
"72503794745","2020-03-17T10:54:00","FM-16","6",,,,,,,,,,,,,,,,,,,,,,,,,,,,,,,,,,,,,,"30.14","41","45",,"BR:1 ||",,,"87",,"BKN:07 6 OVC:08 10","29.71","6.00","43","000",,"0",,,,,,,,,,,,,,,,,,,,,,,,,,,,,,,,,,,,,"MET11903/17/20 10:54:02 SPECI KHPN 171554Z 00000KT 6SM BR BKN006 OVC010 07/05 A3014 RMK AO2 RAE08 CIG 004V009 P0000 FIBI (AF)","FM-16","6",,,,,,,,,,,,,,,,,,,,,,,,,,,,"2009-05-22"
"72503794745","2020-03-17T10:56:00","FM-15","7",,,,,,,,,,,,,,,,,,,,,,,,,,,,,,,,,,,,,,"30.14","41","43","T","BR:1 ||",,,"93","30.15","BKN:07 6 OVC:08 10","29.71","6.00","42","000",,"0",,,,,,,,,,,,,,,,,,,,,,,,,,,,,,,,,,,,,"MET13103/17/20 10:56:02 METAR KHPN 171556Z 00000KT 6SM BR BKN006 OVC010 06/05 A3014 RMK AO2 RAE08 CIG 004V009 SLP211 P0000 T00610050 (AF)","FM-15","7",,,,,,,,,,,,,,,,,,,,,,,,,,,,"2009-05-22"
"72503794745","2020-03-17T11:56:00","FM-15","7",,,,,,,,,,,,,,,,,,,,,,,,,,,,,,,,,,,,,,"30.12","41","44","0.00",,,,"89","30.13","BKN:07 6 OVC:08 10","29.69","10.00","43","000",,"0",,,,,,,,,,,,,,,,,,,,,,,,,,,,,,,,,,,,,"MET10503/17/20 11:56:02 METAR KHPN 171656Z 00000KT 10SM BKN006 OVC010 07/05 A3012 RMK AO2 SLP203 T00670050 (AF)","FM-15","7",,,,,,,,,,,,,,,,,,,,,,,,,,,,"2009-05-22"
"72503794745","2020-03-17T12:54:00","FM-16","6",,,,,,,,,,,,,,,,,,,,,,,,,,,,,,,,,,,,,,"30.08","39","46",,,,,"76",,"BKN:07 14 BKN:07 23","29.65","10.00","43","260",,"6",,,,,,,,,,,,,,,,,,,,,,,,,,,,,,,,,,,,,"MET09303/17/20 12:54:02 SPECI KHPN 171754Z 26005KT 10SM BKN014 BKN023 08/04 A3008 RMK AO2 FIBI (AF)","FM-16","6",,,,,,,,,,,,,,,,,,,,,,,,,,,,"2009-05-22"
"72503794745","2020-03-17T12:56:00","FM-15","7",,,,,,,,,,,,,,,,,,,,,,,,,,,,,,,,,,,,,,"30.08","40","47","0.00",,"+0.08","8","77","30.09","BKN:07 14 BKN:07 23","29.65","10.00","44","250",,"6",,,,,,,,,,,,,,,,,,,,,,,,,,,,,,,,,,,,,"MET12903/17/20 12:56:02 METAR KHPN 171756Z 25005KT 10SM BKN014 BKN023 08/04 A3008 RMK AO2 SLP191 60002 T00830044 10083 20033 58027 (AF)","FM-15","7",,,,,,,,,,,,,,,,,,,,,,,,,,,,"2009-05-22"
"72503794745","2020-03-17T13:54:00","FM-16","6",,,,,,,,,,,,,,,,,,,,,,,,,,,,,,,,,,,,,,"30.06","39","48",,,,,"71",,"FEW:02 19 SCT:04 39 BKN:07 55","29.63","10.00","44","250",,"7",,,,,,,,,,,,,,,,,,,,,,,,,,,,,,,,,,,,,"MET10003/17/20 13:54:02 SPECI KHPN 171854Z 25006KT 10SM FEW019 SCT039 BKN055 09/04 A3006 RMK AO2 FIBI (JP)","FM-16","6",,,,,,,,,,,,,,,,,,,,,,,,,,,,"2009-05-22"
"72503794745","2020-03-17T13:56:00","FM-15","7",,,,,,,,,,,,,,,,,,,,,,,,,,,,,,,,,,,,,,"30.06","40","48","0.00",,,,"74","30.07","FEW:02 19 SCT:04 39 BKN:07 55","29.63","10.00","44","250",,"7",,,,,,,,,,,,,,,,,,,,,,,,,,,,,,,,,,,,,"MET11203/17/20 13:56:02 METAR KHPN 171856Z 25006KT 10SM FEW019 SCT039 BKN055 09/04 A3006 RMK AO2 SLP182 T00890044 (JP)","FM-15","7",,,,,,,,,,,,,,,,,,,,,,,,,,,,"2009-05-22"
"72503794745","2020-03-17T14:54:00","FM-16","6",,,,,,,,,,,,,,,,,,,,,,,,,,,,,,,,,,,,,,"30.05","39","50",,,,,"67",,"BKN:07 22 BKN:07 75","29.62","10.00","45","260",,"8",,,,,,,,,,,,,,,,,,,,,,,,,,,,,,,,,,,,,"MET09303/17/20 14:54:02 SPECI KHPN 171954Z 26007KT 10SM BKN022 BKN075 10/04 A3005 RMK AO2 FIBI (JP)","FM-16","6",,,,,,,,,,,,,,,,,,,,,,,,,,,,"2009-05-22"
"72503794745","2020-03-17T14:56:00","FM-15","7",,,,,,,,,,,,,,,,,,,,,,,,,,,,,,,,,,,,,,"30.05","40","50","0.00",,,,"68","30.06","BKN:07 22 BKN:07 75","29.62","10.00","45","280",,"9",,,,,,,,,,,,,,,,,,,,,,,,,,,,,,,,,,,,,"MET10503/17/20 14:56:02 METAR KHPN 171956Z 28008KT 10SM BKN022 BKN075 10/04 A3005 RMK AO2 SLP179 T01000044 (JP)","FM-15","7",,,,,,,,,,,,,,,,,,,,,,,,,,,,"2009-05-22"
"72503794745","2020-03-17T15:56:00","FM-15","7",,,,,,,,,,,,,,,,,,,,,,,,,,,,,,,,,,,,,,"30.05","40","50","0.00",,"+0.03","5","68","30.06","SCT:04 24 BKN:07 29","29.62","10.00","45","310",,"8",,,,,,,,,,,,,,,,,,,,,,,,,,,,,,,,,,,,,"MET11103/17/20 15:56:02 METAR KHPN 172056Z 31007KT 10SM SCT024 BKN029 10/04 A3005 RMK AO2 SLP180 T01000044 55009 (JP)","FM-15","7",,,,,,,,,,,,,,,,,,,,,,,,,,,,"2009-05-22"
"72503794745","2020-03-17T16:54:00","FM-16","6",,,,,,,,,,,,,,,,,,,,,,,,,,,,,,,,,,,,,,"30.06","39","52",,,,,"62",,"BKN:07 41","29.63","10.00","46","290",,"8",,,,,,,,,,,,,,,,,,,,,,,,,,,,,,,,,,,,,"MET08603/17/20 16:54:02 SPECI KHPN 172154Z 29007KT 10SM BKN041 11/04 A3006 RMK AO2 FIBI (JP)","FM-16","6",,,,,,,,,,,,,,,,,,,,,,,,,,,,"2009-05-22"
"72503794745","2020-03-17T16:56:00","FM-15","7",,,,,,,,,,,,,,,,,,,,,,,,,,,,,,,,,,,,,,"30.07","39","51","0.00",,,,"64","30.08","BKN:07 41","29.64","10.00","45","290",,"10",,,,,,,,,,,,,,,,,,,,,,,,,,,,,,,,,,,,,"MET09803/17/20 16:56:02 METAR KHPN 172156Z 29009KT 10SM BKN041 11/04 A3007 RMK AO2 SLP185 T01060039 (JP)","FM-15","7",,,,,,,,,,,,,,,,,,,,,,,,,,,,"2009-05-22"
"72503794745","2020-03-17T17:56:00","FM-15","7",,,,,,,,,,,,,,,,,,,,,,,,,,,,,,,,,,,,,,"30.10","37","48","0.00",,,,"66","30.11","SCT:04 47","29.67","10.00","43","300",,"7",,,,,,,,,,,,,,,,,,,,,,,,,,,,,,,,,,,,,"MET09803/17/20 17:56:02 METAR KHPN 172256Z 30006KT 10SM SCT047 09/03 A3010 RMK AO2 SLP196 T00890028 (JP)","FM-15","7",,,,,,,,,,,,,,,,,,,,,,,,,,,,"2009-05-22"
"72503794745","2020-03-17T18:56:00","FM-15","7",,,,,,,,,,,,,,,,,,,,,,,,,,,,,,,,,,,,,,"30.12","37","46","0.00",,"-0.07","3","71","30.14","BKN:07 47","29.69","10.00","42","000",,"0",,,,,,,,,,,,,,,,,,,,,,,,,,,,,,,,,,,,,"MET11603/17/20 18:56:02 METAR KHPN 172356Z 00000KT 10SM BKN047 08/03 A3012 RMK AO2 SLP205 T00780028 10111 20078 53024 (JP)","FM-15","7",,,,,,,,,,,,,,,,,,,,,,,,,,,,"2009-05-22"
"72503794745","2020-03-17T19:56:00","FM-15","7",,,,,,,,,,,,,,,,,,,,,,,,,,,,,,,,,,,,,,"30.14","38","46","0.00",,,,"73","30.16","BKN:07 46","29.71","10.00","42","270",,"6",,,,,,,,,,,,,,,,,,,,,,,,,,,,,,,,,,,,,"MET09303/17/20 19:56:01 METAR KHPN 180056Z 27005KT 10SM BKN046 08/03 A3014 RMK AO2 SLP212 T00780033","FM-15","7",,,,,,,,,,,,,,,,,,,,,,,,,,,,"2009-05-22"
"72503794745","2020-03-17T20:56:00","FM-15","7",,,,,,,,,,,,,,,,,,,,,,,,,,,,,,,,,,,,,,"30.18","37","46","0.00",,,,"71","30.19","SCT:04 39 SCT:04 45","29.75","10.00","42","320",,"8",,,,,,,,,,,,,,,,,,,,,,,,,,,,,,,,,,,,,"MET10003/17/20 20:56:01 METAR KHPN 180156Z 32007KT 10SM SCT039 SCT045 08/03 A3018 RMK AO2 SLP224 T00780028","FM-15","7",,,,,,,,,,,,,,,,,,,,,,,,,,,,"2009-05-22"
"72503794745","2020-03-17T21:56:00","FM-15","7",,,,,,,,,,,,,,,,,,,,,,,,,,,,,,,,,,,,,,"30.21","35","44","0.00",,"-0.09","3","71","30.22","BKN:07 46","29.78","10.00","40","320",,"9",,,,,,,,,,,,,,,,,,,,,,,,,,,,,,,,,,,,,"MET09903/17/20 21:56:01 METAR KHPN 180256Z 32008KT 10SM BKN046 07/02 A3021 RMK AO2 SLP234 T00670017 53029","FM-15","7",,,,,,,,,,,,,,,,,,,,,,,,,,,,"2009-05-22"
"72503794745","2020-03-17T22:56:00","FM-15","7",,,,,,,,,,,,,,,,,,,,,,,,,,,,,,,,,,,,,,"30.25","33","42","0.00",,,,"71","30.26","BKN:07 46","29.82","10.00","38","300",,"6",,,,,,,,,,,,,,,,,,,,,,,,,,,,,,,,,,,,,"MET09303/17/20 22:56:02 METAR KHPN 180356Z 30005KT 10SM BKN046 06/01 A3025 RMK AO2 SLP248 T00560006","FM-15","7",,,,,,,,,,,,,,,,,,,,,,,,,,,,"2009-05-22"
"72503794745","2020-03-17T23:56:00","FM-15","7",,,,,,,,,,,,,,,,,,,,,,,,,,,,,,,,,,,,,,"30.27","28","42","0.00",,,,"58","30.28","CLR:00","29.84","10.00","36","310",,"8",,,,,,,,,,,,,,,,,,,,,,,,,,,,,,,,,,,,,"MET10103/17/20 23:56:02 METAR KHPN 180456Z 31007KT 10SM CLR 06/M02 A3027 RMK AO2 SLP255 T00561022 401110022","FM-15","7",,,,,,,,,,,,,,,,,,,,,,,,,,,,"2009-05-22"
"72503794745","2020-03-17T23:59:00","SOD  ","6",,,,,,,,,,,,,,,,"44",,,"29.76",,"6.0","0","5.8","21","52","36","100","18","0.11",,,"300","13","RA BR",,,,,,,,,,,,,,,,,,,,,,,,,,,,,,,,,,,,,,,,,,,,,,,,,,,,,,,,"SOD73024 HR PRECIPITATION (IN):0.11  24 HR MAX TEMP (F):52 24 HR MAX TEMP TIME (LST):1649 24 HR MIN TEMP (F):36 24 HR MIN TEMP TIME (LST):0358 AVERAGE STATION PRESSURE:29.760 MINIMUM SEA LEVEL PRESSURE:30.04 TIME OF OCCURRENCE:1443 PEAK WIND SPEED (MPH):18  PEAK WIND DIR (DEG):100 PEAK WIND TIME (LST):0627  FASTEST 2MIN SPEED (MPH):13 FASTEST 2MIN DIR (DEG):300 FASTEST 2MIN TIME (LST):1703 AVERAGE WIND SPEED (MPH):6.0  24 HR AVG TEMP (F):44 HEATING DEGREE DAYS:21  COOLING DEGREE DAYS:0   LATEST DAY MAX TEMP (0700-1900 LST):52  LATEST NIGHT MIN TEMP(1900-0800 LST):35 HOURLY INCREMENTAL PRECIPITATION VALUES (IN):.00 T    0.01 0.06 0.01 0.01 T    0.01 T    0.01 T    0.00 0.00 0.00 0.00 0.00 0.00 0.00 0.00 0.00 0.00 0.00 0.00 0.00","SOD  ","6",,,,,,,,,,,,,,,,,,,,,,,,,"0602","1805",,"2009-05-22"
"72503794745","2020-03-18T00:56:00","FM-15","7",,,,,,,,,,,,,,,,,,,,,,,,,,,,,,,,,,,,,,"30.29","28","40","0.00",,"-0.08","1","63","30.30","CLR:00","29.86","10.00","35","300",,"7",,,,,,,,,,,,,,,,,,,,,,,,,,,,,,,,,,,,,"MET11403/18/20 00:56:02 METAR KHPN 180556Z 30006KT 10SM CLR 04/M02 A3029 RMK AO2 SLP262 T00441022 10094 20044 51028 (JR)","FM-15","7",,,,,,,,,,,,,,,,,,,,,,,,,,,,"2009-05-22"
"72503794745","2020-03-18T01:56:00","FM-15","7",,,,,,,,,,,,,,,,,,,,,,,,,,,,,,,,,,,,,,"30.31","26","41","0.00",,,,"55","30.32","CLR:00","29.88","10.00","35","290",,"9",,,,,,,,,,,,,,,,,,,,,,,,,,,,,,,,,,,,,"MET09603/18/20 01:56:02 METAR KHPN 180656Z 29008KT 10SM CLR 05/M03 A3031 RMK AO2 SLP269 T00501033 (JR)","FM-15","7",,,,,,,,,,,,,,,,,,,,,,,,,,,,"2009-05-22"
"72503794745","2020-03-18T02:56:00","FM-15","7",,,,,,,,,,,,,,,,,,,,,,,,,,,,,,,,,,,,,,"30.32","25","38","0.00",,,,"60","30.33","CLR:00","29.89","10.00","33","300",,"5",,,,,,,,,,,,,,,,,,,,,,,,,,,,,,,,,,,,,"MET09603/18/20 02:56:02 METAR KHPN 180756Z 30004KT 10SM CLR 03/M04 A3032 RMK AO2 SLP271 T00331039 (AB)","FM-15","7",,,,,,,,,,,,,,,,,,,,,,,,,,,,"2009-05-22"
"72503794745","2020-03-18T03:56:00","FM-15","7",,,,,,,,,,,,,,,,,,,,,,,,,,,,,,,,,,,,,,"30.33","25","36","0.00",,"-0.04","1","64","30.35","CLR:00","29.90","10.00","32","300",,"6",,,,,,,,,,,,,,,,,,,,,,,,,,,,,,,,,,,,,"MET10203/18/20 03:56:02 METAR KHPN 180856Z 30005KT 10SM CLR 02/M04 A3033 RMK AO2 SLP276 T00221039 51013 (AB)","FM-15","7",,,,,,,,,,,,,,,,,,,,,,,,,,,,"2009-05-22"
"72503794745","2020-03-18T04:56:00","FM-15","7",,,,,,,,,,,,,,,,,,,,,,,,,,,,,,,,,,,,,,"30.37","25","34","0.00",,,,"70","30.38","CLR:00","29.94","10.00","31","320",,"6",,,,,,,,,,,,,,,,,,,,,,,,,,,,,,,,,,,,,"MET09603/18/20 04:56:02 METAR KHPN 180956Z 32005KT 10SM CLR 01/M04 A3037 RMK AO2 SLP288 T00111039 (AB)","FM-15","7",,,,,,,,,,,,,,,,,,,,,,,,,,,,"2009-05-22"
"72503794745","2020-03-18T05:56:00","FM-15","7",,,,,,,,,,,,,,,,,,,,,,,,,,,,,,,,,,,,,,"30.40","28","33","0.00",,,,"82","30.42","CLR:00","29.97","10.00","31","300",,"5",,,,,,,,,,,,,,,,,,,,,,,,,,,,,,,,,,,,,"MET09603/18/20 05:56:02 METAR KHPN 181056Z 30004KT 10SM CLR 01/M02 A3040 RMK AO2 SLP300 T00061022 (AB)","FM-15","7",,,,,,,,,,,,,,,,,,,,,,,,,,,,"2009-05-22"
"72503794745","2020-03-18T06:56:00","FM-15","7",,,,,,,,,,,,,,,,,,,,,,,,,,,,,,,,,,,,,,"30.43","29","36","0.00",,"-0.09","1","76","30.44","CLR:00","30.00","10.00","33","000",,"0",,,,,,,,,,,,,,,,,,,,,,,,,,,,,,,,,,,,,"MET12003/18/20 06:56:02 METAR KHPN 181156Z 00000KT 10SM CLR 02/M02 A3043 RMK AO2 SLP309 70002 T00221017 10056 21006 51032 (AB)","FM-15","7",,,,,,,,,,,,,,,,,,,,,,,,,,,,"2009-05-22"
"72503794745","2020-03-18T07:56:00","FM-15","7",,,,,,,,,,,,,,,,,,,,,,,,,,,,,,,,,,,,,,"30.46","24","41","0.00",,,,"51","30.47","CLR:00","30.03","10.00","35","320",,"6",,,,,,,,,,,,,,,,,,,,,,,,,,,,,,,,,,,,,"MET09603/18/20 07:56:02 METAR KHPN 181256Z 32005KT 10SM CLR 05/M04 A3046 RMK AO2 SLP318 T00501044 (AB)","FM-15","7",,,,,,,,,,,,,,,,,,,,,,,,,,,,"2009-05-22"
"72503794745","2020-03-18T08:56:00","FM-15","7",,,,,,,,,,,,,,,,,,,,,,,,,,,,,,,,,,,,,,"30.47","24","44","0.00",,,,"45","30.48","CLR:00","30.04","10.00","36","VRB",,"5",,,,,,,,,,,,,,,,,,,,,,,,,,,,,,,,,,,,,"MET09603/18/20 08:56:02 METAR KHPN 181356Z VRB04KT 10SM CLR 07/M04 A3047 RMK AO2 SLP322 T00671044 (AB)","FM-15","7",,,,,,,,,,,,,,,,,,,,,,,,,,,,"2009-05-22"
"72503794745","2020-03-18T09:56:00","FM-15","7",,,,,,,,,,,,,,,,,,,,,,,,,,,,,,,,,,,,,,"30.48","23","46","0.00",,"-0.05","1","40","30.49","CLR:00","30.05","10.00","37","280",,"5",,,,,,,,,,,,,,,,,,,,,,,,,,,,,,,,,,,,,"MET10203/18/20 09:56:02 METAR KHPN 181456Z 28004KT 10SM CLR 08/M05 A3048 RMK AO2 SLP325 T00781050 51017 (AB)","FM-15","7",,,,,,,,,,,,,,,,,,,,,,,,,,,,"2009-05-22"
"72503794745","2020-03-18T10:56:00","FM-15","7",,,,,,,,,,,,,,,,,,,,,,,,,,,,,,,,,,,,,,"30.48","20","48","0.00",,,,"33","30.49","CLR:00","30.05","10.00","37","350",,"6",,,,,,,,,,,,,,,,,,,,,,,,,,,,,,,,,,,,,"MET09603/18/20 10:56:02 METAR KHPN 181556Z 35005KT 10SM CLR 09/M07 A3048 RMK AO2 SLP324 T00891067 (AB)","FM-15","7",,,,,,,,,,,,,,,,,,,,,,,,,,,,"2009-05-22"
"72503794745","2020-03-18T11:56:00","FM-15","7",,,,,,,,,,,,,,,,,,,,,,,,,,,,,,,,,,,,,,"30.47","19","50","0.00",,,,"29","30.48","CLR:00","30.04","10.00","38","000",,"0",,,,,,,,,,,,,,,,,,,,,,,,,,,,,,,,,,,,,"MET09603/18/20 11:56:02 METAR KHPN 181656Z 00000KT 10SM CLR 10/M07 A3047 RMK AO2 SLP322 T01001072 (JP)","FM-15","7",,,,,,,,,,,,,,,,,,,,,,,,,,,,"2009-05-22"
"72503794745","2020-03-18T12:56:00","FM-15","7",,,,,,,,,,,,,,,,,,,,,,,,,,,,,,,,,,,,,,"30.45","25","51","0.00",,"+0.02","8","36","30.46","CLR:00","30.02","10.00","40","200",,"11",,,,,,,,,,,,,,,,,,,,,,,,,,,,,,,,,,,,,"MET11403/18/20 12:56:02 METAR KHPN 181756Z 20010KT 10SM CLR 11/M04 A3045 RMK AO2 SLP316 T01061039 10111 20022 58008 (JP)","FM-15","7",,,,,,,,,,,,,,,,,,,,,,,,,,,,"2009-05-22"
"72503794745","2020-03-18T13:56:00","FM-15","7",,,,,,,,,,,,,,,,,,,,,,,,,,,,,,,,,,,,,,"30.44","26","51","0.00",,,,"38","30.45","CLR:00","30.01","10.00","41","VRB",,"7",,,,,,,,,,,,,,,,,,,,,,,,,,,,,,,,,,,,,"MET09603/18/20 13:56:02 METAR KHPN 181856Z VRB06KT 10SM CLR 11/M03 A3044 RMK AO2 SLP311 T01061033 (JP)","FM-15","7",,,,,,,,,,,,,,,,,,,,,,,,,,,,"2009-05-22"
"72503794745","2020-03-18T14:56:00","FM-15","7",,,,,,,,,,,,,,,,,,,,,,,,,,,,,,,,,,,,,,"30.43","26","50","0.00",,,,"39","30.45","CLR:00","30.00","10.00","40","180",,"10",,,,,,,,,,,,,,,,,,,,,,,,,,,,,,,,,,,,,"MET09603/18/20 14:56:02 METAR KHPN 181956Z 18009KT 10SM CLR 10/M03 A3043 RMK AO2 SLP310 T01001033 (JP)","FM-15","7",,,,,,,,,,,,,,,,,,,,,,,,,,,,"2009-05-22"
"72503794745","2020-03-18T15:56:00","FM-15","7",,,,,,,,,,,,,,,,,,,,,,,,,,,,,,,,,,,,,,"30.42","25","50","0.00",,"+0.04","8","38","30.43","CLR:00","29.99","10.00","40","150",,"10",,,,,,,,,,,,,,,,,,,,,,,,,,,,,,,,,,,,,"MET10203/18/20 15:56:02 METAR KHPN 182056Z 15009KT 10SM CLR 10/M04 A3042 RMK AO2 SLP304 T01001039 58012 (JP)","FM-15","7",,,,,,,,,,,,,,,,,,,,,,,,,,,,"2009-05-22"
"72503794745","2020-03-18T16:56:00","FM-15","7",,,,,,,,,,,,,,,,,,,,,,,,,,,,,,,,,,,,,,"30.41","23","48","0.00",,,,"37","30.42","CLR:00","29.98","10.00","38","170",,"8",,,,,,,,,,,,,,,,,,,,,,,,,,,,,,,,,,,,,"MET09603/18/20 16:56:02 METAR KHPN 182156Z 17007KT 10SM CLR 09/M05 A3041 RMK AO2 SLP303 T00891050 (JP)","FM-15","7",,,,,,,,,,,,,,,,,,,,,,,,,,,,"2009-05-22"
"72503794745","2020-03-18T17:56:00","FM-15","7",,,,,,,,,,,,,,,,,,,,,,,,,,,,,,,,,,,,,,"30.42","26","46","0.00",,,,"46","30.44","CLR:00","29.99","10.00","38","170",,"10",,,,,,,,,,,,,,,,,,,,,,,,,,,,,,,,,,,,,"MET09603/18/20 17:56:02 METAR KHPN 182256Z 17009KT 10SM CLR 08/M03 A3042 RMK AO2 SLP307 T00781033 (JP)","FM-15","7",,,,,,,,,,,,,,,,,,,,,,,,,,,,"2009-05-22"
"72503794745","2020-03-18T18:56:00","FM-15","7",,,,,,,,,,,,,,,,,,,,,,,,,,,,,,,,,,,,,,"30.43","25","45","0.00",,"-0.01","3","46","30.44","CLR:00","30.00","10.00","37","170",,"7",,,,,,,,,,,,,,,,,,,,,,,,,,,,,,,,,,,,,"MET11403/18/20 18:56:02 METAR KHPN 182356Z 17006KT 10SM CLR 07/M04 A3043 RMK AO2 SLP309 T00721039 10111 20067 53003 (JP)","FM-15","7",,,,,,,,,,,,,,,,,,,,,,,,,,,,"2009-05-22"
"72503794745","2020-03-18T19:56:00","FM-15","7",,,,,,,,,,,,,,,,,,,,,,,,,,,,,,,,,,,,,,"30.42","25","43","0.00",,,,"49","30.43","CLR:00","29.99","10.00","36","150",,"8",,,,,,,,,,,,,,,,,,,,,,,,,,,,,,,,,,,,,"MET09103/18/20 19:56:01 METAR KHPN 190056Z 15007KT 10SM CLR 06/M04 A3042 RMK AO2 SLP306 T00611039","FM-15","7",,,,,,,,,,,,,,,,,,,,,,,,,,,,"2009-05-22"
"72503794745","2020-03-18T20:56:00","FM-15","7",,,,,,,,,,,,,,,,,,,,,,,,,,,,,,,,,,,,,,"30.41","26","42","0.00",,,,"53","30.43","CLR:00","29.98","10.00","36","130",,"7",,,,,,,,,,,,,,,,,,,,,,,,,,,,,,,,,,,,,"MET09103/18/20 20:56:01 METAR KHPN 190156Z 13006KT 10SM CLR 06/M03 A3041 RMK AO2 SLP304 T00561033","FM-15","7",,,,,,,,,,,,,,,,,,,,,,,,,,,,"2009-05-22"
"72503794745","2020-03-18T21:56:00","FM-15","7",,,,,,,,,,,,,,,,,,,,,,,,,,,,,,,,,,,,,,"30.40","28","42","0.00",,"+0.03","8","58","30.41","BKN:07 55","29.97","10.00","36","140",,"9",,,,,,,,,,,,,,,,,,,,,,,,,,,,,,,,,,,,,"MET10003/18/20 21:56:01 METAR KHPN 190256Z 14008KT 10SM BKN055 06/M02 A3040 RMK AO2 SLP298 T00561022 58009","FM-15","7",,,,,,,,,,,,,,,,,,,,,,,,,,,,"2009-05-22"
"72503794745","2020-03-18T22:56:00","FM-15","7",,,,,,,,,,,,,,,,,,,,,,,,,,,,,,,,,,,,,,"30.39","31","42","T",,,,"65","30.40","BKN:07 50","29.96","10.00","37","150",,"8",,,,,,,,,,,,,,,,,,,,,,,,,,,,,,,,,,,,,"MET09403/18/20 22:56:01 METAR KHPN 190356Z 15007KT 10SM BKN050 06/M01 A3039 RMK AO2 SLP296 T00561006","FM-15","7",,,,,,,,,,,,,,,,,,,,,,,,,,,,"2009-05-22"
"72503794745","2020-03-18T23:56:00","FM-15","7",,,,,,,,,,,,,,,,,,,,,,,,,,,,,,,,,,,,,,"30.36","35","40","0.02","-RA:02 |RA |RA",,,"83","30.37","OVC:08 48","29.93","10.00","38","110",,"8",,,,,,,,,,,,,,,,,,,,,,,,,,,,,,,,,,,,,"MET12103/18/20 23:56:01 METAR KHPN 190456Z 11007KT 10SM -RA OVC048 04/02 A3036 RMK AO2 RAB0358 SLP285 P0002 T00440017 401111006","FM-15","7",,,,,,,,,,,,,,,,,,,,,,,,,,,,"2009-05-22"
"72503794745","2020-03-18T23:59:00","SOD  ","6",,,,,,,,,,,,,,,,"42",,,"29.96",,"6.8","0","3.5","23","52","31","190","19","0.02",,,"180","13","RA",,,,,,,,,,,,,,,,,,,,,,,,,,,,,,,,,,,,,,,,,,,,,,,,,,,,,,,,"SOD73024 HR PRECIPITATION (IN):0.02  24 HR MAX TEMP (F):52 24 HR MAX TEMP TIME (LST):1421 24 HR MIN TEMP (F):31 24 HR MIN TEMP TIME (LST):0606 AVERAGE STATION PRESSURE:29.965 MINIMUM SEA LEVEL PRESSURE:30.28 TIME OF OCCURRENCE:0002 PEAK WIND SPEED (MPH):19  PEAK WIND DIR (DEG):190 PEAK WIND TIME (LST):1443  FASTEST 2MIN SPEED (MPH):13 FASTEST 2MIN DIR (DEG):180 FASTEST 2MIN TIME (LST):1454 AVERAGE WIND SPEED (MPH):6.8  24 HR AVG TEMP (F):42 HEATING DEGREE DAYS:23  COOLING DEGREE DAYS:0   LATEST DAY MAX TEMP (0700-1900 LST):52  LATEST NIGHT MIN TEMP(1900-0800 LST):31 HOURLY INCREMENTAL PRECIPITATION VALUES (IN):.00 0.00 0.00 0.00 0.00 0.00 0.00 0.00 0.00 0.00 0.00 0.00 0.00 0.00 0.00 0.00 0.00 0.00 0.00 0.00 0.00 0.00 T    0.02","SOD  ","6",,,,,,,,,,,,,,,,,,,,,,,,,"0600","1806",,"2009-05-22"
"72503794745","2020-03-19T00:54:00","FM-16","6",,,,,,,,,,,,,,,,,,,,,,,,,,,,,,,,,,,,,,"30.36","36","39",,"-RA:02 BR:1 |RA |RA",,,"87",,"BKN:07 25 OVC:08 40","29.93","6.00","38","070",,"6",,,,,,,,,,,,,,,,,,,,,,,,,,,,,,,,,,,,,"MET10503/19/20 00:54:02 SPECI KHPN 190554Z 07005KT 6SM -RA BR BKN025 OVC040 04/02 A3036 RMK AO2 P0001 FIBI (FR)","FM-16","6",,,,,,,,,,,,,,,,,,,,,,,,,,,,"2009-05-22"
"72503794745","2020-03-19T00:56:00","FM-15","7",,,,,,,,,,,,,,,,,,,,,,,,,,,,,,,,,,,,,,"30.36","36","39","0.02","-RA:02 |RA |RA","+0.04","6","89","30.37","BKN:07 25 OVC:08 40","29.93","7.00","38","080",,"7",,,,,,,,,,,,,,,,,,,,,,,,,,,,,,,,,,,,,"MET13803/19/20 00:56:02 METAR KHPN 190556Z 08006KT 7SM -RA BKN025 OVC040 04/02 A3036 RMK AO2 SLP284 P0002 60004 T00390022 10072 20039 56014 (FR)","FM-15","7",,,,,,,,,,,,,,,,,,,,,,,,,,,,"2009-05-22"
"72503794745","2020-03-19T01:56:00","FM-15","7",,,,,,,,,,,,,,,,,,,,,,,,,,,,,,,,,,,,,,"30.33","35","38","0.09","RA:02 BR:1 |RA |RA",,,"89","30.34","OVC:08 16","29.90","6.00","37","070",,"7",,,,,,,,,,,,,,,,,,,,,,,,,,,,,,,,,,,,,"MET10903/19/20 01:56:02 METAR KHPN 190656Z 07006KT 6SM RA BR OVC016 03/02 A3033 RMK AO2 SLP275 P0008 T00330017 (FR)","FM-15","7",,,,,,,,,,,,,,,,,,,,,,,,,,,,"2009-05-22"
"72503794745","2020-03-19T02:54:00","FM-16","6",,,,,,,,,,,,,,,,,,,,,,,,,,,,,,,,,,,,,,"30.29","36","37",,"RA:02 BR:1 |RA |RA",,,"93",,"OVC:08 9","29.86","6.00","37","070",,"7",,,,,,,,,,,,,,,,,,,,,,,,,,,,,,,,,,,,,"MET10903/19/20 02:54:02 SPECI KHPN 190754Z 07006KT 6SM RA BR OVC009 03/02 A3029 RMK AO2 CIG 004V011 P0012 FIBI (FR)","FM-16","6",,,,,,,,,,,,,,,,,,,,,,,,,,,,"2009-05-22"
"72503794745","2020-03-19T02:56:00","FM-15","7",,,,,,,,,,,,,,,,,,,,,,,,,,,,,,,,,,,,,,"30.29","35","37","0.12","RA:02 BR:1 |RA |RA",,,"93","30.30","OVC:08 9","29.86","5.00","36","080",,"7",,,,,,,,,,,,,,,,,,,,,,,,,,,,,,,,,,,,,"MET12103/19/20 02:56:02 METAR KHPN 190756Z 08006KT 5SM RA BR OVC009 03/02 A3029 RMK AO2 CIG 004V011 SLP261 P0013 T00280017 (FR)","FM-15","7",,,,,,,,,,,,,,,,,,,,,,,,,,,,"2009-05-22"
"72503794745","2020-03-19T03:54:00","FM-16","6",,,,,,,,,,,,,,,,,,,,,,,,,,,,,,,,,,,,,,"30.27","36","37",,"RA:02 BR:1 |RA |RA",,,"93",,"VV:09 3","29.84","5.00","37","100",,"7",,,,,,,,,,,,,,,,,,,,,,,,,,,,,,,,,,,,,"MET09603/19/20 03:54:02 SPECI KHPN 190854Z 10006KT 5SM RA BR VV003 03/02 A3027 RMK AO2 P0011 FIBI (FR)","FM-16","6",,,,,,,,,,,,,,,,,,,,,,,,,,,,"2009-05-22"
"72503794745","2020-03-19T03:56:00","FM-15","7",,,,,,,,,,,,,,,,,,,,,,,,,,,,,,,,,,,,,,"30.27","36","38","0.13","RA:02 BR:1 |RA |RA","+0.09","6","93","30.28","VV:09 3","29.84","5.00","37","110",,"6",,,,,,,,,,,,,,,,,,,,,,,,,,,,,,,,,,,,,"MET12003/19/20 03:56:02 METAR KHPN 190856Z 11005KT 5SM RA BR VV003 03/02 A3027 RMK AO2 SLP255 P0012 60033 T00330022 56029 (FR)","FM-15","7",,,,,,,,,,,,,,,,,,,,,,,,,,,,"2009-05-22"
"72503794745","2020-03-19T04:56:00","FM-15","7",,,,,,,,,,,,,,,,,,,,,,,,,,,,,,,,,,,,,,"30.24","38","40","0.16","RA:02 BR:1 |RA |RA",,,"93","30.25","VV:09 3","29.81","4.00","39","090",,"8",,,,,,,,,,,,,,,,,,,,,,,,,,,,,,,,,,,,,"MET10803/19/20 04:56:02 METAR KHPN 190956Z 09007KT 4SM RA BR VV003 04/03 A3024 RMK AO2 SLP245 P0016 T00440033 (FR)","FM-15","7",,,,,,,,,,,,,,,,,,,,,,,,,,,,"2009-05-22"
"72503794745","2020-03-19T05:54:00","FM-16","6",,,,,,,,,,,,,,,,,,,,,,,,,,,,,,,,,,,,,,"30.25","39","39",,"-RA:02 BR:1 |RA |RA",,,"100",,"VV:09 2","29.82","1.25","39","050",,"6",,,,,,,,,,,,,,,,,,,,,,,,,,,,,,,,,,,,,"MET10103/19/20 05:54:02 SPECI KHPN 191054Z 05005KT 1 1/4SM -RA BR VV002 04/04 A3025 RMK AO2 P0014 FIBI (RS)","FM-16","6",,,,,,,,,,,,,,,,,,,,,,,,,,,,"2009-05-22"
"72503794745","2020-03-19T05:56:00","FM-15","7",,,,,,,,,,,,,,,,,,,,,,,,,,,,,,,,,,,,,,"30.25","39","40","0.13","-RA:02 BR:1 |RA |RA",,,"97","30.26","VV:09 2","29.82","1.25","40","070",,"9",,,,,,,,,,,,,,,,,,,,,,,,,,,,,,,,,,,,,"MET11303/19/20 05:56:02 METAR KHPN 191056Z 07008KT 1 1/4SM -RA BR VV002 04/04 A3025 RMK AO2 SLP248 P0014 T00440039 (RS)","FM-15","7",,,,,,,,,,,,,,,,,,,,,,,,,,,,"2009-05-22"
"72503794745","2020-03-19T06:54:00","FM-16","6",,,,,,,,,,,,,,,,,,,,,,,,,,,,,,,,,,,,,,"30.25","37","39",,"-RA:02 BR:1 |RA |RA",,,"93",,"BKN:07 5 OVC:08 10","29.82","2.00","38","060",,"8",,,,,,,,,,,,,,,,,,,,,,,,,,,,,,,,,,,,,"MET10503/19/20 06:54:02 SPECI KHPN 191154Z 06007KT 2SM -RA BR BKN005 OVC010 04/03 A3025 RMK AO2 P0004 FIBI (RS)","FM-16","6",,,,,,,,,,,,,,,,,,,,,,,,,,,,"2009-05-22"
"72503794745","2020-03-19T06:56:00","FM-15","7",,,,,,,,,,,,,,,,,,,,,,,,,,,,,,,,,,,,,,"30.25","38","40","0.04","-RA:02 BR:1 |RA |RA","+0.02","5","93","30.27","BKN:07 5 OVC:08 10","29.82","2.00","39","050",,"8",,,,,,,,,,,,,,,,,,,,,,,,,,,,,,,,,,,,,"MET14703/19/20 06:56:02 METAR KHPN 191156Z 05007KT 2SM -RA BR BKN005 OVC010 04/03 A3025 RMK AO2 SLP249 P0004 60067 70071 T00440033 10050 20028 55006 (RS)","FM-15","7",,,,,,,,,,,,,,,,,,,,,,,,,,,,"2009-05-22"
"72503794745","2020-03-19T07:54:00","FM-16","6",,,,,,,,,,,,,,,,,,,,,,,,,,,,,,,,,,,,,,"30.26","39","41",,"-RA:02 BR:1 |RA |RA",,,"93",,"BKN:07 7 OVC:08 12","29.83","1.50","40","050",,"7",,,,,,,,,,,,,,,,,,,,,,,,,,,,,,,,,,,,,"MET10903/19/20 07:54:02 SPECI KHPN 191254Z 05006KT 1 1/2SM -RA BR BKN007 OVC012 05/04 A3026 RMK AO2 P0001 FIBI (RS)","FM-16","6",,,,,,,,,,,,,,,,,,,,,,,,,,,,"2009-05-22"
"72503794745","2020-03-19T07:56:00","FM-15","7",,,,,,,,,,,,,,,,,,,,,,,,,,,,,,,,,,,,,,"30.26","39","41","0.01","-RA:02 BR:1 |RA |RA",,,"93","30.27","OVC:08 7","29.83","1.50","40","030",,"5",,,,,,,,,,,,,,,,,,,,,,,,,,,,,,,,,,,,,"MET11403/19/20 07:56:02 METAR KHPN 191256Z 03004KT 1 1/2SM -RA BR OVC007 05/04 A3026 RMK AO2 SLP252 P0001 T00500039 (RS)","FM-15","7",,,,,,,,,,,,,,,,,,,,,,,,,,,,"2009-05-22"
"72503794745","2020-03-19T08:54:00","FM-16","6",,,,,,,,,,,,,,,,,,,,,,,,,,,,,,,,,,,,,,"30.25","39","43",,,,,"87",,"BKN:07 7 OVC:08 12","29.82","10.00","41","050",,"9",,,,,,,,,,,,,,,,,,,,,,,,,,,,,,,,,,,,,"MET10503/19/20 08:54:02 SPECI KHPN 191354Z 05008KT 10SM BKN007 OVC012 06/04 A3025 RMK AO2 RAE53 P0000 FIBI (RS)","FM-16","6",,,,,,,,,,,,,,,,,,,,,,,,,,,,"2009-05-22"
"72503794745","2020-03-19T08:56:00","FM-15","7",,,,,,,,,,,,,,,,,,,,,,,,,,,,,,,,,,,,,,"30.25","40","42","T",,,,"92","30.27","BKN:07 7 OVC:08 12","29.82","10.00","41","040",,"9",,,,,,,,,,,,,,,,,,,,,,,,,,,,,,,,,,,,,"MET11703/19/20 08:56:02 METAR KHPN 191356Z 04008KT 10SM BKN007 OVC012 06/04 A3025 RMK AO2 RAE53 SLP249 P0000 T00560044 (RS)","FM-15","7",,,,,,,,,,,,,,,,,,,,,,,,,,,,"2009-05-22"
"72503794745","2020-03-19T09:56:00","FM-15","7",,,,,,,,,,,,,,,,,,,,,,,,,,,,,,,,,,,,,,"30.25","39","42",,,"+0.01","8","89","30.26","BKN:07 7 OVC:08 12","29.82","10.00","41","050",,"7",,,,,,,,,,,,,,,,,,,,,,,,,,,,,,,,,,,,,"MET11903/19/20 09:56:02 METAR KHPN 191456Z 05006KT 10SM BKN007 OVC012 06/04 A3025 RMK AO2 SLP248 6//// T00560039 58002 $ (RS)","FM-15","7",,,,,,,,,,,,,,,,,,,,,,,,,,,,"2009-05-22"
"72503794745","2020-03-19T10:56:00","FM-15","7",,,,,,,,,,,,,,,,,,,,,,,,,,,,,,,,,,,,,,"30.24","39","42","0.00",,,,"89","30.26","BKN:07 9 OVC:08 15","29.81","10.00","41","060",,"7",,,,,,,,,,,,,,,,,,,,,,,,,,,,,,,,,,,,,"MET10503/19/20 10:56:02 METAR KHPN 191556Z 06006KT 10SM BKN009 OVC015 06/04 A3024 RMK AO2 SLP246 T00560039 (FT)","FM-15","7",,,,,,,,,,,,,,,,,,,,,,,,,,,,"2009-05-22"
"72503794745","2020-03-19T11:54:00","FM-16","6",,,,,,,,,,,,,,,,,,,,,,,,,,,,,,,,,,,,,,"30.22","43","48",,,,,"82",,"BKN:07 11","29.79","10.00","46","010",,"9",,,,,,,,,,,,,,,,,,,,,,,,,,,,,,,,,,,,,"MET08803/19/20 11:54:02 SPECI KHPN 191654Z 01008KT 10SM BKN011 09/06 A3022 RMK AO2 $ FIBI (FT)","FM-16","6",,,,,,,,,,,,,,,,,,,,,,,,,,,,"2009-05-22"
"72503794745","2020-03-19T11:56:00","FM-15","7",,,,,,,,,,,,,,,,,,,,,,,,,,,,,,,,,,,,,,"30.22","42","48","0.00",,,,"80","30.23","BKN:07 11","29.79","10.00","45","010",,"9",,,,,,,,,,,,,,,,,,,,,,,,,,,,,,,,,,,,,"MET10003/19/20 11:56:02 METAR KHPN 191656Z 01008KT 10SM BKN011 09/06 A3022 RMK AO2 SLP237 T00890056 $ (FT)","FM-15","7",,,,,,,,,,,,,,,,,,,,,,,,,,,,"2009-05-22"
"72503794745","2020-03-19T12:56:00","FM-15","7",,,,,,,,,,,,,,,,,,,,,,,,,,,,,,,,,,,,,,"30.21","41","48","0.00",,"+0.04","8","77","30.22","OVC:08 12","29.78","10.00","45","360",,"6",,,,,,,,,,,,,,,,,,,,,,,,,,,,,,,,,,,,,"MET12403/19/20 12:56:02 METAR KHPN 191756Z 36005KT 10SM OVC012 09/05 A3021 RMK AO2 SLP234 6//// T00890050 10089 20044 58013 $ (FT)","FM-15","7",,,,,,,,,,,,,,,,,,,,,,,,,,,,"2009-05-22"
"72503794745","2020-03-19T13:56:00","FM-15","7",,,,,,,,,,,,,,,,,,,,,,,,,,,,,,,,,,,,,,"30.20","42","49","0.00",,,,"77","30.22","OVC:08 13","29.77","10.00","46","340",,"7",,,,,,,,,,,,,,,,,,,,,,,,,,,,,,,,,,,,,"MET10003/19/20 13:56:02 METAR KHPN 191856Z 34006KT 10SM OVC013 09/06 A3020 RMK AO2 SLP232 T00940056 $ (FT)","FM-15","7",,,,,,,,,,,,,,,,,,,,,,,,,,,,"2009-05-22"
"72503794745","2020-03-19T14:54:00","FM-16","6",,,,,,,,,,,,,,,,,,,,,,,,,,,,,,,,,,,,,,"30.18","43","50",,,,,"76",,"BKN:07 15","29.75","10.00","47","030",,"7",,,,,,,,,,,,,,,,,,,,,,,,,,,,,,,,,,,,,"MET08803/19/20 14:54:02 SPECI KHPN 191954Z 03006KT 10SM BKN015 10/06 A3018 RMK AO2 $ FIBI (FT)","FM-16","6",,,,,,,,,,,,,,,,,,,,,,,,,,,,"2009-05-22"
"72503794745","2020-03-19T14:56:00","FM-15","7",,,,,,,,,,,,,,,,,,,,,,,,,,,,,,,,,,,,,,"30.18","42","50","0.00",,,,"74","30.19","BKN:07 15","29.75","10.00","46","020",,"7",,,,,,,,,,,,,,,,,,,,,,,,,,,,,,,,,,,,,"MET10003/19/20 14:56:02 METAR KHPN 191956Z 02006KT 10SM BKN015 10/06 A3018 RMK AO2 SLP225 T01000056 $ (FT)","FM-15","7",,,,,,,,,,,,,,,,,,,,,,,,,,,,"2009-05-22"
"72503794745","2020-03-19T15:56:00","FM-15","7",,,,,,,,,,,,,,,,,,,,,,,,,,,,,,,,,,,,,,"30.20","42","49","0.00",,"+0.01","5","77","30.21","OVC:08 15","29.77","10.00","46","000",,"0",,,,,,,,,,,,,,,,,,,,,,,,,,,,,,,,,,,,,"MET10603/19/20 15:56:02 METAR KHPN 192056Z 00000KT 10SM OVC015 09/06 A3020 RMK AO2 SLP229 T00940056 55004 $ (FT)","FM-15","7",,,,,,,,,,,,,,,,,,,,,,,,,,,,"2009-05-22"
"72503794745","2020-03-19T16:56:00","FM-15","7",,,,,,,,,,,,,,,,,,,,,,,,,,,,,,,,,,,,,,"30.21","42","48","0.00",,,,"80","30.22","OVC:08 15","29.78","10.00","45","190",,"6",,,,,,,,,,,,,,,,,,,,,,,,,,,,,,,,,,,,,"MET10003/19/20 16:56:02 METAR KHPN 192156Z 19005KT 10SM OVC015 09/06 A3021 RMK AO2 SLP234 T00890056 $ (FT)","FM-15","7",,,,,,,,,,,,,,,,,,,,,,,,,,,,"2009-05-22"
"72503794745","2020-03-19T17:56:00","FM-15","7",,,,,,,,,,,,,,,,,,,,,,,,,,,,,,,,,,,,,,"30.21","42","47","0.00",,,,"83","30.22","FEW:02 11 OVC:08 15","29.78","10.00","45","000",,"0",,,,,,,,,,,,,,,,,,,,,,,,,,,,,,,,,,,,,"MET10703/19/20 17:56:02 METAR KHPN 192256Z 00000KT 10SM FEW011 OVC015 08/06 A3021 RMK AO2 SLP235 T00830056 $ (FT)","FM-15","7",,,,,,,,,,,,,,,,,,,,,,,,,,,,"2009-05-22"
"72503794745","2020-03-19T18:56:00","FM-15","7",,,,,,,,,,,,,,,,,,,,,,,,,,,,,,,,,,,,,,"30.23","42","46","0.00",,"-0.03","3","86","30.24","OVC:08 15","29.80","10.00","44","000",,"0",,,,,,,,,,,,,,,,,,,,,,,,,,,,,,,,,,,,,"MET11803/19/20 18:56:02 METAR KHPN 192356Z 00000KT 10SM OVC015 08/06 A3023 RMK AO2 SLP240 T00780056 10100 20078 53010 $ (FT)","FM-15","7",,,,,,,,,,,,,,,,,,,,,,,,,,,,"2009-05-22"
"72503794745","2020-03-19T19:56:00","FM-15","7",,,,,,,,,,,,,,,,,,,,,,,,,,,,,,,,,,,,,,"30.21","41","46","0.00",,,,"83","30.22","OVC:08 15","29.78","10.00","44","130",,"3",,,,,,,,,,,,,,,,,,,,,,,,,,,,,,,,,,,,,"MET09503/19/20 19:56:01 METAR KHPN 200056Z 13003KT 10SM OVC015 08/05 A3021 RMK AO2 SLP235 T00780050 $","FM-15","7",,,,,,,,,,,,,,,,,,,,,,,,,,,,"2009-05-22"
"72503794745","2020-03-19T20:54:00","FM-16","6",,,,,,,,,,,,,,,,,,,,,,,,,,,,,,,,,,,,,,"30.23","41","45",,,,,"87",,"OVC:08 13","29.80","10.00","43","160",,"3",,,,,,,,,,,,,,,,,,,,,,,,,,,,,,,,,,,,,"MET08803/19/20 20:54:03 SPECI KHPN 200154Z 16003KT 10SM OVC013 07/05 A3023 RMK AO2 $ FIBI (JR)","FM-16","6",,,,,,,,,,,,,,,,,,,,,,,,,,,,"2009-05-22"
"72503794745","2020-03-19T20:56:00","FM-15","7",,,,,,,,,,,,,,,,,,,,,,,,,,,,,,,,,,,,,,"30.22","41","45","0.00",,,,"86","30.24","OVC:08 13","29.79","10.00","43","170",,"3",,,,,,,,,,,,,,,,,,,,,,,,,,,,,,,,,,,,,"MET09503/19/20 20:56:01 METAR KHPN 200156Z 17003KT 10SM OVC013 07/05 A3022 RMK AO2 SLP239 T00720050 $","FM-15","7",,,,,,,,,,,,,,,,,,,,,,,,,,,,"2009-05-22"
"72503794745","2020-03-19T21:56:00","FM-15","7",,,,,,,,,,,,,,,,,,,,,,,,,,,,,,,,,,,,,,"30.21","41","45","0.00",,"+0.02","8","86","30.22","OVC:08 12","29.78","10.00","43","000",,"0",,,,,,,,,,,,,,,,,,,,,,,,,,,,,,,,,,,,,"MET10103/19/20 21:56:02 METAR KHPN 200256Z 00000KT 10SM OVC012 07/05 A3021 RMK AO2 SLP233 T00720050 58007 $","FM-15","7",,,,,,,,,,,,,,,,,,,,,,,,,,,,"2009-05-22"
"72503794745","2020-03-19T22:56:00","FM-15","7",,,,,,,,,,,,,,,,,,,,,,,,,,,,,,,,,,,,,,"30.19","41","45","0.00",,,,"86","30.20","OVC:08 12","29.76","10.00","43","130",,"5",,,,,,,,,,,,,,,,,,,,,,,,,,,,,,,,,,,,,"MET09503/19/20 22:56:02 METAR KHPN 200356Z 13004KT 10SM OVC012 07/05 A3019 RMK AO2 SLP228 T00720050 $","FM-15","7",,,,,,,,,,,,,,,,,,,,,,,,,,,,"2009-05-22"
"72503794745","2020-03-19T23:56:00","FM-15","7",,,,,,,,,,,,,,,,,,,,,,,,,,,,,,,,,,,,,,"30.17","41","44","0.00",,,,"89","30.18","OVC:08 12","29.74","10.00","43","130",,"6",,,,,,,,,,,,,,,,,,,,,,,,,,,,,,,,,,,,,"MET10503/19/20 23:56:02 METAR KHPN 200456Z 13005KT 10SM OVC012 07/05 A3017 RMK AO2 SLP219 T00670050 401220028 $","FM-15","7",,,,,,,,,,,,,,,,,,,,,,,,,,,,"2009-05-22"
"72503794745","2020-03-19T23:59:00","SOD  ","6",,,,,,,,,,,,,,,,"46",,,"29.83",,"5.5","0","7.2","19","54","37","020","16","0.70",,,"020","12","RA BR",,,,,,,,,,,,,,,,,,,,,,,,,,,,,,,,,,,,,,,,,,,,,,,,,,,,,,,,"SOD73024 HR PRECIPITATION (IN):0.70  24 HR MAX TEMP (F):54 24 HR MAX TEMP TIME (LST):0956 24 HR MIN TEMP (F):37 24 HR MIN TEMP TIME (LST):0340 AVERAGE STATION PRESSURE:29.825 MINIMUM SEA LEVEL PRESSURE:30.17 TIME OF OCCURRENCE:2357 PEAK WIND SPEED (MPH):16  PEAK WIND DIR (DEG):20  PEAK WIND TIME (LST):1159  FASTEST 2MIN SPEED (MPH):12 FASTEST 2MIN DIR (DEG):20  FASTEST 2MIN TIME (LST):0929 AVERAGE WIND SPEED (MPH):5.5  24 HR AVG TEMP (F):46 HEATING DEGREE DAYS:19  COOLING DEGREE DAYS:0   LATEST DAY MAX TEMP (0700-1900 LST):50  LATEST NIGHT MIN TEMP(1900-0800 LST):37 HOURLY INCREMENTAL PRECIPITATION VALUES (IN):.02 0.09 0.12 0.13 0.16 0.13 0.04 0.01 T    M    0.00 0.00 0.00 0.00 0.00 0.00 0.00 0.00 0.00 0.00 0.00 0.00 0.00 0.00","SOD  ","6",,,,,,,,,,,,,,,,,,,,,,,,,"0559","1807",,"2009-05-22"
"72503794745","2020-03-20T00:56:00","FM-15","7",,,,,,,,,,,,,,,,,,,,,,,,,,,,,,,,,,,,,,"30.13","41","44","T","-RA:02 |RA |RA","+0.08","8","89","30.14","OVC:08 11","29.70","10.00","43","140",,"9",,,,,,,,,,,,,,,,,,,,,,,,,,,,,,,,,,,,,"MET14003/20/20 00:56:02 METAR KHPN 200556Z 14008KT 10SM -RA OVC011 07/05 A3013 RMK AO2 RAB04 SLP206 P0000 60000 T00670050 10083 20067 58026 $ (JR)","FM-15","7",,,,,,,,,,,,,,,,,,,,,,,,,,,,"2009-05-22"
"72503794745","2020-03-20T01:56:00","FM-15","7",,,,,,,,,,,,,,,,,,,,,,,,,,,,,,,,,,,,,,"30.10","41","44","T",,,,"89","30.11","OVC:08 10","29.67","10.00","43","120",,"7",,,,,,,,,,,,,,,,,,,,,,,,,,,,,,,,,,,,,"MET12003/20/20 01:56:02 METAR KHPN 200656Z 12006KT 10SM OVC010 07/05 A3010 RMK AO2 RAE0557B45E55 SLP197 P0000 T00670050 $ (JR)","FM-15","7",,,,,,,,,,,,,,,,,,,,,,,,,,,,"2009-05-22"
"72503794745","2020-03-20T02:56:00","FM-15","7",,,,,,,,,,,,,,,,,,,,,,,,,,,,,,,,,,,,,,"30.06","41","44","0.00",,,,"89","30.07","OVC:08 10","29.63","10.00","43","130",,"6",,,,,,,,,,,,,,,,,,,,,,,,,,,,,,,,,,,,,"MET10003/20/20 02:56:02 METAR KHPN 200756Z 13005KT 10SM OVC010 07/05 A3006 RMK AO2 SLP183 T00670050 $ (JR)","FM-15","7",,,,,,,,,,,,,,,,,,,,,,,,,,,,"2009-05-22"
"72503794745","2020-03-20T03:56:00","FM-15","7",,,,,,,,,,,,,,,,,,,,,,,,,,,,,,,,,,,,,,"30.05","41","44","0.00",,"+0.08","6","89","30.06","OVC:08 10","29.62","10.00","43","160",,"6",,,,,,,,,,,,,,,,,,,,,,,,,,,,,,,,,,,,,"MET11203/20/20 03:56:02 METAR KHPN 200856Z 16005KT 10SM OVC010 07/05 A3005 RMK AO2 SLP179 60000 T00670050 56027 $ (JR)","FM-15","7",,,,,,,,,,,,,,,,,,,,,,,,,,,,"2009-05-22"
"72503794745","2020-03-20T04:54:00","FM-16","6",,,,,,,,,,,,,,,,,,,,,,,,,,,,,,,,,,,,,,"30.03","43","45",,"-DZ:01 BR:1 |DZ |DZ",,,"93",,"BKN:07 4 OVC:08 10","29.60","5.00","44","160",,"5",,,,,,,,,,,,,,,,,,,,,,,,,,,,,,,,,,,,,"MET11603/20/20 04:54:02 SPECI KHPN 200954Z 16004KT 5SM -DZ BR BKN004 OVC010 07/06 A3003 RMK AO2 RAB24E40DZB53 P0000 $ FIBI","FM-16","6",,,,,,,,,,,,,,,,,,,,,,,,,,,,"2009-05-22"
"72503794745","2020-03-20T04:56:00","FM-15","7",,,,,,,,,,,,,,,,,,,,,,,,,,,,,,,,,,,,,,"30.03","42","44","T","-DZ:01 BR:1 |DZ |DZ",,,"93","30.04","BKN:07 4 OVC:08 10","29.60","5.00","43","160",,"6",,,,,,,,,,,,,,,,,,,,,,,,,,,,,,,,,,,,,"MET13303/20/20 04:56:02 METAR KHPN 200956Z 16005KT 5SM -DZ BR BKN004 OVC010 07/06 A3003 RMK AO2 RAB24E40DZB53 SLP174 P0000 T00670056 $ (ML)","FM-15","7",,,,,,,,,,,,,,,,,,,,,,,,,,,,"2009-05-22"
"72503794745","2020-03-20T05:38:00","FM-16","7",,,,,,,,,,,,,,,,,,,,,,,,,,,,,,,,,,,,,,"30.04","43","44","T","-RA:02 BR:1 |RA |RA",,,"96",,"VV:09 3","29.61","0.75","44","000",,"0",,,,,,,,,,,,,,,,,,,,,,,,,,,,,,,,,,,,,"MET12903/20/20 05:38:02 SPECI KHPN 201038Z 00000KT 3/4SM R16/P6000FT -RA BR VV003 07/06 A3004 RMK AO2 DZE25RAB25 P0000 T00670061 $ (ML)","FM-16","7",,,,,,,,,,,,,,,,,,,,,,,,,,,,"2009-05-22"
"72503794745","2020-03-20T05:56:00","FM-15","7",,,,,,,,,,,,,,,,,,,,,,,,,,,,,,,,,,,,,,"30.03","43","44","T","+DZ:01 FG:2 |FG DZ |DZ",,,"96","30.04","VV:09 2","29.60","0.25","44","000",,"0",,,,,,,,,,,,,,,,,,,,,,,,,,,,,,,,,,,,,"MET15303/20/20 05:56:02 METAR KHPN 201056Z 00000KT 1/4SM R16/4500VP6000FT +DZ FG VV002 07/06 A3003 RMK SFC VIS 1/2 AO2 DZE25RAB25 SLP173 P0000 T00670061 $ (ML)","FM-15","7",,,,,,,,,,,,,,,,,,,,,,,,,,,,"2009-05-22"
"72503794745","2020-03-20T06:29:00","FM-16","7",,,,,,,,,,,,,,,,,,,,,,,,,,,,,,,,,,,,,,"30.00","43","44","T","FG:2 |FG |",,,"96",,"VV:09 1","29.57","0.00","44","140",,"7",,,,,,,,,,,,,,,,,,,,,,,,,,,,,,,,,,,,,"MET12503/20/20 06:29:02 SPECI KHPN 201129Z 14006KT M1/4SM R16/1600V2000FT FG VV001 07/06 A3000 RMK AO2 RAE28 P0000 T00670061 $ (ML)","FM-16","7",,,,,,,,,,,,,,,,,,,,,,,,,,,,"2009-05-22"
"72503794745","2020-03-20T06:54:00","FM-16","6",,,,,,,,,,,,,,,,,,,,,,,,,,,,,,,,,,,,,,"30.00","45","45",,"FG:2 |FG |",,,"100",,"VV:09 1","29.57","0.25","45","150",,"5",,,,,,,,,,,,,,,,,,,,,,,,,,,,,,,,,,,,,"MET12003/20/20 06:54:02 SPECI KHPN 201154Z 15004KT 1/4SM R16/1200FT FG VV001 07/07 A3000 RMK AO2 RAE28B31E41 P0000 $ FIBI (ML)","FM-16","6",,,,,,,,,,,,,,,,,,,,,,,,,,,,"2009-05-22"
"72503794745","2020-03-20T06:56:00","FM-15","7",,,,,,,,,,,,,,,,,,,,,,,,,,,,,,,,,,,,,,"29.99","44","45","T","FG:2 |FG |","+0.05","8","97","30.00","VV:09 1","29.56","0.25","45","160",,"5",,,,,,,,,,,,,,,,,,,,,,,,,,,,,,,,,,,,,"MET16203/20/20 06:56:02 METAR KHPN 201156Z 16004KT 1/4SM R16/1200FT FG VV001 07/07 A2999 RMK AO2 RAE28B31E41 SLP160 P0000 60000 7//// T00720067 10072 20067 58018 $ (ML)","FM-15","7",,,,,,,,,,,,,,,,,,,,,,,,,,,,"2009-05-22"
"72503794745","2020-03-20T07:56:00","FM-15","7",,,,,,,,,,,,,,,,,,,,,,,,,,,,,,,,,,,,,,"29.98","45","45","0.00","FG:2 |FG |",,,"100","29.98","VV:09 1","29.55","0.25","45","000",,"0",,,,,,,,,,,,,,,,,,,,,,,,,,,,,,,,,,,,,"MET11403/20/20 07:56:02 METAR KHPN 201256Z 00000KT 1/4SM R16/1200FT FG VV001 07/07 A2998 RMK AO2 SLP154 T00720072 $ (ML)","FM-15","7",,,,,,,,,,,,,,,,,,,,,,,,,,,,"2009-05-22"
"72503794745","2020-03-20T08:56:00","FM-15","7",,,,,,,,,,,,,,,,,,,,,,,,,,,,,,,,,,,,,,"29.96","45","46","0.00","FG:2 |FG |",,,"96","29.97","VV:09 1","29.53","0.00","46","150",,"5",,,,,,,,,,,,,,,,,,,,,,,,,,,,,,,,,,,,,"MET12003/20/20 08:56:02 METAR KHPN 201356Z 15004KT M1/4SM R16/1000V1400FT FG VV001 08/07 A2996 RMK AO2 SLP148 T00780072 $ (ML)","FM-15","7",,,,,,,,,,,,,,,,,,,,,,,,,,,,"2009-05-22"
"72503794745","2020-03-20T09:56:00","FM-15","7",,,,,,,,,,,,,,,,,,,,,,,,,,,,,,,,,,,,,,"29.95","47","48","0.00","FG:2 |FG |","+0.04","6","96","29.96","VV:09 1","29.52","0.00","48","270",,"5",,,,,,,,,,,,,,,,,,,,,,,,,,,,,,,,,,,,,"MET12403/20/20 09:56:02 METAR KHPN 201456Z 27004KT M1/4SM R16/1200V1400FT FG VV001 09/08 A2995 RMK AO2 SLP145 T00890083 56015 (ML)","FM-15","7",,,,,,,,,,,,,,,,,,,,,,,,,,,,"2009-05-22"
"72503794745","2020-03-20T10:26:00","FM-16","7",,,,,,,,,,,,,,,,,,,,,,,,,,,,,,,,,,,,,,"29.93","48","49",,"FG:2 |FG |",,,"97",,"VV:09 1","29.50","0.00","48","190",,"6",,,,,,,,,,,,,,,,,,,,,,,,,,,,,,,,,,,,,"MET11103/20/20 10:26:02 SPECI KHPN 201526Z 19005KT M1/4SM R16/1800V2800FT FG VV001 09/09 A2993 RMK AO2 T00940089 (ML)","FM-16","7",,,,,,,,,,,,,,,,,,,,,,,,,,,,"2009-05-22"
"72503794745","2020-03-20T10:28:00","FM-16","7",,,,,,,,,,,,,,,,,,,,,,,,,,,,,,,,,,,,,,"29.93","48","49",,"FG:2 |FG |",,,"97",,"VV:09 2","29.50","0.25","48","190",,"7",,,,,,,,,,,,,,,,,,,,,,,,,,,,,,,,,,,,,"MET12203/20/20 10:28:02 SPECI KHPN 201528Z 19006KT 1/4SM R16/1800V3500FT FG VV002 09/09 A2993 RMK AO2 SFC VIS 3/4 T00940089 (ML)","FM-16","7",,,,,,,,,,,,,,,,,,,,,,,,,,,,"2009-05-22"
"72503794745","2020-03-20T10:54:00","FM-16","6",,,,,,,,,,,,,,,,,,,,,,,,,,,,,,,,,,,,,,"29.92","48","50",,"BR:1 ||",,,"94",,"VV:09 2","29.49","0.75","49","000",,"0",,,,,,,,,,,,,,,,,,,,,,,,,,,,,,,,,,,,,"MET11303/20/20 10:54:02 SPECI KHPN 201554Z 00000KT 3/4SM R16/P6000FT BR VV002 10/09 A2992 RMK AO2 SFC VIS 3/4 FIBI (RS)","FM-16","6",,,,,,,,,,,,,,,,,,,,,,,,,,,,"2009-05-22"
"72503794745","2020-03-20T10:56:00","FM-15","7",,,,,,,,,,,,,,,,,,,,,,,,,,,,,,,,,,,,,,"29.92","49","50","0.00","BR:1 ||",,,"96","29.93","VV:09 2","29.49","0.75","49","220",,"3",,,,,,,,,,,,,,,,,,,,,,,,,,,,,,,,,,,,,"MET12503/20/20 10:56:02 METAR KHPN 201556Z 22003KT 3/4SM R16/P6000FT BR VV002 10/09 A2992 RMK AO2 SLP134 SFC VIS 3/4 T01000094 (RS)","FM-15","7",,,,,,,,,,,,,,,,,,,,,,,,,,,,"2009-05-22"
"72503794745","2020-03-20T11:42:00","FM-16","7",,,,,,,,,,,,,,,,,,,,,,,,,,,,,,,,,,,,,,"29.90","51","54",,"BR:1 ||",,,"90",,"OVC:08 6","29.47","1.50","52","240",,"5",,,,,,,,,,,,,,,,,,,,,,,,,,,,,,,,,,,,,"MET09703/20/20 11:42:02 SPECI KHPN 201642Z 24004KT 1 1/2SM BR OVC006 12/11 A2990 RMK AO2 T01220106 (RS)","FM-16","7",,,,,,,,,,,,,,,,,,,,,,,,,,,,"2009-05-22"
"72503794745","2020-03-20T11:56:00","FM-15","7",,,,,,,,,,,,,,,,,,,,,,,,,,,,,,,,,,,,,,"29.89","52","55","T","BR:1 ||",,,"90","29.90","OVC:08 8","29.46","1.50","53","VRB",,"8",,,,,,,,,,,,,,,,,,,,,,,,,,,,,,,,,,,,,"MET10403/20/20 11:56:02 METAR KHPN 201656Z 23007KT 1 1/2SM BR OVC008 13/11 A2989 RMK AO2 SLP124 T01280111 (RS)","FM-15","7",,,,,,,,,,,,,,,,,,,,,,,,,,,,"2009-05-22"
"72503794745","2020-03-20T12:54:00","FM-16","6",,,,,,,,,,,,,,,,,,,,,,,,,,,,,,,,,,,,,,"29.85","54","57",,,,,"88",,"BKN:07 100","29.42","7.00","55","000",,"0",,,,,,,,,,,,,,,,,,,,,,,,,,,,,,,,,,,,,"MET11703/20/20 12:54:02 SPECI KHPN 201754Z 00000KT 7SM BKN100 14/12 A2985 RMK AO2 RAB1659E09DZB09E21 PRESFR P0000 FIBI (RS)","FM-16","6",,,,,,,,,,,,,,,,,,,,,,,,,,,,"2009-05-22"
"72503794745","2020-03-20T12:56:00","FM-15","7",,,,,,,,,,,,,,,,,,,,,,,,,,,,,,,,,,,,,,"29.85","53","58","T",,"+0.10","8","84","29.85","BKN:07 100","29.42","8.00","55","000",,"0",,,,,,,,,,,,,,,,,,,,,,,,,,,,,,,,,,,,,"MET15303/20/20 12:56:02 METAR KHPN 201756Z 00000KT 8SM BKN100 14/12 A2985 RMK AO2 RAB1659E09DZB09E21 PRESFR SLP109 P0000 60000 T01440117 10144 20072 58035 (RS)","FM-15","7",,,,,,,,,,,,,,,,,,,,,,,,,,,,"2009-05-22"
"72503794745","2020-03-20T13:56:00","FM-15","7",,,,,,,,,,,,,,,,,,,,,,,,,,,,,,,,,,,,,,"29.81","56","63","0.00",,,,"78","29.81","SCT:04 110","29.39","8.00","59","VRB",,"6",,,,,,,,,,,,,,,,,,,,,,,,,,,,,,,,,,,,,"MET09703/20/20 13:56:02 METAR KHPN 201856Z VRB05KT 8SM SCT110 17/13 A2981 RMK AO2 SLP094 T01720133 (RS)","FM-15","7",,,,,,,,,,,,,,,,,,,,,,,,,,,,"2009-05-22"
"72503794745","2020-03-20T14:56:00","FM-15","7",,,,,,,,,,,,,,,,,,,,,,,,,,,,,,,,,,,,,,"29.77","58","69","0.00",,,,"68","29.77","CLR:00","29.34","10.00","62","VRB","16","6",,,,,,,,,,,,,,,,,,,,,,,,,,,,,,,,,,,,,"MET10003/20/20 14:56:02 METAR KHPN 201956Z VRB05G14KT 10SM CLR 21/14 A2977 RMK AO2 SLP082 T02060144 $ (RS)","FM-15","7",,,,,,,,,,,,,,,,,,,,,,,,,,,,"2009-05-22"
"72503794745","2020-03-20T15:56:00","FM-15","7",,,,,,,,,,,,,,,,,,,,,,,,,,,,,,,,,,,,,,"29.76","58","72","0.00",,"+0.09","6","61","29.75","SCT:04 85","29.34","10.00","64","VRB","18","10",,,,,,,,,,,,,,,,,,,,,,,,,,,,,,,,,,,,,"MET10903/20/20 15:56:02 METAR KHPN 202056Z 21009G16KT 10SM SCT085 22/14 A2976 RMK AO2 SLP076 T02220144 56030 $ (RS)","FM-15","7",,,,,,,,,,,,,,,,,,,,,,,,,,,,"2009-05-22"
"72503794745","2020-03-20T16:56:00","FM-15","7",,,,,,,,,,,,,,,,,,,,,,,,,,,,,,,,,,,,,,"29.77","55","73","0.00",,,,"53","29.76","SCT:04 90","29.34","10.00","62","250","21","11",,,,,,,,,,,,,,,,,,,,,,,,,,,,,,,,,,,,,"MET10303/20/20 16:56:02 METAR KHPN 202156Z 25010G18KT 10SM SCT090 23/13 A2977 RMK AO2 SLP078 T02280128 $ (RS)","FM-15","7",,,,,,,,,,,,,,,,,,,,,,,,,,,,"2009-05-22"
"72503794745","2020-03-20T17:56:00","FM-15","7",,,,,,,,,,,,,,,,,,,,,,,,,,,,,,,,,,,,,,"29.80","55","72","0.00",,,,"55","29.79","SCT:04 90","29.37","10.00","62","VRB","22","13",,,,,,,,,,,,,,,,,,,,,,,,,,,,,,,,,,,,,"MET10303/20/20 17:56:02 METAR KHPN 202256Z 26011G19KT 10SM SCT090 22/13 A2980 RMK AO2 SLP089 T02220128 $ (RS)","FM-15","7",,,,,,,,,,,,,,,,,,,,,,,,,,,,"2009-05-22"
"72503794745","2020-03-20T18:56:00","FM-15","7",,,,,,,,,,,,,,,,,,,,,,,,,,,,,,,,,,,,,,"29.83","53","71","0.00",,"-0.07","3","53","29.83","BKN:07 85 BKN:07 110","29.40","10.00","61","280","22","13",,,,,,,,,,,,,,,,,,,,,,,,,,,,,,,,,,,,,"MET14603/20/20 18:56:02 METAR KHPN 202356Z 28011G19KT 10SM BKN085 BKN110 22/12 A2983 RMK AO2 PK WND 27026/2334 SLP101 T02170117 10233 20144 53024 $ (RS)","FM-15","7",,,,,,,,,,,,,,,,,,,,,,,,,,,,"2009-05-22"
"72503794745","2020-03-20T19:56:00","FM-15","7",,,,,,,,,,,,,,,,,,,,,,,,,,,,,,,,,,,,,,"29.85","47","70","0.00",,,,"44","29.85","FEW:02 80","29.42","10.00","57","260","18","11",,,,,,,,,,,,,,,,,,,,,,,,,,,,,,,,,,,,,"MET09803/20/20 19:56:01 METAR KHPN 210056Z 26010G16KT 10SM FEW080 21/08 A2985 RMK AO2 SLP107 T02110083 $","FM-15","7",,,,,,,,,,,,,,,,,,,,,,,,,,,,"2009-05-22"
"72503794745","2020-03-20T20:56:00","FM-15","7",,,,,,,,,,,,,,,,,,,,,,,,,,,,,,,,,,,,,,"29.85","46","69","T","-DZ:01 |DZ |DZ",,,"44","29.85","SCT:04 80","29.42","10.00","57","260","21","9",,,,,,,,,,,,,,,,,,,,,,,,,,,,,,,,,,,,,"MET11403/20/20 20:56:01 METAR KHPN 210156Z 26008G18KT 10SM -DZ SCT080 21/08 A2985 RMK AO2 DZB25 SLP109 P0000 T02060078 $","FM-15","7",,,,,,,,,,,,,,,,,,,,,,,,,,,,"2009-05-22"
"72503794745","2020-03-20T21:56:00","FM-15","7",,,,,,,,,,,,,,,,,,,,,,,,,,,,,,,,,,,,,,"29.88","47","68","T",,"-0.04","3","47","29.87","OVC:08 90","29.45","10.00","57","270","21","10",,,,,,,,,,,,,,,,,,,,,,,,,,,,,,,,,,,,,"MET12203/20/20 21:56:01 METAR KHPN 210256Z 27009G18KT 10SM OVC090 20/08 A2988 RMK AO2 DZE07 SLP116 P0000 60000 T02000083 53015 $","FM-15","7",,,,,,,,,,,,,,,,,,,,,,,,,,,,"2009-05-22"
"72503794745","2020-03-20T22:56:00","FM-15","7",,,,,,,,,,,,,,,,,,,,,,,,,,,,,,,,,,,,,,"29.91","48","64","T",,,,"56","29.91","FEW:02 50 BKN:07 110","29.48","10.00","55","300",,"15",,,,,,,,,,,,,,,,,,,,,,,,,,,,,,,,,,,,,"MET11703/20/20 22:56:02 METAR KHPN 210356Z 30013KT 10SM FEW050 BKN110 18/09 A2991 RMK AO2 RAB18E52 SLP127 P0000 T01780089 $","FM-15","7",,,,,,,,,,,,,,,,,,,,,,,,,,,,"2009-05-22"
"72503794745","2020-03-20T23:56:00","FM-15","7",,,,,,,,,,,,,,,,,,,,,,,,,,,,,,,,,,,,,,"29.94","44","59","0.00",,,,"58","29.94","CLR:00","29.51","10.00","51","320","29","18",,,,,,,,,,,,,,,,,,,,,,,,,,,,,,,,,,,,,"MET12303/20/20 23:56:02 METAR KHPN 210456Z 32016G25KT 10SM CLR 15/07 A2994 RMK AO2 PK WND 32028/0436 SLP139 T01500067 402330067 $","FM-15","7",,,,,,,,,,,,,,,,,,,,,,,,,,,,"2009-05-22"
"72503794745","2020-03-20T23:59:00","SOD  ","6",,,,,,,,,,,,,,,,"59",,,"29.52",,"7.6","0","19.8","6","74","44","320","32","T",,,"320","24","RA DZ FG BR",,,,,,,,,,,,,,,,,,,,,,,,,,,,,,,,,,,,,,,,,,,,,,,,,,,,,,,,"SOD73024 HR PRECIPITATION (IN):T     24 HR MAX TEMP (F):74 24 HR MAX TEMP TIME (LST):1646 24 HR MIN TEMP (F):44 24 HR MIN TEMP TIME (LST):0651 AVERAGE STATION PRESSURE:29.520 MINIMUM SEA LEVEL PRESSURE:29.75 TIME OF OCCURRENCE:1630 PEAK WIND SPEED (MPH):32  PEAK WIND DIR (DEG):320 PEAK WIND TIME (LST):2336  FASTEST 2MIN SPEED (MPH):24 FASTEST 2MIN DIR (DEG):320 FASTEST 2MIN TIME (LST):2340 AVERAGE WIND SPEED (MPH):7.6  24 HR AVG TEMP (F):59 HEATING DEGREE DAYS:6   COOLING DEGREE DAYS:0   LATEST DAY MAX TEMP (0700-1900 LST):74  LATEST NIGHT MIN TEMP(1900-0800 LST):44 HOURLY INCREMENTAL PRECIPITATION VALUES (IN):    T    0.00 0.00 T    T    T    0.00 0.00 0.00 0.00 T    T    0.00 0.00 0.00 0.00 0.00 0.00 0.00 T    T    T    0.00","SOD  ","6",,,,,,,,,,,,,,,,,,,,,,,,,"0557","1808",,"2009-05-22"
"72503794745","2020-03-21T00:56:00","FM-15","7",,,,,,,,,,,,,,,,,,,,,,,,,,,,,,,,,,,,,,"29.99","40","55","0.00",,"-0.11","3","57","29.98","CLR:00","29.56","10.00","48","320","29","22",,,,,,,,,,,,,,,,,,,,,,,,,,,,,,,,,,,,,"MET14203/21/20 00:56:02 METAR KHPN 210556Z 32019G25KT 10SM CLR 13/04 A2999 RMK AO2 PK WND 32026/0519 SLP154 60000 T01280044 10217 20128 53037 $ (EC)","FM-15","7",,,,,,,,,,,,,,,,,,,,,,,,,,,,"2009-05-22"
"72503794745","2020-03-21T01:56:00","FM-15","7",,,,,,,,,,,,,,,,,,,,,,,,,,,,,,,,,,,,,,"30.02","37","50","0.00",,,,"61","30.02","CLR:00","29.59","10.00","44","330","28","14",,,,,,,,,,,,,,,,,,,,,,,,,,,,,,,,,,,,,"MET11803/21/20 01:56:02 METAR KHPN 210656Z 33012G24KT 10SM CLR 10/03 A3002 RMK AO2 PK WND 32029/0558 SLP166 T01000028 $ (EC)","FM-15","7",,,,,,,,,,,,,,,,,,,,,,,,,,,,"2009-05-22"
"72503794745","2020-03-21T02:56:00","FM-15","7",,,,,,,,,,,,,,,,,,,,,,,,,,,,,,,,,,,,,,"30.05","33","48","0.00",,,,"56","30.05","FEW:02 95","29.62","10.00","41","320","30","21",,,,,,,,,,,,,,,,,,,,,,,,,,,,,,,,,,,,,"MET12103/21/20 02:56:02 METAR KHPN 210756Z 32018G26KT 10SM FEW095 09/01 A3005 RMK AO2 PK WND 32031/0708 SLP175 T00890006 $ (EC)","FM-15","7",,,,,,,,,,,,,,,,,,,,,,,,,,,,"2009-05-22"
"72503794745","2020-03-21T03:56:00","FM-15","7",,,,,,,,,,,,,,,,,,,,,,,,,,,,,,,,,,,,,,"30.09","29","46","0.00",,"-0.10","1","51","30.08","SCT:04 90","29.66","10.00","39","320","26","18",,,,,,,,,,,,,,,,,,,,,,,,,,,,,,,,,,,,,"MET11003/21/20 03:56:02 METAR KHPN 210856Z 32016G23KT 10SM SCT090 08/M02 A3009 RMK AO2 SLP187 T00781017 51034 $ (EC)","FM-15","7",,,,,,,,,,,,,,,,,,,,,,,,,,,,"2009-05-22"
"72503794745","2020-03-21T04:56:00","FM-15","7",,,,,,,,,,,,,,,,,,,,,,,,,,,,,,,,,,,,,,"30.13","28","44","0.00",,,,"53","30.12","SCT:04 90","29.70","10.00","38","330",,"11",,,,,,,,,,,,,,,,,,,,,,,,,,,,,,,,,,,,,"MET10103/21/20 04:56:02 METAR KHPN 210956Z 33010KT 10SM SCT090 07/M02 A3013 RMK AO2 SLP201 T00671022 $ (EC)","FM-15","7",,,,,,,,,,,,,,,,,,,,,,,,,,,,"2009-05-22"
"72503794745","2020-03-21T05:56:00","FM-15","7",,,,,,,,,,,,,,,,,,,,,,,,,,,,,,,,,,,,,,"30.17","27","41","0.00",,,,"57","30.17","FEW:02 40","29.74","10.00","36","010",,"14",,,,,,,,,,,,,,,,,,,,,,,,,,,,,,,,,,,,,"MET10103/21/20 05:56:02 METAR KHPN 211056Z 01012KT 10SM FEW040 05/M03 A3017 RMK AO2 SLP217 T00501028 $ (EC)","FM-15","7",,,,,,,,,,,,,,,,,,,,,,,,,,,,"2009-05-22"
"72503794745","2020-03-21T06:56:00","FM-15","7",,,,,,,,,,,,,,,,,,,,,,,,,,,,,,,,,,,,,,"30.23","25","39","0.00",,"-0.14","3","57","30.23","FEW:02 40 SCT:04 80","29.80","10.00","34","340",,"13",,,,,,,,,,,,,,,,,,,,,,,,,,,,,,,,,,,,,"MET13303/21/20 06:56:02 METAR KHPN 211156Z 34011KT 10SM FEW040 SCT080 04/M04 A3023 RMK AO2 PRESRR SLP237 T00391039 10128 20039 53049 $ (EC)","FM-15","7",,,,,,,,,,,,,,,,,,,,,,,,,,,,"2009-05-22"
"72503794745","2020-03-21T07:56:00","FM-15","7",,,,,,,,,,,,,,,,,,,,,,,,,,,,,,,,,,,,,,"30.25","25","39","0.00",,,,"57","30.26","FEW:02 40 BKN:07 100","29.82","10.00","34","340","22","16",,,,,,,,,,,,,,,,,,,,,,,,,,,,,,,,,,,,,"MET10903/21/20 07:56:02 METAR KHPN 211256Z 34014G19KT 10SM FEW040 BKN100 04/M04 A3025 RMK AO2 SLP246 T00391039 (WS)","FM-15","7",,,,,,,,,,,,,,,,,,,,,,,,,,,,"2009-05-22"
"72503794745","2020-03-21T08:56:00","FM-15","7",,,,,,,,,,,,,,,,,,,,,,,,,,,,,,,,,,,,,,"30.28","22","40","0.00",,,,"49","30.29","FEW:02 40 BKN:07 100","29.85","10.00","33","360",,"16",,,,,,,,,,,,,,,,,,,,,,,,,,,,,,,,,,,,,"MET10603/21/20 08:56:02 METAR KHPN 211356Z 36014KT 10SM FEW040 BKN100 04/M06 A3028 RMK AO2 SLP256 T00441056 (WS)","FM-15","7",,,,,,,,,,,,,,,,,,,,,,,,,,,,"2009-05-22"
"72503794745","2020-03-21T09:56:00","FM-15","7",,,,,,,,,,,,,,,,,,,,,,,,,,,,,,,,,,,,,,"30.31","21","42","0.00",,"-0.08","1","43","30.31","SCT:04 80","29.88","10.00","34","340","25","17",,,,,,,,,,,,,,,,,,,,,,,,,,,,,,,,,,,,,"MET10803/21/20 09:56:02 METAR KHPN 211456Z 34015G22KT 10SM SCT080 06/M06 A3031 RMK AO2 SLP264 T00561061 51026 (WS)","FM-15","7",,,,,,,,,,,,,,,,,,,,,,,,,,,,"2009-05-22"
"72503794745","2020-03-21T10:56:00","FM-15","7",,,,,,,,,,,,,,,,,,,,,,,,,,,,,,,,,,,,,,"30.31","19","44","0.00",,,,"37","30.32","FEW:02 40","29.88","10.00","35","010","24","17",,,,,,,,,,,,,,,,,,,,,,,,,,,,,,,,,,,,,"MET10203/21/20 10:56:02 METAR KHPN 211556Z 01015G21KT 10SM FEW040 07/M07 A3031 RMK AO2 SLP267 T00671072 (WS)","FM-15","7",,,,,,,,,,,,,,,,,,,,,,,,,,,,"2009-05-22"
"72503794745","2020-03-21T11:56:00","FM-15","7",,,,,,,,,,,,,,,,,,,,,,,,,,,,,,,,,,,,,,"30.31","18","46","0.00",,,,"32","30.31","CLR:00","29.88","10.00","36","350","22","17",,,,,,,,,,,,,,,,,,,,,,,,,,,,,,,,,,,,,"MET09903/21/20 11:56:02 METAR KHPN 211656Z 35015G19KT 10SM CLR 08/M08 A3031 RMK AO2 SLP265 T00781078 (WS)","FM-15","7",,,,,,,,,,,,,,,,,,,,,,,,,,,,"2009-05-22"
"72503794745","2020-03-21T12:56:00","FM-15","7",,,,,,,,,,,,,,,,,,,,,,,,,,,,,,,,,,,,,,"30.31","17","46","0.00",,"-0.00","1","31","30.32","FEW:02 30","29.88","10.00","35","320","23","11",,,,,,,,,,,,,,,,,,,,,,,,,,,,,,,,,,,,,"MET12003/21/20 12:56:02 METAR KHPN 211756Z 32010G20KT 10SM FEW030 08/M08 A3031 RMK AO2 SLP266 T00781083 10083 20033 51001 (WS)","FM-15","7",,,,,,,,,,,,,,,,,,,,,,,,,,,,"2009-05-22"
"72503794745","2020-03-21T13:56:00","FM-15","7",,,,,,,,,,,,,,,,,,,,,,,,,,,,,,,,,,,,,,"30.30","16","49","0.00",,,,"27","30.30","CLR:00","29.87","10.00","37","360","20","13",,,,,,,,,,,,,,,,,,,,,,,,,,,,,,,,,,,,,"MET09903/21/20 13:56:02 METAR KHPN 211856Z 36011G17KT 10SM CLR 09/M09 A3030 RMK AO2 SLP262 T00941089 (WS)","FM-15","7",,,,,,,,,,,,,,,,,,,,,,,,,,,,"2009-05-22"
"72503794745","2020-03-21T14:56:00","FM-15","7",,,,,,,,,,,,,,,,,,,,,,,,,,,,,,,,,,,,,,"30.30","17","48","0.00",,,,"29","30.31","FEW:02 80","29.87","10.00","37","350","21","13",,,,,,,,,,,,,,,,,,,,,,,,,,,,,,,,,,,,,"MET10203/21/20 14:56:02 METAR KHPN 211956Z 35011G18KT 10SM FEW080 09/M08 A3030 RMK AO2 SLP263 T00891083 (WS)","FM-15","7",,,,,,,,,,,,,,,,,,,,,,,,,,,,"2009-05-22"
"72503794745","2020-03-21T15:56:00","FM-15","7",,,,,,,,,,,,,,,,,,,,,,,,,,,,,,,,,,,,,,"30.29","14","47","0.00",,"+0.02","6","26","30.30","CLR:00","29.86","10.00","35","350",,"14",,,,,,,,,,,,,,,,,,,,,,,,,,,,,,,,,,,,,"MET10203/21/20 15:56:02 METAR KHPN 212056Z 35012KT 10SM CLR 08/M10 A3029 RMK AO2 SLP261 T00831100 56006 (WS)","FM-15","7",,,,,,,,,,,,,,,,,,,,,,,,,,,,"2009-05-22"
"72503794745","2020-03-21T16:56:00","FM-15","7",,,,,,,,,,,,,,,,,,,,,,,,,,,,,,,,,,,,,,"30.31","9","46","0.00",,,,"22","30.32","FEW:02 80","29.88","10.00","34","020",,"9",,,,,,,,,,,,,,,,,,,,,,,,,,,,,,,,,,,,,"MET09903/21/20 16:56:02 METAR KHPN 212156Z 02008KT 10SM FEW080 08/M13 A3031 RMK AO2 SLP268 T00781128 (MM)","FM-15","7",,,,,,,,,,,,,,,,,,,,,,,,,,,,"2009-05-22"
"72503794745","2020-03-21T17:56:00","FM-15","7",,,,,,,,,,,,,,,,,,,,,,,,,,,,,,,,,,,,,,"30.34","7","44","0.00",,,,"22","30.35","FEW:02 80","29.91","10.00","32","360",,"9",,,,,,,,,,,,,,,,,,,,,,,,,,,,,,,,,,,,,"MET09903/21/20 17:56:02 METAR KHPN 212256Z 36008KT 10SM FEW080 07/M14 A3034 RMK AO2 SLP277 T00671139 (MM)","FM-15","7",,,,,,,,,,,,,,,,,,,,,,,,,,,,"2009-05-22"
"72503794745","2020-03-21T18:56:00","FM-15","7",,,,,,,,,,,,,,,,,,,,,,,,,,,,,,,,,,,,,,"30.34","7","41","0.00",,"-0.05","1","24","30.36","CLR:00","29.91","10.00","30","360",,"7",,,,,,,,,,,,,,,,,,,,,,,,,,,,,,,,,,,,,"MET11403/21/20 18:56:02 METAR KHPN 212356Z 36006KT 10SM CLR 05/M14 A3034 RMK AO2 SLP281 T00501139 10094 20050 51017 (MM)","FM-15","7",,,,,,,,,,,,,,,,,,,,,,,,,,,,"2009-05-22"
"72503794745","2020-03-21T19:56:00","FM-15","7",,,,,,,,,,,,,,,,,,,,,,,,,,,,,,,,,,,,,,"30.37","10","40","0.00",,,,"29","30.38","CLR:00","29.94","10.00","30","340",,"10",,,,,,,,,,,,,,,,,,,,,,,,,,,,,,,,,,,,,"MET09103/21/20 19:56:01 METAR KHPN 220056Z 34009KT 10SM CLR 04/M12 A3037 RMK AO2 SLP289 T00441122","FM-15","7",,,,,,,,,,,,,,,,,,,,,,,,,,,,"2009-05-22"
"72503794745","2020-03-21T20:56:00","FM-15","7",,,,,,,,,,,,,,,,,,,,,,,,,,,,,,,,,,,,,,"30.39","9","39","0.00",,,,"29","30.40","CLR:00","29.96","10.00","30","350",,"11",,,,,,,,,,,,,,,,,,,,,,,,,,,,,,,,,,,,,"MET09103/21/20 20:56:01 METAR KHPN 220156Z 35010KT 10SM CLR 04/M13 A3039 RMK AO2 SLP296 T00391128","FM-15","7",,,,,,,,,,,,,,,,,,,,,,,,,,,,"2009-05-22"
"72503794745","2020-03-21T21:56:00","FM-15","7",,,,,,,,,,,,,,,,,,,,,,,,,,,,,,,,,,,,,,"30.41","10","37","0.00",,"-0.07","3","33","30.43","CLR:00","29.98","10.00","29","360",,"8",,,,,,,,,,,,,,,,,,,,,,,,,,,,,,,,,,,,,"MET09703/21/20 21:56:01 METAR KHPN 220256Z 36007KT 10SM CLR 03/M12 A3041 RMK AO2 SLP305 T00281122 53024","FM-15","7",,,,,,,,,,,,,,,,,,,,,,,,,,,,"2009-05-22"
"72503794745","2020-03-21T22:56:00","FM-15","7",,,,,,,,,,,,,,,,,,,,,,,,,,,,,,,,,,,,,,"30.42","11","35","0.00",,,,"37","30.44","CLR:00","29.99","10.00","28","340",,"10",,,,,,,,,,,,,,,,,,,,,,,,,,,,,,,,,,,,,"MET09103/21/20 22:56:02 METAR KHPN 220356Z 34009KT 10SM CLR 02/M12 A3042 RMK AO2 SLP308 T00171117","FM-15","7",,,,,,,,,,,,,,,,,,,,,,,,,,,,"2009-05-22"
"72503794745","2020-03-21T23:56:00","FM-15","7",,,,,,,,,,,,,,,,,,,,,,,,,,,,,,,,,,,,,,"30.44","11","35","0.00",,,,"37","30.45","FEW:02 75","30.01","10.00","28","010",,"9",,,,,,,,,,,,,,,,,,,,,,,,,,,,,,,,,,,,,"MET10403/21/20 23:56:02 METAR KHPN 220456Z 01008KT 10SM FEW075 02/M12 A3044 RMK AO2 SLP313 T00171117 401500011","FM-15","7",,,,,,,,,,,,,,,,,,,,,,,,,,,,"2009-05-22"
"72503794745","2020-03-21T23:59:00","SOD  ","6",,,,,,,,,,,,,,,,"47",,,"29.78",,"13.4","0","7.5","18","59","34","320","36","0.00",,,"320","26",,,,,,,,,,,,,,,,,,,,,,,,,,,,,,,,,,,,,,,,,,,,,,,,,,,,,,,,,"SOD73024 HR PRECIPITATION (IN):0.00  24 HR MAX TEMP (F):59 24 HR MAX TEMP TIME (LST):0002 24 HR MIN TEMP (F):34 24 HR MIN TEMP TIME (LST):2255 AVERAGE STATION PRESSURE:29.785 MINIMUM SEA LEVEL PRESSURE:29.94 TIME OF OCCURRENCE:0004 PEAK WIND SPEED (MPH):36  PEAK WIND DIR (DEG):320 PEAK WIND TIME (LST):0208  FASTEST 2MIN SPEED (MPH):26 FASTEST 2MIN DIR (DEG):320 FASTEST 2MIN TIME (LST):0208 AVERAGE WIND SPEED (MPH):13.4 24 HR AVG TEMP (F):47 HEATING DEGREE DAYS:18  COOLING DEGREE DAYS:0   LATEST DAY MAX TEMP (0700-1900 LST):49  LATEST NIGHT MIN TEMP(1900-0800 LST):38 HOURLY INCREMENTAL PRECIPITATION VALUES (IN):.00 0.00 0.00 0.00 0.00 0.00 0.00 0.00 0.00 0.00 0.00 0.00 0.00 0.00 0.00 0.00 0.00 0.00 0.00 0.00 0.00 0.00 0.00 0.00","SOD  ","6",,,,,,,,,,,,,,,,,,,,,,,,,"0555","1809",,"2009-05-22"
"72503794745","2020-03-22T00:56:00","FM-15","7",,,,,,,,,,,,,,,,,,,,,,,,,,,,,,,,,,,,,,"30.45","12","34","0.00",,"-0.04","3","40","30.47","CLR:00","30.02","10.00","27","350",,"10",,,,,,,,,,,,,,,,,,,,,,,,,,,,,,,,,,,,,"MET11403/22/20 00:56:02 METAR KHPN 220556Z 35009KT 10SM CLR 01/M11 A3045 RMK AO2 SLP318 T00111111 10056 20006 53013 (MM)","FM-15","7",,,,,,,,,,,,,,,,,,,,,,,,,,,,"2009-05-22"
"72503794745","2020-03-22T01:56:00","FM-15","7",,,,,,,,,,,,,,,,,,,,,,,,,,,,,,,,,,,,,,"30.47","12","33","0.00",,,,"42","30.49","BKN:07 70","30.04","10.00","27","360",,"8",,,,,,,,,,,,,,,,,,,,,,,,,,,,,,,,,,,,,"MET09403/22/20 01:56:02 METAR KHPN 220656Z 36007KT 10SM BKN070 01/M11 A3047 RMK AO2 SLP326 T00061111","FM-15","7",,,,,,,,,,,,,,,,,,,,,,,,,,,,"2009-05-22"
"72503794745","2020-03-22T02:56:00","FM-15","7",,,,,,,,,,,,,,,,,,,,,,,,,,,,,,,,,,,,,,"30.49","13","31","0.00",,,,"47","30.51","SCT:04 70","30.06","10.00","25","350",,"7",,,,,,,,,,,,,,,,,,,,,,,,,,,,,,,,,,,,,"MET10003/22/20 02:56:02 METAR KHPN 220756Z 35006KT 10SM SCT070 M01/M11 A3049 RMK AO2 SLP331 T10061106 (EC)","FM-15","7",,,,,,,,,,,,,,,,,,,,,,,,,,,,"2009-05-22"
"72503794745","2020-03-22T03:56:00","FM-15","7",,,,,,,,,,,,,,,,,,,,,,,,,,,,,,,,,,,,,,"30.50","13","30","0.00",,"-0.05","1","49","30.52","FEW:02 70","30.07","10.00","25","010",,"8",,,,,,,,,,,,,,,,,,,,,,,,,,,,,,,,,,,,,"MET10603/22/20 03:56:02 METAR KHPN 220856Z 01007KT 10SM FEW070 M01/M11 A3050 RMK AO2 SLP334 T10111106 51016 (EC)","FM-15","7",,,,,,,,,,,,,,,,,,,,,,,,,,,,"2009-05-22"
"72503794745","2020-03-22T04:56:00","FM-15","7",,,,,,,,,,,,,,,,,,,,,,,,,,,,,,,,,,,,,,"30.54","12","29","0.00",,,,"49","30.56","FEW:02 40","30.11","10.00","24","030",,"6",,,,,,,,,,,,,,,,,,,,,,,,,,,,,,,,,,,,,"MET10003/22/20 04:56:02 METAR KHPN 220956Z 03005KT 10SM FEW040 M02/M11 A3054 RMK AO2 SLP348 T10171111 (EC)","FM-15","7",,,,,,,,,,,,,,,,,,,,,,,,,,,,"2009-05-22"
"72503794745","2020-03-22T05:56:00","FM-15","7",,,,,,,,,,,,,,,,,,,,,,,,,,,,,,,,,,,,,,"30.57","8","29","0.00",,,,"41","30.59","SCT:04 44","30.14","10.00","23","030",,"8",,,,,,,,,,,,,,,,,,,,,,,,,,,,,,,,,,,,,"MET10003/22/20 05:56:02 METAR KHPN 221056Z 03007KT 10SM SCT044 M02/M13 A3057 RMK AO2 SLP360 T10171133 (EC)","FM-15","7",,,,,,,,,,,,,,,,,,,,,,,,,,,,"2009-05-22"
"72503794745","2020-03-22T06:56:00","FM-15","7",,,,,,,,,,,,,,,,,,,,,,,,,,,,,,,,,,,,,,"30.61","7","30","0.00",,"-0.11","1","38","30.63","BKN:07 42","30.17","10.00","24","050",,"8",,,,,,,,,,,,,,,,,,,,,,,,,,,,,,,,,,,,,"MET11803/22/20 06:56:02 METAR KHPN 221156Z 05007KT 10SM BKN042 M01/M14 A3061 RMK AO2 SLP372 T10111139 10011 21017 51036 (EC)","FM-15","7",,,,,,,,,,,,,,,,,,,,,,,,,,,,"2009-05-22"
"72503794745","2020-03-22T07:56:00","FM-15","7",,,,,,,,,,,,,,,,,,,,,,,,,,,,,,,,,,,,,,"30.63","6","30","0.00",,,,"36","30.65","BKN:07 44","30.19","10.00","23","050",,"7",,,,,,,,,,,,,,,,,,,,,,,,,,,,,,,,,,,,,"MET10003/22/20 07:56:02 METAR KHPN 221256Z 05006KT 10SM BKN044 M01/M14 A3063 RMK AO2 SLP380 T10111144 (EC)","FM-15","7",,,,,,,,,,,,,,,,,,,,,,,,,,,,"2009-05-22"
"72503794745","2020-03-22T08:56:00","FM-15","7",,,,,,,,,,,,,,,,,,,,,,,,,,,,,,,,,,,,,,"30.65","4","32","0.00",,,,"30","30.67","BKN:07 44","30.22","10.00","24","020","16","10",,,,,,,,,,,,,,,,,,,,,,,,,,,,,,,,,,,,,"MET10203/22/20 08:56:02 METAR KHPN 221356Z 02009G14KT 10SM BKN044 00/M16 A3065 RMK AO2 SLP386 T00001156 (AB)","FM-15","7",,,,,,,,,,,,,,,,,,,,,,,,,,,,"2009-05-22"
"72503794745","2020-03-22T09:56:00","FM-15","7",,,,,,,,,,,,,,,,,,,,,,,,,,,,,,,,,,,,,,"30.65","5","35","0.00",,"-0.04","0","28","30.67","FEW:02 46","30.22","10.00","26","090",,"6",,,,,,,,,,,,,,,,,,,,,,,,,,,,,,,,,,,,,"MET10503/22/20 09:56:02 METAR KHPN 221456Z 09005KT 10SM FEW046 02/M15 A3065 RMK AO2 SLP386 T00171150 50014 (AB)","FM-15","7",,,,,,,,,,,,,,,,,,,,,,,,,,,,"2009-05-22"
"72503794745","2020-03-22T10:56:00","FM-15","7",,,,,,,,,,,,,,,,,,,,,,,,,,,,,,,,,,,,,,"30.65","6","37","0.00",,,,"27","30.67","FEW:02 46","30.22","10.00","28","VRB",,"5",,,,,,,,,,,,,,,,,,,,,,,,,,,,,,,,,,,,,"MET09903/22/20 10:56:02 METAR KHPN 221556Z VRB04KT 10SM FEW046 03/M14 A3065 RMK AO2 SLP387 T00281144 (AB)","FM-15","7",,,,,,,,,,,,,,,,,,,,,,,,,,,,"2009-05-22"
"72503794745","2020-03-22T11:56:00","FM-15","7",,,,,,,,,,,,,,,,,,,,,,,,,,,,,,,,,,,,,,"30.66","15","37","0.00",,,,"41","30.68","BKN:07 45","30.22","10.00","30","130",,"11",,,,,,,,,,,,,,,,,,,,,,,,,,,,,,,,,,,,,"MET09903/22/20 11:56:02 METAR KHPN 221656Z 13010KT 10SM BKN045 03/M09 A3066 RMK AO2 SLP391 T00281094 (AB)","FM-15","7",,,,,,,,,,,,,,,,,,,,,,,,,,,,"2009-05-22"
"72503794745","2020-03-22T12:56:00","FM-15","7",,,,,,,,,,,,,,,,,,,,,,,,,,,,,,,,,,,,,,"30.66","16","38","0.00",,"-0.01","0","41","30.68","BKN:07 48","30.22","10.00","31","170",,"6",,,,,,,,,,,,,,,,,,,,,,,,,,,,,,,,,,,,,"MET11703/22/20 12:56:02 METAR KHPN 221756Z 17005KT 10SM BKN048 03/M09 A3066 RMK AO2 SLP389 T00331089 10039 21017 50004 (AB)","FM-15","7",,,,,,,,,,,,,,,,,,,,,,,,,,,,"2009-05-22"
"72503794745","2020-03-22T13:56:00","FM-15","7",,,,,,,,,,,,,,,,,,,,,,,,,,,,,,,,,,,,,,"30.64","15","38","0.00",,,,"39","30.66","FEW:02 50","30.20","10.00","30","110",,"10",,,,,,,,,,,,,,,,,,,,,,,,,,,,,,,,,,,,,"MET09903/22/20 13:56:02 METAR KHPN 221856Z 11009KT 10SM FEW050 03/M09 A3064 RMK AO2 SLP382 T00331094 (AB)","FM-15","7",,,,,,,,,,,,,,,,,,,,,,,,,,,,"2009-05-22"
"72503794745","2020-03-22T14:56:00","FM-15","7",,,,,,,,,,,,,,,,,,,,,,,,,,,,,,,,,,,,,,"30.62","14","40","0.00",,,,"35","30.64","CLR:00","30.19","10.00","31","140",,"13",,,,,,,,,,,,,,,,,,,,,,,,,,,,,,,,,,,,,"MET09603/22/20 14:56:02 METAR KHPN 221956Z 14011KT 10SM CLR 04/M10 A3062 RMK AO2 SLP376 T00441100 (AB)","FM-15","7",,,,,,,,,,,,,,,,,,,,,,,,,,,,"2009-05-22"
"72503794745","2020-03-22T15:56:00","FM-15","7",,,,,,,,,,,,,,,,,,,,,,,,,,,,,,,,,,,,,,"30.62","12","39","0.00",,"+0.04","6","33","30.64","FEW:02 80","30.19","10.00","30","140",,"7",,,,,,,,,,,,,,,,,,,,,,,,,,,,,,,,,,,,,"MET10503/22/20 15:56:02 METAR KHPN 222056Z 14006KT 10SM FEW080 04/M11 A3062 RMK AO2 SLP377 T00391111 56013 (AB)","FM-15","7",,,,,,,,,,,,,,,,,,,,,,,,,,,,"2009-05-22"
"72503794745","2020-03-22T16:56:00","FM-15","7",,,,,,,,,,,,,,,,,,,,,,,,,,,,,,,,,,,,,,"30.63","12","39","0.00",,,,"33","30.65","FEW:02 80","30.19","10.00","30","120",,"8",,,,,,,,,,,,,,,,,,,,,,,,,,,,,,,,,,,,,"MET09903/22/20 16:56:02 METAR KHPN 222156Z 12007KT 10SM FEW080 04/M11 A3063 RMK AO2 SLP379 T00391111 (AB)","FM-15","7",,,,,,,,,,,,,,,,,,,,,,,,,,,,"2009-05-22"
"72503794745","2020-03-22T17:56:00","FM-15","7",,,,,,,,,,,,,,,,,,,,,,,,,,,,,,,,,,,,,,"30.63","13","37","0.00",,,,"37","30.65","FEW:02 60","30.19","10.00","29","110",,"8",,,,,,,,,,,,,,,,,,,,,,,,,,,,,,,,,,,,,"MET09903/22/20 17:56:02 METAR KHPN 222256Z 11007KT 10SM FEW060 03/M11 A3063 RMK AO2 SLP380 T00281106 (JR)","FM-15","7",,,,,,,,,,,,,,,,,,,,,,,,,,,,"2009-05-22"
"72503794745","2020-03-22T18:56:00","FM-15","7",,,,,,,,,,,,,,,,,,,,,,,,,,,,,,,,,,,,,,"30.64","22","34","0.00",,"-0.02","3","61","30.66","FEW:02 60","30.20","10.00","30","150",,"11",,,,,,,,,,,,,,,,,,,,,,,,,,,,,,,,,,,,,"MET11703/22/20 18:56:02 METAR KHPN 222356Z 15010KT 10SM FEW060 01/M06 A3064 RMK AO2 SLP384 T00111056 10050 20011 53006 (JR)","FM-15","7",,,,,,,,,,,,,,,,,,,,,,,,,,,,"2009-05-22"
"72503794745","2020-03-22T19:56:00","FM-15","7",,,,,,,,,,,,,,,,,,,,,,,,,,,,,,,,,,,,,,"30.66","21","33","0.00",,,,"61","30.69","FEW:02 60","30.22","10.00","29","130",,"13",,,,,,,,,,,,,,,,,,,,,,,,,,,,,,,,,,,,,"MET09403/22/20 19:56:01 METAR KHPN 230056Z 13011KT 10SM FEW060 01/M06 A3066 RMK AO2 SLP393 T00061061","FM-15","7",,,,,,,,,,,,,,,,,,,,,,,,,,,,"2009-05-22"
"72503794745","2020-03-22T20:56:00","FM-15","7",,,,,,,,,,,,,,,,,,,,,,,,,,,,,,,,,,,,,,"30.66","22","34","0.00",,,,"61","30.69","CLR:00","30.22","10.00","30","110",,"11",,,,,,,,,,,,,,,,,,,,,,,,,,,,,,,,,,,,,"MET09103/22/20 20:56:01 METAR KHPN 230156Z 11010KT 10SM CLR 01/M06 A3066 RMK AO2 SLP392 T00111056","FM-15","7",,,,,,,,,,,,,,,,,,,,,,,,,,,,"2009-05-22"
"72503794745","2020-03-22T21:56:00","FM-15","7",,,,,,,,,,,,,,,,,,,,,,,,,,,,,,,,,,,,,,"30.66","22","33","0.00",,"-0.02","0","64","30.68","FEW:02 29","30.22","10.00","29","130",,"13",,,,,,,,,,,,,,,,,,,,,,,,,,,,,,,,,,,,,"MET10003/22/20 21:56:01 METAR KHPN 230256Z 13011KT 10SM FEW029 01/M06 A3066 RMK AO2 SLP390 T00061056 50007","FM-15","7",,,,,,,,,,,,,,,,,,,,,,,,,,,,"2009-05-22"
"72503794745","2020-03-22T22:12:00","FM-16","7",,,,,,,,,,,,,,,,,,,,,,,,,,,,,,,,,,,,,,"30.66","22","34",,,,,"61",,"BKN:07 28","30.22","10.00","30","110",,"13",,,,,,,,,,,,,,,,,,,,,,,,,,,,,,,,,,,,,"MET08703/22/20 22:12:01 SPECI KHPN 230312Z 11011KT 10SM BKN028 01/M06 A3066 RMK AO2 T00111056","FM-16","7",,,,,,,,,,,,,,,,,,,,,,,,,,,,"2009-05-22"
"72503794745","2020-03-22T22:54:00","FM-16","6",,,,,,,,,,,,,,,,,,,,,,,,,,,,,,,,,,,,,,"30.66","21","34",,,,,"60",,"SCT:04 28","30.22","10.00","29","120",,"9",,,,,,,,,,,,,,,,,,,,,,,,,,,,,,,,,,,,,"MET08703/22/20 22:54:03 SPECI KHPN 230354Z 12008KT 10SM SCT028 01/M06 A3066 RMK AO2 FIBI (JR)","FM-16","6",,,,,,,,,,,,,,,,,,,,,,,,,,,,"2009-05-22"
"72503794745","2020-03-22T22:56:00","FM-15","7",,,,,,,,,,,,,,,,,,,,,,,,,,,,,,,,,,,,,,"30.66","22","33","0.00",,,,"64","30.68","SCT:04 28","30.22","10.00","29","110",,"8",,,,,,,,,,,,,,,,,,,,,,,,,,,,,,,,,,,,,"MET09403/22/20 22:56:02 METAR KHPN 230356Z 11007KT 10SM SCT028 01/M06 A3066 RMK AO2 SLP391 T00061056","FM-15","7",,,,,,,,,,,,,,,,,,,,,,,,,,,,"2009-05-22"
"72503794745","2020-03-22T23:56:00","FM-15","7",,,,,,,,,,,,,,,,,,,,,,,,,,,,,,,,,,,,,,"30.65","22","33","0.00",,,,"64","30.68","SCT:04 28","30.22","10.00","29","120",,"10",,,,,,,,,,,,,,,,,,,,,,,,,,,,,,,,,,,,,"MET10403/22/20 23:56:02 METAR KHPN 230456Z 12009KT 10SM SCT028 01/M06 A3065 RMK AO2 SLP389 T00061056 400501017","FM-15","7",,,,,,,,,,,,,,,,,,,,,,,,,,,,"2009-05-22"
"72503794745","2020-03-22T23:59:00","SOD  ","6",,,,,,,,,,,,,,,,"35",,,"30.15",,"8.9","0","-4.9","30","41","29","160","22","0.00",,,"120","15",,,,,,,,,,,,,,,,,,,,,,,,,,,,,,,,,,,,,,,,,,,,,,,,,,,,,,,,,"SOD73024 HR PRECIPITATION (IN):0.00  24 HR MAX TEMP (F):41 24 HR MAX TEMP TIME (LST):1412 24 HR MIN TEMP (F):29 24 HR MIN TEMP TIME (LST):0737 AVERAGE STATION PRESSURE:30.150 MINIMUM SEA LEVEL PRESSURE:30.46 TIME OF OCCURRENCE:0048 PEAK WIND SPEED (MPH):22  PEAK WIND DIR (DEG):160 PEAK WIND TIME (LST):1224  FASTEST 2MIN SPEED (MPH):15 FASTEST 2MIN DIR (DEG):120 FASTEST 2MIN TIME (LST):1139 AVERAGE WIND SPEED (MPH):8.9  24 HR AVG TEMP (F):35 HEATING DEGREE DAYS:30  COOLING DEGREE DAYS:0   LATEST DAY MAX TEMP (0700-1900 LST):41  LATEST NIGHT MIN TEMP(1900-0800 LST):29 HOURLY INCREMENTAL PRECIPITATION VALUES (IN):.00 0.00 0.00 0.00 0.00 0.00 0.00 0.00 0.00 0.00 0.00 0.00 0.00 0.00 0.00 0.00 0.00 0.00 0.00 0.00 0.00 0.00 0.00 0.00","SOD  ","6",,,,,,,,,,,,,,,,,,,,,,,,,"0554","1810",,"2009-05-22"
"72503794745","2020-03-23T00:56:00","FM-15","7",,,,,,,,,,,,,,,,,,,,,,,,,,,,,,,,,,,,,,"30.62","22","34","0.00",,"+0.03","8","61","30.65","SCT:04 28","30.19","10.00","30","120","18","13",,,,,,,,,,,,,,,,,,,,,,,,,,,,,,,,,,,,,"MET12003/23/20 00:56:02 METAR KHPN 230556Z 12011G16KT 10SM SCT028 01/M06 A3062 RMK AO2 SLP378 T00111056 10011 20000 58011 (JR)","FM-15","7",,,,,,,,,,,,,,,,,,,,,,,,,,,,"2009-05-22"
"72503794745","2020-03-23T01:56:00","FM-15","7",,,,,,,,,,,,,,,,,,,,,,,,,,,,,,,,,,,,,,"30.60","22","34","0.00",,,,"61","30.62","FEW:02 28 BKN:07 110","30.16","10.00","30","110","21","13",,,,,,,,,,,,,,,,,,,,,,,,,,,,,,,,,,,,,"MET10903/23/20 01:56:02 METAR KHPN 230656Z 11011G18KT 10SM FEW028 BKN110 01/M06 A3060 RMK AO2 SLP369 T00111056 (JR)","FM-15","7",,,,,,,,,,,,,,,,,,,,,,,,,,,,"2009-05-22"
"72503794745","2020-03-23T02:56:00","FM-15","7",,,,,,,,,,,,,,,,,,,,,,,,,,,,,,,,,,,,,,"30.58","23","34","0.00",,,,"64","30.60","SCT:04 25 BKN:07 110","30.14","10.00","30","110",,"11",,,,,,,,,,,,,,,,,,,,,,,,,,,,,,,,,,,,,"MET10103/23/20 02:56:02 METAR KHPN 230756Z 11010KT 10SM SCT025 BKN110 01/M05 A3058 RMK AO2 SLP362 T00111050","FM-15","7",,,,,,,,,,,,,,,,,,,,,,,,,,,,"2009-05-22"
"72503794745","2020-03-23T03:54:00","FM-16","6",,,,,,,,,,,,,,,,,,,,,,,,,,,,,,,,,,,,,,"30.56","25","34",,,,,"70",,"BKN:07 27 BKN:07 45","30.13","10.00","31","110",,"13",,,,,,,,,,,,,,,,,,,,,,,,,,,,,,,,,,,,,"MET09403/23/20 03:54:02 SPECI KHPN 230854Z 11011KT 10SM BKN027 BKN045 01/M04 A3056 RMK AO2 FIBI (EC)","FM-16","6",,,,,,,,,,,,,,,,,,,,,,,,,,,,"2009-05-22"
"72503794745","2020-03-23T03:56:00","FM-15","7",,,,,,,,,,,,,,,,,,,,,,,,,,,,,,,,,,,,,,"30.56","24","34","0.00",,"+0.07","6","67","30.58","BKN:07 27 BKN:07 45","30.13","10.00","30","100","17","11",,,,,,,,,,,,,,,,,,,,,,,,,,,,,,,,,,,,,"MET11503/23/20 03:56:02 METAR KHPN 230856Z 10010G15KT 10SM BKN027 BKN045 01/M04 A3056 RMK AO2 SLP355 T00111044 56023 (EC)","FM-15","7",,,,,,,,,,,,,,,,,,,,,,,,,,,,"2009-05-22"
"72503794745","2020-03-23T04:56:00","FM-15","7",,,,,,,,,,,,,,,,,,,,,,,,,,,,,,,,,,,,,,"30.54","25","34","T","-SN:03 |SN |",,,"70","30.56","OVC:08 24","30.11","7.00","31","110","20","14",,,,,,,,,,,,,,,,,,,,,,,,,,,,,,,,,,,,,"MET11703/23/20 04:56:02 METAR KHPN 230956Z 11012G17KT 7SM -SN OVC024 01/M04 A3054 RMK AO2 SNB20 SLP349 P0000 T00111039 (EC)","FM-15","7",,,,,,,,,,,,,,,,,,,,,,,,,,,,"2009-05-22"
"72503794745","2020-03-23T05:56:00","FM-15","7",,,,,,,,,,,,,,,,,,,,,,,,,,,,,,,,,,,,,,"30.51","26","33","T","-SN:03 BR:1 |SN |",,,"75","30.53","SCT:04 22 OVC:08 45","30.08","1.50","30","090","20","13",,,,,,,,,,,,,,,,,,,,,,,,,,,,,,,,,,,,,"MET12503/23/20 05:56:02 METAR KHPN 231056Z 09011G17KT 1 1/2SM -SN BR SCT022 OVC045 01/M03 A3051 RMK AO2 SLP339 P0000 T00061033 (EC)","FM-15","7",,,,,,,,,,,,,,,,,,,,,,,,,,,,"2009-05-22"
"72503794745","2020-03-23T06:54:00","FM-16","6",,,,,,,,,,,,,,,,,,,,,,,,,,,,,,,,,,,,,,"30.49","27","34",,"-SN:03 |SN |",,,"75",,"OVC:08 19","30.06","1.75","31","100","22","17",,,,,,,,,,,,,,,,,,,,,,,,,,,,,,,,,,,,,"MET10303/23/20 06:54:02 SPECI KHPN 231154Z 10015G19KT 1 3/4SM -SN OVC019 01/M03 A3049 RMK AO2 P0000 FIBI (AB)","FM-16","6",,,,,,,,,,,,,,,,,,,,,,,,,,,,"2009-05-22"
"72503794745","2020-03-23T06:56:00","FM-15","7",,,,,,,,,,,,,,,,,,,,,,,,,,,,,,,,,,,,,,"30.49","27","33","T","-SN:03 BR:1 |SN |","+0.06","8","78","30.51","VV:09 5","30.06","1.00","31","110","22","14",,,,,,,,,,,,,,,,,,,,,,,,,,,,,,,,,,,,,"MET14903/23/20 06:56:02 METAR KHPN 231156Z 11012G19KT 1SM R16/P6000FT -SN BR VV005 01/M03 A3049 RMK AO2 SLP333 P0000 60000 T00061028 10011 20006 58022 (AB)","FM-15","7",,,,,,,,,,,,,,,,,,,,,,,,,,,,"2009-05-22"
"72503794745","2020-03-23T07:54:00","FM-16","6",,,,,,,,,,,,,,,,,,,,,,,,,,,,,,,,,,,,,,"30.46","30","34",,"-SN:03 BR:1 |SN |",,,"87",,"BKN:07 11 OVC:08 15","30.03","2.00","32","110",,"11",,,,,,,,,,,,,,,,,,,,,,,,,,,,,,,,,,,,,"MET10603/23/20 07:54:02 SPECI KHPN 231254Z 11010KT 2SM -SN BR BKN011 OVC015 01/M01 A3046 RMK AO2 P0000 FIBI (AB)","FM-16","6",,,,,,,,,,,,,,,,,,,,,,,,,,,,"2009-05-22"
"72503794745","2020-03-23T07:56:00","FM-15","7",,,,,,,,,,,,,,,,,,,,,,,,,,,,,,,,,,,,,,"30.46","30","33","T","-SN:03 BR:1 |SN |",,,"89","30.48","BKN:07 11 OVC:08 15","30.03","2.00","32","100","20","14",,,,,,,,,,,,,,,,,,,,,,,,,,,,,,,,,,,,,"MET12103/23/20 07:56:02 METAR KHPN 231256Z 10012G17KT 2SM -SN BR BKN011 OVC015 01/M01 A3046 RMK AO2 SLP323 P0000 T00061011 (AB)","FM-15","7",,,,,,,,,,,,,,,,,,,,,,,,,,,,"2009-05-22"
"72503794745","2020-03-23T08:34:00","FM-16","7",,,,,,,,,,,,,,,,,,,,,,,,,,,,,,,,,,,,,,"30.46","30","34","0.01","-SN:03 RA:02 BR:1 |RA RA |RA",,,"85",,"BKN:07 11 OVC:08 15","30.03","1.50","32","110",,"15",,,,,,,,,,,,,,,,,,,,,,,,,,,,,,,,,,,,,"MET13103/23/20 08:34:02 SPECI KHPN 231334Z 11013KT 1 1/2SM -SNRA BR BKN011 OVC015 01/M01 A3046 RMK AO2 RAB30SNE01B20 P0001 T00111011 (AB)","FM-16","7",,,,,,,,,,,,,,,,,,,,,,,,,,,,"2009-05-22"
"72503794745","2020-03-23T08:56:00","FM-15","7",,,,,,,,,,,,,,,,,,,,,,,,,,,,,,,,,,,,,,"30.45","31","34","0.01","-RA:02 BR:1 |RA |RA",,,"89","30.47","BKN:07 11 OVC:08 15","30.02","1.50","33","110","23","14",,,,,,,,,,,,,,,,,,,,,,,,,,,,,,,,,,,,,"MET14203/23/20 08:56:02 METAR KHPN 231356Z 11012G20KT 1 1/2SM -RA BR BKN011 OVC015 01/M01 A3045 RMK AO2 RAB30SNE01B20E53 SLP319 P0001 T00111006 (AB)","FM-15","7",,,,,,,,,,,,,,,,,,,,,,,,,,,,"2009-05-22"
"72503794745","2020-03-23T09:54:00","FM-16","6",,,,,,,,,,,,,,,,,,,,,,,,,,,,,,,,,,,,,,"30.44","30","34",,"-RA:02 SN:03 BR:1 |RA SN |RA",,,"87",,"BKN:07 9 OVC:08 15","30.01","1.00","32","100","21","13",,,,,,,,,,,,,,,,,,,,,,,,,,,,,,,,,,,,,"MET12903/23/20 09:54:02 SPECI KHPN 231454Z 10011G18KT 1SM R16/P6000FT -RASN BR BKN009 OVC015 01/M01 A3044 RMK AO2 SNB48 P0001 FIBI (AB)","FM-16","6",,,,,,,,,,,,,,,,,,,,,,,,,,,,"2009-05-22"
"72503794745","2020-03-23T09:56:00","FM-15","7",,,,,,,,,,,,,,,,,,,,,,,,,,,,,,,,,,,,,,"30.44","30","34","0.02","-RA:02 SN:03 BR:1 |RA RA |RA","+0.05","6","85","30.46","VV:09 5","30.01","1.00","32","100","21","11",,,,,,,,,,,,,,,,,,,,,,,,,,,,,,,,,,,,,"MET14003/23/20 09:56:02 METAR KHPN 231456Z 10010G18KT 1SM R16/P6000FT -RASN BR VV005 01/M01 A3044 RMK AO2 SNB48 SLP315 P0002 60003 T00111011 56017","FM-15","7",,,,,,,,,,,,,,,,,,,,,,,,,,,,"2009-05-22"
"72503794745","2020-03-23T10:54:00","FM-16","6",,,,,,,,,,,,,,,,,,,,,,,,,,,,,,,,,,,,,,"30.38","30","34",,"-SN:03 BR:1 |SN |",,,"87",,"VV:09 4","29.95","1.50","32","090","20","14",,,,,,,,,,,,,,,,,,,,,,,,,,,,,,,,,,,,,"MET12803/23/20 10:54:02 SPECI KHPN 231554Z 09012G17KT 1 1/2SM R16/5000VP6000FT -SN BR VV004 01/M01 A3038 RMK AO2 RAE05 P0009 FIBI (AB)","FM-16","6",,,,,,,,,,,,,,,,,,,,,,,,,,,,"2009-05-22"
"72503794745","2020-03-23T10:56:00","FM-15","7",,,,,,,,,,,,,,,,,,,,,,,,,,,,,,,,,,,,,,"30.38","31","33","0.09","-SN:03 BR:1 |SN |",,,"92","30.40","VV:09 4","29.95","1.50","32","090","20","16",,,,,,,,,,,,,,,,,,,,,,,,,,,,,,,,,,,,,"MET11803/23/20 10:56:02 METAR KHPN 231556Z 09014G17KT 1 1/2SM -SN BR VV004 01/M01 A3038 RMK AO2 RAE05 SLP296 P0009 T00061006","FM-15","7",,,,,,,,,,,,,,,,,,,,,,,,,,,,"2009-05-22"
"72503794745","2020-03-23T11:56:00","FM-15","7",,,,,,,,,,,,,,,,,,,,,,,,,,,,,,,,,,,,,,"30.32","31","33","0.07","-SN:03 BR:1 |SN |",,,"92","30.35","VV:09 4","29.89","1.50","32","080","21","13",,,,,,,,,,,,,,,,,,,,,,,,,,,,,,,,,,,,,"MET13603/23/20 11:56:02 METAR KHPN 231656Z 08011G18KT 1 1/2SM R16/5500VP6000FT -SN BR VV004 01/M01 A3032 RMK AO2 PRESFR SLP276 P0007 T00061006","FM-15","7",,,,,,,,,,,,,,,,,,,,,,,,,,,,"2009-05-22"
"72503794745","2020-03-23T12:56:00","FM-15","7",,,,,,,,,,,,,,,,,,,,,,,,,,,,,,,,,,,,,,"30.23","32","34","0.07","-RA:02 BR:1 |RA |RA","+0.21","8","92","30.25","VV:09 3","29.80","1.25","33","090","24","16",,,,,,,,,,,,,,,,,,,,,,,,,,,,,,,,,,,,,"MET17003/23/20 12:56:02 METAR KHPN 231756Z 09014G21KT 1 1/4SM R16/6000VP6000FT -RA BR VV003 01/00 A3023 RMK AO2 RAB52SNE52 PRESFR SLP244 P0006 60025 T00110000 10011 20000 58070","FM-15","7",,,,,,,,,,,,,,,,,,,,,,,,,,,,"2009-05-22"
"72503794745","2020-03-23T13:56:00","FM-15","7",,,,,,,,,,,,,,,,,,,,,,,,,,,,,,,,,,,,,,"30.17","34","36","0.11","-RA:02 BR:1 |RA |RA",,,"93","30.19","VV:09 5","29.74","1.25","35","090","29","18",,,,,,,,,,,,,,,,,,,,,,,,,,,,,,,,,,,,,"MET14603/23/20 13:56:02 METAR KHPN 231856Z 09016G25KT 1 1/4SM R16/6000VP6000FT -RA BR VV005 02/01 A3017 RMK AO2 PK WND 08027/1837 SLP225 P0011 T00220011","FM-15","7",,,,,,,,,,,,,,,,,,,,,,,,,,,,"2009-05-22"
"72503794745","2020-03-23T14:54:00","FM-16","6",,,,,,,,,,,,,,,,,,,,,,,,,,,,,,,,,,,,,,"30.11","34","36",,"-RA:02 BR:1 |RA |RA",,,"93",,"OVC:08 6","29.68","2.00","35","090","31","22",,,,,,,,,,,,,,,,,,,,,,,,,,,,,,,,,,,,,"MET11903/23/20 14:54:02 SPECI KHPN 231954Z 09019G27KT 2SM -RA BR OVC006 02/01 A3011 RMK AO2 PK WND 11031/1930 P0005 FIBI (AB)","FM-16","6",,,,,,,,,,,,,,,,,,,,,,,,,,,,"2009-05-22"
"72503794745","2020-03-23T14:56:00","FM-15","7",,,,,,,,,,,,,,,,,,,,,,,,,,,,,,,,,,,,,,"30.11","34","36","0.06","-RA:02 BR:1 |RA |RA",,,"93","30.13","OVC:08 6","29.68","2.00","35","090","31","17",,,,,,,,,,,,,,,,,,,,,,,,,,,,,,,,,,,,,"MET12603/23/20 14:56:02 METAR KHPN 231956Z 09015G27KT 2SM -RA BR OVC006 02/01 A3011 RMK AO2 PK WND 11031/1930 SLP204 P0006 T00220011","FM-15","7",,,,,,,,,,,,,,,,,,,,,,,,,,,,"2009-05-22"
"72503794745","2020-03-23T15:56:00","FM-15","7",,,,,,,,,,,,,,,,,,,,,,,,,,,,,,,,,,,,,,"30.07","35","37","0.08","-RA:02 BR:1 |RA |RA","+0.16","6","93","30.09","OVC:08 6","29.64","2.00","36","090","26","16",,,,,,,,,,,,,,,,,,,,,,,,,,,,,,,,,,,,,"MET15003/23/20 15:56:02 METAR KHPN 232056Z 09014G23KT 2SM -RA BR OVC006 03/02 A3007 RMK AO2 PK WND 07031/2025 CIG 004V010 SLP188 P0008 60025 T00280017 56055","FM-15","7",,,,,,,,,,,,,,,,,,,,,,,,,,,,"2009-05-22"
"72503794745","2020-03-23T16:56:00","FM-15","7",,,,,,,,,,,,,,,,,,,,,,,,,,,,,,,,,,,,,,"30.01","36","38","0.01","-RA:02 BR:1 |RA |RA",,,"93","30.03","OVC:08 6","29.58","2.50","37","VRB","26","13",,,,,,,,,,,,,,,,,,,,,,,,,,,,,,,,,,,,,"MET14203/23/20 16:56:02 METAR KHPN 232156Z 08011G23KT 2 1/2SM -RA BR OVC006 03/02 A3001 RMK AO2 PK WND 08026/2114 CIG 004V009 SLP168 P0001 T00330022","FM-15","7",,,,,,,,,,,,,,,,,,,,,,,,,,,,"2009-05-22"
"72503794745","2020-03-23T17:56:00","FM-15","7",,,,,,,,,,,,,,,,,,,,,,,,,,,,,,,,,,,,,,"30.02","36","38","0.07","-RA:02 BR:1 |RA |RA",,,"93","30.04","BKN:07 8 BKN:07 13 OVC:08 20","29.59","2.00","37","360",,"9",,,,,,,,,,,,,,,,,,,,,,,,,,,,,,,,,,,,,"MET11903/23/20 17:56:02 METAR KHPN 232256Z 36008KT 2SM -RA BR BKN008 BKN013 OVC020 03/02 A3002 RMK AO2 SLP173 P0007 T00330022","FM-15","7",,,,,,,,,,,,,,,,,,,,,,,,,,,,"2009-05-22"
"72503794745","2020-03-23T18:54:00","FM-16","6",,,,,,,,,,,,,,,,,,,,,,,,,,,,,,,,,,,,,,"29.99","34","36",,"-RA:02 BR:1 |RA |RA",,,"93",,"BKN:07 8 OVC:08 60","29.56","5.00","35","010","22","14",,,,,,,,,,,,,,,,,,,,,,,,,,,,,,,,,,,,,"MET11503/23/20 18:54:02 SPECI KHPN 232354Z 01012G19KT 5SM -RA BR BKN008 OVC060 02/01 A2999 RMK AO2 PRESFR P0021 FIBI (FR)","FM-16","6",,,,,,,,,,,,,,,,,,,,,,,,,,,,"2009-05-22"
"72503794745","2020-03-23T18:56:00","FM-15","7",,,,,,,,,,,,,,,,,,,,,,,,,,,,,,,,,,,,,,"29.99","33","35","0.20","-RA:02 BR:1 |RA |RA","+0.08","6","93","30.01","BKN:07 8 OVC:08 60","29.56","5.00","34","010","22","16",,,,,,,,,,,,,,,,,,,,,,,,,,,,,,,,,,,,,"MET14603/23/20 18:56:02 METAR KHPN 232356Z 01014G19KT 5SM -RA BR BKN008 OVC060 02/01 A2999 RMK AO2 PRESFR SLP162 P0021 60054 T00170006 10033 20011 56026","FM-15","7",,,,,,,,,,,,,,,,,,,,,,,,,,,,"2009-05-22"
"72503794745","2020-03-23T19:42:00","FM-16","7",,,,,,,,,,,,,,,,,,,,,,,,,,,,,,,,,,,,,,"29.95","32","35","T",,,,"89",,"BKN:07 8 OVC:08 60","29.52","10.00","34","350",,"16",,,,,,,,,,,,,,,,,,,,,,,,,,,,,,,,,,,,,"MET11603/23/20 19:42:01 SPECI KHPN 240042Z 35014KT 10SM BKN008 OVC060 02/00 A2995 RMK AO2 WSHFT 0027 RAE20 P0000 T00170000","FM-16","7",,,,,,,,,,,,,,,,,,,,,,,,,,,,"2009-05-22"
"72503794745","2020-03-23T19:54:00","FM-16","6",,,,,,,,,,,,,,,,,,,,,,,,,,,,,,,,,,,,,,"29.95","32","36",,,,,"87",,"FEW:02 10 BKN:07 45 OVC:08 55","29.52","10.00","34","330",,"15",,,,,,,,,,,,,,,,,,,,,,,,,,,,,,,,,,,,,"MET12303/23/20 19:54:03 SPECI KHPN 240054Z 33013KT 10SM FEW010 BKN045 OVC055 02/00 A2995 RMK AO2 WSHFT 0027 RAE20 P0000 FIBI (FR)","FM-16","6",,,,,,,,,,,,,,,,,,,,,,,,,,,,"2009-05-22"
"72503794745","2020-03-23T19:56:00","FM-15","7",,,,,,,,,,,,,,,,,,,,,,,,,,,,,,,,,,,,,,"29.95","32","35","T",,,,"89","29.97","SCT:04 10 BKN:07 24 OVC:08 55","29.52","10.00","34","340",,"14",,,,,,,,,,,,,,,,,,,,,,,,,,,,,,,,,,,,,"MET13003/23/20 19:56:01 METAR KHPN 240056Z 34012KT 10SM SCT010 BKN024 OVC055 02/00 A2995 RMK AO2 WSHFT 0027 RAE20 SLP149 P0000 T00170000","FM-15","7",,,,,,,,,,,,,,,,,,,,,,,,,,,,"2009-05-22"
"72503794745","2020-03-23T20:56:00","FM-15","7",,,,,,,,,,,,,,,,,,,,,,,,,,,,,,,,,,,,,,"29.94","32","35","0.00",,,,"89","29.97","OVC:08 19","29.51","10.00","34","340",,"17",,,,,,,,,,,,,,,,,,,,,,,,,,,,,,,,,,,,,"MET09303/23/20 20:56:01 METAR KHPN 240156Z 34015KT 10SM OVC019 02/00 A2994 RMK AO2 SLP148 T00170000","FM-15","7",,,,,,,,,,,,,,,,,,,,,,,,,,,,"2009-05-22"
"72503794745","2020-03-23T21:56:00","FM-15","7",,,,,,,,,,,,,,,,,,,,,,,,,,,,,,,,,,,,,,"29.95","32","35","0.00",,"+0.04","5","89","29.97","FEW:02 9 OVC:08 23","29.52","10.00","34","330","25","16",,,,,,,,,,,,,,,,,,,,,,,,,,,,,,,,,,,,,"MET11503/23/20 21:56:01 METAR KHPN 240256Z 33014G22KT 10SM FEW009 OVC023 02/00 A2995 RMK AO2 SLP150 60000 T00170000 55012","FM-15","7",,,,,,,,,,,,,,,,,,,,,,,,,,,,"2009-05-22"
"72503794745","2020-03-23T22:44:00","FM-16","7",,,,,,,,,,,,,,,,,,,,,,,,,,,,,,,,,,,,,,"29.95","31","35",,,,,"85",,"OVC:08 30","29.52","10.00","33","340","25","17",,,,,,,,,,,,,,,,,,,,,,,,,,,,,,,,,,,,,"MET09003/23/20 22:44:01 SPECI KHPN 240344Z 34015G22KT 10SM OVC030 02/M01 A2995 RMK AO2 T00171006","FM-16","7",,,,,,,,,,,,,,,,,,,,,,,,,,,,"2009-05-22"
"72503794745","2020-03-23T22:56:00","FM-15","7",,,,,,,,,,,,,,,,,,,,,,,,,,,,,,,,,,,,,,"29.95","31","35","0.00",,,,"85","29.97","OVC:08 30","29.52","10.00","33","330","24","16",,,,,,,,,,,,,,,,,,,,,,,,,,,,,,,,,,,,,"MET09703/23/20 22:56:01 METAR KHPN 240356Z 33014G21KT 10SM OVC030 02/M01 A2995 RMK AO2 SLP149 T00171006","FM-15","7",,,,,,,,,,,,,,,,,,,,,,,,,,,,"2009-05-22"
"72503794745","2020-03-23T23:19:00","FM-16","7",,,,,,,,,,,,,,,,,,,,,,,,,,,,,,,,,,,,,,"29.95","31","34",,,,,"89",,"OVC:08 29","29.52","10.00","33","330",,"20",,,,,,,,,,,,,,,,,,,,,,,,,,,,,,,,,,,,,"MET08703/23/20 23:19:01 SPECI KHPN 240419Z 33017KT 10SM OVC029 01/M01 A2995 RMK AO2 T00111006","FM-16","7",,,,,,,,,,,,,,,,,,,,,,,,,,,,"2009-05-22"
"72503794745","2020-03-23T23:56:00","FM-15","7",,,,,,,,,,,,,,,,,,,,,,,,,,,,,,,,,,,,,,"29.96","31","34","0.00",,,,"89","29.98","BKN:07 28 OVC:08 43","29.53","10.00","33","320",,"18",,,,,,,,,,,,,,,,,,,,,,,,,,,,,,,,,,,,,"MET11103/23/20 23:56:01 METAR KHPN 240456Z 32016KT 10SM BKN028 OVC043 01/M01 A2996 RMK AO2 SLP153 T00111006 400330000","FM-15","7",,,,,,,,,,,,,,,,,,,,,,,,,,,,"2009-05-22"
"72503794745","2020-03-23T23:59:00","SOD  ","6",,,,,,,,,,,,,,,,"35",,,"29.82",,"14.3","0","-5.2","30","38","32","070","36","0.79",,,"090","22","RA SN BR",,,,,,,,,,,,,,,,,,,,,,,,,,,,,,,,,,,,,,,,,,,,,,,,,,,,,,,,"SOD75124 HR PRECIPITATION (IN): 0.79 WEATHER(CODE):1  24 HR MAX TEMP (F):38 24 HR MAX TEMP TIME (LST):1804 24 HR MIN TEMP (F):32 24 HR MIN TEMP TIME (LST):0722 AVERAGE STATION PRESSURE(D):29.819 MINIMUM SEA LEVEL PRESSURE:29.94 TIME OF OCCURRENCE:1921 PEAK WIND SPEED (MPH):36  PEAK WIND DIR (DEG): 70 PEAK WIND TIME (LST):1525  FASTEST 2MIN SPEED (MPH):22 FASTEST 2MIN DIR (DEG): 90 FASTEST 2MIN TIME (LST):1523 AVERAGE WIND SPEED (MPH):14.3 24 HR AVG TEMP (F):35 HEATING DEGREE DAYS: 30 COOLING DEGREE DAYS:  0 LATEST DAY MAX TEMP (0700-1900 LST): 38 LATEST NIGHT MIN TEMP(1900-0800 LST):32 HOURLY INCREMENTAL PRECIPITATION VALUES (IN):0.00 0.00 0.00 0.00T    T    T    T     0.01 0.02 0.09 0.07 0.07 0.11 0.06 0.08 0.01 0.07 0.20T     0.00 0.00 0.00 0.00","SOD  ","6",,,,,,,,,,,,,,,,,,,,,,,,,"0552","1811",,"2009-05-22"
"72503794745","2020-03-24T00:15:00","FM-16","7",,,,,,,,,,,,,,,,,,,,,,,,,,,,,,,,,,,,,,"29.97","31","34",,,,,"89",,"SCT:04 25 BKN:07 36 OVC:08 43","29.54","10.00","33","330",,"16",,,,,,,,,,,,,,,,,,,,,,,,,,,,,,,,,,,,,"MET10603/24/20 00:15:02 SPECI KHPN 240515Z 33014KT 10SM SCT025 BKN036 OVC043 01/M01 A2997 RMK AO2 T00111006 (FR)","FM-16","7",,,,,,,,,,,,,,,,,,,,,,,,,,,,"2009-05-22"
"72503794745","2020-03-24T00:42:00","FM-16","7",,,,,,,,,,,,,,,,,,,,,,,,,,,,,,,,,,,,,,"29.97","31","34",,,,,"89",,"FEW:02 8 FEW:02 19 OVC:08 31","29.54","9.00","33","330",,"14",,,,,,,,,,,,,,,,,,,,,,,,,,,,,,,,,,,,,"MET10503/24/20 00:42:02 SPECI KHPN 240542Z 33012KT 9SM FEW008 FEW019 OVC031 01/M01 A2997 RMK AO2 T00111006 (FR)","FM-16","7",,,,,,,,,,,,,,,,,,,,,,,,,,,,"2009-05-22"
"72503794745","2020-03-24T00:56:00","FM-15","7",,,,,,,,,,,,,,,,,,,,,,,,,,,,,,,,,,,,,,"29.97","31","34","0.00",,"-0.01","3","89","29.99","SCT:04 8 OVC:08 31","29.54","10.00","33","340",,"10",,,,,,,,,,,,,,,,,,,,,,,,,,,,,,,,,,,,,"MET13003/24/20 00:56:02 METAR KHPN 240556Z 34009KT 10SM SCT008 OVC031 01/M01 A2997 RMK AO2 SLP155 60000 T00111006 10022 20011 53005 (ML)","FM-15","7",,,,,,,,,,,,,,,,,,,,,,,,,,,,"2009-05-22"
"72503794745","2020-03-24T01:15:00","FM-16","7",,,,,,,,,,,,,,,,,,,,,,,,,,,,,,,,,,,,,,"29.97","31","34",,,,,"89",,"BKN:07 8 BKN:07 32","29.54","10.00","33","310",,"11",,,,,,,,,,,,,,,,,,,,,,,,,,,,,,,,,,,,,"MET11103/24/20 01:15:02 SPECI KHPN 240615Z 31010KT 10SM BKN008 BKN032 01/M01 A2997 RMK AO2 CIG 006V011 T00111006 (ML)","FM-16","7",,,,,,,,,,,,,,,,,,,,,,,,,,,,"2009-05-22"
"72503794745","2020-03-24T01:25:00","FM-16","7",,,,,,,,,,,,,,,,,,,,,,,,,,,,,,,,,,,,,,"29.98","31","34",,,,,"89",,"BKN:07 10","29.55","10.00","33","300",,"13",,,,,,,,,,,,,,,,,,,,,,,,,,,,,,,,,,,,,"MET10403/24/20 01:25:02 SPECI KHPN 240625Z 30011KT 10SM BKN010 01/M01 A2998 RMK AO2 CIG 006V011 T00111006 (ML)","FM-16","7",,,,,,,,,,,,,,,,,,,,,,,,,,,,"2009-05-22"
"72503794745","2020-03-24T01:47:00","FM-16","7",,,,,,,,,,,,,,,,,,,,,,,,,,,,,,,,,,,,,,"29.97","31","34",,,,,"89",,"OVC:08 9","29.54","10.00","33","310",,"11",,,,,,,,,,,,,,,,,,,,,,,,,,,,,,,,,,,,,"MET09203/24/20 01:47:02 SPECI KHPN 240647Z 31010KT 10SM OVC009 01/M01 A2997 RMK AO2 T00111006 (ML)","FM-16","7",,,,,,,,,,,,,,,,,,,,,,,,,,,,"2009-05-22"
"72503794745","2020-03-24T01:56:00","FM-15","7",,,,,,,,,,,,,,,,,,,,,,,,,,,,,,,,,,,,,,"29.97","31","33","0.00",,,,"92","29.99","OVC:08 8","29.54","10.00","32","300",,"11",,,,,,,,,,,,,,,,,,,,,,,,,,,,,,,,,,,,,"MET09903/24/20 01:56:02 METAR KHPN 240656Z 30010KT 10SM OVC008 01/M01 A2997 RMK AO2 SLP156 T00061006 (ML)","FM-15","7",,,,,,,,,,,,,,,,,,,,,,,,,,,,"2009-05-22"
"72503794745","2020-03-24T02:56:00","FM-15","7",,,,,,,,,,,,,,,,,,,,,,,,,,,,,,,,,,,,,,"29.98","30","33","0.00",,,,"89","30.00","OVC:08 8","29.55","10.00","32","300",,"10",,,,,,,,,,,,,,,,,,,,,,,,,,,,,,,,,,,,,"MET09903/24/20 02:56:02 METAR KHPN 240756Z 30009KT 10SM OVC008 01/M01 A2998 RMK AO2 SLP159 T00061011 (ML)","FM-15","7",,,,,,,,,,,,,,,,,,,,,,,,,,,,"2009-05-22"
"72503794745","2020-03-24T03:54:00","FM-16","6",,,,,,,,,,,,,,,,,,,,,,,,,,,,,,,,,,,,,,"30.00","30","32",,,,,"93",,"FEW:02 19","29.57","10.00","31","320",,"8",,,,,,,,,,,,,,,,,,,,,,,,,,,,,,,,,,,,,"MET08703/24/20 03:54:02 SPECI KHPN 240854Z 32007KT 10SM FEW019 00/M01 A3000 RMK AO2 FIBI (ML)","FM-16","6",,,,,,,,,,,,,,,,,,,,,,,,,,,,"2009-05-22"
"72503794745","2020-03-24T03:56:00","FM-15","7",,,,,,,,,,,,,,,,,,,,,,,,,,,,,,,,,,,,,,"30.00","30","33","0.00",,"-0.04","3","89","30.02","FEW:02 19","29.57","10.00","32","320",,"9",,,,,,,,,,,,,,,,,,,,,,,,,,,,,,,,,,,,,"MET10503/24/20 03:56:02 METAR KHPN 240856Z 32008KT 10SM FEW019 01/M01 A3000 RMK AO2 SLP167 T00061011 53012 (ML)","FM-15","7",,,,,,,,,,,,,,,,,,,,,,,,,,,,"2009-05-22"
"72503794745","2020-03-24T04:12:00","FM-16","7",,,,,,,,,,,,,,,,,,,,,,,,,,,,,,,,,,,,,,"30.01","30","33",,,,,"89",,"BKN:07 21","29.58","10.00","32","330",,"10",,,,,,,,,,,,,,,,,,,,,,,,,,,,,,,,,,,,,"MET09203/24/20 04:12:02 SPECI KHPN 240912Z 33009KT 10SM BKN021 01/M01 A3001 RMK AO2 T00061011 (ML)","FM-16","7",,,,,,,,,,,,,,,,,,,,,,,,,,,,"2009-05-22"
"72503794745","2020-03-24T04:54:00","FM-16","6",,,,,,,,,,,,,,,,,,,,,,,,,,,,,,,,,,,,,,"30.02","28","34",,,,,"81",,"FEW:02 21","29.59","10.00","32","310",,"10",,,,,,,,,,,,,,,,,,,,,,,,,,,,,,,,,,,,,"MET08703/24/20 04:54:02 SPECI KHPN 240954Z 31009KT 10SM FEW021 01/M02 A3002 RMK AO2 FIBI (ML)","FM-16","6",,,,,,,,,,,,,,,,,,,,,,,,,,,,"2009-05-22"
"72503794745","2020-03-24T04:56:00","FM-15","7",,,,,,,,,,,,,,,,,,,,,,,,,,,,,,,,,,,,,,"30.02","29","33","0.00",,,,"85","30.04","FEW:02 21","29.59","10.00","31","310",,"9",,,,,,,,,,,,,,,,,,,,,,,,,,,,,,,,,,,,,"MET09903/24/20 04:56:02 METAR KHPN 240956Z 31008KT 10SM FEW021 01/M02 A3002 RMK AO2 SLP173 T00061017 (ML)","FM-15","7",,,,,,,,,,,,,,,,,,,,,,,,,,,,"2009-05-22"
"72503794745","2020-03-24T05:56:00","FM-15","7",,,,,,,,,,,,,,,,,,,,,,,,,,,,,,,,,,,,,,"30.04","29","32","0.00",,,,"88","30.06","CLR:00","29.61","10.00","31","330",,"13",,,,,,,,,,,,,,,,,,,,,,,,,,,,,,,,,,,,,"MET09603/24/20 05:56:02 METAR KHPN 241056Z 33011KT 10SM CLR 00/M02 A3004 RMK AO2 SLP180 T00001017 (ML)","FM-15","7",,,,,,,,,,,,,,,,,,,,,,,,,,,,"2009-05-22"
"72503794745","2020-03-24T06:56:00","FM-15","7",,,,,,,,,,,,,,,,,,,,,,,,,,,,,,,,,,,,,,"30.10","29","34","0.00",,"-0.09","3","82","30.12","FEW:02 20","29.67","10.00","32","310",,"13",,,,,,,,,,,,,,,,,,,,,,,,,,,,,,,,,,,,,"MET12303/24/20 06:56:02 METAR KHPN 241156Z 31011KT 10SM FEW020 01/M02 A3010 RMK AO2 SLP199 70079 T00111017 10011 20000 53031 (ML)","FM-15","7",,,,,,,,,,,,,,,,,,,,,,,,,,,,"2009-05-22"
"72503794745","2020-03-24T07:54:00","FM-16","6",,,,,,,,,,,,,,,,,,,,,,,,,,,,,,,,,,,,,,"30.11","30","37",,,,,"75",,"FEW:02 7 SCT:04 100","29.68","10.00","34","340",,"14",,,,,,,,,,,,,,,,,,,,,,,,,,,,,,,,,,,,,"MET09403/24/20 07:54:02 SPECI KHPN 241254Z 34012KT 10SM FEW007 SCT100 03/M01 A3011 RMK AO2 FIBI (ML)","FM-16","6",,,,,,,,,,,,,,,,,,,,,,,,,,,,"2009-05-22"
"72503794745","2020-03-24T07:56:00","FM-15","7",,,,,,,,,,,,,,,,,,,,,,,,,,,,,,,,,,,,,,"30.11","31","37","0.00",,,,"79","30.13","FEW:02 7 SCT:04 100","29.68","10.00","35","330",,"14",,,,,,,,,,,,,,,,,,,,,,,,,,,,,,,,,,,,,"MET10603/24/20 07:56:02 METAR KHPN 241256Z 33012KT 10SM FEW007 SCT100 03/M01 A3011 RMK AO2 SLP204 T00281006 (ML)","FM-15","7",,,,,,,,,,,,,,,,,,,,,,,,,,,,"2009-05-22"
"72503794745","2020-03-24T08:56:00","FM-15","7",,,,,,,,,,,,,,,,,,,,,,,,,,,,,,,,,,,,,,"30.13","32","40","0.00",,,,"73","30.15","FEW:02 20","29.70","10.00","37","320",,"16",,,,,,,,,,,,,,,,,,,,,,,,,,,,,,,,,,,,,"MET09803/24/20 08:56:02 METAR KHPN 241356Z 32014KT 10SM FEW020 04/00 A3013 RMK AO2 SLP209 T00440000 (ML)","FM-15","7",,,,,,,,,,,,,,,,,,,,,,,,,,,,"2009-05-22"
"72503794745","2020-03-24T09:56:00","FM-15","7",,,,,,,,,,,,,,,,,,,,,,,,,,,,,,,,,,,,,,"30.11","31","43","0.00",,"-0.01","0","63","30.13","FEW:02 20","29.68","10.00","38","360","25","17",,,,,,,,,,,,,,,,,,,,,,,,,,,,,,,,,,,,,"MET10303/24/20 09:56:02 METAR KHPN 241456Z 36015G22KT 10SM FEW020 06/M01 A3011 RMK AO2 SLP202 T00611006 50005","FM-15","7",,,,,,,,,,,,,,,,,,,,,,,,,,,,"2009-05-22"
"72503794745","2020-03-24T10:56:00","FM-15","7",,,,,,,,,,,,,,,,,,,,,,,,,,,,,,,,,,,,,,"30.12","32","46","0.00",,,,"58","30.13","FEW:02 20","29.69","10.00","40","350",,"9",,,,,,,,,,,,,,,,,,,,,,,,,,,,,,,,,,,,,"MET09803/24/20 10:56:02 METAR KHPN 241556Z 35008KT 10SM FEW020 08/00 A3012 RMK AO2 SLP204 T00780000 (FT)","FM-15","7",,,,,,,,,,,,,,,,,,,,,,,,,,,,"2009-05-22"
"72503794745","2020-03-24T11:56:00","FM-15","7",,,,,,,,,,,,,,,,,,,,,,,,,,,,,,,,,,,,,,"30.11","32","48","0.00",,,,"54","30.13","FEW:02 33","29.68","10.00","41","290",,"13",,,,,,,,,,,,,,,,,,,,,,,,,,,,,,,,,,,,,"MET09803/24/20 11:56:02 METAR KHPN 241656Z 29011KT 10SM FEW033 09/00 A3011 RMK AO2 SLP203 T00890000 (FT)","FM-15","7",,,,,,,,,,,,,,,,,,,,,,,,,,,,"2009-05-22"
"72503794745","2020-03-24T12:56:00","FM-15","7",,,,,,,,,,,,,,,,,,,,,,,,,,,,,,,,,,,,,,"30.11","33","49","0.00",,"+0.01","8","55","30.12","SCT:04 33","29.68","10.00","42","320","20","13",,,,,,,,,,,,,,,,,,,,,,,,,,,,,,,,,,,,,"MET11903/24/20 12:56:02 METAR KHPN 241756Z 32011G17KT 10SM SCT033 09/01 A3011 RMK AO2 SLP200 T00940006 10094 20011 58002 (FT)","FM-15","7",,,,,,,,,,,,,,,,,,,,,,,,,,,,"2009-05-22"
"72503794745","2020-03-24T13:56:00","FM-15","7",,,,,,,,,,,,,,,,,,,,,,,,,,,,,,,,,,,,,,"30.11","32","49","0.00",,,,"52","30.12","SCT:04 33","29.68","10.00","42","320",,"10",,,,,,,,,,,,,,,,,,,,,,,,,,,,,,,,,,,,,"MET09803/24/20 13:56:02 METAR KHPN 241856Z 32009KT 10SM SCT033 09/00 A3011 RMK AO2 SLP200 T00940000 (FT)","FM-15","7",,,,,,,,,,,,,,,,,,,,,,,,,,,,"2009-05-22"
"72503794745","2020-03-24T14:56:00","FM-15","7",,,,,,,,,,,,,,,,,,,,,,,,,,,,,,,,,,,,,,"30.11","32","50","0.00",,,,"50","30.12","SCT:04 37","29.68","10.00","42","300",,"10",,,,,,,,,,,,,,,,,,,,,,,,,,,,,,,,,,,,,"MET09803/24/20 14:56:02 METAR KHPN 241956Z 30009KT 10SM SCT037 10/00 A3011 RMK AO2 SLP201 T01000000 (FT)","FM-15","7",,,,,,,,,,,,,,,,,,,,,,,,,,,,"2009-05-22"
"72503794745","2020-03-24T15:56:00","FM-15","7",,,,,,,,,,,,,,,,,,,,,,,,,,,,,,,,,,,,,,"30.09","32","50","0.00",,"+0.02","8","50","30.10","FEW:02 37","29.66","10.00","42","300",,"8",,,,,,,,,,,,,,,,,,,,,,,,,,,,,,,,,,,,,"MET10403/24/20 15:56:02 METAR KHPN 242056Z 30007KT 10SM FEW037 10/00 A3009 RMK AO2 SLP194 T01000000 58006 (FT)","FM-15","7",,,,,,,,,,,,,,,,,,,,,,,,,,,,"2009-05-22"
"72503794745","2020-03-24T16:56:00","FM-15","7",,,,,,,,,,,,,,,,,,,,,,,,,,,,,,,,,,,,,,"30.08","32","50","0.00",,,,"50","30.10","CLR:00","29.65","10.00","42","010",,"9",,,,,,,,,,,,,,,,,,,,,,,,,,,,,,,,,,,,,"MET09503/24/20 16:56:02 METAR KHPN 242156Z 01008KT 10SM CLR 10/00 A3008 RMK AO2 SLP192 T01000000 (EC)","FM-15","7",,,,,,,,,,,,,,,,,,,,,,,,,,,,"2009-05-22"
"72503794745","2020-03-24T17:56:00","FM-15","7",,,,,,,,,,,,,,,,,,,,,,,,,,,,,,,,,,,,,,"30.11","32","47","0.00",,,,"56","30.13","CLR:00","29.68","10.00","41","360",,"9",,,,,,,,,,,,,,,,,,,,,,,,,,,,,,,,,,,,,"MET09503/24/20 17:56:02 METAR KHPN 242256Z 36008KT 10SM CLR 08/00 A3011 RMK AO2 SLP203 T00830000 (EC)","FM-15","7",,,,,,,,,,,,,,,,,,,,,,,,,,,,"2009-05-22"
"72503794745","2020-03-24T18:56:00","FM-15","7",,,,,,,,,,,,,,,,,,,,,,,,,,,,,,,,,,,,,,"30.14","32","45","0.00",,"-0.05","3","61","30.16","CLR:00","29.71","10.00","39","360",,"7",,,,,,,,,,,,,,,,,,,,,,,,,,,,,,,,,,,,,"MET11303/24/20 18:56:02 METAR KHPN 242356Z 36006KT 10SM CLR 07/00 A3014 RMK AO2 SLP212 T00720000 10106 20072 53018 (EC)","FM-15","7",,,,,,,,,,,,,,,,,,,,,,,,,,,,"2009-05-22"
"72503794745","2020-03-24T19:56:00","FM-15","7",,,,,,,,,,,,,,,,,,,,,,,,,,,,,,,,,,,,,,"30.16","31","42","0.00",,,,"65","30.18","CLR:00","29.73","10.00","37","020",,"10",,,,,,,,,,,,,,,,,,,,,,,,,,,,,,,,,,,,,"MET09103/24/20 19:56:01 METAR KHPN 250056Z 02009KT 10SM CLR 06/M01 A3016 RMK AO2 SLP219 T00561006","FM-15","7",,,,,,,,,,,,,,,,,,,,,,,,,,,,"2009-05-22"
"72503794745","2020-03-24T20:56:00","FM-15","7",,,,,,,,,,,,,,,,,,,,,,,,,,,,,,,,,,,,,,"30.17","29","40","0.00",,,,"65","30.19","CLR:00","29.74","10.00","36","020",,"10",,,,,,,,,,,,,,,,,,,,,,,,,,,,,,,,,,,,,"MET09103/24/20 20:56:01 METAR KHPN 250156Z 02009KT 10SM CLR 04/M02 A3017 RMK AO2 SLP222 T00441017","FM-15","7",,,,,,,,,,,,,,,,,,,,,,,,,,,,"2009-05-22"
"72503794745","2020-03-24T21:56:00","FM-15","7",,,,,,,,,,,,,,,,,,,,,,,,,,,,,,,,,,,,,,"30.17","28","38","0.00",,"-0.03","1","68","30.19","CLR:00","29.74","10.00","34","360",,"7",,,,,,,,,,,,,,,,,,,,,,,,,,,,,,,,,,,,,"MET09703/24/20 21:56:01 METAR KHPN 250256Z 36006KT 10SM CLR 03/M02 A3017 RMK AO2 SLP222 T00331022 51010","FM-15","7",,,,,,,,,,,,,,,,,,,,,,,,,,,,"2009-05-22"
"72503794745","2020-03-24T22:56:00","FM-15","7",,,,,,,,,,,,,,,,,,,,,,,,,,,,,,,,,,,,,,"30.16","28","38","0.00",,,,"68","30.17","CLR:00","29.73","10.00","34","VRB",,"7",,,,,,,,,,,,,,,,,,,,,,,,,,,,,,,,,,,,,"MET09103/24/20 22:56:01 METAR KHPN 250356Z VRB06KT 10SM CLR 03/M02 A3016 RMK AO2 SLP218 T00331022","FM-15","7",,,,,,,,,,,,,,,,,,,,,,,,,,,,"2009-05-22"
"72503794745","2020-03-24T23:56:00","FM-15","7",,,,,,,,,,,,,,,,,,,,,,,,,,,,,,,,,,,,,,"30.15","27","37","0.00",,,,"67","30.16","CLR:00","29.72","10.00","33","050",,"3",,,,,,,,,,,,,,,,,,,,,,,,,,,,,,,,,,,,,"MET10103/24/20 23:56:01 METAR KHPN 250456Z 05003KT 10SM CLR 03/M03 A3015 RMK AO2 SLP215 T00281028 401060000","FM-15","7",,,,,,,,,,,,,,,,,,,,,,,,,,,,"2009-05-22"
"72503794745","2020-03-24T23:59:00","SOD  ","6",,,,,,,,,,,,,,,,"42",,,"29.65",,"10.4","0","1.4","23","51","32","330","27","0.00",,,"360","21",,,,,,,,,,,,,,,,,,,,,,,,,,,,,,,,,,,,,,,,,,,,,,,,,,,,,,,,,"SOD73024 HR PRECIPITATION (IN):0.00  24 HR MAX TEMP (F):51 24 HR MAX TEMP TIME (LST):1615 24 HR MIN TEMP (F):32 24 HR MIN TEMP TIME (LST):0614 AVERAGE STATION PRESSURE:29.645 MINIMUM SEA LEVEL PRESSURE:29.98 TIME OF OCCURRENCE:0140 PEAK WIND SPEED (MPH):27  PEAK WIND DIR (DEG):330 PEAK WIND TIME (LST):1015  FASTEST 2MIN SPEED (MPH):21 FASTEST 2MIN DIR (DEG):360 FASTEST 2MIN TIME (LST):1022 AVERAGE WIND SPEED (MPH):10.4 24 HR AVG TEMP (F):42 HEATING DEGREE DAYS:23  COOLING DEGREE DAYS:0   LATEST DAY MAX TEMP (0700-1900 LST):51  LATEST NIGHT MIN TEMP(1900-0800 LST):32 HOURLY INCREMENTAL PRECIPITATION VALUES (IN):.00 0.00 0.00 0.00 0.00 0.00 0.00 0.00 0.00 0.00 0.00 0.00 0.00 0.00 0.00 0.00 0.00 0.00 0.00 0.00 0.00 0.00 0.00 0.00","SOD  ","6",,,,,,,,,,,,,,,,,,,,,,,,,"0550","1812",,"2009-05-22"
"72503794745","2020-03-25T00:56:00","FM-15","7",,,,,,,,,,,,,,,,,,,,,,,,,,,,,,,,,,,,,,"30.15","27","36","0.00",,"+0.02","6","70","30.16","CLR:00","29.72","10.00","33","050",,"6",,,,,,,,,,,,,,,,,,,,,,,,,,,,,,,,,,,,,"MET11403/25/20 00:56:02 METAR KHPN 250556Z 05005KT 10SM CLR 02/M03 A3015 RMK AO2 SLP213 T00221028 10072 20017 56007 (EC)","FM-15","7",,,,,,,,,,,,,,,,,,,,,,,,,,,,"2009-05-22"
"72503794745","2020-03-25T01:56:00","FM-15","7",,,,,,,,,,,,,,,,,,,,,,,,,,,,,,,,,,,,,,"30.13","27","36","0.00",,,,"70","30.14","CLR:00","29.70","10.00","33","060",,"5",,,,,,,,,,,,,,,,,,,,,,,,,,,,,,,,,,,,,"MET09603/25/20 01:56:02 METAR KHPN 250656Z 06004KT 10SM CLR 02/M03 A3013 RMK AO2 SLP208 T00221028 (SR)","FM-15","7",,,,,,,,,,,,,,,,,,,,,,,,,,,,"2009-05-22"
"72503794745","2020-03-25T02:56:00","FM-15","7",,,,,,,,,,,,,,,,,,,,,,,,,,,,,,,,,,,,,,"30.10","27","36","0.00",,,,"70","30.11","CLR:00","29.67","10.00","33","070",,"10",,,,,,,,,,,,,,,,,,,,,,,,,,,,,,,,,,,,,"MET09603/25/20 02:56:02 METAR KHPN 250756Z 07009KT 10SM CLR 02/M03 A3010 RMK AO2 SLP197 T00221028 (SR)","FM-15","7",,,,,,,,,,,,,,,,,,,,,,,,,,,,"2009-05-22"
"72503794745","2020-03-25T03:56:00","FM-15","7",,,,,,,,,,,,,,,,,,,,,,,,,,,,,,,,,,,,,,"30.08","26","36","0.00",,"+0.07","8","67","30.09","CLR:00","29.65","10.00","32","080",,"9",,,,,,,,,,,,,,,,,,,,,,,,,,,,,,,,,,,,,"MET10203/25/20 03:56:02 METAR KHPN 250856Z 08008KT 10SM CLR 02/M03 A3008 RMK AO2 SLP189 T00221033 58023 (SR)","FM-15","7",,,,,,,,,,,,,,,,,,,,,,,,,,,,"2009-05-22"
"72503794745","2020-03-25T04:42:00","FM-16","7",,,,,,,,,,,,,,,,,,,,,,,,,,,,,,,,,,,,,,"30.08","26","36",,,,,"67",,"BKN:07 19","29.65","10.00","32","060",,"10",,,,,,,,,,,,,,,,,,,,,,,,,,,,,,,,,,,,,"MET09203/25/20 04:42:02 SPECI KHPN 250942Z 06009KT 10SM BKN019 02/M03 A3008 RMK AO2 T00221033 (SR)","FM-16","7",,,,,,,,,,,,,,,,,,,,,,,,,,,,"2009-05-22"
"72503794745","2020-03-25T04:56:00","FM-15","7",,,,,,,,,,,,,,,,,,,,,,,,,,,,,,,,,,,,,,"30.09","26","36","0.00",,,,"67","30.10","OVC:08 19","29.66","10.00","32","070",,"8",,,,,,,,,,,,,,,,,,,,,,,,,,,,,,,,,,,,,"MET09903/25/20 04:56:02 METAR KHPN 250956Z 07007KT 10SM OVC019 02/M03 A3009 RMK AO2 SLP194 T00221033 (SR)","FM-15","7",,,,,,,,,,,,,,,,,,,,,,,,,,,,"2009-05-22"
"72503794745","2020-03-25T05:56:00","FM-15","7",,,,,,,,,,,,,,,,,,,,,,,,,,,,,,,,,,,,,,"30.10","27","37","0.00",,,,"67","30.12","OVC:08 16","29.67","10.00","33","070",,"10",,,,,,,,,,,,,,,,,,,,,,,,,,,,,,,,,,,,,"MET09903/25/20 05:56:02 METAR KHPN 251056Z 07009KT 10SM OVC016 03/M03 A3010 RMK AO2 SLP199 T00281028 (SR)","FM-15","7",,,,,,,,,,,,,,,,,,,,,,,,,,,,"2009-05-22"
"72503794745","2020-03-25T06:56:00","FM-15","7",,,,,,,,,,,,,,,,,,,,,,,,,,,,,,,,,,,,,,"30.11","27","37","0.00",,"-0.03","1","67","30.12","BKN:07 16 OVC:08 25","29.68","10.00","33","070",,"10",,,,,,,,,,,,,,,,,,,,,,,,,,,,,,,,,,,,,"MET12403/25/20 06:56:02 METAR KHPN 251156Z 07009KT 10SM BKN016 OVC025 03/M03 A3011 RMK AO2 SLP200 T00281028 10028 20022 51010 (SR)","FM-15","7",,,,,,,,,,,,,,,,,,,,,,,,,,,,"2009-05-22"
"72503794745","2020-03-25T07:56:00","FM-15","7",,,,,,,,,,,,,,,,,,,,,,,,,,,,,,,,,,,,,,"30.09","29","37","0.00",,,,"73","30.11","OVC:08 15","29.66","10.00","34","060",,"7",,,,,,,,,,,,,,,,,,,,,,,,,,,,,,,,,,,,,"MET09903/25/20 07:56:02 METAR KHPN 251256Z 06006KT 10SM OVC015 03/M02 A3009 RMK AO2 SLP195 T00281017 (SR)","FM-15","7",,,,,,,,,,,,,,,,,,,,,,,,,,,,"2009-05-22"
"72503794745","2020-03-25T08:56:00","FM-15","7",,,,,,,,,,,,,,,,,,,,,,,,,,,,,,,,,,,,,,"30.10","31","39","0.00",,,,"73","30.12","OVC:08 15","29.67","10.00","36","070",,"8",,,,,,,,,,,,,,,,,,,,,,,,,,,,,,,,,,,,,"MET09903/25/20 08:56:02 METAR KHPN 251356Z 07007KT 10SM OVC015 04/M01 A3010 RMK AO2 SLP199 T00391006 (SR)","FM-15","7",,,,,,,,,,,,,,,,,,,,,,,,,,,,"2009-05-22"
"72503794745","2020-03-25T09:54:00","FM-16","6",,,,,,,,,,,,,,,,,,,,,,,,,,,,,,,,,,,,,,"30.09","32","39",,,,,"75",,"OVC:08 14","29.66","10.00","36","070","16","9",,,,,,,,,,,,,,,,,,,,,,,,,,,,,,,,,,,,,"MET08903/25/20 09:54:02 SPECI KHPN 251454Z 07008G14KT 10SM OVC014 04/00 A3009 RMK AO2 FIBI (SR)","FM-16","6",,,,,,,,,,,,,,,,,,,,,,,,,,,,"2009-05-22"
"72503794745","2020-03-25T09:56:00","FM-15","7",,,,,,,,,,,,,,,,,,,,,,,,,,,,,,,,,,,,,,"30.09","32","40","0.00",,"+0.02","7","73","30.10","OVC:08 14","29.66","10.00","37","070","16","8",,,,,,,,,,,,,,,,,,,,,,,,,,,,,,,,,,,,,"MET10703/25/20 09:56:02 METAR KHPN 251456Z 07007G14KT 10SM OVC014 04/00 A3009 RMK AO2 SLP194 T00440000 57007 (SR)","FM-15","7",,,,,,,,,,,,,,,,,,,,,,,,,,,,"2009-05-22"
"72503794745","2020-03-25T10:56:00","FM-15","7",,,,,,,,,,,,,,,,,,,,,,,,,,,,,,,,,,,,,,"30.07","34","41","0.00",,,,"76","30.09","BKN:07 14","29.64","10.00","38","070",,"11",,,,,,,,,,,,,,,,,,,,,,,,,,,,,,,,,,,,,"MET09803/25/20 10:56:02 METAR KHPN 251556Z 07010KT 10SM BKN014 05/01 A3007 RMK AO2 SLP190 T00500011 (JP)","FM-15","7",,,,,,,,,,,,,,,,,,,,,,,,,,,,"2009-05-22"
"72503794745","2020-03-25T11:56:00","FM-15","7",,,,,,,,,,,,,,,,,,,,,,,,,,,,,,,,,,,,,,"30.07","35","41","0.00",,,,"79","30.08","BKN:07 14","29.64","10.00","38","070",,"8",,,,,,,,,,,,,,,,,,,,,,,,,,,,,,,,,,,,,"MET09803/25/20 11:56:02 METAR KHPN 251656Z 07007KT 10SM BKN014 05/02 A3007 RMK AO2 SLP187 T00500017 (JP)","FM-15","7",,,,,,,,,,,,,,,,,,,,,,,,,,,,"2009-05-22"
"72503794745","2020-03-25T12:54:00","FM-16","6",,,,,,,,,,,,,,,,,,,,,,,,,,,,,,,,,,,,,,"30.06","36","43",,,,,"76",,"BKN:07 17","29.63","10.00","40","070",,"7",,,,,,,,,,,,,,,,,,,,,,,,,,,,,,,,,,,,,"MET08603/25/20 12:54:02 SPECI KHPN 251754Z 07006KT 10SM BKN017 06/02 A3006 RMK AO2 FIBI (JP)","FM-16","6",,,,,,,,,,,,,,,,,,,,,,,,,,,,"2009-05-22"
"72503794745","2020-03-25T12:56:00","FM-15","7",,,,,,,,,,,,,,,,,,,,,,,,,,,,,,,,,,,,,,"30.06","35","42","0.00",,"+0.03","6","76","30.07","BKN:07 17","29.63","10.00","39","070",,"8",,,,,,,,,,,,,,,,,,,,,,,,,,,,,,,,,,,,,"MET11603/25/20 12:56:02 METAR KHPN 251756Z 07007KT 10SM BKN017 06/02 A3006 RMK AO2 SLP184 T00560017 10056 20028 56009 (JP)","FM-15","7",,,,,,,,,,,,,,,,,,,,,,,,,,,,"2009-05-22"
"72503794745","2020-03-25T13:56:00","FM-15","7",,,,,,,,,,,,,,,,,,,,,,,,,,,,,,,,,,,,,,"30.03","36","42","T",,,,"79","30.05","SCT:04 16 OVC:08 24","29.60","10.00","39","060","17","11",,,,,,,,,,,,,,,,,,,,,,,,,,,,,,,,,,,,,"MET12303/25/20 13:56:02 METAR KHPN 251856Z 06010G15KT 10SM SCT016 OVC024 06/02 A3003 RMK AO2 DZB25E45 SLP175 P0000 T00560022 (JP)","FM-15","7",,,,,,,,,,,,,,,,,,,,,,,,,,,,"2009-05-22"
"72503794745","2020-03-25T14:56:00","FM-15","7",,,,,,,,,,,,,,,,,,,,,,,,,,,,,,,,,,,,,,"30.01","34","43","0.00",,,,"71","30.03","SCT:04 21 BKN:07 28","29.58","10.00","39","080","22","10",,,,,,,,,,,,,,,,,,,,,,,,,,,,,,,,,,,,,"MET10803/25/20 14:56:02 METAR KHPN 251956Z 08009G19KT 10SM SCT021 BKN028 06/01 A3001 RMK AO2 SLP168 T00610011 (JP)","FM-15","7",,,,,,,,,,,,,,,,,,,,,,,,,,,,"2009-05-22"
"72503794745","2020-03-25T15:56:00","FM-15","7",,,,,,,,,,,,,,,,,,,,,,,,,,,,,,,,,,,,,,"30.01","33","42","0.00",,"+0.05","6","71","30.02","SCT:04 21 BKN:07 27","29.58","10.00","38","070",,"8",,,,,,,,,,,,,,,,,,,,,,,,,,,,,,,,,,,,,"MET11703/25/20 15:56:02 METAR KHPN 252056Z 07007KT 10SM SCT021 BKN027 06/01 A3001 RMK AO2 SLP166 60000 T00560006 56018 (JP)","FM-15","7",,,,,,,,,,,,,,,,,,,,,,,,,,,,"2009-05-22"
"72503794745","2020-03-25T16:54:00","FM-16","6",,,,,,,,,,,,,,,,,,,,,,,,,,,,,,,,,,,,,,"30.00","34","41",,,,,"76",,"FEW:02 19 BKN:07 32","29.57","10.00","38","020",,"7",,,,,,,,,,,,,,,,,,,,,,,,,,,,,,,,,,,,,"MET10803/25/20 16:54:02 SPECI KHPN 252154Z 02006KT 10SM FEW019 BKN032 05/01 A3000 RMK AO2 RAB11E52 P0000 FIBI (JP)","FM-16","6",,,,,,,,,,,,,,,,,,,,,,,,,,,,"2009-05-22"
"72503794745","2020-03-25T16:56:00","FM-15","7",,,,,,,,,,,,,,,,,,,,,,,,,,,,,,,,,,,,,,"30.00","35","41","T",,,,"79","30.01","FEW:02 19 BKN:07 32","29.57","10.00","38","030",,"9",,,,,,,,,,,,,,,,,,,,,,,,,,,,,,,,,,,,,"MET12003/25/20 16:56:02 METAR KHPN 252156Z 03008KT 10SM FEW019 BKN032 05/02 A3000 RMK AO2 RAB11E52 SLP163 P0000 T00500017 (JP)","FM-15","7",,,,,,,,,,,,,,,,,,,,,,,,,,,,"2009-05-22"
"72503794745","2020-03-25T17:56:00","FM-15","7",,,,,,,,,,,,,,,,,,,,,,,,,,,,,,,,,,,,,,"30.01","36","41","T",,,,"82","30.02","FEW:02 25 SCT:04 35 BKN:07 90","29.58","10.00","39","030",,"7",,,,,,,,,,,,,,,,,,,,,,,,,,,,,,,,,,,,,"MET12703/25/20 17:56:02 METAR KHPN 252256Z 03006KT 10SM FEW025 SCT035 BKN090 05/02 A3001 RMK AO2 RAB29E45 SLP167 P0000 T00500022 (JP)","FM-15","7",,,,,,,,,,,,,,,,,,,,,,,,,,,,"2009-05-22"
"72503794745","2020-03-25T18:56:00","FM-15","7",,,,,,,,,,,,,,,,,,,,,,,,,,,,,,,,,,,,,,"30.01","34","41","0.00",,"-0.01","3","76","30.03","BKN:07 35","29.58","10.00","38","020",,"8",,,,,,,,,,,,,,,,,,,,,,,,,,,,,,,,,,,,,"MET12203/25/20 18:56:02 METAR KHPN 252356Z 02007KT 10SM BKN035 05/01 A3001 RMK AO2 SLP168 60000 T00500011 10067 20050 53002 (JP)","FM-15","7",,,,,,,,,,,,,,,,,,,,,,,,,,,,"2009-05-22"
"72503794745","2020-03-25T19:54:00","FM-16","6",,,,,,,,,,,,,,,,,,,,,,,,,,,,,,,,,,,,,,"30.02","34","39",,,,,"81",,"BKN:07 16","29.59","10.00","37","030",,"8",,,,,,,,,,,,,,,,,,,,,,,,,,,,,,,,,,,,,"MET08103/25/20 19:54:03 SPECI KHPN 260054Z 03007KT 10SM BKN016 04/01 A3002 RMK AO2 FIBI","FM-16","6",,,,,,,,,,,,,,,,,,,,,,,,,,,,"2009-05-22"
"72503794745","2020-03-25T19:56:00","FM-15","7",,,,,,,,,,,,,,,,,,,,,,,,,,,,,,,,,,,,,,"30.02","34","40","0.00",,,,"79","30.03","BKN:07 16","29.59","10.00","37","040",,"9",,,,,,,,,,,,,,,,,,,,,,,,,,,,,,,,,,,,,"MET09303/25/20 19:56:01 METAR KHPN 260056Z 04008KT 10SM BKN016 04/01 A3002 RMK AO2 SLP171 T00440011","FM-15","7",,,,,,,,,,,,,,,,,,,,,,,,,,,,"2009-05-22"
"72503794745","2020-03-25T20:54:00","FM-16","6",,,,,,,,,,,,,,,,,,,,,,,,,,,,,,,,,,,,,,"30.03","32","37",,,,,"81",,"CLR:00","29.60","10.00","35","360",,"7",,,,,,,,,,,,,,,,,,,,,,,,,,,,,,,,,,,,,"MET08303/25/20 20:54:03 SPECI KHPN 260154Z 36006KT 10SM CLR 03/00 A3003 RMK AO2 FIBI (RS)","FM-16","6",,,,,,,,,,,,,,,,,,,,,,,,,,,,"2009-05-22"
"72503794745","2020-03-25T20:56:00","FM-15","7",,,,,,,,,,,,,,,,,,,,,,,,,,,,,,,,,,,,,,"30.03","32","38","0.00",,,,"79","30.05","CLR:00","29.60","10.00","36","360",,"7",,,,,,,,,,,,,,,,,,,,,,,,,,,,,,,,,,,,,"MET09003/25/20 20:56:01 METAR KHPN 260156Z 36006KT 10SM CLR 03/00 A3003 RMK AO2 SLP176 T00330000","FM-15","7",,,,,,,,,,,,,,,,,,,,,,,,,,,,"2009-05-22"
"72503794745","2020-03-25T21:56:00","FM-15","7",,,,,,,,,,,,,,,,,,,,,,,,,,,,,,,,,,,,,,"30.04","30","35","0.00",,"-0.03","1","82","30.06","CLR:00","29.61","10.00","33","340",,"6",,,,,,,,,,,,,,,,,,,,,,,,,,,,,,,,,,,,,"MET09703/25/20 21:56:01 METAR KHPN 260256Z 34005KT 10SM CLR 02/M01 A3004 RMK AO2 SLP179 T00171011 51010","FM-15","7",,,,,,,,,,,,,,,,,,,,,,,,,,,,"2009-05-22"
"72503794745","2020-03-25T22:56:00","FM-15","7",,,,,,,,,,,,,,,,,,,,,,,,,,,,,,,,,,,,,,"30.04","29","34","0.00",,,,"82","30.06","CLR:00","29.61","10.00","32","330",,"8",,,,,,,,,,,,,,,,,,,,,,,,,,,,,,,,,,,,,"MET09103/25/20 22:56:01 METAR KHPN 260356Z 33007KT 10SM CLR 01/M02 A3004 RMK AO2 SLP178 T00111017","FM-15","7",,,,,,,,,,,,,,,,,,,,,,,,,,,,"2009-05-22"
"72503794745","2020-03-25T23:56:00","FM-15","7",,,,,,,,,,,,,,,,,,,,,,,,,,,,,,,,,,,,,,"30.03","29","34","0.00",,,,"82","30.05","CLR:00","29.60","10.00","32","320",,"6",,,,,,,,,,,,,,,,,,,,,,,,,,,,,,,,,,,,,"MET10103/25/20 23:56:01 METAR KHPN 260456Z 32005KT 10SM CLR 01/M02 A3003 RMK AO2 SLP175 T00111017 400670000","FM-15","7",,,,,,,,,,,,,,,,,,,,,,,,,,,,"2009-05-22"
"72503794745","2020-03-25T23:59:00","SOD  ","6",,,,,,,,,,,,,,,,"38",,,"29.65",,"8.3","0","-2.9","27","44","32","090","23","T",,,"060","17",,,,,,,,,,,,,,,,,,,,,,,,,,,,,,,,,,,,,,,,,,,,,,,,,,,,,,,,,"SOD73024 HR PRECIPITATION (IN):T     24 HR MAX TEMP (F):44 24 HR MAX TEMP TIME (LST):1445 24 HR MIN TEMP (F):32 24 HR MIN TEMP TIME (LST):2324 AVERAGE STATION PRESSURE:29.650 MINIMUM SEA LEVEL PRESSURE:30.01 TIME OF OCCURRENCE:1733 PEAK WIND SPEED (MPH):23  PEAK WIND DIR (DEG):90  PEAK WIND TIME (LST):1519  FASTEST 2MIN SPEED (MPH):17 FASTEST 2MIN DIR (DEG):60  FASTEST 2MIN TIME (LST):1326 AVERAGE WIND SPEED (MPH):8.3  24 HR AVG TEMP (F):38 HEATING DEGREE DAYS:27  COOLING DEGREE DAYS:0   LATEST DAY MAX TEMP (0700-1900 LST):44  LATEST NIGHT MIN TEMP(1900-0800 LST):35 HOURLY INCREMENTAL PRECIPITATION VALUES (IN):.00 0.00 0.00 0.00 0.00 0.00 0.00 0.00 0.00 0.00 0.00 0.00 0.00 T    0.00 0.00 T    T    0.00 0.00 0.00 0.00 0.00 0.00","SOD  ","6",,,,,,,,,,,,,,,,,,,,,,,,,"0549","1813",,"2009-05-22"
"72503794745","2020-03-26T00:56:00","FM-15","7",,,,,,,,,,,,,,,,,,,,,,,,,,,,,,,,,,,,,,"30.03","27","31","0.00",,"+0.01","5","85","30.05","CLR:00","29.60","10.00","30","330",,"7",,,,,,,,,,,,,,,,,,,,,,,,,,,,,,,,,,,,,"MET11503/26/20 00:56:02 METAR KHPN 260556Z 33006KT 10SM CLR M01/M03 A3003 RMK AO2 SLP176 T10061028 10050 21006 55003 (RS)","FM-15","7",,,,,,,,,,,,,,,,,,,,,,,,,,,,"2009-05-22"
"72503794745","2020-03-26T01:56:00","FM-15","7",,,,,,,,,,,,,,,,,,,,,,,,,,,,,,,,,,,,,,"30.02","28","32","0.00",,,,"85","30.03","CLR:00","29.59","10.00","31","350",,"6",,,,,,,,,,,,,,,,,,,,,,,,,,,,,,,,,,,,,"MET09603/26/20 01:56:02 METAR KHPN 260656Z 35005KT 10SM CLR 00/M02 A3002 RMK AO2 SLP171 T00001022 (RS)","FM-15","7",,,,,,,,,,,,,,,,,,,,,,,,,,,,"2009-05-22"
"72503794745","2020-03-26T02:56:00","FM-15","7",,,,,,,,,,,,,,,,,,,,,,,,,,,,,,,,,,,,,,"30.01","27","31","0.00",,,,"85","30.03","CLR:00","29.58","10.00","30","330",,"7",,,,,,,,,,,,,,,,,,,,,,,,,,,,,,,,,,,,,"MET09703/26/20 02:56:02 METAR KHPN 260756Z 33006KT 10SM CLR M01/M03 A3001 RMK AO2 SLP170 T10061028 (RS)","FM-15","7",,,,,,,,,,,,,,,,,,,,,,,,,,,,"2009-05-22"
"72503794745","2020-03-26T03:56:00","FM-15","7",,,,,,,,,,,,,,,,,,,,,,,,,,,,,,,,,,,,,,"30.02","25","29","0.00",,"+0.01","5","85","30.04","CLR:00","29.59","10.00","28","320",,"6",,,,,,,,,,,,,,,,,,,,,,,,,,,,,,,,,,,,,"MET10303/26/20 03:56:02 METAR KHPN 260856Z 32005KT 10SM CLR M02/M04 A3002 RMK AO2 SLP173 T10171039 55003 (RS)","FM-15","7",,,,,,,,,,,,,,,,,,,,,,,,,,,,"2009-05-22"
"72503794745","2020-03-26T04:56:00","FM-15","7",,,,,,,,,,,,,,,,,,,,,,,,,,,,,,,,,,,,,,"30.04","27","32","0.00",,,,"82","30.06","CLR:00","29.61","10.00","30","290",,"7",,,,,,,,,,,,,,,,,,,,,,,,,,,,,,,,,,,,,"MET09103/26/20 04:56:02 METAR KHPN 260956Z 29006KT 10SM CLR 00/M03 A3004 RMK AO2 SLP179 T00001028","FM-15","7",,,,,,,,,,,,,,,,,,,,,,,,,,,,"2009-05-22"
"72503794745","2020-03-26T05:56:00","FM-15","7",,,,,,,,,,,,,,,,,,,,,,,,,,,,,,,,,,,,,,"30.04","27","32","0.00",,,,"82","30.06","CLR:00","29.61","10.00","30","360",,"5",,,,,,,,,,,,,,,,,,,,,,,,,,,,,,,,,,,,,"MET09603/26/20 05:56:02 METAR KHPN 261056Z 36004KT 10SM CLR 00/M03 A3004 RMK AO2 SLP179 T00001028 (ML)","FM-15","7",,,,,,,,,,,,,,,,,,,,,,,,,,,,"2009-05-22"
"72503794745","2020-03-26T06:56:00","FM-15","7",,,,,,,,,,,,,,,,,,,,,,,,,,,,,,,,,,,,,,"30.05","27","36","0.00",,"-0.03","1","70","30.07","CLR:00","29.62","10.00","33","350",,"5",,,,,,,,,,,,,,,,,,,,,,,,,,,,,,,,,,,,,"MET11403/26/20 06:56:02 METAR KHPN 261156Z 35004KT 10SM CLR 02/M03 A3005 RMK AO2 SLP182 T00221028 10022 21022 51010 (ML)","FM-15","7",,,,,,,,,,,,,,,,,,,,,,,,,,,,"2009-05-22"
"72503794745","2020-03-26T07:56:00","FM-15","7",,,,,,,,,,,,,,,,,,,,,,,,,,,,,,,,,,,,,,"30.05","27","39","0.00",,,,"62","30.06","CLR:00","29.62","10.00","34","360",,"6",,,,,,,,,,,,,,,,,,,,,,,,,,,,,,,,,,,,,"MET09603/26/20 07:56:02 METAR KHPN 261256Z 36005KT 10SM CLR 04/M03 A3005 RMK AO2 SLP180 T00391028 (ML)","FM-15","7",,,,,,,,,,,,,,,,,,,,,,,,,,,,"2009-05-22"
"72503794745","2020-03-26T08:56:00","FM-15","7",,,,,,,,,,,,,,,,,,,,,,,,,,,,,,,,,,,,,,"30.05","27","43","0.00",,,,"53","30.07","CLR:00","29.62","10.00","37","VRB",,"6",,,,,,,,,,,,,,,,,,,,,,,,,,,,,,,,,,,,,"MET09603/26/20 08:56:02 METAR KHPN 261356Z VRB05KT 10SM CLR 06/M03 A3005 RMK AO2 SLP182 T00611028 (ML)","FM-15","7",,,,,,,,,,,,,,,,,,,,,,,,,,,,"2009-05-22"
"72503794745","2020-03-26T09:56:00","FM-15","7",,,,,,,,,,,,,,,,,,,,,,,,,,,,,,,,,,,,,,"30.05","28","45","0.00",,"+0.01","8","52","30.06","CLR:00","29.62","10.00","38","270",,"5",,,,,,,,,,,,,,,,,,,,,,,,,,,,,,,,,,,,,"MET10203/26/20 09:56:02 METAR KHPN 261456Z 27004KT 10SM CLR 07/M02 A3005 RMK AO2 SLP180 T00721022 58002 (ML)","FM-15","7",,,,,,,,,,,,,,,,,,,,,,,,,,,,"2009-05-22"
"72503794745","2020-03-26T10:56:00","FM-15","7",,,,,,,,,,,,,,,,,,,,,,,,,,,,,,,,,,,,,,"30.02","31","48","0.00",,,,"52","30.04","CLR:00","29.59","10.00","41","300",,"9",,,,,,,,,,,,,,,,,,,,,,,,,,,,,,,,,,,,,"MET09603/26/20 10:56:02 METAR KHPN 261556Z 30008KT 10SM CLR 09/M01 A3002 RMK AO2 SLP172 T00891006 (ML)","FM-15","7",,,,,,,,,,,,,,,,,,,,,,,,,,,,"2009-05-22"
"72503794745","2020-03-26T11:56:00","FM-15","7",,,,,,,,,,,,,,,,,,,,,,,,,,,,,,,,,,,,,,"29.99","32","51","0.00",,,,"48","30.00","CLR:00","29.56","10.00","43","300",,"6",,,,,,,,,,,,,,,,,,,,,,,,,,,,,,,,,,,,,"MET09503/26/20 11:56:02 METAR KHPN 261656Z 30005KT 10SM CLR 11/00 A2999 RMK AO2 SLP159 T01060000 (ML)","FM-15","7",,,,,,,,,,,,,,,,,,,,,,,,,,,,"2009-05-22"
"72503794745","2020-03-26T12:56:00","FM-15","7",,,,,,,,,,,,,,,,,,,,,,,,,,,,,,,,,,,,,,"29.95","31","53","0.00",,"+0.10","8","43","29.96","CLR:00","29.52","10.00","43","280",,"8",,,,,,,,,,,,,,,,,,,,,,,,,,,,,,,,,,,,,"MET11403/26/20 12:56:02 METAR KHPN 261756Z 28007KT 10SM CLR 12/M01 A2995 RMK AO2 SLP147 T01171006 10117 20022 58033 (ML)","FM-15","7",,,,,,,,,,,,,,,,,,,,,,,,,,,,"2009-05-22"
"72503794745","2020-03-26T13:56:00","FM-15","7",,,,,,,,,,,,,,,,,,,,,,,,,,,,,,,,,,,,,,"29.91","32","55","0.00",,,,"42","29.92","CLR:00","29.48","10.00","45","000",,"0",,,,,,,,,,,,,,,,,,,,,,,,,,,,,,,,,,,,,"MET09503/26/20 13:56:02 METAR KHPN 261856Z 00000KT 10SM CLR 13/00 A2991 RMK AO2 SLP132 T01280000 (ML)","FM-15","7",,,,,,,,,,,,,,,,,,,,,,,,,,,,"2009-05-22"
"72503794745","2020-03-26T14:56:00","FM-15","7",,,,,,,,,,,,,,,,,,,,,,,,,,,,,,,,,,,,,,"29.89","32","55","0.00",,,,"42","29.90","CLR:00","29.46","10.00","45","270",,"3",,,,,,,,,,,,,,,,,,,,,,,,,,,,,,,,,,,,,"MET09003/26/20 14:56:02 METAR KHPN 261956Z 27003KT 10SM CLR 13/00 A2989 RMK AO2 SLP126 T01280000","FM-15","7",,,,,,,,,,,,,,,,,,,,,,,,,,,,"2009-05-22"
"72503794745","2020-03-26T15:56:00","FM-15","7",,,,,,,,,,,,,,,,,,,,,,,,,,,,,,,,,,,,,,"29.87","33","56","0.00",,"+0.08","6","42","29.88","CLR:00","29.44","10.00","45","190",,"8",,,,,,,,,,,,,,,,,,,,,,,,,,,,,,,,,,,,,"MET09603/26/20 15:56:02 METAR KHPN 262056Z 19007KT 10SM CLR 13/01 A2987 RMK AO2 SLP119 T01330006 56026","FM-15","7",,,,,,,,,,,,,,,,,,,,,,,,,,,,"2009-05-22"
"72503794745","2020-03-26T16:56:00","FM-15","7",,,,,,,,,,,,,,,,,,,,,,,,,,,,,,,,,,,,,,"29.87","35","54","0.00",,,,"49","29.88","CLR:00","29.44","10.00","45","180","21","14",,,,,,,,,,,,,,,,,,,,,,,,,,,,,,,,,,,,,"MET09803/26/20 16:56:02 METAR KHPN 262156Z 18012G18KT 10SM CLR 12/02 A2987 RMK AO2 SLP118 T01220017 (FT)","FM-15","7",,,,,,,,,,,,,,,,,,,,,,,,,,,,"2009-05-22"
"72503794745","2020-03-26T17:56:00","FM-15","7",,,,,,,,,,,,,,,,,,,,,,,,,,,,,,,,,,,,,,"29.85","33","48","0.00",,,,"56","29.87","CLR:00","29.42","10.00","41","180",,"8",,,,,,,,,,,,,,,,,,,,,,,,,,,,,,,,,,,,,"MET09503/26/20 17:56:02 METAR KHPN 262256Z 18007KT 10SM CLR 09/01 A2985 RMK AO2 SLP114 T00890006 (FT)","FM-15","7",,,,,,,,,,,,,,,,,,,,,,,,,,,,"2009-05-22"
"72503794745","2020-03-26T18:56:00","FM-15","7",,,,,,,,,,,,,,,,,,,,,,,,,,,,,,,,,,,,,,"29.85","34","45","0.00",,"+0.02","8","66","29.86","CLR:00","29.42","10.00","40","190",,"5",,,,,,,,,,,,,,,,,,,,,,,,,,,,,,,,,,,,,"MET11303/26/20 18:56:02 METAR KHPN 262356Z 19004KT 10SM CLR 07/01 A2985 RMK AO2 SLP112 T00720011 10139 20072 58008 (FT)","FM-15","7",,,,,,,,,,,,,,,,,,,,,,,,,,,,"2009-05-22"
"72503794745","2020-03-26T19:56:00","FM-15","7",,,,,,,,,,,,,,,,,,,,,,,,,,,,,,,,,,,,,,"29.85","36","43","0.00",,,,"76","29.86","CLR:00","29.42","10.00","40","170",,"6",,,,,,,,,,,,,,,,,,,,,,,,,,,,,,,,,,,,,"MET09003/26/20 19:56:01 METAR KHPN 270056Z 17005KT 10SM CLR 06/02 A2985 RMK AO2 SLP112 T00610022","FM-15","7",,,,,,,,,,,,,,,,,,,,,,,,,,,,"2009-05-22"
"72503794745","2020-03-26T20:56:00","FM-15","7",,,,,,,,,,,,,,,,,,,,,,,,,,,,,,,,,,,,,,"29.83","37","43","0.00",,,,"80","29.84","CLR:00","29.40","10.00","40","150",,"3",,,,,,,,,,,,,,,,,,,,,,,,,,,,,,,,,,,,,"MET09003/26/20 20:56:01 METAR KHPN 270156Z 15003KT 10SM CLR 06/03 A2983 RMK AO2 SLP105 T00610028","FM-15","7",,,,,,,,,,,,,,,,,,,,,,,,,,,,"2009-05-22"
"72503794745","2020-03-26T21:56:00","FM-15","7",,,,,,,,,,,,,,,,,,,,,,,,,,,,,,,,,,,,,,"29.80","38","43","0.00",,"+0.05","8","82","29.81","CLR:00","29.37","10.00","41","190",,"3",,,,,,,,,,,,,,,,,,,,,,,,,,,,,,,,,,,,,"MET09603/26/20 21:56:01 METAR KHPN 270256Z 19003KT 10SM CLR 06/03 A2980 RMK AO2 SLP095 T00610033 58016","FM-15","7",,,,,,,,,,,,,,,,,,,,,,,,,,,,"2009-05-22"
"72503794745","2020-03-26T22:56:00","FM-15","7",,,,,,,,,,,,,,,,,,,,,,,,,,,,,,,,,,,,,,"29.81","39","45","0.00",,,,"80","29.81","CLR:00","29.39","10.00","42","000",,"0",,,,,,,,,,,,,,,,,,,,,,,,,,,,,,,,,,,,,"MET09003/26/20 22:56:02 METAR KHPN 270356Z 00000KT 10SM CLR 07/04 A2981 RMK AO2 SLP096 T00720039","FM-15","7",,,,,,,,,,,,,,,,,,,,,,,,,,,,"2009-05-22"
"72503794745","2020-03-26T23:56:00","FM-15","7",,,,,,,,,,,,,,,,,,,,,,,,,,,,,,,,,,,,,,"29.79","39","43","0.00",,,,"86","29.80","CLR:00","29.36","10.00","41","000",,"0",,,,,,,,,,,,,,,,,,,,,,,,,,,,,,,,,,,,,"MET10003/26/20 23:56:02 METAR KHPN 270456Z 00000KT 10SM CLR 06/04 A2979 RMK AO2 SLP092 T00610039 401391022","FM-15","7",,,,,,,,,,,,,,,,,,,,,,,,,,,,"2009-05-22"
"72503794745","2020-03-26T23:59:00","SOD  ","6",,,,,,,,,,,,,,,,"43",,,"29.54",,"5.5","0","1.7","22","57","28","180","21","0.00",,,"180","14",,,,,,,,,,,,,,,,,,,,,,,,,,,,,,,,,,,,,,,,,,,,,,,,,,,,,,,,,"SOD73024 HR PRECIPITATION (IN):0.00  24 HR MAX TEMP (F):57 24 HR MAX TEMP TIME (LST):1647 24 HR MIN TEMP (F):28 24 HR MIN TEMP TIME (LST):0526 AVERAGE STATION PRESSURE:29.540 MINIMUM SEA LEVEL PRESSURE:29.80 TIME OF OCCURRENCE:2359 PEAK WIND SPEED (MPH):21  PEAK WIND DIR (DEG):180 PEAK WIND TIME (LST):1711  FASTEST 2MIN SPEED (MPH):14 FASTEST 2MIN DIR (DEG):180 FASTEST 2MIN TIME (LST):1711 AVERAGE WIND SPEED (MPH):5.5  24 HR AVG TEMP (F):43 HEATING DEGREE DAYS:22  COOLING DEGREE DAYS:0   LATEST DAY MAX TEMP (0700-1900 LST):57  LATEST NIGHT MIN TEMP(1900-0800 LST):28 HOURLY INCREMENTAL PRECIPITATION VALUES (IN):.00 0.00 0.00 0.00 0.00 0.00 0.00 0.00 0.00 0.00 0.00 0.00 0.00 0.00 0.00 0.00 0.00 0.00 0.00 0.00 0.00 0.00 0.00 0.00","SOD  ","6",,,,,,,,,,,,,,,,,,,,,,,,,"0547","1814",,"2009-05-22"
"72503794745","2020-03-27T00:56:00","FM-15","7",,,,,,,,,,,,,,,,,,,,,,,,,,,,,,,,,,,,,,"29.78","40","44","0.00",,"+0.02","8","85","29.79","CLR:00","29.36","10.00","42","000",,"0",,,,,,,,,,,,,,,,,,,,,,,,,,,,,,,,,,,,,"MET11303/27/20 00:56:02 METAR KHPN 270556Z 00000KT 10SM CLR 07/04 A2978 RMK AO2 SLP087 T00670044 10078 20061 58006 (FT)","FM-15","7",,,,,,,,,,,,,,,,,,,,,,,,,,,,"2009-05-22"
"72503794745","2020-03-27T01:56:00","FM-15","7",,,,,,,,,,,,,,,,,,,,,,,,,,,,,,,,,,,,,,"29.77","40","48","0.00",,,,"74","29.77","OVC:08 100","29.34","10.00","44","250",,"5",,,,,,,,,,,,,,,,,,,,,,,,,,,,,,,,,,,,,"MET09803/27/20 01:56:02 METAR KHPN 270656Z 25004KT 10SM OVC100 09/04 A2977 RMK AO2 SLP081 T00890044 (ML)","FM-15","7",,,,,,,,,,,,,,,,,,,,,,,,,,,,"2009-05-22"
"72503794745","2020-03-27T02:56:00","FM-15","7",,,,,,,,,,,,,,,,,,,,,,,,,,,,,,,,,,,,,,"29.75","40","49","0.00",,,,"71","29.75","BKN:07 80","29.33","10.00","45","250",,"5",,,,,,,,,,,,,,,,,,,,,,,,,,,,,,,,,,,,,"MET09803/27/20 02:56:02 METAR KHPN 270756Z 25004KT 10SM BKN080 09/04 A2975 RMK AO2 SLP075 T00940044 (ML)","FM-15","7",,,,,,,,,,,,,,,,,,,,,,,,,,,,"2009-05-22"
"72503794745","2020-03-27T03:56:00","FM-15","7",,,,,,,,,,,,,,,,,,,,,,,,,,,,,,,,,,,,,,"29.75","40","48","0.00",,"+0.04","6","74","29.75","FEW:02 120","29.33","10.00","44","270",,"3",,,,,,,,,,,,,,,,,,,,,,,,,,,,,,,,,,,,,"MET10403/27/20 03:56:02 METAR KHPN 270856Z 27003KT 10SM FEW120 09/04 A2975 RMK AO2 SLP074 T00890044 56012 (ML)","FM-15","7",,,,,,,,,,,,,,,,,,,,,,,,,,,,"2009-05-22"
"72503794745","2020-03-27T04:56:00","FM-15","7",,,,,,,,,,,,,,,,,,,,,,,,,,,,,,,,,,,,,,"29.74","40","47","0.00",,,,"77","29.75","OVC:08 65","29.31","10.00","44","290",,"3",,,,,,,,,,,,,,,,,,,,,,,,,,,,,,,,,,,,,"MET09803/27/20 04:56:02 METAR KHPN 270956Z 29003KT 10SM OVC065 08/04 A2974 RMK AO2 SLP073 T00830044 (ML)","FM-15","7",,,,,,,,,,,,,,,,,,,,,,,,,,,,"2009-05-22"
"72503794745","2020-03-27T05:56:00","FM-15","7",,,,,,,,,,,,,,,,,,,,,,,,,,,,,,,,,,,,,,"29.76","41","48","0.00",,,,"77","29.77","BKN:07 65","29.34","10.00","45","240",,"5",,,,,,,,,,,,,,,,,,,,,,,,,,,,,,,,,,,,,"MET09803/27/20 05:56:02 METAR KHPN 271056Z 24004KT 10SM BKN065 09/05 A2976 RMK AO2 SLP080 T00890050 (ML)","FM-15","7",,,,,,,,,,,,,,,,,,,,,,,,,,,,"2009-05-22"
"72503794745","2020-03-27T06:56:00","FM-15","7",,,,,,,,,,,,,,,,,,,,,,,,,,,,,,,,,,,,,,"29.76","42","48","0.00",,"-0.01","3","80","29.77","SCT:04 70 SCT:04 95 BKN:07 110","29.34","10.00","45","000",,"0",,,,,,,,,,,,,,,,,,,,,,,,,,,,,,,,,,,,,"MET13003/27/20 06:56:02 METAR KHPN 271156Z 00000KT 10SM SCT070 SCT095 BKN110 09/06 A2976 RMK AO2 SLP080 T00890056 10094 20067 53004 (ML)","FM-15","7",,,,,,,,,,,,,,,,,,,,,,,,,,,,"2009-05-22"
"72503794745","2020-03-27T07:56:00","FM-15","7",,,,,,,,,,,,,,,,,,,,,,,,,,,,,,,,,,,,,,"29.79","41","51","0.00",,,,"69","29.80","SCT:04 120","29.36","10.00","46","300",,"9",,,,,,,,,,,,,,,,,,,,,,,,,,,,,,,,,,,,,"MET09803/27/20 07:56:02 METAR KHPN 271256Z 30008KT 10SM SCT120 11/05 A2979 RMK AO2 SLP091 T01060050 (ML)","FM-15","7",,,,,,,,,,,,,,,,,,,,,,,,,,,,"2009-05-22"
"72503794745","2020-03-27T08:56:00","FM-15","7",,,,,,,,,,,,,,,,,,,,,,,,,,,,,,,,,,,,,,"29.80","41","56","0.00",,,,"57","29.80","FEW:02 60","29.37","10.00","49","330",,"15",,,,,,,,,,,,,,,,,,,,,,,,,,,,,,,,,,,,,"MET09803/27/20 08:56:02 METAR KHPN 271356Z 33013KT 10SM FEW060 13/05 A2980 RMK AO2 SLP092 T01330050 (WS)","FM-15","7",,,,,,,,,,,,,,,,,,,,,,,,,,,,"2009-05-22"
"72503794745","2020-03-27T09:56:00","FM-15","7",,,,,,,,,,,,,,,,,,,,,,,,,,,,,,,,,,,,,,"29.83","38","58","0.00",,"-0.06","1","48","29.83","FEW:02 60","29.40","10.00","48","320","25","14",,,,,,,,,,,,,,,,,,,,,,,,,,,,,,,,,,,,,"MET10703/27/20 09:56:02 METAR KHPN 271456Z 32012G22KT 10SM FEW060 14/03 A2983 RMK AO2 SLP102 T01440033 51022 (WS)","FM-15","7",,,,,,,,,,,,,,,,,,,,,,,,,,,,"2009-05-22"
"72503794745","2020-03-27T10:56:00","FM-15","7",,,,,,,,,,,,,,,,,,,,,,,,,,,,,,,,,,,,,,"29.84","29","59","0.00",,,,"32","29.84","FEW:02 60","29.41","10.00","46","330","25","20",,,,,,,,,,,,,,,,,,,,,,,,,,,,,,,,,,,,,"MET10203/27/20 10:56:02 METAR KHPN 271556Z 33017G22KT 10SM FEW060 15/M02 A2984 RMK AO2 SLP105 T01501017 (WS)","FM-15","7",,,,,,,,,,,,,,,,,,,,,,,,,,,,"2009-05-22"
"72503794745","2020-03-27T11:56:00","FM-15","7",,,,,,,,,,,,,,,,,,,,,,,,,,,,,,,,,,,,,,"29.84","27","60","0.00",,,,"28","29.84","CLR:00","29.41","10.00","45","330","24","17",,,,,,,,,,,,,,,,,,,,,,,,,,,,,,,,,,,,,"MET09903/27/20 11:56:02 METAR KHPN 271656Z 33015G21KT 10SM CLR 16/M03 A2984 RMK AO2 SLP105 T01561028 (WS)","FM-15","7",,,,,,,,,,,,,,,,,,,,,,,,,,,,"2009-05-22"
"72503794745","2020-03-27T12:56:00","FM-15","7",,,,,,,,,,,,,,,,,,,,,,,,,,,,,,,,,,,,,,"29.85","23","62","0.00",,"-0.02","1","22","29.85","CLR:00","29.42","10.00","45","360","25","17",,,,,,,,,,,,,,,,,,,,,,,,,,,,,,,,,,,,,"MET11703/27/20 12:56:02 METAR KHPN 271756Z 36015G22KT 10SM CLR 17/M05 A2985 RMK AO2 SLP108 T01671050 10167 20094 51007 (WS)","FM-15","7",,,,,,,,,,,,,,,,,,,,,,,,,,,,"2009-05-22"
"72503794745","2020-03-27T13:56:00","FM-15","7",,,,,,,,,,,,,,,,,,,,,,,,,,,,,,,,,,,,,,"29.84","26","63","0.00",,,,"25","29.84","CLR:00","29.41","10.00","47","350","23","15",,,,,,,,,,,,,,,,,,,,,,,,,,,,,,,,,,,,,"MET09903/27/20 13:56:02 METAR KHPN 271856Z 35013G20KT 10SM CLR 17/M03 A2984 RMK AO2 SLP105 T01721033 (WS)","FM-15","7",,,,,,,,,,,,,,,,,,,,,,,,,,,,"2009-05-22"
"72503794745","2020-03-27T14:56:00","FM-15","7",,,,,,,,,,,,,,,,,,,,,,,,,,,,,,,,,,,,,,"29.85","23","63","0.00",,,,"22","29.85","CLR:00","29.42","10.00","46","350","21","14",,,,,,,,,,,,,,,,,,,,,,,,,,,,,,,,,,,,,"MET09903/27/20 14:56:02 METAR KHPN 271956Z 35012G18KT 10SM CLR 17/M05 A2985 RMK AO2 SLP108 T01721050 (WS)","FM-15","7",,,,,,,,,,,,,,,,,,,,,,,,,,,,"2009-05-22"
"72503794745","2020-03-27T15:56:00","FM-15","7",,,,,,,,,,,,,,,,,,,,,,,,,,,,,,,,,,,,,,"29.85","22","64","0.00",,"-0.00","3","20","29.85","CLR:00","29.42","10.00","46","020",,"11",,,,,,,,,,,,,,,,,,,,,,,,,,,,,,,,,,,,,"MET10203/27/20 15:56:02 METAR KHPN 272056Z 02010KT 10SM CLR 18/M06 A2985 RMK AO2 SLP108 T01781056 53000 (WS)","FM-15","7",,,,,,,,,,,,,,,,,,,,,,,,,,,,"2009-05-22"
"72503794745","2020-03-27T16:56:00","FM-15","7",,,,,,,,,,,,,,,,,,,,,,,,,,,,,,,,,,,,,,"29.87","22","63","0.00",,,,"21","29.87","CLR:00","29.44","10.00","46","350",,"6",,,,,,,,,,,,,,,,,,,,,,,,,,,,,,,,,,,,,"MET09603/27/20 16:56:02 METAR KHPN 272156Z 35005KT 10SM CLR 17/M06 A2987 RMK AO2 SLP114 T01721056 (WS)","FM-15","7",,,,,,,,,,,,,,,,,,,,,,,,,,,,"2009-05-22"
"72503794745","2020-03-27T17:56:00","FM-15","7",,,,,,,,,,,,,,,,,,,,,,,,,,,,,,,,,,,,,,"29.92","19","60","0.00",,,,"20","29.92","CLR:00","29.49","10.00","43","010",,"6",,,,,,,,,,,,,,,,,,,,,,,,,,,,,,,,,,,,,"MET09603/27/20 17:56:02 METAR KHPN 272256Z 01005KT 10SM CLR 16/M07 A2992 RMK AO2 SLP131 T01561072 (MM)","FM-15","7",,,,,,,,,,,,,,,,,,,,,,,,,,,,"2009-05-22"
"72503794745","2020-03-27T18:56:00","FM-15","7",,,,,,,,,,,,,,,,,,,,,,,,,,,,,,,,,,,,,,"29.94","23","54","0.00",,"-0.09","3","30","29.94","CLR:00","29.51","10.00","41","000",,"0",,,,,,,,,,,,,,,,,,,,,,,,,,,,,,,,,,,,,"MET11403/27/20 18:56:02 METAR KHPN 272356Z 00000KT 10SM CLR 12/M05 A2994 RMK AO2 SLP140 T01221050 10178 20117 53030 (MM)","FM-15","7",,,,,,,,,,,,,,,,,,,,,,,,,,,,"2009-05-22"
"72503794745","2020-03-27T19:56:00","FM-15","7",,,,,,,,,,,,,,,,,,,,,,,,,,,,,,,,,,,,,,"29.99","23","52","0.00",,,,"32","29.99","CLR:00","29.56","10.00","40","360",,"5",,,,,,,,,,,,,,,,,,,,,,,,,,,,,,,,,,,,,"MET09103/27/20 19:56:01 METAR KHPN 280056Z 36004KT 10SM CLR 11/M05 A2999 RMK AO2 SLP155 T01111050","FM-15","7",,,,,,,,,,,,,,,,,,,,,,,,,,,,"2009-05-22"
"72503794745","2020-03-27T20:56:00","FM-15","7",,,,,,,,,,,,,,,,,,,,,,,,,,,,,,,,,,,,,,"30.02","20","52","0.00",,,,"28","30.02","CLR:00","29.59","10.00","39","360",,"6",,,,,,,,,,,,,,,,,,,,,,,,,,,,,,,,,,,,,"MET09103/27/20 20:56:01 METAR KHPN 280156Z 36005KT 10SM CLR 11/M07 A3002 RMK AO2 SLP166 T01111067","FM-15","7",,,,,,,,,,,,,,,,,,,,,,,,,,,,"2009-05-22"
"72503794745","2020-03-27T21:56:00","FM-15","7",,,,,,,,,,,,,,,,,,,,,,,,,,,,,,,,,,,,,,"30.04","23","47","0.00",,"-0.10","1","39","30.04","CLR:00","29.61","10.00","38","000",,"0",,,,,,,,,,,,,,,,,,,,,,,,,,,,,,,,,,,,,"MET09703/27/20 21:56:01 METAR KHPN 280256Z 00000KT 10SM CLR 08/M05 A3004 RMK AO2 SLP172 T00831050 51033","FM-15","7",,,,,,,,,,,,,,,,,,,,,,,,,,,,"2009-05-22"
"72503794745","2020-03-27T22:56:00","FM-15","7",,,,,,,,,,,,,,,,,,,,,,,,,,,,,,,,,,,,,,"30.06","21","49","0.00",,,,"33","30.06","CLR:00","29.63","10.00","38","360",,"5",,,,,,,,,,,,,,,,,,,,,,,,,,,,,,,,,,,,,"MET09103/27/20 22:56:02 METAR KHPN 280356Z 36004KT 10SM CLR 09/M06 A3006 RMK AO2 SLP181 T00941061","FM-15","7",,,,,,,,,,,,,,,,,,,,,,,,,,,,"2009-05-22"
"72503794745","2020-03-27T23:56:00","FM-15","7",,,,,,,,,,,,,,,,,,,,,,,,,,,,,,,,,,,,,,"30.07","21","47","0.00",,,,"36","30.07","CLR:00","29.64","10.00","37","360",,"7",,,,,,,,,,,,,,,,,,,,,,,,,,,,,,,,,,,,,"MET10103/27/20 23:56:02 METAR KHPN 280456Z 36006KT 10SM CLR 08/M06 A3007 RMK AO2 SLP183 T00831061 401780061","FM-15","7",,,,,,,,,,,,,,,,,,,,,,,,,,,,"2009-05-22"
"72503794745","2020-03-27T23:59:00","SOD  ","6",,,,,,,,,,,,,,,,"54",,,"29.41",,"7.8","0","12.4","11","64","43","310","26","0.00",,,"320","22",,,,,,,,,,,,,,,,,,,,,,,,,,,,,,,,,,,,,,,,,,,,,,,,,,,,,,,,,"SOD73024 HR PRECIPITATION (IN):0.00  24 HR MAX TEMP (F):64 24 HR MAX TEMP TIME (LST):1620 24 HR MIN TEMP (F):43 24 HR MIN TEMP TIME (LST):0001 AVERAGE STATION PRESSURE:29.405 MINIMUM SEA LEVEL PRESSURE:29.74 TIME OF OCCURRENCE:0415 PEAK WIND SPEED (MPH):26  PEAK WIND DIR (DEG):310 PEAK WIND TIME (LST):1056  FASTEST 2MIN SPEED (MPH):22 FASTEST 2MIN DIR (DEG):320 FASTEST 2MIN TIME (LST):1057 AVERAGE WIND SPEED (MPH):7.8  24 HR AVG TEMP (F):54 HEATING DEGREE DAYS:11  COOLING DEGREE DAYS:0   LATEST DAY MAX TEMP (0700-1900 LST):64  LATEST NIGHT MIN TEMP(1900-0800 LST):43 HOURLY INCREMENTAL PRECIPITATION VALUES (IN):.00 0.00 0.00 0.00 0.00 0.00 0.00 0.00 0.00 0.00 0.00 0.00 0.00 0.00 0.00 0.00 0.00 0.00 0.00 0.00 0.00 0.00 0.00 0.00","SOD  ","6",,,,,,,,,,,,,,,,,,,,,,,,,"0545","1815",,"2009-05-22"
"72503794745","2020-03-28T00:56:00","FM-15","7",,,,,,,,,,,,,,,,,,,,,,,,,,,,,,,,,,,,,,"30.08","22","47","0.00",,"-0.04","1","37","30.08","CLR:00","29.65","10.00","37","360",,"6",,,,,,,,,,,,,,,,,,,,,,,,,,,,,,,,,,,,,"MET11403/28/20 00:56:02 METAR KHPN 280556Z 36005KT 10SM CLR 08/M06 A3008 RMK AO2 SLP186 T00831056 10139 20072 51014 (JR)","FM-15","7",,,,,,,,,,,,,,,,,,,,,,,,,,,,"2009-05-22"
"72503794745","2020-03-28T01:56:00","FM-15","7",,,,,,,,,,,,,,,,,,,,,,,,,,,,,,,,,,,,,,"30.09","22","45","0.00",,,,"40","30.09","CLR:00","29.66","10.00","36","060",,"3",,,,,,,,,,,,,,,,,,,,,,,,,,,,,,,,,,,,,"MET09603/28/20 01:56:02 METAR KHPN 280656Z 06003KT 10SM CLR 07/M06 A3009 RMK AO2 SLP190 T00721056 (JR)","FM-15","7",,,,,,,,,,,,,,,,,,,,,,,,,,,,"2009-05-22"
"72503794745","2020-03-28T02:56:00","FM-15","7",,,,,,,,,,,,,,,,,,,,,,,,,,,,,,,,,,,,,,"30.06","21","44","0.00",,,,"40","30.07","CLR:00","29.63","10.00","35","050",,"5",,,,,,,,,,,,,,,,,,,,,,,,,,,,,,,,,,,,,"MET09603/28/20 02:56:02 METAR KHPN 280756Z 05004KT 10SM CLR 07/M06 A3006 RMK AO2 SLP182 T00671061 (JR)","FM-15","7",,,,,,,,,,,,,,,,,,,,,,,,,,,,"2009-05-22"
"72503794745","2020-03-28T03:56:00","FM-15","7",,,,,,,,,,,,,,,,,,,,,,,,,,,,,,,,,,,,,,"30.07","23","45","0.00",,"+0.01","8","42","30.07","CLR:00","29.64","10.00","36","060",,"6",,,,,,,,,,,,,,,,,,,,,,,,,,,,,,,,,,,,,"MET10203/28/20 03:56:02 METAR KHPN 280856Z 06005KT 10SM CLR 07/M05 A3007 RMK AO2 SLP182 T00721050 58004 (JR)","FM-15","7",,,,,,,,,,,,,,,,,,,,,,,,,,,,"2009-05-22"
"72503794745","2020-03-28T04:56:00","FM-15","7",,,,,,,,,,,,,,,,,,,,,,,,,,,,,,,,,,,,,,"30.10","23","45","0.00",,,,"42","30.10","CLR:00","29.67","10.00","36","070",,"9",,,,,,,,,,,,,,,,,,,,,,,,,,,,,,,,,,,,,"MET09603/28/20 04:56:02 METAR KHPN 280956Z 07008KT 10SM CLR 07/M05 A3010 RMK AO2 SLP193 T00721050 (JR)","FM-15","7",,,,,,,,,,,,,,,,,,,,,,,,,,,,"2009-05-22"
"72503794745","2020-03-28T05:56:00","FM-15","7",,,,,,,,,,,,,,,,,,,,,,,,,,,,,,,,,,,,,,"30.09","24","45","0.00",,,,"44","30.09","BKN:07 120","29.66","10.00","37","100",,"8",,,,,,,,,,,,,,,,,,,,,,,,,,,,,,,,,,,,,"MET09903/28/20 05:56:02 METAR KHPN 281056Z 10007KT 10SM BKN120 07/M04 A3009 RMK AO2 SLP190 T00721044 (EC)","FM-15","7",,,,,,,,,,,,,,,,,,,,,,,,,,,,"2009-05-22"
"72503794745","2020-03-28T06:56:00","FM-15","7",,,,,,,,,,,,,,,,,,,,,,,,,,,,,,,,,,,,,,"30.10","24","46","0.00",,"-0.04","1","42","30.11","CLR:00","29.67","10.00","37","100",,"9",,,,,,,,,,,,,,,,,,,,,,,,,,,,,,,,,,,,,"MET11403/28/20 06:56:02 METAR KHPN 281156Z 10008KT 10SM CLR 08/M04 A3010 RMK AO2 SLP195 T00781044 10083 20061 51012 (WS)","FM-15","7",,,,,,,,,,,,,,,,,,,,,,,,,,,,"2009-05-22"
"72503794745","2020-03-28T07:56:00","FM-15","7",,,,,,,,,,,,,,,,,,,,,,,,,,,,,,,,,,,,,,"30.13","24","48","0.00",,,,"39","30.14","CLR:00","29.70","10.00","38","100",,"9",,,,,,,,,,,,,,,,,,,,,,,,,,,,,,,,,,,,,"MET09603/28/20 07:56:02 METAR KHPN 281256Z 10008KT 10SM CLR 09/M04 A3013 RMK AO2 SLP207 T00891044 (WS)","FM-15","7",,,,,,,,,,,,,,,,,,,,,,,,,,,,"2009-05-22"
"72503794745","2020-03-28T08:56:00","FM-15","7",,,,,,,,,,,,,,,,,,,,,,,,,,,,,,,,,,,,,,"30.13","23","48","0.00",,,,"37","30.14","OVC:08 100","29.70","10.00","38","100",,"10",,,,,,,,,,,,,,,,,,,,,,,,,,,,,,,,,,,,,"MET09903/28/20 08:56:02 METAR KHPN 281356Z 10009KT 10SM OVC100 09/M05 A3013 RMK AO2 SLP205 T00891050 (WS)","FM-15","7",,,,,,,,,,,,,,,,,,,,,,,,,,,,"2009-05-22"
"72503794745","2020-03-28T09:56:00","FM-15","7",,,,,,,,,,,,,,,,,,,,,,,,,,,,,,,,,,,,,,"30.12","24","47","0.00",,"-0.02","0","41","30.13","OVC:08 110","29.69","10.00","38","100","20","10",,,,,,,,,,,,,,,,,,,,,,,,,,,,,,,,,,,,,"MET10803/28/20 09:56:02 METAR KHPN 281456Z 10009G17KT 10SM OVC110 08/M04 A3012 RMK AO2 SLP204 T00831044 50007 (WS)","FM-15","7",,,,,,,,,,,,,,,,,,,,,,,,,,,,"2009-05-22"
"72503794745","2020-03-28T10:56:00","FM-15","7",,,,,,,,,,,,,,,,,,,,,,,,,,,,,,,,,,,,,,"30.15","32","46","0.01","-RA:02 |RA |RA",,,"58","30.16","OVC:08 75","29.72","10.00","40","090",,"6",,,,,,,,,,,,,,,,,,,,,,,,,,,,,,,,,,,,,"MET11403/28/20 10:56:02 METAR KHPN 281556Z 09005KT 10SM -RA OVC075 08/00 A3015 RMK AO2 RAB21 SLP213 P0001 T00780000 (WS)","FM-15","7",,,,,,,,,,,,,,,,,,,,,,,,,,,,"2009-05-22"
"72503794745","2020-03-28T11:56:00","FM-15","7",,,,,,,,,,,,,,,,,,,,,,,,,,,,,,,,,,,,,,"30.12","35","45","0.01","-RA:02 |RA |RA",,,"68","30.13","FEW:02 70 OVC:08 95","29.69","10.00","41","100",,"9",,,,,,,,,,,,,,,,,,,,,,,,,,,,,,,,,,,,,"MET11503/28/20 11:56:02 METAR KHPN 281656Z 10008KT 10SM -RA FEW070 OVC095 07/02 A3012 RMK AO2 SLP202 P0001 T00720017 (WS)","FM-15","7",,,,,,,,,,,,,,,,,,,,,,,,,,,,"2009-05-22"
"72503794745","2020-03-28T12:56:00","FM-15","7",,,,,,,,,,,,,,,,,,,,,,,,,,,,,,,,,,,,,,"30.12","35","45","0.01","-RA:02 |RA |RA","+0.01","8","68","30.13","OVC:08 60","29.69","10.00","41","080",,"8",,,,,,,,,,,,,,,,,,,,,,,,,,,,,,,,,,,,,"MET13203/28/20 12:56:02 METAR KHPN 281756Z 08007KT 10SM -RA OVC060 07/02 A3012 RMK AO2 SLP202 P0001 60003 T00720017 10089 20072 58002 (WS)","FM-15","7",,,,,,,,,,,,,,,,,,,,,,,,,,,,"2009-05-22"
"72503794745","2020-03-28T13:56:00","FM-15","7",,,,,,,,,,,,,,,,,,,,,,,,,,,,,,,,,,,,,,"30.11","37","44","0.04","-RA:02 |RA |RA",,,"76","30.12","OVC:08 60","29.68","6.00","41","070",,"5",,,,,,,,,,,,,,,,,,,,,,,,,,,,,,,,,,,,,"MET10703/28/20 13:56:02 METAR KHPN 281856Z 07004KT 6SM -RA OVC060 07/03 A3011 RMK AO2 SLP200 P0003 T00670028 (WS)","FM-15","7",,,,,,,,,,,,,,,,,,,,,,,,,,,,"2009-05-22"
"72503794745","2020-03-28T14:56:00","FM-15","7",,,,,,,,,,,,,,,,,,,,,,,,,,,,,,,,,,,,,,"30.06","38","43","0.05",,,,"82","30.07","BKN:07 60","29.63","10.00","41","080",,"8",,,,,,,,,,,,,,,,,,,,,,,,,,,,,,,,,,,,,"MET11003/28/20 14:56:02 METAR KHPN 281956Z 08007KT 10SM BKN060 06/03 A3006 RMK AO2 RAE52 SLP184 P0006 T00610033 (WS)","FM-15","7",,,,,,,,,,,,,,,,,,,,,,,,,,,,"2009-05-22"
"72503794745","2020-03-28T15:56:00","FM-15","7",,,,,,,,,,,,,,,,,,,,,,,,,,,,,,,,,,,,,,"30.04","38","43","0.00",,"+0.07","8","82","30.05","OVC:08 46","29.61","10.00","41","070",,"8",,,,,,,,,,,,,,,,,,,,,,,,,,,,,,,,,,,,,"MET11003/28/20 15:56:02 METAR KHPN 282056Z 07007KT 10SM OVC046 06/03 A3004 RMK AO2 SLP177 60009 T00610033 58025 (JR)","FM-15","7",,,,,,,,,,,,,,,,,,,,,,,,,,,,"2009-05-22"
"72503794745","2020-03-28T16:56:00","FM-15","7",,,,,,,,,,,,,,,,,,,,,,,,,,,,,,,,,,,,,,"30.07","37","43","0.00",,,,"80","30.08","BKN:07 43","29.64","10.00","40","050",,"7",,,,,,,,,,,,,,,,,,,,,,,,,,,,,,,,,,,,,"MET09803/28/20 16:56:02 METAR KHPN 282156Z 05006KT 10SM BKN043 06/03 A3007 RMK AO2 SLP186 T00610028 (JR)","FM-15","7",,,,,,,,,,,,,,,,,,,,,,,,,,,,"2009-05-22"
"72503794745","2020-03-28T17:52:00","FM-16","7",,,,,,,,,,,,,,,,,,,,,,,,,,,,,,,,,,,,,,"30.07","39","43","0.04","RA:02 BR:1 |RA |RA",,,"87",,"OVC:08 28","29.64","2.50","41","050",,"9",,,,,,,,,,,,,,,,,,,,,,,,,,,,,,,,,,,,,"MET10203/28/20 17:52:02 SPECI KHPN 282252Z 05008KT 2 1/2SM RA BR OVC028 06/04 A3007 RMK AO2 RAB00 P0004 (JR)","FM-16","7",,,,,,,,,,,,,,,,,,,,,,,,,,,,"2009-05-22"
"72503794745","2020-03-28T17:56:00","FM-15","7",,,,,,,,,,,,,,,,,,,,,,,,,,,,,,,,,,,,,,"30.06","39","42","0.05","RA:02 BR:1 |RA |RA",,,"89","30.07","BKN:07 25 OVC:08 30","29.63","2.50","41","080",,"10",,,,,,,,,,,,,,,,,,,,,,,,,,,,,,,,,,,,,"MET12603/28/20 17:56:02 METAR KHPN 282256Z 08009KT 2 1/2SM RA BR BKN025 OVC030 06/04 A3006 RMK AO2 RAB00 SLP184 P0005 T00560039 (JR)","FM-15","7",,,,,,,,,,,,,,,,,,,,,,,,,,,,"2009-05-22"
"72503794745","2020-03-28T18:19:00","FM-16","7",,,,,,,,,,,,,,,,,,,,,,,,,,,,,,,,,,,,,,"30.06","40","42","0.01","-RA:02 |RA |RA",,,"92",,"SCT:04 8 BKN:07 19 OVC:08 25","29.63","7.00","41","100",,"7",,,,,,,,,,,,,,,,,,,,,,,,,,,,,,,,,,,,,"MET11403/28/20 18:19:02 SPECI KHPN 282319Z 10006KT 7SM -RA SCT008 BKN019 OVC025 06/04 A3006 RMK AO2 P0001 T00560044 (JR)","FM-16","7",,,,,,,,,,,,,,,,,,,,,,,,,,,,"2009-05-22"
"72503794745","2020-03-28T18:54:00","FM-16","6",,,,,,,,,,,,,,,,,,,,,,,,,,,,,,,,,,,,,,"30.07","41","43",,"-RA:02 |RA |RA",,,"93",,"BKN:07 6 OVC:08 12","29.64","9.00","42","070",,"8",,,,,,,,,,,,,,,,,,,,,,,,,,,,,,,,,,,,,"MET11403/28/20 18:54:02 SPECI KHPN 282354Z 07007KT 9SM -RA BKN006 OVC012 06/05 A3007 RMK AO2 CIG 004V010 P0001 FIBI (JR)","FM-16","6",,,,,,,,,,,,,,,,,,,,,,,,,,,,"2009-05-22"
"72503794745","2020-03-28T18:56:00","FM-15","7",,,,,,,,,,,,,,,,,,,,,,,,,,,,,,,,,,,,,,"30.07","41","43","0.01","-RA:02 |RA |RA","-0.03","1","93","30.08","BKN:07 6 OVC:08 12","29.64","9.00","42","060",,"6",,,,,,,,,,,,,,,,,,,,,,,,,,,,,,,,,,,,,"MET15003/28/20 18:56:02 METAR KHPN 282356Z 06005KT 9SM -RA BKN006 OVC012 06/05 A3007 RMK AO2 CIG 004V010 SLP186 P0001 60015 T00610050 10072 20056 51009 (JR)","FM-15","7",,,,,,,,,,,,,,,,,,,,,,,,,,,,"2009-05-22"
"72503794745","2020-03-28T19:22:00","FM-16","7",,,,,,,,,,,,,,,,,,,,,,,,,,,,,,,,,,,,,,"30.07","42","43","0.03","-RA:02 BR:1 |RA |RA",,,"97",,"VV:09 4","29.64","2.00","43","090",,"9",,,,,,,,,,,,,,,,,,,,,,,,,,,,,,,,,,,,,"MET09703/28/20 19:22:01 SPECI KHPN 290022Z 09008KT 2SM -RA BR VV004 06/06 A3007 RMK AO2 P0003 T00610056","FM-16","7",,,,,,,,,,,,,,,,,,,,,,,,,,,,"2009-05-22"
"72503794745","2020-03-28T19:54:00","FM-16","6",,,,,,,,,,,,,,,,,,,,,,,,,,,,,,,,,,,,,,"30.07","43","45",,"-RA:02 BR:1 |RA |RA",,,"93",,"VV:09 4","29.64","3.00","44","070",,"8",,,,,,,,,,,,,,,,,,,,,,,,,,,,,,,,,,,,,"MET09703/28/20 19:54:03 SPECI KHPN 290054Z 07007KT 3SM -RA BR VV004 07/06 A3007 RMK AO2 P0005 FIBI (JR)","FM-16","6",,,,,,,,,,,,,,,,,,,,,,,,,,,,"2009-05-22"
"72503794745","2020-03-28T19:56:00","FM-15","7",,,,,,,,,,,,,,,,,,,,,,,,,,,,,,,,,,,,,,"30.07","43","44","0.05","-RA:02 BR:1 |RA |RA",,,"96","30.07","VV:09 4","29.64","3.00","44","070",,"11",,,,,,,,,,,,,,,,,,,,,,,,,,,,,,,,,,,,,"MET10403/28/20 19:56:01 METAR KHPN 290056Z 07010KT 3SM -RA BR VV004 07/06 A3007 RMK AO2 SLP184 P0005 T00670061","FM-15","7",,,,,,,,,,,,,,,,,,,,,,,,,,,,"2009-05-22"
"72503794745","2020-03-28T20:56:00","FM-15","7",,,,,,,,,,,,,,,,,,,,,,,,,,,,,,,,,,,,,,"30.05","42","44","0.04","-RA:02 BR:1 |RA |RA",,,"93","30.06","VV:09 4","29.62","5.00","43","090","17","14",,,,,,,,,,,,,,,,,,,,,,,,,,,,,,,,,,,,,"MET11403/28/20 20:56:01 METAR KHPN 290156Z 09012G15KT 5SM -RA BR VV004 07/06 A3005 RMK AO2 PRESFR SLP179 P0004 T00670056","FM-15","7",,,,,,,,,,,,,,,,,,,,,,,,,,,,"2009-05-22"
"72503794745","2020-03-28T21:56:00","FM-15","7",,,,,,,,,,,,,,,,,,,,,,,,,,,,,,,,,,,,,,"30.02","43","45","T","-RA:02 BR:1 |RA |RA","+0.05","8","93","30.03","OVC:08 4","29.59","4.00","44","100","22","15",,,,,,,,,,,,,,,,,,,,,,,,,,,,,,,,,,,,,"MET12003/28/20 21:56:01 METAR KHPN 290256Z 10013G19KT 4SM -RA BR OVC004 07/06 A3002 RMK AO2 SLP170 P0000 60009 T00720061 58016","FM-15","7",,,,,,,,,,,,,,,,,,,,,,,,,,,,"2009-05-22"
"72503794745","2020-03-28T22:56:00","FM-15","7",,,,,,,,,,,,,,,,,,,,,,,,,,,,,,,,,,,,,,"30.02","43","45","T","-RA:02 BR:1 |RA |RA",,,"93","30.03","OVC:08 4","29.59","4.00","44","090",,"14",,,,,,,,,,,,,,,,,,,,,,,,,,,,,,,,,,,,,"MET10503/28/20 22:56:02 METAR KHPN 290356Z 09012KT 4SM -RA BR OVC004 07/06 A3002 RMK AO2 SLP169 P0000 T00720061","FM-15","7",,,,,,,,,,,,,,,,,,,,,,,,,,,,"2009-05-22"
"72503794745","2020-03-28T23:56:00","FM-15","7",,,,,,,,,,,,,,,,,,,,,,,,,,,,,,,,,,,,,,"30.03","43","44","T","-RA:02 BR:1 |RA |RA",,,"96","30.05","OVC:08 4","29.60","4.00","44","090","23","11",,,,,,,,,,,,,,,,,,,,,,,,,,,,,,,,,,,,,"MET11803/28/20 23:56:02 METAR KHPN 290456Z 09010G20KT 4SM -RA BR OVC004 07/06 A3003 RMK AO2 SLP175 P0000 T00670061 400890056","FM-15","7",,,,,,,,,,,,,,,,,,,,,,,,,,,,"2009-05-22"
"72503794745","2020-03-28T23:59:00","SOD  ","6",,,,,,,,,,,,,,,,"45",,,"29.66",,"8.7","0","3.0","20","48","42","080","27","0.27",,,"080","20","RA BR",,,,,,,,,,,,,,,,,,,,,,,,,,,,,,,,,,,,,,,,,,,,,,,,,,,,,,,,"SOD72724 HR PRECIPITATION (IN):0.27  24 HR MAX TEMP (F):48 24 HR MAX TEMP TIME (LST):0953 24 HR MIN TEMP (F):42 24 HR MIN TEMP TIME (LST):1854 AVERAGE STATION PRESSURE:29.660 MINIMUM SEA LEVEL PRESSURE:30.02 TIME OF OCCURRENCE:2203 PEAK WIND SPEED (MPH):27  PEAK WIND DIR (DEG):80  PEAK WIND TIME (LST):2337  FASTEST 2MIN SPEED (MPH):20 FASTEST 2MIN DIR (DEG):80  FASTEST 2MIN TIME (LST):2338 AVERAGE WIND SPEED (MPH):8.7  24 HR AVG TEMP (F):45 HEATING DEGREE DAYS:20  COOLING DEGREE DAYS:0   LATEST DAY MAX TEMP (0700-1900 LST):48  LATEST NIGHT MIN TEMP(1900-0800 LST):43 HOURLY INCREMENTAL PRECIPITATION VALUES (IN):.00 0.00 0.00 0.00 0.00 0.00 0.00 0.00 0.00 0.00 0.01 0.01 0.01 0.04 0.05 0.00 0.00 0.05 0.01 0.05 0.04 T    T    T","SOD  ","6",,,,,,,,,,,,,,,,,,,,,,,,,"0544","1816",,"2009-05-22"
"72503794745","2020-03-29T00:56:00","FM-15","7",,,,,,,,,,,,,,,,,,,,,,,,,,,,,,,,,,,,,,"30.01","42","44","T","-RA:02 BR:1 |RA |RA","+0.01","8","93","30.02","OVC:08 4","29.58","4.00","43","090","24","16",,,,,,,,,,,,,,,,,,,,,,,,,,,,,,,,,,,,,"MET13203/29/20 00:56:02 METAR KHPN 290556Z 09014G21KT 4SM -RA BR OVC004 07/06 A3001 RMK AO2 SLP167 P0000 60009 T00670056 10072 20061 58004","FM-15","7",,,,,,,,,,,,,,,,,,,,,,,,,,,,"2009-05-22"
"72503794745","2020-03-29T01:54:00","FM-16","6",,,,,,,,,,,,,,,,,,,,,,,,,,,,,,,,,,,,,,"30.01","43","45",,"-RA:02 BR:1 |RA |RA",,,"93",,"OVC:08 5","29.58","4.00","44","080","22","16",,,,,,,,,,,,,,,,,,,,,,,,,,,,,,,,,,,,,"MET10103/29/20 01:54:02 SPECI KHPN 290654Z 08014G19KT 4SM -RA BR OVC005 07/06 A3001 RMK AO2 P0000 FIBI (EC)","FM-16","6",,,,,,,,,,,,,,,,,,,,,,,,,,,,"2009-05-22"
"72503794745","2020-03-29T01:56:00","FM-15","7",,,,,,,,,,,,,,,,,,,,,,,,,,,,,,,,,,,,,,"30.01","42","44","T","-RA:02 BR:1 |RA |RA",,,"93","30.02","OVC:08 5","29.58","4.00","43","080","22","10",,,,,,,,,,,,,,,,,,,,,,,,,,,,,,,,,,,,,"MET11303/29/20 01:56:02 METAR KHPN 290656Z 08009G19KT 4SM -RA BR OVC005 07/06 A3001 RMK AO2 SLP167 P0000 T00670056 (EC)","FM-15","7",,,,,,,,,,,,,,,,,,,,,,,,,,,,"2009-05-22"
"72503794745","2020-03-29T02:56:00","FM-15","7",,,,,,,,,,,,,,,,,,,,,,,,,,,,,,,,,,,,,,"30.00","42","44","T","-RA:02 BR:1 |RA |RA",,,"93","30.01","OVC:08 5","29.57","3.00","43","080","22","14",,,,,,,,,,,,,,,,,,,,,,,,,,,,,,,,,,,,,"MET11303/29/20 02:56:02 METAR KHPN 290756Z 08012G19KT 3SM -RA BR OVC005 07/06 A3000 RMK AO2 SLP164 P0000 T00670056 (EC)","FM-15","7",,,,,,,,,,,,,,,,,,,,,,,,,,,,"2009-05-22"
"72503794745","2020-03-29T03:56:00","FM-15","7",,,,,,,,,,,,,,,,,,,,,,,,,,,,,,,,,,,,,,"29.99","42","44","T","-RA:02 BR:1 |RA |RA","+0.02","8","93","30.01","OVC:08 5","29.56","4.00","43","080","32","15",,,,,,,,,,,,,,,,,,,,,,,,,,,,,,,,,,,,,"MET15503/29/20 03:56:02 METAR KHPN 290856Z 08013G28KT 4SM -RA BR OVC005 07/06 A2999 RMK AO2 PK WND 07028/0847 CIG 003V008 SLP161 P0000 60000 T00670056 58006 (EC)","FM-15","7",,,,,,,,,,,,,,,,,,,,,,,,,,,,"2009-05-22"
"72503794745","2020-03-29T04:56:00","FM-15","7",,,,,,,,,,,,,,,,,,,,,,,,,,,,,,,,,,,,,,"29.98","43","45","0.00","BR:1 ||",,,"93","29.99","OVC:08 5","29.55","4.00","44","080","24","11",,,,,,,,,,,,,,,,,,,,,,,,,,,,,,,,,,,,,"MET11703/29/20 04:56:02 METAR KHPN 290956Z 08010G21KT 4SM BR OVC005 07/06 A2998 RMK AO2 RAE0859 SLP157 P0000 T00720061 (EC)","FM-15","7",,,,,,,,,,,,,,,,,,,,,,,,,,,,"2009-05-22"
"72503794745","2020-03-29T05:54:00","FM-16","6",,,,,,,,,,,,,,,,,,,,,,,,,,,,,,,,,,,,,,"30.01","43","45",,"-RA:02 BR:1 |RA |RA",,,"93",,"BKN:07 3 OVC:08 5","29.58","1.00","44","070","21","14",,,,,,,,,,,,,,,,,,,,,,,,,,,,,,,,,,,,,"MET12603/29/20 05:54:02 SPECI KHPN 291054Z 07012G18KT 1SM R16/P6000FT -RA BR BKN003 OVC005 07/06 A3001 RMK AO2 RAB11 P0000 FIBI (EC)","FM-16","6",,,,,,,,,,,,,,,,,,,,,,,,,,,,"2009-05-22"
"72503794745","2020-03-29T05:56:00","FM-15","7",,,,,,,,,,,,,,,,,,,,,,,,,,,,,,,,,,,,,,"30.01","43","45","T","-RA:02 BR:1 |RA |RA",,,"93","30.02","BKN:07 3 OVC:08 5","29.58","1.00","44","080",,"14",,,,,,,,,,,,,,,,,,,,,,,,,,,,,,,,,,,,,"MET13503/29/20 05:56:02 METAR KHPN 291056Z 08012KT 1SM R16/P6000FT -RA BR BKN003 OVC005 07/06 A3001 RMK AO2 RAB11 SLP165 P0000 T00720061 (EC)","FM-15","7",,,,,,,,,,,,,,,,,,,,,,,,,,,,"2009-05-22"
"72503794745","2020-03-29T06:56:00","FM-15","7",,,,,,,,,,,,,,,,,,,,,,,,,,,,,,,,,,,,,,"30.01","44","45","T","-DZ:01 BR:1 |DZ |DZ","-0.01","3","97","30.02","BKN:07 3 OVC:08 5","29.58","1.00","45","080","24","10",,,,,,,,,,,,,,,,,,,,,,,,,,,,,,,,,,,,,"MET17303/29/20 06:56:02 METAR KHPN 291156Z 08009G21KT 1SM R16/P6000FT -DZ BR BKN003 OVC005 07/07 A3001 RMK AO2 RAE53DZB53 SLP166 P0000 60000 70027 T00720067 10072 20067 53005 (AB)","FM-15","7",,,,,,,,,,,,,,,,,,,,,,,,,,,,"2009-05-22"
"72503794745","2020-03-29T07:54:00","FM-16","6",,,,,,,,,,,,,,,,,,,,,,,,,,,,,,,,,,,,,,"30.02","45","45",,"-DZ:01 BR:1 |DZ |DZ",,,"100",,"OVC:08 5","29.59","1.00","45","080","22","17",,,,,,,,,,,,,,,,,,,,,,,,,,,,,,,,,,,,,"MET11703/29/20 07:54:02 SPECI KHPN 291254Z 08015G19KT 1SM R16/5500V6000FT -DZ BR OVC005 07/07 A3002 RMK AO2 P0000 FIBI (AB)","FM-16","6",,,,,,,,,,,,,,,,,,,,,,,,,,,,"2009-05-22"
"72503794745","2020-03-29T07:56:00","FM-15","7",,,,,,,,,,,,,,,,,,,,,,,,,,,,,,,,,,,,,,"30.02","43","45","T","-DZ:01 BR:1 |DZ |DZ",,,"93","30.03","OVC:08 5","29.59","1.00","44","090","23","14",,,,,,,,,,,,,,,,,,,,,,,,,,,,,,,,,,,,,"MET12903/29/20 07:56:02 METAR KHPN 291256Z 09012G20KT 1SM R16/5500V6000FT -DZ BR OVC005 07/06 A3002 RMK AO2 SLP171 P0000 T00720061 (AB)","FM-15","7",,,,,,,,,,,,,,,,,,,,,,,,,,,,"2009-05-22"
"72503794745","2020-03-29T08:56:00","FM-15","7",,,,,,,,,,,,,,,,,,,,,,,,,,,,,,,,,,,,,,"30.01","44","45","T","-DZ:01 BR:1 |DZ |DZ",,,"97","30.02","VV:09 5","29.58","1.25","45","080","28","17",,,,,,,,,,,,,,,,,,,,,,,,,,,,,,,,,,,,,"MET14403/29/20 08:56:02 METAR KHPN 291356Z 08015G24KT 1 1/4SM R16/6000VP6000FT -DZ BR VV005 07/07 A3001 RMK AO2 LTG DSNT W SLP166 P0000 T00720067 (AB)","FM-15","7",,,,,,,,,,,,,,,,,,,,,,,,,,,,"2009-05-22"
"72503794745","2020-03-29T09:56:00","FM-15","7",,,,,,,,,,,,,,,,,,,,,,,,,,,,,,,,,,,,,,"30.02","44","45","0.01","-DZ:01 BR:1 |DZ |DZ","-0.01","3","97","30.03","VV:09 5","29.59","1.25","45","070","21","13",,,,,,,,,,,,,,,,,,,,,,,,,,,,,,,,,,,,,"MET16003/29/20 09:56:02 METAR KHPN 291456Z 07011G18KT 1 1/4SM -DZ BR VV005 07/07 A3002 RMK AO2 LTG DSNT ALQDS DZE31B52RAB31E52 SLP171 P0001 60001 T00720067 53004 (AB)","FM-15","7",,,,,,,,,,,,,,,,,,,,,,,,,,,,"2009-05-22"
"72503794745","2020-03-29T10:05:00","FM-16","7",,,,,,,,,,,,,,,,,,,,,,,,,,,,,,,,,,,,,,"30.02","43","45","T","* * * |* * |*",,,"93",,"VV:09 5","29.59","1.25","44","070","22","16",,,,,,,,,,,,,,,,,,,,,,,,,,,,,,,,,,,,,"MET15603/29/20 10:05:02 SPECI KHPN 291505Z 07014G19KT 1 1/4SM -TSDZ BR VV005 07/06 A3002 RMK AO2 LTG DSNT W TSB04 FRQ LTGICCCCG TS OHD MOV NE P0000 T00720061 (AB)","FM-16","7",,,,,,,,,,,,,,,,,,,,,,,,,,,,"2009-05-22"
"72503794745","2020-03-29T10:37:00","FM-16","7",,,,,,,,,,,,,,,,,,,,,,,,,,,,,,,,,,,,,,"30.00","43","45","0.35","-RA:02 BR:1 |RA |RA",,,"93",,"BKN:07 3 OVC:08 10","29.57","1.25","44","100","23","14",,,,,,,,,,,,,,,,,,,,,,,,,,,,,,,,,,,,,"MET17603/29/20 10:37:02 SPECI KHPN 291537Z 10012G20KT 1 1/4SM R16/3500VP6000FT -RA BR BKN003 OVC010 07/06 A3000 RMK AO2 WSHFT 1517 LTG DSNT E DZE09RAB09 TSB04E37 P0035 T00720061 (AB)","FM-16","7",,,,,,,,,,,,,,,,,,,,,,,,,,,,"2009-05-22"
"72503794745","2020-03-29T10:54:00","FM-16","6",,,,,,,,,,,,,,,,,,,,,,,,,,,,,,,,,,,,,,"29.99","43","45",,"-RA:02 BR:1 |RA |RA",,,"93",,"BKN:07 5 OVC:08 10","29.56","2.00","44","090","22","13",,,,,,,,,,,,,,,,,,,,,,,,,,,,,,,,,,,,,"MET15003/29/20 10:54:02 SPECI KHPN 291554Z 09011G19KT 2SM -RA BR BKN005 OVC010 07/06 A2999 RMK AO2 WSHFT 1517 LTG DSNT E DZE09RAB09 TSB04E37 P0035 FIBI (AB)","FM-16","6",,,,,,,,,,,,,,,,,,,,,,,,,,,,"2009-05-22"
"72503794745","2020-03-29T10:56:00","FM-15","7",,,,,,,,,,,,,,,,,,,,,,,,,,,,,,,,,,,,,,"29.98","43","45","0.35","-RA:02 BR:1 |RA |RA",,,"93","29.99","BKN:07 5 OVC:08 10","29.55","2.00","44","100","24","16",,,,,,,,,,,,,,,,,,,,,,,,,,,,,,,,,,,,,"MET16203/29/20 10:56:02 METAR KHPN 291556Z 10014G21KT 2SM -RA BR BKN005 OVC010 07/06 A2998 RMK AO2 WSHFT 1517 LTG DSNT E DZE09RAB09 TSB04E37 SLP157 P0035 T00720061 (AB)","FM-15","7",,,,,,,,,,,,,,,,,,,,,,,,,,,,"2009-05-22"
"72503794745","2020-03-29T11:54:00","FM-16","6",,,,,,,,,,,,,,,,,,,,,,,,,,,,,,,,,,,,,,"29.96","43","45",,"-DZ:01 BR:1 |DZ |DZ",,,"93",,"VV:09 5","29.53","1.25","44","080","24","14",,,,,,,,,,,,,,,,,,,,,,,,,,,,,,,,,,,,,"MET11503/29/20 11:54:02 SPECI KHPN 291654Z 08012G21KT 1 1/4SM -DZ BR VV005 07/06 A2996 RMK AO2 RAE53DZB53 P0000 FIBI (AB)","FM-16","6",,,,,,,,,,,,,,,,,,,,,,,,,,,,"2009-05-22"
"72503794745","2020-03-29T11:56:00","FM-15","7",,,,,,,,,,,,,,,,,,,,,,,,,,,,,,,,,,,,,,"29.95","43","45","T","-DZ:01 BR:1 |DZ |DZ",,,"93","29.96","VV:09 5","29.52","1.25","44","070","26","20",,,,,,,,,,,,,,,,,,,,,,,,,,,,,,,,,,,,,"MET12703/29/20 11:56:02 METAR KHPN 291656Z 07017G23KT 1 1/4SM -DZ BR VV005 07/06 A2995 RMK AO2 RAE53DZB53 SLP147 P0000 T00720061 (AB)","FM-15","7",,,,,,,,,,,,,,,,,,,,,,,,,,,,"2009-05-22"
"72503794745","2020-03-29T12:54:00","FM-16","6",,,,,,,,,,,,,,,,,,,,,,,,,,,,,,,,,,,,,,"29.94","43","45",,"-DZ:01 BR:1 |DZ |DZ",,,"93",,"VV:09 3","29.51","1.00","44","080","23","10",,,,,,,,,,,,,,,,,,,,,,,,,,,,,,,,,,,,,"MET12303/29/20 12:54:02 SPECI KHPN 291754Z 08009G20KT 1SM R16/5500V6000FT -DZ BR VV003 07/06 A2994 RMK AO2 PRESFR P0000 FIBI (AB)","FM-16","6",,,,,,,,,,,,,,,,,,,,,,,,,,,,"2009-05-22"
"72503794745","2020-03-29T12:56:00","FM-15","7",,,,,,,,,,,,,,,,,,,,,,,,,,,,,,,,,,,,,,"29.93","43","44","T","-DZ:01 BR:1 |DZ |DZ","+0.09","6","96","29.95","VV:09 3","29.50","1.00","44","070","23","17",,,,,,,,,,,,,,,,,,,,,,,,,,,,,,,,,,,,,"MET15903/29/20 12:56:02 METAR KHPN 291756Z 07015G20KT 1SM R16/5500V6000FT -DZ BR VV003 07/06 A2993 RMK AO2 PRESFR SLP141 P0000 60036 T00670061 10078 20067 56030 (AB)","FM-15","7",,,,,,,,,,,,,,,,,,,,,,,,,,,,"2009-05-22"
"72503794745","2020-03-29T13:56:00","FM-15","7",,,,,,,,,,,,,,,,,,,,,,,,,,,,,,,,,,,,,,"29.89","43","44","T","-DZ:01 BR:1 |DZ |DZ",,,"96","29.90","VV:09 3","29.46","1.00","44","100","23","15",,,,,,,,,,,,,,,,,,,,,,,,,,,,,,,,,,,,,"MET14203/29/20 13:56:02 METAR KHPN 291856Z 10013G20KT 1SM R16/P6000FT -DZ BR VV003 07/06 A2989 RMK AO2 PK WND 08027/1839 SLP125 P0000 T00670061 (AB)","FM-15","7",,,,,,,,,,,,,,,,,,,,,,,,,,,,"2009-05-22"
"72503794745","2020-03-29T14:56:00","FM-15","7",,,,,,,,,,,,,,,,,,,,,,,,,,,,,,,,,,,,,,"29.84","43","44","T","BR:1 ||",,,"96","29.85","VV:09 3","29.41","1.00","44","090","29","18",,,,,,,,,,,,,,,,,,,,,,,,,,,,,,,,,,,,,"MET13103/29/20 14:56:02 METAR KHPN 291956Z 09016G25KT 1SM R16/5500VP6000FT BR VV003 07/06 A2984 RMK AO2 DZE51 SLP109 P0000 T00670061 (AB)","FM-15","7",,,,,,,,,,,,,,,,,,,,,,,,,,,,"2009-05-22"
"72503794745","2020-03-29T15:56:00","FM-15","7",,,,,,,,,,,,,,,,,,,,,,,,,,,,,,,,,,,,,,"29.85","43","45","0.00","BR:1 ||","+0.09","5","93","29.86","VV:09 2","29.42","0.75","44","090",,"11",,,,,,,,,,,,,,,,,,,,,,,,,,,,,,,,,,,,,"MET13703/29/20 15:56:02 METAR KHPN 292056Z 09010KT 3/4SM R16/6000VP6000FT BR VV002 07/06 A2985 RMK AO2 PRESRR SLP111 60000 T00720061 55029 (JR)","FM-15","7",,,,,,,,,,,,,,,,,,,,,,,,,,,,"2009-05-22"
"72503794745","2020-03-29T16:56:00","FM-15","7",,,,,,,,,,,,,,,,,,,,,,,,,,,,,,,,,,,,,,"29.88","44","46","0.00","BR:1 ||",,,"93","29.89","VV:09 3","29.45","1.00","45","080","21","14",,,,,,,,,,,,,,,,,,,,,,,,,,,,,,,,,,,,,"MET11403/29/20 16:56:02 METAR KHPN 292156Z 08012G18KT 1SM R16/P6000FT BR VV003 08/07 A2988 RMK AO2 SLP121 T00780067 (JR)","FM-15","7",,,,,,,,,,,,,,,,,,,,,,,,,,,,"2009-05-22"
"72503794745","2020-03-29T17:56:00","FM-15","7",,,,,,,,,,,,,,,,,,,,,,,,,,,,,,,,,,,,,,"29.88","44","45","0.00","BR:1 ||",,,"97","29.89","VV:09 4","29.45","1.00","45","090","22","11",,,,,,,,,,,,,,,,,,,,,,,,,,,,,,,,,,,,,"MET11403/29/20 17:56:02 METAR KHPN 292256Z 09010G19KT 1SM R16/P6000FT BR VV004 07/07 A2988 RMK AO2 SLP122 T00720067 (JR)","FM-15","7",,,,,,,,,,,,,,,,,,,,,,,,,,,,"2009-05-22"
"72503794745","2020-03-29T18:54:00","FM-16","6",,,,,,,,,,,,,,,,,,,,,,,,,,,,,,,,,,,,,,"29.85","43","45",,"-DZ:01 BR:1 |DZ |DZ",,,"93",,"OVC:08 4","29.42","2.00","44","080","25","18",,,,,,,,,,,,,,,,,,,,,,,,,,,,,,,,,,,,,"MET10703/29/20 18:54:02 SPECI KHPN 292354Z 08016G22KT 2SM -DZ BR OVC004 07/06 A2985 RMK AO2 DZB52 P0000 FIBI (JR)","FM-16","6",,,,,,,,,,,,,,,,,,,,,,,,,,,,"2009-05-22"
"72503794745","2020-03-29T18:56:00","FM-15","7",,,,,,,,,,,,,,,,,,,,,,,,,,,,,,,,,,,,,,"29.85","43","45","T","-DZ:01 BR:1 |DZ |DZ","+0.00","8","93","29.86","OVC:08 4","29.42","2.00","44","090","26","16",,,,,,,,,,,,,,,,,,,,,,,,,,,,,,,,,,,,,"MET14303/29/20 18:56:02 METAR KHPN 292356Z 09014G23KT 2SM -DZ BR OVC004 07/06 A2985 RMK AO2 DZB52 SLP111 P0000 60000 T00720061 10078 20067 58000 (JR)","FM-15","7",,,,,,,,,,,,,,,,,,,,,,,,,,,,"2009-05-22"
"72503794745","2020-03-29T19:56:00","FM-15","7",,,,,,,,,,,,,,,,,,,,,,,,,,,,,,,,,,,,,,"29.87","44","46","T","BR:1 ||",,,"93","29.88","OVC:08 4","29.44","2.00","45","080","21","9",,,,,,,,,,,,,,,,,,,,,,,,,,,,,,,,,,,,,"MET11003/29/20 19:56:01 METAR KHPN 300056Z 08008G18KT 2SM BR OVC004 08/07 A2987 RMK AO2 DZE51 SLP118 P0000 T00780067","FM-15","7",,,,,,,,,,,,,,,,,,,,,,,,,,,,"2009-05-22"
"72503794745","2020-03-29T20:56:00","FM-15","7",,,,,,,,,,,,,,,,,,,,,,,,,,,,,,,,,,,,,,"29.87","45","46","T","-DZ:01 BR:1 |DZ |DZ",,,"96","29.88","OVC:08 4","29.44","1.50","46","VRB",,"5",,,,,,,,,,,,,,,,,,,,,,,,,,,,,,,,,,,,,"MET11503/29/20 20:56:01 METAR KHPN 300156Z VRB04KT 1 1/2SM -DZ BR OVC004 08/07 A2987 RMK AO2 DZB13 SLP119 P0000 T00780072","FM-15","7",,,,,,,,,,,,,,,,,,,,,,,,,,,,"2009-05-22"
"72503794745","2020-03-29T21:56:00","FM-15","7",,,,,,,,,,,,,,,,,,,,,,,,,,,,,,,,,,,,,,"29.87","44","46","T",,"-0.02","0","93","29.88","BKN:07 4","29.44","89.00","45","060",,"6",,,,,,,,,,,,,,,,,,,,,,,,,,,,,,,,,,,,,"MET11703/29/20 21:56:01 METAR KHPN 300256Z 06005KT 89SM BKN004 08/07 A2987 RMK AO2 DZE52 SLP117 P0000 60000 T00780067 50008","FM-15","7",,,,,,,,,,,,,,,,,,,,,,,,,,,,"2009-05-22"
"72503794745","2020-03-29T22:54:00","FM-16","6",,,,,,,,,,,,,,,,,,,,,,,,,,,,,,,,,,,,,,"29.87","43","45",,,,,"93",,"OVC:08 6","29.44","10.00","44","040",,"6",,,,,,,,,,,,,,,,,,,,,,,,,,,,,,,,,,,,,"MET08603/29/20 22:54:03 SPECI KHPN 300354Z 04005KT 10SM OVC006 07/06 A2987 RMK AO2 FIBI (JR)","FM-16","6",,,,,,,,,,,,,,,,,,,,,,,,,,,,"2009-05-22"
"72503794745","2020-03-29T22:56:00","FM-15","7",,,,,,,,,,,,,,,,,,,,,,,,,,,,,,,,,,,,,,"29.87","43","45","0.00",,,,"93","29.88","OVC:08 6","29.44","10.00","44","030",,"7",,,,,,,,,,,,,,,,,,,,,,,,,,,,,,,,,,,,,"MET09303/29/20 22:56:02 METAR KHPN 300356Z 03006KT 10SM OVC006 07/06 A2987 RMK AO2 SLP119 T00720061","FM-15","7",,,,,,,,,,,,,,,,,,,,,,,,,,,,"2009-05-22"
"72503794745","2020-03-29T23:56:00","FM-15","7",,,,,,,,,,,,,,,,,,,,,,,,,,,,,,,,,,,,,,"29.89","43","45","0.00",,,,"93","29.91","OVC:08 5","29.46","7.00","44","010",,"10",,,,,,,,,,,,,,,,,,,,,,,,,,,,,,,,,,,,,"MET11403/29/20 23:56:02 METAR KHPN 300456Z 01009KT 7SM OVC005 07/06 A2989 RMK AO2 CIG 004V008 SLP127 T00720061 400780067","FM-15","7",,,,,,,,,,,,,,,,,,,,,,,,,,,,"2009-05-22"
"72503794745","2020-03-29T23:59:00","SOD  ","6",,,,,,,,,,,,,,,,"45",,,"29.52",,"12.9","0","2.6","20","46","44","070","33","0.36",,,"070","22","RA DZ BR",,,,,,,,,,,,,,,,,,,,,,,,,,,,,,,,,,,,,,,,,,,,,,,,,,,,,,,,"SOD73024 HR PRECIPITATION (IN):0.36  24 HR MAX TEMP (F):46 24 HR MAX TEMP TIME (LST):2249 24 HR MIN TEMP (F):44 24 HR MIN TEMP TIME (LST):1540 AVERAGE STATION PRESSURE:29.520 MINIMUM SEA LEVEL PRESSURE:29.81 TIME OF OCCURRENCE:1530 PEAK WIND SPEED (MPH):33  PEAK WIND DIR (DEG):70  PEAK WIND TIME (LST):0347  FASTEST 2MIN SPEED (MPH):22 FASTEST 2MIN DIR (DEG):70  FASTEST 2MIN TIME (LST):1523 AVERAGE WIND SPEED (MPH):12.9 24 HR AVG TEMP (F):45 HEATING DEGREE DAYS:20  COOLING DEGREE DAYS:0   LATEST DAY MAX TEMP (0700-1900 LST):46  LATEST NIGHT MIN TEMP(1900-0800 LST):43 HOURLY INCREMENTAL PRECIPITATION VALUES (IN):    T    T    T    0.00 T    T    T    T    0.01 0.35 T    T    T    T    0.00 0.00 0.00 T    T    T    T    0.00 0.00","SOD  ","6",,,,,,,,,,,,,,,,,,,,,,,,,"0542","1817",,"2009-05-22"
"72503794745","2020-03-30T00:56:00","FM-15","7",,,,,,,,,,,,,,,,,,,,,,,,,,,,,,,,,,,,,,"29.90","41","44","0.00",,"-0.03","3","89","29.91","OVC:08 7","29.47","10.00","43","020",,"6",,,,,,,,,,,,,,,,,,,,,,,,,,,,,,,,,,,,,"MET12203/30/20 00:56:02 METAR KHPN 300556Z 02005KT 10SM OVC007 07/05 A2990 RMK AO2 SLP129 60000 T00670050 10078 20067 53011 (FR)","FM-15","7",,,,,,,,,,,,,,,,,,,,,,,,,,,,"2009-05-22"
"72503794745","2020-03-30T01:56:00","FM-15","7",,,,,,,,,,,,,,,,,,,,,,,,,,,,,,,,,,,,,,"29.91","39","42","0.00",,,,"89","29.92","OVC:08 7","29.48","10.00","41","030",,"8",,,,,,,,,,,,,,,,,,,,,,,,,,,,,,,,,,,,,"MET09803/30/20 01:56:02 METAR KHPN 300656Z 03007KT 10SM OVC007 06/04 A2991 RMK AO2 SLP132 T00560039 (FR)","FM-15","7",,,,,,,,,,,,,,,,,,,,,,,,,,,,"2009-05-22"
"72503794745","2020-03-30T02:56:00","FM-15","7",,,,,,,,,,,,,,,,,,,,,,,,,,,,,,,,,,,,,,"29.94","38","42","0.00",,,,"85","29.95","OVC:08 7","29.51","10.00","40","010",,"5",,,,,,,,,,,,,,,,,,,,,,,,,,,,,,,,,,,,,"MET09803/30/20 02:56:02 METAR KHPN 300756Z 01004KT 10SM OVC007 06/03 A2994 RMK AO2 SLP142 T00560033 (FR)","FM-15","7",,,,,,,,,,,,,,,,,,,,,,,,,,,,"2009-05-22"
"72503794745","2020-03-30T03:56:00","FM-15","7",,,,,,,,,,,,,,,,,,,,,,,,,,,,,,,,,,,,,,"29.93","38","40","0.00",,"-0.03","0","93","29.94","OVC:08 7","29.50","10.00","39","090",,"5",,,,,,,,,,,,,,,,,,,,,,,,,,,,,,,,,,,,,"MET10403/30/20 03:56:02 METAR KHPN 300856Z 09004KT 10SM OVC007 04/03 A2993 RMK AO2 SLP140 T00440033 50010 (FR)","FM-15","7",,,,,,,,,,,,,,,,,,,,,,,,,,,,"2009-05-22"
"72503794745","2020-03-30T04:56:00","FM-15","7",,,,,,,,,,,,,,,,,,,,,,,,,,,,,,,,,,,,,,"29.93","37","40","0.00",,,,"89","29.94","OVC:08 7","29.50","10.00","39","080",,"6",,,,,,,,,,,,,,,,,,,,,,,,,,,,,,,,,,,,,"MET09803/30/20 04:56:02 METAR KHPN 300956Z 08005KT 10SM OVC007 04/03 A2993 RMK AO2 SLP140 T00440028 (FR)","FM-15","7",,,,,,,,,,,,,,,,,,,,,,,,,,,,"2009-05-22"
"72503794745","2020-03-30T05:56:00","FM-15","7",,,,,,,,,,,,,,,,,,,,,,,,,,,,,,,,,,,,,,"29.96","37","40","0.00",,,,"89","29.98","OVC:08 6","29.53","10.00","39","020",,"6",,,,,,,,,,,,,,,,,,,,,,,,,,,,,,,,,,,,,"MET09803/30/20 05:56:02 METAR KHPN 301056Z 02005KT 10SM OVC006 04/03 A2996 RMK AO2 SLP151 T00440028 (FR)","FM-15","7",,,,,,,,,,,,,,,,,,,,,,,,,,,,"2009-05-22"
"72503794745","2020-03-30T06:56:00","FM-15","7",,,,,,,,,,,,,,,,,,,,,,,,,,,,,,,,,,,,,,"29.98","37","40","0.00",,"-0.04","3","89","29.99","OVC:08 7","29.55","10.00","39","050",,"5",,,,,,,,,,,,,,,,,,,,,,,,,,,,,,,,,,,,,"MET12203/30/20 06:56:02 METAR KHPN 301156Z 05004KT 10SM OVC007 04/03 A2998 RMK AO2 SLP155 70036 T00440028 10067 20044 53015 (FR)","FM-15","7",,,,,,,,,,,,,,,,,,,,,,,,,,,,"2009-05-22"
"72503794745","2020-03-30T07:56:00","FM-15","7",,,,,,,,,,,,,,,,,,,,,,,,,,,,,,,,,,,,,,"29.95","38","40","0.00",,,,"93","29.97","BKN:07 5 OVC:08 10","29.52","10.00","39","040",,"6",,,,,,,,,,,,,,,,,,,,,,,,,,,,,,,,,,,,,"MET10503/30/20 07:56:02 METAR KHPN 301256Z 04005KT 10SM BKN005 OVC010 04/03 A2995 RMK AO2 SLP148 T00440033 (FR)","FM-15","7",,,,,,,,,,,,,,,,,,,,,,,,,,,,"2009-05-22"
"72503794745","2020-03-30T08:56:00","FM-15","7",,,,,,,,,,,,,,,,,,,,,,,,,,,,,,,,,,,,,,"29.96","38","41","0.00",,,,"89","29.98","BKN:07 6 OVC:08 10","29.53","10.00","40","140",,"5",,,,,,,,,,,,,,,,,,,,,,,,,,,,,,,,,,,,,"MET10503/30/20 08:56:02 METAR KHPN 301356Z 14004KT 10SM BKN006 OVC010 05/03 A2996 RMK AO2 SLP151 T00500033 (FR)","FM-15","7",,,,,,,,,,,,,,,,,,,,,,,,,,,,"2009-05-22"
"72503794745","2020-03-30T09:56:00","FM-15","7",,,,,,,,,,,,,,,,,,,,,,,,,,,,,,,,,,,,,,"29.95","38","42","0.00",,"+0.03","6","85","29.96","BKN:07 8 OVC:08 10","29.52","10.00","40","000",,"0",,,,,,,,,,,,,,,,,,,,,,,,,,,,,,,,,,,,,"MET10603/30/20 09:56:02 METAR KHPN 301456Z 00000KT 10SM BKN008 OVC010 06/03 A2995 RMK AO2 SLP146 T00560033 56009","FM-15","7",,,,,,,,,,,,,,,,,,,,,,,,,,,,"2009-05-22"
"72503794745","2020-03-30T10:56:00","FM-15","7",,,,,,,,,,,,,,,,,,,,,,,,,,,,,,,,,,,,,,"29.92","39","42","0.00",,,,"89","29.93","BKN:07 8 OVC:08 10","29.49","10.00","41","150",,"7",,,,,,,,,,,,,,,,,,,,,,,,,,,,,,,,,,,,,"MET10503/30/20 10:56:02 METAR KHPN 301556Z 15006KT 10SM BKN008 OVC010 06/04 A2992 RMK AO2 SLP137 T00560039 (RS)","FM-15","7",,,,,,,,,,,,,,,,,,,,,,,,,,,,"2009-05-22"
"72503794745","2020-03-30T11:56:00","FM-15","7",,,,,,,,,,,,,,,,,,,,,,,,,,,,,,,,,,,,,,"29.91","38","43","0.00",,,,"82","29.93","BKN:07 8 OVC:08 10","29.48","10.00","41","180",,"5",,,,,,,,,,,,,,,,,,,,,,,,,,,,,,,,,,,,,"MET10503/30/20 11:56:02 METAR KHPN 301656Z 18004KT 10SM BKN008 OVC010 06/03 A2991 RMK AO2 SLP134 T00610033 (RS)","FM-15","7",,,,,,,,,,,,,,,,,,,,,,,,,,,,"2009-05-22"
"72503794745","2020-03-30T12:54:00","FM-16","6",,,,,,,,,,,,,,,,,,,,,,,,,,,,,,,,,,,,,,"29.90","39","45",,,,,"81",,"OVC:08 10","29.47","10.00","42","VRB",,"3",,,,,,,,,,,,,,,,,,,,,,,,,,,,,,,,,,,,,"MET08603/30/20 12:54:02 SPECI KHPN 301754Z VRB03KT 10SM OVC010 07/04 A2990 RMK AO2 FIBI (RS)","FM-16","6",,,,,,,,,,,,,,,,,,,,,,,,,,,,"2009-05-22"
"72503794745","2020-03-30T12:56:00","FM-15","7",,,,,,,,,,,,,,,,,,,,,,,,,,,,,,,,,,,,,,"29.90","39","44","0.00",,"+0.04","6","83","29.92","OVC:08 10","29.47","10.00","42","150",,"6",,,,,,,,,,,,,,,,,,,,,,,,,,,,,,,,,,,,,"MET11603/30/20 12:56:02 METAR KHPN 301756Z 15005KT 10SM OVC010 07/04 A2990 RMK AO2 SLP131 T00670039 10067 20044 56015 (RS)","FM-15","7",,,,,,,,,,,,,,,,,,,,,,,,,,,,"2009-05-22"
"72503794745","2020-03-30T13:56:00","FM-15","7",,,,,,,,,,,,,,,,,,,,,,,,,,,,,,,,,,,,,,"29.90","39","45","0.00",,,,"80","29.91","OVC:08 12","29.47","10.00","42","100",,"6",,,,,,,,,,,,,,,,,,,,,,,,,,,,,,,,,,,,,"MET09803/30/20 13:56:02 METAR KHPN 301856Z 10005KT 10SM OVC012 07/04 A2990 RMK AO2 SLP129 T00720039 (RS)","FM-15","7",,,,,,,,,,,,,,,,,,,,,,,,,,,,"2009-05-22"
"72503794745","2020-03-30T14:54:00","FM-16","6",,,,,,,,,,,,,,,,,,,,,,,,,,,,,,,,,,,,,,"29.88","39","46",,,,,"76",,"BKN:07 15","29.45","10.00","43","140",,"7",,,,,,,,,,,,,,,,,,,,,,,,,,,,,,,,,,,,,"MET08603/30/20 14:54:02 SPECI KHPN 301954Z 14006KT 10SM BKN015 08/04 A2988 RMK AO2 FIBI (MM)","FM-16","6",,,,,,,,,,,,,,,,,,,,,,,,,,,,"2009-05-22"
"72503794745","2020-03-30T14:56:00","FM-15","7",,,,,,,,,,,,,,,,,,,,,,,,,,,,,,,,,,,,,,"29.88","40","46","0.00",,,,"79","29.89","BKN:07 15","29.45","10.00","43","130",,"9",,,,,,,,,,,,,,,,,,,,,,,,,,,,,,,,,,,,,"MET09803/30/20 14:56:02 METAR KHPN 301956Z 13008KT 10SM BKN015 08/04 A2988 RMK AO2 SLP123 T00780044 (MM)","FM-15","7",,,,,,,,,,,,,,,,,,,,,,,,,,,,"2009-05-22"
"72503794745","2020-03-30T15:56:00","FM-15","7",,,,,,,,,,,,,,,,,,,,,,,,,,,,,,,,,,,,,,"29.89","40","46","0.00",,"+0.02","5","79","29.90","OVC:08 17","29.46","10.00","43","100",,"5",,,,,,,,,,,,,,,,,,,,,,,,,,,,,,,,,,,,,"MET10403/30/20 15:56:02 METAR KHPN 302056Z 10004KT 10SM OVC017 08/04 A2989 RMK AO2 SLP124 T00780044 55006 (MM)","FM-15","7",,,,,,,,,,,,,,,,,,,,,,,,,,,,"2009-05-22"
"72503794745","2020-03-30T16:54:00","FM-16","6",,,,,,,,,,,,,,,,,,,,,,,,,,,,,,,,,,,,,,"29.90","39","46",,,,,"76",,"SCT:04 16 BKN:07 110","29.47","10.00","43","120",,"6",,,,,,,,,,,,,,,,,,,,,,,,,,,,,,,,,,,,,"MET10803/30/20 16:54:02 SPECI KHPN 302154Z 12005KT 10SM SCT016 BKN110 08/04 A2990 RMK AO2 RAB20E52 P0000 FIBI (MM)","FM-16","6",,,,,,,,,,,,,,,,,,,,,,,,,,,,"2009-05-22"
"72503794745","2020-03-30T16:56:00","FM-15","7",,,,,,,,,,,,,,,,,,,,,,,,,,,,,,,,,,,,,,"29.90","40","46","T",,,,"79","29.91","SCT:04 16 BKN:07 110","29.47","10.00","43","120",,"6",,,,,,,,,,,,,,,,,,,,,,,,,,,,,,,,,,,,,"MET12003/30/20 16:56:02 METAR KHPN 302156Z 12005KT 10SM SCT016 BKN110 08/04 A2990 RMK AO2 RAB20E52 SLP128 P0000 T00780044 (MM)","FM-15","7",,,,,,,,,,,,,,,,,,,,,,,,,,,,"2009-05-22"
"72503794745","2020-03-30T17:54:00","FM-16","6",,,,,,,,,,,,,,,,,,,,,,,,,,,,,,,,,,,,,,"29.92","39","45",,,,,"81",,"BKN:07 19","29.49","10.00","42","090",,"5",,,,,,,,,,,,,,,,,,,,,,,,,,,,,,,,,,,,,"MET08603/30/20 17:54:02 SPECI KHPN 302254Z 09004KT 10SM BKN019 07/04 A2992 RMK AO2 FIBI (MM)","FM-16","6",,,,,,,,,,,,,,,,,,,,,,,,,,,,"2009-05-22"
"72503794745","2020-03-30T17:56:00","FM-15","7",,,,,,,,,,,,,,,,,,,,,,,,,,,,,,,,,,,,,,"29.92","40","45","0.00",,,,"83","29.93","BKN:07 19","29.49","10.00","43","080",,"5",,,,,,,,,,,,,,,,,,,,,,,,,,,,,,,,,,,,,"MET09803/30/20 17:56:02 METAR KHPN 302256Z 08004KT 10SM BKN019 07/04 A2992 RMK AO2 SLP135 T00720044 (MM)","FM-15","7",,,,,,,,,,,,,,,,,,,,,,,,,,,,"2009-05-22"
"72503794745","2020-03-30T18:56:00","FM-15","7",,,,,,,,,,,,,,,,,,,,,,,,,,,,,,,,,,,,,,"29.93","39","44","0.00",,"-0.05","3","83","29.95","OVC:08 20","29.50","10.00","42","110",,"8",,,,,,,,,,,,,,,,,,,,,,,,,,,,,,,,,,,,,"MET12203/30/20 18:56:02 METAR KHPN 302356Z 11007KT 10SM OVC020 07/04 A2993 RMK AO2 SLP142 60000 T00670039 10083 20067 53016 (MM)","FM-15","7",,,,,,,,,,,,,,,,,,,,,,,,,,,,"2009-05-22"
"72503794745","2020-03-30T19:56:00","FM-15","7",,,,,,,,,,,,,,,,,,,,,,,,,,,,,,,,,,,,,,"29.96","39","44","0.01","-RA:02 |RA |RA",,,"83","29.98","OVC:08 20","29.53","7.00","42","100",,"3",,,,,,,,,,,,,,,,,,,,,,,,,,,,,,,,,,,,,"MET11303/30/20 19:56:03 METAR KHPN 310056Z 10003KT 7SM -RA OVC020 07/04 A2996 RMK AO2 RAB36 SLP151 P0001 T00670039 (MM)","FM-15","7",,,,,,,,,,,,,,,,,,,,,,,,,,,,"2009-05-22"
"72503794745","2020-03-30T20:56:00","FM-15","7",,,,,,,,,,,,,,,,,,,,,,,,,,,,,,,,,,,,,,"29.98","41","43","0.01",,,,"93","29.99","OVC:08 20","29.55","10.00","42","000",,"0",,,,,,,,,,,,,,,,,,,,,,,,,,,,,,,,,,,,,"MET11003/30/20 20:56:03 METAR KHPN 310156Z 00000KT 10SM OVC020 06/05 A2998 RMK AO2 RAE25 SLP157 P0001 T00610050 (MM)","FM-15","7",,,,,,,,,,,,,,,,,,,,,,,,,,,,"2009-05-22"
"72503794745","2020-03-30T21:54:00","FM-16","6",,,,,,,,,,,,,,,,,,,,,,,,,,,,,,,,,,,,,,"29.98","41","43",,"-RA:02 |RA |RA",,,"93",,"FEW:02 7 OVC:08 12","29.55","7.00","42","120",,"6",,,,,,,,,,,,,,,,,,,,,,,,,,,,,,,,,,,,,"MET10803/30/20 21:54:03 SPECI KHPN 310254Z 12005KT 7SM -RA FEW007 OVC012 06/05 A2998 RMK AO2 RAB52 P0000 FIBI (MM)","FM-16","6",,,,,,,,,,,,,,,,,,,,,,,,,,,,"2009-05-22"
"72503794745","2020-03-30T21:56:00","FM-15","7",,,,,,,,,,,,,,,,,,,,,,,,,,,,,,,,,,,,,,"29.98","40","43","T","-RA:02 |RA |RA","-0.04","0","89","29.99","SCT:04 5 OVC:08 12","29.55","7.00","42","130",,"6",,,,,,,,,,,,,,,,,,,,,,,,,,,,,,,,,,,,,"MET13203/30/20 21:56:03 METAR KHPN 310256Z 13005KT 7SM -RA SCT005 OVC012 06/04 A2998 RMK AO2 RAB52 SLP156 P0000 60002 T00610044 50015 (MM)","FM-15","7",,,,,,,,,,,,,,,,,,,,,,,,,,,,"2009-05-22"
"72503794745","2020-03-30T22:54:00","FM-16","6",,,,,,,,,,,,,,,,,,,,,,,,,,,,,,,,,,,,,,"29.98","39","43",,,,,"87",,"BKN:07 5 OVC:08 11","29.55","10.00","41","110",,"7",,,,,,,,,,,,,,,,,,,,,,,,,,,,,,,,,,,,,"MET10503/30/20 22:54:03 SPECI KHPN 310354Z 11006KT 10SM BKN005 OVC011 06/04 A2998 RMK AO2 RAE23 P0000 FIBI (MM)","FM-16","6",,,,,,,,,,,,,,,,,,,,,,,,,,,,"2009-05-22"
"72503794745","2020-03-30T22:56:00","FM-15","7",,,,,,,,,,,,,,,,,,,,,,,,,,,,,,,,,,,,,,"29.98","40","42","T",,,,"92","29.99","BKN:07 5 OVC:08 11","29.55","10.00","41","120",,"7",,,,,,,,,,,,,,,,,,,,,,,,,,,,,,,,,,,,,"MET11703/30/20 22:56:03 METAR KHPN 310356Z 12006KT 10SM BKN005 OVC011 06/04 A2998 RMK AO2 RAE23 SLP156 P0000 T00560044 (MM)","FM-15","7",,,,,,,,,,,,,,,,,,,,,,,,,,,,"2009-05-22"
"72503794745","2020-03-30T23:56:00","FM-15","7",,,,,,,,,,,,,,,,,,,,,,,,,,,,,,,,,,,,,,"29.99","40","41","T","-RA:02 BR:1 |RA |RA",,,"96","30.00","BKN:07 5 OVC:08 10","29.56","1.50","41","150",,"7",,,,,,,,,,,,,,,,,,,,,,,,,,,,,,,,,,,,,"MET13703/30/20 23:56:03 METAR KHPN 310456Z 15006KT 1 1/2SM -RA BR BKN005 OVC010 05/04 A2999 RMK AO2 RAB50 SLP160 P0000 T00500044 400830044 (RV)","FM-15","7",,,,,,,,,,,,,,,,,,,,,,,,,,,,"2009-05-22"
"72503794745","2020-03-30T23:59:00","SOD  ","6",,,,,,,,,,,,,,,,"44",,,"29.50",,"5.3","0","1.3","21","47","40","020","17","0.02",,,"010","14","RA BR",,,,,,,,,,,,,,,,,,,,,,,,,,,,,,,,,,,,,,,,,,,,,,,,,,,,,,,,"SOD72724 HR PRECIPITATION (IN):0.02  24 HR MAX TEMP (F):47 24 HR MAX TEMP TIME (LST):1608 24 HR MIN TEMP (F):40 24 HR MIN TEMP TIME (LST):0824 AVERAGE STATION PRESSURE:29.500 MINIMUM SEA LEVEL PRESSURE:29.89 TIME OF OCCURRENCE:1539 PEAK WIND SPEED (MPH):17  PEAK WIND DIR (DEG):20  PEAK WIND TIME (LST):0202  FASTEST 2MIN SPEED (MPH):14 FASTEST 2MIN DIR (DEG):10  FASTEST 2MIN TIME (LST):0203 AVERAGE WIND SPEED (MPH):5.3  24 HR AVG TEMP (F):44 HEATING DEGREE DAYS:21  COOLING DEGREE DAYS:0   LATEST DAY MAX TEMP (0700-1900 LST):47  LATEST NIGHT MIN TEMP(1900-0800 LST):40 HOURLY INCREMENTAL PRECIPITATION VALUES (IN):.00 0.00 0.00 0.00 0.00 0.00 0.00 0.00 0.00 0.00 0.00 0.00 0.00 0.00 0.00 0.00 T    0.00 0.00 0.01 0.01 T    T    T","SOD  ","6",,,,,,,,,,,,,,,,,,,,,,,,,"0540","1819",,"2009-05-22"
"72503794745","2020-03-31T00:54:00","FM-16","6",,,,,,,,,,,,,,,,,,,,,,,,,,,,,,,,,,,,,,"29.98","39","41",,"-RA:02 BR:1 |RA |RA",,,"93",,"BKN:07 3 OVC:08 10","29.55","3.00","40","090",,"5",,,,,,,,,,,,,,,,,,,,,,,,,,,,,,,,,,,,,"MET10503/31/20 00:54:02 SPECI KHPN 310554Z 09004KT 3SM -RA BR BKN003 OVC010 05/04 A2998 RMK AO2 P0003 FIBI (RV)","FM-16","6",,,,,,,,,,,,,,,,,,,,,,,,,,,,"2009-05-22"
"72503794745","2020-03-31T00:56:00","FM-15","7",,,,,,,,,,,,,,,,,,,,,,,,,,,,,,,,,,,,,,"29.98","39","41","0.03","-RA:02 BR:1 |RA |RA","-0.00","0","93","29.99","BKN:07 3 OVC:08 10","29.55","3.00","40","080",,"5",,,,,,,,,,,,,,,,,,,,,,,,,,,,,,,,,,,,,"MET14103/31/20 00:56:02 METAR KHPN 310556Z 08004KT 3SM -RA BR BKN003 OVC010 05/04 A2998 RMK AO2 SLP156 P0003 60005 T00500039 10067 20050 50000 (RV)","FM-15","7",,,,,,,,,,,,,,,,,,,,,,,,,,,,"2009-05-22"
"72503794745","2020-03-31T01:56:00","FM-15","7",,,,,,,,,,,,,,,,,,,,,,,,,,,,,,,,,,,,,,"29.97","38","40","0.01","-RA:02 |RA |RA",,,"93","29.98","BKN:07 3 OVC:08 11","29.54","7.00","39","060",,"8",,,,,,,,,,,,,,,,,,,,,,,,,,,,,,,,,,,,,"MET11403/31/20 01:56:02 METAR KHPN 310656Z 06007KT 7SM -RA BKN003 OVC011 04/03 A2997 RMK AO2 SLP154 P0001 T00440033 (RV)","FM-15","7",,,,,,,,,,,,,,,,,,,,,,,,,,,,"2009-05-22"
"72503794745","2020-03-31T02:54:00","FM-16","6",,,,,,,,,,,,,,,,,,,,,,,,,,,,,,,,,,,,,,"29.98","37","39",,"-DZ:01 |DZ |DZ",,,"93",,"SCT:04 15 BKN:07 23 OVC:08 30","29.55","10.00","38","070",,"5",,,,,,,,,,,,,,,,,,,,,,,,,,,,,,,,,,,,,"MET12103/31/20 02:54:02 SPECI KHPN 310754Z 07004KT 10SM -DZ SCT015 BKN023 OVC030 04/03 A2998 RMK AO2 RAE30DZB52 P0000 FIBI (RV)","FM-16","6",,,,,,,,,,,,,,,,,,,,,,,,,,,,"2009-05-22"
"72503794745","2020-03-31T02:56:00","FM-15","7",,,,,,,,,,,,,,,,,,,,,,,,,,,,,,,,,,,,,,"29.98","37","40","T","-DZ:01 |DZ |DZ",,,"89","29.99","SCT:04 15 BKN:07 23 OVC:08 30","29.55","10.00","39","060",,"7",,,,,,,,,,,,,,,,,,,,,,,,,,,,,,,,,,,,,"MET13303/31/20 02:56:02 METAR KHPN 310756Z 06006KT 10SM -DZ SCT015 BKN023 OVC030 04/03 A2998 RMK AO2 RAE30DZB52 SLP155 P0000 T00440028 (RV)","FM-15","7",,,,,,,,,,,,,,,,,,,,,,,,,,,,"2009-05-22"
"72503794745","2020-03-31T03:54:00","FM-16","6",,,,,,,,,,,,,,,,,,,,,,,,,,,,,,,,,,,,,,"29.98","36","39",,,,,"87",,"BKN:07 12 OVC:08 26","29.55","10.00","38","070",,"6",,,,,,,,,,,,,,,,,,,,,,,,,,,,,,,,,,,,,"MET10503/31/20 03:54:02 SPECI KHPN 310854Z 07005KT 10SM BKN012 OVC026 04/02 A2998 RMK AO2 DZE24 P0000 FIBI (RV)","FM-16","6",,,,,,,,,,,,,,,,,,,,,,,,,,,,"2009-05-22"
"72503794745","2020-03-31T03:56:00","FM-15","7",,,,,,,,,,,,,,,,,,,,,,,,,,,,,,,,,,,,,,"29.98","36","39","T",,"-0.00","3","89","29.99","BKN:07 12 OVC:08 26","29.55","10.00","38","060",,"6",,,,,,,,,,,,,,,,,,,,,,,,,,,,,,,,,,,,,"MET12903/31/20 03:56:02 METAR KHPN 310856Z 06005KT 10SM BKN012 OVC026 04/02 A2998 RMK AO2 DZE24 SLP156 P0000 60001 T00390022 53000 (RV)","FM-15","7",,,,,,,,,,,,,,,,,,,,,,,,,,,,"2009-05-22"
"72503794745","2020-03-31T04:56:00","FM-15","7",,,,,,,,,,,,,,,,,,,,,,,,,,,,,,,,,,,,,,"30.00","34","38","0.00",,,,"86","30.01","BKN:07 12 OVC:08 26","29.57","10.00","36","060",,"9",,,,,,,,,,,,,,,,,,,,,,,,,,,,,,,,,,,,,"MET10503/31/20 04:56:02 METAR KHPN 310956Z 06008KT 10SM BKN012 OVC026 03/01 A3000 RMK AO2 SLP164 T00330011 (RV)","FM-15","7",,,,,,,,,,,,,,,,,,,,,,,,,,,,"2009-05-22"
"72503794745","2020-03-31T05:56:00","FM-15","7",,,,,,,,,,,,,,,,,,,,,,,,,,,,,,,,,,,,,,"30.03","34","38","0.00",,,,"86","30.04","BKN:07 12 OVC:08 26","29.60","10.00","36","070",,"7",,,,,,,,,,,,,,,,,,,,,,,,,,,,,,,,,,,,,"MET10503/31/20 05:56:02 METAR KHPN 311056Z 07006KT 10SM BKN012 OVC026 03/01 A3003 RMK AO2 SLP174 T00330011 (RV)","FM-15","7",,,,,,,,,,,,,,,,,,,,,,,,,,,,"2009-05-22"
"72503794745","2020-03-31T06:56:00","FM-15","7",,,,,,,,,,,,,,,,,,,,,,,,,,,,,,,,,,,,,,"30.05","34","38","0.00",,"-0.07","2","86","30.06","BKN:07 12 BKN:07 32","29.62","10.00","36","070",,"7",,,,,,,,,,,,,,,,,,,,,,,,,,,,,,,,,,,,,"MET13503/31/20 06:56:02 METAR KHPN 311156Z 07006KT 10SM BKN012 BKN032 03/01 A3005 RMK AO2 SLP181 60001 70006 T00330011 10050 20033 52023 (RV)","FM-15","7",,,,,,,,,,,,,,,,,,,,,,,,,,,,"2009-05-22"
"72503794745","2020-03-31T07:54:00","FM-16","6",,,,,,,,,,,,,,,,,,,,,,,,,,,,,,,,,,,,,,"30.04","34","39",,,,,"81",,"SCT:04 15 BKN:07 34","29.61","10.00","37","040",,"7",,,,,,,,,,,,,,,,,,,,,,,,,,,,,,,,,,,,,"MET09303/31/20 07:54:02 SPECI KHPN 311254Z 04006KT 10SM SCT015 BKN034 04/01 A3004 RMK AO2 FIBI (RV)","FM-16","6",,,,,,,,,,,,,,,,,,,,,,,,,,,,"2009-05-22"
"72503794745","2020-03-31T07:56:00","FM-15","7",,,,,,,,,,,,,,,,,,,,,,,,,,,,,,,,,,,,,,"30.04","33","39","0.00",,,,"79","30.05","SCT:04 15 BKN:07 34","29.61","10.00","37","060",,"8",,,,,,,,,,,,,,,,,,,,,,,,,,,,,,,,,,,,,"MET10503/31/20 07:56:02 METAR KHPN 311256Z 06007KT 10SM SCT015 BKN034 04/01 A3004 RMK AO2 SLP177 T00390006 (RV)","FM-15","7",,,,,,,,,,,,,,,,,,,,,,,,,,,,"2009-05-22"
"72503794745","2020-03-31T08:54:00","FM-16","6",,,,,,,,,,,,,,,,,,,,,,,,,,,,,,,,,,,,,,"30.05","34","39",,,,,"81",,"BKN:07 15","29.62","10.00","37","080",,"7",,,,,,,,,,,,,,,,,,,,,,,,,,,,,,,,,,,,,"MET08603/31/20 08:54:02 SPECI KHPN 311354Z 08006KT 10SM BKN015 04/01 A3005 RMK AO2 FIBI (FR)","FM-16","6",,,,,,,,,,,,,,,,,,,,,,,,,,,,"2009-05-22"
"72503794745","2020-03-31T08:56:00","FM-15","7",,,,,,,,,,,,,,,,,,,,,,,,,,,,,,,,,,,,,,"30.05","33","39","0.00",,,,"79","30.06","BKN:07 15","29.62","10.00","37","VRB",,"5",,,,,,,,,,,,,,,,,,,,,,,,,,,,,,,,,,,,,"MET09803/31/20 08:56:02 METAR KHPN 311356Z VRB04KT 10SM BKN015 04/01 A3005 RMK AO2 SLP181 T00390006 (FR)","FM-15","7",,,,,,,,,,,,,,,,,,,,,,,,,,,,"2009-05-22"
"72503794745","2020-03-31T09:56:00","FM-15","7",,,,,,,,,,,,,,,,,,,,,,,,,,,,,,,,,,,,,,"30.04","32","40","0.00",,"+0.00","6","73","30.06","BKN:07 15","29.61","10.00","37","120",,"5",,,,,,,,,,,,,,,,,,,,,,,,,,,,,,,,,,,,,"MET10603/31/20 09:56:02 METAR KHPN 311456Z 12004KT 10SM BKN015 04/00 A3004 RMK AO2 SLP179 T00440000 56001 $ (FR)","FM-15","7",,,,,,,,,,,,,,,,,,,,,,,,,,,,"2009-05-22"
"72503794745","2020-03-31T10:56:00","FM-15","7",,,,,,,,,,,,,,,,,,,,,,,,,,,,,,,,,,,,,,"30.01","33","41","0.00",,,,"73","30.03","BKN:07 15","29.58","10.00","38","000",,"0",,,,,,,,,,,,,,,,,,,,,,,,,,,,,,,,,,,,,"MET10003/31/20 10:56:02 METAR KHPN 311556Z 00000KT 10SM BKN015 05/01 A3001 RMK AO2 SLP169 T00500006 $ (FR)","FM-15","7",,,,,,,,,,,,,,,,,,,,,,,,,,,,"2009-05-22"
"72503794745","2020-03-31T11:56:00","FM-15","7",,,,,,,,,,,,,,,,,,,,,,,,,,,,,,,,,,,,,,"30.02","33","41","0.00",,,,"73","30.03","FEW:02 11 BKN:07 15","29.59","10.00","38","150",,"6",,,,,,,,,,,,,,,,,,,,,,,,,,,,,,,,,,,,,"MET10703/31/20 11:56:02 METAR KHPN 311656Z 15005KT 10SM FEW011 BKN015 05/01 A3002 RMK AO2 SLP171 T00500006 $ (FR)","FM-15","7",,,,,,,,,,,,,,,,,,,,,,,,,,,,"2009-05-22"
"72503794745","2020-03-31T12:56:00","FM-15","7",,,,,,,,,,,,,,,,,,,,,,,,,,,,,,,,,,,,,,"30.00","33","42","0.00",,"+0.04","6","71","30.01","SCT:04 11 BKN:07 22","29.57","10.00","38","000",,"0",,,,,,,,,,,,,,,,,,,,,,,,,,,,,,,,,,,,,"MET11303/31/20 12:56:02 METAR KHPN 311756Z 00000KT 10SM SCT011 BKN022 06/01 A3000 RMK AO2 SLP164 T00560006 56015 $ (FR)","FM-15","7",,,,,,,,,,,,,,,,,,,,,,,,,,,,"2009-05-22"
"72503794745","2020-03-31T13:56:00","FM-15","7",,,,,,,,,,,,,,,,,,,,,,,,,,,,,,,,,,,,,,"29.98","33","43","0.00",,,,"68","29.99","BKN:07 20","29.55","10.00","39","VRB",,"3",,,,,,,,,,,,,,,,,,,,,,,,,,,,,,,,,,,,,"MET10003/31/20 13:56:02 METAR KHPN 311856Z VRB03KT 10SM BKN020 06/01 A2998 RMK AO2 SLP156 T00610006 $ (FT)","FM-15","7",,,,,,,,,,,,,,,,,,,,,,,,,,,,"2009-05-22"
"72503794745","2020-03-31T14:56:00","FM-15","7",,,,,,,,,,,,,,,,,,,,,,,,,,,,,,,,,,,,,,"29.96","33","45","0.00",,,,"63","29.97","SCT:04 25 BKN:07 27","29.53","10.00","40","130",,"6",,,,,,,,,,,,,,,,,,,,,,,,,,,,,,,,,,,,,"MET10703/31/20 14:56:02 METAR KHPN 311956Z 13005KT 10SM SCT025 BKN027 07/01 A2996 RMK AO2 SLP148 T00720006 $ (FT)","FM-15","7",,,,,,,,,,,,,,,,,,,,,,,,,,,,"2009-05-22"
"72503794745","2020-03-31T15:54:00","FM-16","6",,,,,,,,,,,,,,,,,,,,,,,,,,,,,,,,,,,,,,"29.94","34","45",,,,,"66",,"SCT:04 27 BKN:07 33","29.51","10.00","40","150",,"8",,,,,,,,,,,,,,,,,,,,,,,,,,,,,,,,,,,,,"MET09503/31/20 15:54:02 SPECI KHPN 312054Z 15007KT 10SM SCT027 BKN033 07/01 A2994 RMK AO2 $ FIBI (FT)","FM-16","6",,,,,,,,,,,,,,,,,,,,,,,,,,,,"2009-05-22"
"72503794745","2020-03-31T15:56:00","FM-15","7",,,,,,,,,,,,,,,,,,,,,,,,,,,,,,,,,,,,,,"29.94","34","44","0.00",,"+0.05","6","68","29.96","SCT:04 27 BKN:07 33","29.51","10.00","40","140",,"7",,,,,,,,,,,,,,,,,,,,,,,,,,,,,,,,,,,,,"MET11303/31/20 15:56:02 METAR KHPN 312056Z 14006KT 10SM SCT027 BKN033 07/01 A2994 RMK AO2 SLP145 T00670011 56018 $ (FT)","FM-15","7",,,,,,,,,,,,,,,,,,,,,,,,,,,,"2009-05-22"
"72503794745","2020-03-31T16:56:00","FM-15","7",,,,,,,,,,,,,,,,,,,,,,,,,,,,,,,,,,,,,,"29.94","33","43","0.00",,,,"68","29.96","BKN:07 33","29.51","10.00","39","150",,"7",,,,,,,,,,,,,,,,,,,,,,,,,,,,,,,,,,,,,"MET10003/31/20 16:56:02 METAR KHPN 312156Z 15006KT 10SM BKN033 06/01 A2994 RMK AO2 SLP145 T00610006 $ (WS)","FM-15","7",,,,,,,,,,,,,,,,,,,,,,,,,,,,"2009-05-22"
"72503794745","2020-03-31T17:56:00","FM-15","7",,,,,,,,,,,,,,,,,,,,,,,,,,,,,,,,,,,,,,"29.94","33","42","0.00",,,,"71","29.95","BKN:07 37","29.51","10.00","38","140",,"3",,,,,,,,,,,,,,,,,,,,,,,,,,,,,,,,,,,,,"MET10003/31/20 17:56:02 METAR KHPN 312256Z 14003KT 10SM BKN037 06/01 A2994 RMK AO2 SLP143 T00560006 $ (WS)","FM-15","7",,,,,,,,,,,,,,,,,,,,,,,,,,,,"2009-05-22"
"72503794745","2020-03-31T18:56:00","FM-15","7",,,,,,,,,,,,,,,,,,,,,,,,,,,,,,,,,,,,,,"29.94","33","42","0.00",,"+0.00","5","71","29.96","OVC:08 37","29.51","10.00","38","000",,"0",,,,,,,,,,,,,,,,,,,,,,,,,,,,,,,,,,,,,"MET11603/31/20 18:56:02 METAR KHPN 312356Z 00000KT 10SM OVC037 06/01 A2994 RMK AO2 SLP145 T00560006 10078 20056 55000 (WS)","FM-15","7",,,,,,,,,,,,,,,,,,,,,,,,,,,,"2009-05-22"
"72503794745","2020-03-31T19:56:00","FM-15","7",,,,,,,,,,,,,,,,,,,,,,,,,,,,,,,,,,,,,,"29.94","32","42","0.00",,,,"68","29.95","FEW:02 20 OVC:08 41","29.51","10.00","38","030",,"5",,,,,,,,,,,,,,,,,,,,,,,,,,,,,,,,,,,,,"MET10503/31/20 19:56:03 METAR KHPN 010056Z 03004KT 10SM FEW020 OVC041 06/00 A2994 RMK AO2 SLP143 T00560000 (WS)","FM-15","7",,,,,,,,,,,,,,,,,,,,,,,,,,,,"2009-05-22"
"72503794745","2020-03-31T20:54:00","FM-16","6",,,,,,,,,,,,,,,,,,,,,,,,,,,,,,,,,,,,,,"29.95","36","41",,"-RA:02 |RA |RA",,,"81",,"BKN:07 23 OVC:08 44","29.52","10.00","39","150",,"9",,,,,,,,,,,,,,,,,,,,,,,,,,,,,,,,,,,,,"MET10903/31/20 20:54:03 SPECI KHPN 010154Z 15008KT 10SM -RA BKN023 OVC044 05/02 A2995 RMK AO2 RAB44 P0000 FIBI (WS)","FM-16","6",,,,,,,,,,,,,,,,,,,,,,,,,,,,"2009-05-22"
"72503794745","2020-03-31T20:56:00","FM-15","7",,,,,,,,,,,,,,,,,,,,,,,,,,,,,,,,,,,,,,"29.95","35","41","T","-RA:02 |RA |RA",,,"79","29.97","BKN:07 23 OVC:08 44","29.52","10.00","38","150",,"8",,,,,,,,,,,,,,,,,,,,,,,,,,,,,,,,,,,,,"MET12103/31/20 20:56:03 METAR KHPN 010156Z 15007KT 10SM -RA BKN023 OVC044 05/02 A2995 RMK AO2 RAB44 SLP148 P0000 T00500017 (WS)","FM-15","7",,,,,,,,,,,,,,,,,,,,,,,,,,,,"2009-05-22"
"72503794745","2020-03-31T21:54:00","FM-16","6",,,,,,,,,,,,,,,,,,,,,,,,,,,,,,,,,,,,,,"29.94","34","39",,,,,"81",,"FEW:02 19 BKN:07 44","29.51","10.00","37","140",,"6",,,,,,,,,,,,,,,,,,,,,,,,,,,,,,,,,,,,,"MET11703/31/20 21:54:03 SPECI KHPN 010254Z 14005KT 10SM FEW019 BKN044 04/01 A2994 RMK AO2 RAE0159DZB0159E22 P0000 FIBI (WS)","FM-16","6",,,,,,,,,,,,,,,,,,,,,,,,,,,,"2009-05-22"
"72503794745","2020-03-31T21:56:00","FM-15","7",,,,,,,,,,,,,,,,,,,,,,,,,,,,,,,,,,,,,,"29.94","34","40","T",,"+0.01","8","79","29.95","FEW:02 19 BKN:07 44","29.51","10.00","37","150",,"6",,,,,,,,,,,,,,,,,,,,,,,,,,,,,,,,,,,,,"MET14103/31/20 21:56:03 METAR KHPN 010256Z 15005KT 10SM FEW019 BKN044 04/01 A2994 RMK AO2 RAE0159DZB0159E22 SLP143 P0000 60000 T00440011 58002 (WS)","FM-15","7",,,,,,,,,,,,,,,,,,,,,,,,,,,,"2009-05-22"
"72503794745","2020-03-31T22:56:00","FM-15","7",,,,,,,,,,,,,,,,,,,,,,,,,,,,,,,,,,,,,,"29.92","33","39","0.00",,,,"79","29.94","FEW:02 19 BKN:07 44","29.49","10.00","37","130",,"8",,,,,,,,,,,,,,,,,,,,,,,,,,,,,,,,,,,,,"MET10503/31/20 22:56:03 METAR KHPN 010356Z 13007KT 10SM FEW019 BKN044 04/01 A2992 RMK AO2 SLP138 T00390006 (WS)","FM-15","7",,,,,,,,,,,,,,,,,,,,,,,,,,,,"2009-05-22"
"72503794745","2020-03-31T23:56:00","FM-15","7",,,,,,,,,,,,,,,,,,,,,,,,,,,,,,,,,,,,,,"29.90","31","39","0.00",,,,"73","29.91","FEW:02 19 BKN:07 44","29.47","10.00","36","120",,"5",,,,,,,,,,,,,,,,,,,,,,,,,,,,,,,,,,,,,"MET11803/31/20 23:56:03 METAR KHPN 010456Z 12004KT 10SM FEW019 BKN044 04/M01 A2990 RMK AO2 SLP130 T00391006 400780033 $ (WS)","FM-15","7",,,,,,,,,,,,,,,,,,,,,,,,,,,,"2009-05-22"
"72503794745","2020-03-31T23:59:00","SOD  ","6",,,,,,,,,,,,,,,,"42",,,"29.56",,"5.4","0","-1.1","23","46","38","060","15","0.04",,,"060","12","RA DZ BR",,,,,,,,,,,,,,,,,,,,,,,,,,,,,,,,,,,,,,,,,,,,,,,,,,,,,,,,"SOD73024 HR PRECIPITATION (IN):0.04  24 HR MAX TEMP (F):46 24 HR MAX TEMP TIME (LST):1452 24 HR MIN TEMP (F):38 24 HR MIN TEMP TIME (LST):0748 AVERAGE STATION PRESSURE:29.560 MINIMUM SEA LEVEL PRESSURE:29.91 TIME OF OCCURRENCE:2359 PEAK WIND SPEED (MPH):15  PEAK WIND DIR (DEG):60  PEAK WIND TIME (LST):0501  FASTEST 2MIN SPEED (MPH):12 FASTEST 2MIN DIR (DEG):60  FASTEST 2MIN TIME (LST):0448 AVERAGE WIND SPEED (MPH):5.4  24 HR AVG TEMP (F):42 HEATING DEGREE DAYS:23  COOLING DEGREE DAYS:0   LATEST DAY MAX TEMP (0700-1900 LST):46( LATEST NIGHT MIN TEMP(1900-0800 LST):38 HOURLY INCREMENTAL PRECIPITATION VALUES (IN):.03 0.01 T    T    0.00 0.00 0.00 0.00 0.00 0.00 0.00 0.00 0.00 0.00 0.00 0.00 0.00 0.00 0.00 0.00 T    T    0.00 0.00","SOD  ","6",,,,,,,,,,,,,,,,,,,,,,,,,"0539","1820",,"2009-05-22"
"72503794745","2020-03-31T23:59:00","SOM  ","6","9.2",,,,,,,,,,,"0","0",,,,,,,,,,,,,,,,,,,,,,"4239","631",,,,,,,,,,,,,,,,,,,"12","8",,,,,"6.0","0","-204","5.3","6.5","-1.48s",,"0.79","23-23",,,,,"30.70","22","2039","52.1","44.0","29.40","03","2322","35.8","30.12","29.67","3.04s",,,"-7777","835","SOM723PCP MTOT:3.04 PCP GT 24HRS:0.79 DATE(S):23 DAYS W/PCP >=.01:12 DAYS W/PCP >=.10:8  DAYS W/ PCP >=.50:2 DAYS W/PCP >=1.00:0 MSDP AMTS W/DATE-TIME TAGS:MIN:5 0.12  29/1029 MIN:10 0.20  29/1035 MIN:15 0.25  29/1034 MIN:20 0.31  29/1036 MIN:30 0.35  29/1036 MIN:45 0.35  29/1036 MIN:60 0.35  29/1036 MIN:80 0.36  29/1036 MIN:100 0.36  29/1036 MIN:120 0.36  29/1036 MIN:150 0.37  19/0554 MIN:180 0.43  19/0554 AVG DLY MIN:35.8  AVG DLY MAX:52.1  AVG MLY TMP:44.0  MIN TMP:21 DATE(S):01 MAX TMP:74  DATE(S):20 AVG STP:29.675 LWST SLP:29.40 DATE/TIME:032322 HGST SLP:30.70 DATE/TIME:222039 HDD MTH TOT:622 DEP NORM:-2553 SEASON(JUL 1-JUN 30):4244 DEP NORM:-25536 CDD MTH TOT:0 DEP NORM:-2553 SEASON(JAN 1-DEC 31):0 DEP NORM:-25536","SOM  ","6","2020-03-29 10:29","2020-03-29 10:35","2020-03-29 10:34","2020-03-29 10:36","2020-03-29 10:36","2020-03-29 10:36","2020-03-29 10:36","2020-03-29 10:36","2020-03-29 10:36","2020-03-29 10:36","2020-03-19 05:54","2020-03-19 05:54","0.12","0.20","0.25","0.31","0.35","0.35","0.35","0.36","0.36","0.36","0.37","0.43",,,,"2009-05-22"
"72503794745","2020-04-01T00:54:00","FM-16","6",,,,,,,,,,,,,,,,,,,,,,,,,,,,,,,,,,,,,,"29.87","32","37",,,,,"81",,"BKN:07 19","29.44","10.00","35","090",,"3",,,,,,,,,,,,,,,,,,,,,,,,,,,,,,,,,,,,,"MET08804/01/20 00:54:02 SPECI KHPN 010554Z 09003KT 10SM BKN019 03/00 A2987 RMK AO2 $ FIBI (WS)","FM-16","6",,,,,,,,,,,,,,,,,,,,,,,,,,,,"2009-05-22"
"72503794745","2020-04-01T00:56:00","FM-15","7",,,,,,,,,,,,,,,,,,,,,,,,,,,,,,,,,,,,,,"29.87","32","38","0.00",,"+0.06","8","79","29.89","BKN:07 19","29.44","10.00","36","090",,"7",,,,,,,,,,,,,,,,,,,,,,,,,,,,,,,,,,,,,"MET12404/01/20 00:56:02 METAR KHPN 010556Z 09006KT 10SM BKN019 03/00 A2987 RMK AO2 SLP121 60000 T00330000 10056 20033 58022 $ (WS)","FM-15","7",,,,,,,,,,,,,,,,,,,,,,,,,,,,"2009-05-22"
"72503794745","2020-04-01T01:56:00","FM-15","7",,,,,,,,,,,,,,,,,,,,,,,,,,,,,,,,,,,,,,"29.86","31","38","0.00",,,,"76","29.87","BKN:07 21","29.43","10.00","35","080",,"6",,,,,,,,,,,,,,,,,,,,,,,,,,,,,,,,,,,,,"MET10104/01/20 01:56:02 METAR KHPN 010656Z 08005KT 10SM BKN021 03/M01 A2986 RMK AO2 SLP116 T00331006 $ (WS)","FM-15","7",,,,,,,,,,,,,,,,,,,,,,,,,,,,"2009-05-22"
"72503794745","2020-04-01T02:56:00","FM-15","7",,,,,,,,,,,,,,,,,,,,,,,,,,,,,,,,,,,,,,"29.83","30","37","0.00",,,,"76","29.85","SCT:04 23","29.40","10.00","34","040",,"5",,,,,,,,,,,,,,,,,,,,,,,,,,,,,,,,,,,,,"MET10104/01/20 02:56:02 METAR KHPN 010756Z 04004KT 10SM SCT023 03/M01 A2983 RMK AO2 SLP108 T00281011 $ (WS)","FM-15","7",,,,,,,,,,,,,,,,,,,,,,,,,,,,"2009-05-22"
"72503794745","2020-04-01T03:56:00","FM-15","7",,,,,,,,,,,,,,,,,,,,,,,,,,,,,,,,,,,,,,"29.82","30","36","0.00",,"+0.05","6","79","29.84","CLR:00","29.39","10.00","34","040",,"5",,,,,,,,,,,,,,,,,,,,,,,,,,,,,,,,,,,,,"MET10404/01/20 03:56:02 METAR KHPN 010856Z 04004KT 10SM CLR 02/M01 A2982 RMK AO2 SLP104 T00221011 56016 $ (ML)","FM-15","7",,,,,,,,,,,,,,,,,,,,,,,,,,,,"2009-05-22"
"72503794745","2020-04-01T04:56:00","FM-15","7",,,,,,,,,,,,,,,,,,,,,,,,,,,,,,,,,,,,,,"29.81","28","35","0.00",,,,"76","29.82","CLR:00","29.39","10.00","32","030",,"7",,,,,,,,,,,,,,,,,,,,,,,,,,,,,,,,,,,,,"MET09804/01/20 04:56:02 METAR KHPN 010956Z 03006KT 10SM CLR 02/M02 A2981 RMK AO2 SLP099 T00171022 $ (ML)","FM-15","7",,,,,,,,,,,,,,,,,,,,,,,,,,,,"2009-05-22"
"72503794745","2020-04-01T05:56:00","FM-15","7",,,,,,,,,,,,,,,,,,,,,,,,,,,,,,,,,,,,,,"29.81","27","35","0.00",,,,"72","29.83","CLR:00","29.39","10.00","32","020",,"7",,,,,,,,,,,,,,,,,,,,,,,,,,,,,,,,,,,,,"MET09804/01/20 05:56:02 METAR KHPN 011056Z 02006KT 10SM CLR 02/M03 A2981 RMK AO2 SLP100 T00171028 $ (ML)","FM-15","7",,,,,,,,,,,,,,,,,,,,,,,,,,,,"2009-05-22"
"72503794745","2020-04-01T06:56:00","FM-15","7",,,,,,,,,,,,,,,,,,,,,,,,,,,,,,,,,,,,,,"29.82","28","36","0.00",,"-0.00","3","73","29.84","CLR:00","29.39","10.00","33","040",,"7",,,,,,,,,,,,,,,,,,,,,,,,,,,,,,,,,,,,,"MET11404/01/20 06:56:02 METAR KHPN 011156Z 04006KT 10SM CLR 02/M02 A2982 RMK AO2 SLP105 T00221022 10033 20017 53001 (ML)","FM-15","7",,,,,,,,,,,,,,,,,,,,,,,,,,,,"2009-05-22"
"72503794745","2020-04-01T07:56:00","FM-15","7",,,,,,,,,,,,,,,,,,,,,,,,,,,,,,,,,,,,,,"29.83","27","39","0.00",,,,"62","29.85","FEW:02 30","29.40","10.00","34","050",,"9",,,,,,,,,,,,,,,,,,,,,,,,,,,,,,,,,,,,,"MET09904/01/20 07:56:02 METAR KHPN 011256Z 05008KT 10SM FEW030 04/M03 A2983 RMK AO2 SLP107 T00391028 (ML)","FM-15","7",,,,,,,,,,,,,,,,,,,,,,,,,,,,"2009-05-22"
"72503794745","2020-04-01T08:56:00","FM-15","7",,,,,,,,,,,,,,,,,,,,,,,,,,,,,,,,,,,,,,"29.82","26","43","0.00",,,,"51","29.84","FEW:02 30","29.39","10.00","36","020","20","13",,,,,,,,,,,,,,,,,,,,,,,,,,,,,,,,,,,,,"MET10204/01/20 08:56:02 METAR KHPN 011356Z 02011G17KT 10SM FEW030 06/M03 A2982 RMK AO2 SLP104 T00611033 (ML)","FM-15","7",,,,,,,,,,,,,,,,,,,,,,,,,,,,"2009-05-22"
"72503794745","2020-04-01T09:56:00","FM-15","7",,,,,,,,,,,,,,,,,,,,,,,,,,,,,,,,,,,,,,"29.80","25","45","0.00",,"+0.02","8","46","29.82","FEW:02 30","29.37","10.00","37","030",,"7",,,,,,,,,,,,,,,,,,,,,,,,,,,,,,,,,,,,,"MET10504/01/20 09:56:02 METAR KHPN 011456Z 03006KT 10SM FEW030 07/M04 A2980 RMK AO2 SLP097 T00721039 58007 (ML)","FM-15","7",,,,,,,,,,,,,,,,,,,,,,,,,,,,"2009-05-22"
"72503794745","2020-04-01T10:56:00","FM-15","7",,,,,,,,,,,,,,,,,,,,,,,,,,,,,,,,,,,,,,"29.78","25","48","0.00",,,,"41","29.79","FEW:02 46","29.36","10.00","39","010",,"10",,,,,,,,,,,,,,,,,,,,,,,,,,,,,,,,,,,,,"MET09904/01/20 10:56:02 METAR KHPN 011556Z 01009KT 10SM FEW046 09/M04 A2978 RMK AO2 SLP088 T00891039 (ML)","FM-15","7",,,,,,,,,,,,,,,,,,,,,,,,,,,,"2009-05-22"
"72503794745","2020-04-01T11:56:00","FM-15","7",,,,,,,,,,,,,,,,,,,,,,,,,,,,,,,,,,,,,,"29.76","24","49","0.00",,,,"38","29.77","FEW:02 50","29.34","10.00","39","VRB",,"8",,,,,,,,,,,,,,,,,,,,,,,,,,,,,,,,,,,,,"MET09904/01/20 11:56:02 METAR KHPN 011656Z 35007KT 10SM FEW050 09/M04 A2976 RMK AO2 SLP082 T00941044 (ML)","FM-15","7",,,,,,,,,,,,,,,,,,,,,,,,,,,,"2009-05-22"
"72503794745","2020-04-01T12:56:00","FM-15","7",,,,,,,,,,,,,,,,,,,,,,,,,,,,,,,,,,,,,,"29.74","25","49","0.00",,"+0.06","6","39","29.75","SCT:04 60","29.31","10.00","39","VRB","21","9",,,,,,,,,,,,,,,,,,,,,,,,,,,,,,,,,,,,,"MET12004/01/20 12:56:02 METAR KHPN 011756Z 04008G18KT 10SM SCT060 09/M04 A2974 RMK AO2 SLP075 T00941039 10106 20022 56022 (FT)","FM-15","7",,,,,,,,,,,,,,,,,,,,,,,,,,,,"2009-05-22"
"72503794745","2020-04-01T13:56:00","FM-15","7",,,,,,,,,,,,,,,,,,,,,,,,,,,,,,,,,,,,,,"29.72","25","52","0.00",,,,"35","29.73","FEW:02 60","29.30","10.00","41","VRB",,"8",,,,,,,,,,,,,,,,,,,,,,,,,,,,,,,,,,,,,"MET09904/01/20 13:56:02 METAR KHPN 011856Z 34007KT 10SM FEW060 11/M04 A2972 RMK AO2 SLP069 T01111039 (FT)","FM-15","7",,,,,,,,,,,,,,,,,,,,,,,,,,,,"2009-05-22"
"72503794745","2020-04-01T14:56:00","FM-15","7",,,,,,,,,,,,,,,,,,,,,,,,,,,,,,,,,,,,,,"29.70","25","53","0.00",,,,"34","29.71","FEW:02 60","29.28","10.00","41","320","24","15",,,,,,,,,,,,,,,,,,,,,,,,,,,,,,,,,,,,,"MET10204/01/20 14:56:02 METAR KHPN 011956Z 32013G21KT 10SM FEW060 12/M04 A2970 RMK AO2 SLP062 T01171039 (FT)","FM-15","7",,,,,,,,,,,,,,,,,,,,,,,,,,,,"2009-05-22"
"72503794745","2020-04-01T15:56:00","FM-15","7",,,,,,,,,,,,,,,,,,,,,,,,,,,,,,,,,,,,,,"29.70","21","52","0.00",,"+0.04","6","30","29.71","FEW:02 60","29.28","10.00","40","010","24","14",,,,,,,,,,,,,,,,,,,,,,,,,,,,,,,,,,,,,"MET12604/01/20 15:56:02 METAR KHPN 012056Z 01012G21KT 10SM FEW060 11/M06 A2970 RMK AO2 PK WND 34029/2031 SLP061 T01111061 56014 (FT)","FM-15","7",,,,,,,,,,,,,,,,,,,,,,,,,,,,"2009-05-22"
"72503794745","2020-04-01T16:56:00","FM-15","7",,,,,,,,,,,,,,,,,,,,,,,,,,,,,,,,,,,,,,"29.71","24","51","0.00",,,,"35","29.72","SCT:04 65","29.28","10.00","40","350","25","14",,,,,,,,,,,,,,,,,,,,,,,,,,,,,,,,,,,,,"MET10204/01/20 16:56:02 METAR KHPN 012156Z 35012G22KT 10SM SCT065 11/M04 A2971 RMK AO2 SLP065 T01061044 (FT)","FM-15","7",,,,,,,,,,,,,,,,,,,,,,,,,,,,"2009-05-22"
"72503794745","2020-04-01T17:56:00","FM-15","7",,,,,,,,,,,,,,,,,,,,,,,,,,,,,,,,,,,,,,"29.72","23","50","0.00",,,,"35","29.72","FEW:02 30","29.30","10.00","39","350",,"16",,,,,,,,,,,,,,,,,,,,,,,,,,,,,,,,,,,,,"MET09904/01/20 17:56:02 METAR KHPN 012256Z 35014KT 10SM FEW030 10/M05 A2972 RMK AO2 SLP066 T01001050 (FT)","FM-15","7",,,,,,,,,,,,,,,,,,,,,,,,,,,,"2009-05-22"
"72503794745","2020-04-01T18:56:00","FM-15","7",,,,,,,,,,,,,,,,,,,,,,,,,,,,,,,,,,,,,,"29.73","23","47","0.00",,"-0.03","2","39","29.74","CLR:00","29.31","10.00","38","350",,"11",,,,,,,,,,,,,,,,,,,,,,,,,,,,,,,,,,,,,"MET11404/01/20 18:56:02 METAR KHPN 012356Z 35010KT 10SM CLR 08/M05 A2973 RMK AO2 SLP072 T00831050 10117 20083 52010 (FT)","FM-15","7",,,,,,,,,,,,,,,,,,,,,,,,,,,,"2009-05-22"
"72503794745","2020-04-01T19:56:00","FM-15","7",,,,,,,,,,,,,,,,,,,,,,,,,,,,,,,,,,,,,,"29.74","23","47","0.00",,,,"39","29.75","CLR:00","29.31","10.00","38","360",,"10",,,,,,,,,,,,,,,,,,,,,,,,,,,,,,,,,,,,,"MET09104/01/20 19:56:01 METAR KHPN 020056Z 36009KT 10SM CLR 08/M05 A2974 RMK AO2 SLP075 T00831050","FM-15","7",,,,,,,,,,,,,,,,,,,,,,,,,,,,"2009-05-22"
"72503794745","2020-04-01T20:56:00","FM-15","7",,,,,,,,,,,,,,,,,,,,,,,,,,,,,,,,,,,,,,"29.73","24","44","0.00",,,,"45","29.75","CLR:00","29.31","10.00","36","330",,"9",,,,,,,,,,,,,,,,,,,,,,,,,,,,,,,,,,,,,"MET09104/01/20 20:56:01 METAR KHPN 020156Z 33008KT 10SM CLR 07/M04 A2973 RMK AO2 SLP073 T00671044","FM-15","7",,,,,,,,,,,,,,,,,,,,,,,,,,,,"2009-05-22"
"72503794745","2020-04-01T21:56:00","FM-15","7",,,,,,,,,,,,,,,,,,,,,,,,,,,,,,,,,,,,,,"29.73","25","44","0.00",,"-0.01","1","47","29.75","CLR:00","29.31","10.00","36","310",,"9",,,,,,,,,,,,,,,,,,,,,,,,,,,,,,,,,,,,,"MET09704/01/20 21:56:01 METAR KHPN 020256Z 31008KT 10SM CLR 07/M04 A2973 RMK AO2 SLP073 T00671039 51002","FM-15","7",,,,,,,,,,,,,,,,,,,,,,,,,,,,"2009-05-22"
"72503794745","2020-04-01T22:56:00","FM-15","7",,,,,,,,,,,,,,,,,,,,,,,,,,,,,,,,,,,,,,"29.74","25","43","0.00",,,,"49","29.75","CLR:00","29.31","10.00","36","330",,"13",,,,,,,,,,,,,,,,,,,,,,,,,,,,,,,,,,,,,"MET09104/01/20 22:56:02 METAR KHPN 020356Z 33011KT 10SM CLR 06/M04 A2974 RMK AO2 SLP073 T00611039","FM-15","7",,,,,,,,,,,,,,,,,,,,,,,,,,,,"2009-05-22"
"72503794745","2020-04-01T23:56:00","FM-15","7",,,,,,,,,,,,,,,,,,,,,,,,,,,,,,,,,,,,,,"29.74","25","42","0.00",,,,"51","29.75","CLR:00","29.31","10.00","35","320",,"14",,,,,,,,,,,,,,,,,,,,,,,,,,,,,,,,,,,,,"MET10104/01/20 23:56:02 METAR KHPN 020456Z 32012KT 10SM CLR 06/M04 A2974 RMK AO2 SLP073 T00561039 401170017","FM-15","7",,,,,,,,,,,,,,,,,,,,,,,,,,,,"2009-05-22"
"72503794745","2020-04-01T23:59:00","SOD  ","6",,,,,,,,,,,,,,,,"44",,,"29.36",,"9.7","0","0.5","21","53","35","340","33","0.00",,,"330","25",,,,,,,,,,,,,,,,,,,,,,,,,,,,,,,,,,,,,,,,,,,,,,,,,,,,,,,,,"SOD73024 HR PRECIPITATION (IN):0.00  24 HR MAX TEMP (F):53 24 HR MAX TEMP TIME (LST):1539 24 HR MIN TEMP (F):35 24 HR MIN TEMP TIME (LST):0644 AVERAGE STATION PRESSURE:29.365 MINIMUM SEA LEVEL PRESSURE:29.71 TIME OF OCCURRENCE:1628 PEAK WIND SPEED (MPH):33  PEAK WIND DIR (DEG):340 PEAK WIND TIME (LST):1531  FASTEST 2MIN SPEED (MPH):25 FASTEST 2MIN DIR (DEG):330 FASTEST 2MIN TIME (LST):1531 AVERAGE WIND SPEED (MPH):9.7  24 HR AVG TEMP (F):44 HEATING DEGREE DAYS:21  COOLING DEGREE DAYS:0   LATEST DAY MAX TEMP (0700-1900 LST):53  LATEST NIGHT MIN TEMP(1900-0800 LST):35 HOURLY INCREMENTAL PRECIPITATION VALUES (IN):.00 0.00 0.00 0.00 0.00 0.00 0.00 0.00 0.00 0.00 0.00 0.00 0.00 0.00 0.00 0.00 0.00 0.00 0.00 0.00 0.00 0.00 0.00 0.00","SOD  ","6",,,,,,,,,,,,,,,,,,,,,,,,,"0537","1821",,"2009-05-22"
"72503794745","2020-04-02T00:56:00","FM-15","7",,,,,,,,,,,,,,,,,,,,,,,,,,,,,,,,,,,,,,"29.74","26","39","0.00",,"-0.00","2","60","29.75","CLR:00","29.31","10.00","34","340","25","16",,,,,,,,,,,,,,,,,,,,,,,,,,,,,,,,,,,,,"MET11704/02/20 00:56:02 METAR KHPN 020556Z 34014G22KT 10SM CLR 04/M03 A2974 RMK AO2 SLP074 T00391033 10083 20039 52001 (RV)","FM-15","7",,,,,,,,,,,,,,,,,,,,,,,,,,,,"2009-05-22"
"72503794745","2020-04-02T01:56:00","FM-15","7",,,,,,,,,,,,,,,,,,,,,,,,,,,,,,,,,,,,,,"29.73","26","38","0.00",,,,"62","29.74","CLR:00","29.31","10.00","33","340",,"15",,,,,,,,,,,,,,,,,,,,,,,,,,,,,,,,,,,,,"MET09604/02/20 01:56:02 METAR KHPN 020656Z 34013KT 10SM CLR 03/M03 A2973 RMK AO2 SLP070 T00331033 (RV)","FM-15","7",,,,,,,,,,,,,,,,,,,,,,,,,,,,"2009-05-22"
"72503794745","2020-04-02T02:56:00","FM-15","7",,,,,,,,,,,,,,,,,,,,,,,,,,,,,,,,,,,,,,"29.72","26","37","0.00",,,,"65","29.73","CLR:00","29.30","10.00","33","310",,"11",,,,,,,,,,,,,,,,,,,,,,,,,,,,,,,,,,,,,"MET09604/02/20 02:56:02 METAR KHPN 020756Z 31010KT 10SM CLR 03/M03 A2972 RMK AO2 SLP068 T00281033 (RV)","FM-15","7",,,,,,,,,,,,,,,,,,,,,,,,,,,,"2009-05-22"
"72503794745","2020-04-02T03:56:00","FM-15","7",,,,,,,,,,,,,,,,,,,,,,,,,,,,,,,,,,,,,,"29.71","26","37","0.00",,"+0.03","6","65","29.72","CLR:00","29.28","10.00","33","320",,"16",,,,,,,,,,,,,,,,,,,,,,,,,,,,,,,,,,,,,"MET10204/02/20 03:56:02 METAR KHPN 020856Z 32014KT 10SM CLR 03/M03 A2971 RMK AO2 SLP065 T00281033 56009 (RV)","FM-15","7",,,,,,,,,,,,,,,,,,,,,,,,,,,,"2009-05-22"
"72503794745","2020-04-02T04:56:00","FM-15","7",,,,,,,,,,,,,,,,,,,,,,,,,,,,,,,,,,,,,,"29.71","26","37","0.00",,,,"65","29.72","CLR:00","29.28","10.00","33","310",,"16",,,,,,,,,,,,,,,,,,,,,,,,,,,,,,,,,,,,,"MET09604/02/20 04:56:02 METAR KHPN 020956Z 31014KT 10SM CLR 03/M03 A2971 RMK AO2 SLP064 T00281033 (RV)","FM-15","7",,,,,,,,,,,,,,,,,,,,,,,,,,,,"2009-05-22"
"72503794745","2020-04-02T05:56:00","FM-15","7",,,,,,,,,,,,,,,,,,,,,,,,,,,,,,,,,,,,,,"29.71","27","37","0.00",,,,"67","29.72","CLR:00","29.28","10.00","33","310",,"17",,,,,,,,,,,,,,,,,,,,,,,,,,,,,,,,,,,,,"MET09604/02/20 05:56:02 METAR KHPN 021056Z 31015KT 10SM CLR 03/M03 A2971 RMK AO2 SLP063 T00281028 (RV)","FM-15","7",,,,,,,,,,,,,,,,,,,,,,,,,,,,"2009-05-22"
"72503794745","2020-04-02T06:56:00","FM-15","7",,,,,,,,,,,,,,,,,,,,,,,,,,,,,,,,,,,,,,"29.71","26","39","0.00",,"-0.00","3","60","29.72","SCT:04 33","29.28","10.00","34","320","26","18",,,,,,,,,,,,,,,,,,,,,,,,,,,,,,,,,,,,,"MET12004/02/20 06:56:02 METAR KHPN 021156Z 32016G23KT 10SM SCT033 04/M03 A2971 RMK AO2 SLP065 T00391033 10039 20022 53001 (DM)","FM-15","7",,,,,,,,,,,,,,,,,,,,,,,,,,,,"2009-05-22"
"72503794745","2020-04-02T07:56:00","FM-15","7",,,,,,,,,,,,,,,,,,,,,,,,,,,,,,,,,,,,,,"29.70","27","42","0.00",,,,"55","29.71","SCT:04 33","29.28","10.00","36","320","31","23",,,,,,,,,,,,,,,,,,,,,,,,,,,,,,,,,,,,,"MET12004/02/20 07:56:02 METAR KHPN 021256Z 32020G27KT 10SM SCT033 06/M03 A2970 RMK AO2 PK WND 31029/1226 SLP060 T00561028 (DM)","FM-15","7",,,,,,,,,,,,,,,,,,,,,,,,,,,,"2009-05-22"
"72503794745","2020-04-02T08:56:00","FM-15","7",,,,,,,,,,,,,,,,,,,,,,,,,,,,,,,,,,,,,,"29.69","28","43","0.00",,,,"56","29.70","BKN:07 35","29.26","10.00","37","320","29","20",,,,,,,,,,,,,,,,,,,,,,,,,,,,,,,,,,,,,"MET12004/02/20 08:56:02 METAR KHPN 021356Z 32017G25KT 10SM BKN035 06/M02 A2969 RMK AO2 PK WND 32027/1313 SLP057 T00611022 (DM)","FM-15","7",,,,,,,,,,,,,,,,,,,,,,,,,,,,"2009-05-22"
"72503794745","2020-04-02T09:56:00","FM-15","7",,,,,,,,,,,,,,,,,,,,,,,,,,,,,,,,,,,,,,"29.67","29","48","0.00",,"+0.04","8","48","29.67","FEW:02 39","29.25","10.00","40","340","37","22",,,,,,,,,,,,,,,,,,,,,,,,,,,,,,,,,,,,,"MET12604/02/20 09:56:02 METAR KHPN 021456Z 34019G32KT 10SM FEW039 09/M02 A2967 RMK AO2 PK WND 33033/1432 SLP049 T00891017 58015 (DM)","FM-15","7",,,,,,,,,,,,,,,,,,,,,,,,,,,,"2009-05-22"
"72503794745","2020-04-02T10:56:00","FM-15","7",,,,,,,,,,,,,,,,,,,,,,,,,,,,,,,,,,,,,,"29.65","29","49","0.00",,,,"46","29.66","BKN:07 45","29.23","10.00","41","320","28","17",,,,,,,,,,,,,,,,,,,,,,,,,,,,,,,,,,,,,"MET12004/02/20 10:56:02 METAR KHPN 021556Z 32015G24KT 10SM BKN045 09/M02 A2965 RMK AO2 PK WND 31028/1516 SLP044 T00941017 (DM)","FM-15","7",,,,,,,,,,,,,,,,,,,,,,,,,,,,"2009-05-22"
"72503794745","2020-04-02T11:56:00","FM-15","7",,,,,,,,,,,,,,,,,,,,,,,,,,,,,,,,,,,,,,"29.63","29","52","0.00",,,,"41","29.64","SCT:04 47","29.21","10.00","42","320","37","25",,,,,,,,,,,,,,,,,,,,,,,,,,,,,,,,,,,,,"MET12004/02/20 11:56:02 METAR KHPN 021656Z 32022G32KT 10SM SCT047 11/M02 A2963 RMK AO2 PK WND 33032/1653 SLP037 T01111017 (DM)","FM-15","7",,,,,,,,,,,,,,,,,,,,,,,,,,,,"2009-05-22"
"72503794745","2020-04-02T12:56:00","FM-15","7",,,,,,,,,,,,,,,,,,,,,,,,,,,,,,,,,,,,,,"29.61","29","55","0.00",,"+0.06","8","37","29.61","SCT:04 40","29.19","10.00","44","320","30","17",,,,,,,,,,,,,,,,,,,,,,,,,,,,,,,,,,,,,"MET13804/02/20 12:56:02 METAR KHPN 021756Z 32015G26KT 10SM SCT040 13/M02 A2961 RMK AO2 PK WND 33032/1721 SLP028 T01281017 10128 20039 58021 (DM)","FM-15","7",,,,,,,,,,,,,,,,,,,,,,,,,,,,"2009-05-22"
"72503794745","2020-04-02T13:56:00","FM-15","7",,,,,,,,,,,,,,,,,,,,,,,,,,,,,,,,,,,,,,"29.59","30","57","0.00",,,,"36","29.59","BKN:07 80","29.17","10.00","45","330","33","23",,,,,,,,,,,,,,,,,,,,,,,,,,,,,,,,,,,,,"MET12004/02/20 13:56:02 METAR KHPN 021856Z 33020G29KT 10SM BKN080 14/M01 A2959 RMK AO2 PK WND 31029/1834 SLP022 T01391011 (DM)","FM-15","7",,,,,,,,,,,,,,,,,,,,,,,,,,,,"2009-05-22"
"72503794745","2020-04-02T14:56:00","FM-15","7",,,,,,,,,,,,,,,,,,,,,,,,,,,,,,,,,,,,,,"29.57","29","55","0.00",,,,"37","29.58","BKN:07 90","29.15","10.00","44","320","34","23",,,,,,,,,,,,,,,,,,,,,,,,,,,,,,,,,,,,,"MET12004/02/20 14:56:02 METAR KHPN 021956Z 32020G30KT 10SM BKN090 13/M02 A2957 RMK AO2 PK WND 31033/1941 SLP017 T01281017 (DM)","FM-15","7",,,,,,,,,,,,,,,,,,,,,,,,,,,,"2009-05-22"
"72503794745","2020-04-02T15:56:00","FM-15","7",,,,,,,,,,,,,,,,,,,,,,,,,,,,,,,,,,,,,,"29.57","28","54","0.00",,"+0.03","6","37","29.58","SCT:04 60","29.15","10.00","43","320","36","24",,,,,,,,,,,,,,,,,,,,,,,,,,,,,,,,,,,,,"MET12604/02/20 15:56:02 METAR KHPN 022056Z 32021G31KT 10SM SCT060 12/M02 A2957 RMK AO2 PK WND 33035/2024 SLP017 T01221022 56010 (DM)","FM-15","7",,,,,,,,,,,,,,,,,,,,,,,,,,,,"2009-05-22"
"72503794745","2020-04-02T16:56:00","FM-15","7",,,,,,,,,,,,,,,,,,,,,,,,,,,,,,,,,,,,,,"29.58","28","53","0.00",,,,"38","29.59","SCT:04 60","29.16","10.00","42","330","31","24",,,,,,,,,,,,,,,,,,,,,,,,,,,,,,,,,,,,,"MET12004/02/20 16:56:02 METAR KHPN 022156Z 33021G27KT 10SM SCT060 12/M02 A2958 RMK AO2 PK WND 36038/2057 SLP021 T01171022 (DM)","FM-15","7",,,,,,,,,,,,,,,,,,,,,,,,,,,,"2009-05-22"
"72503794745","2020-04-02T17:56:00","FM-15","7",,,,,,,,,,,,,,,,,,,,,,,,,,,,,,,,,,,,,,"29.60","28","52","0.00",,,,"40","29.60","SCT:04 60","29.18","10.00","42","310","33","23",,,,,,,,,,,,,,,,,,,,,,,,,,,,,,,,,,,,,"MET12004/02/20 17:56:02 METAR KHPN 022256Z 31020G29KT 10SM SCT060 11/M02 A2960 RMK AO2 PK WND 32029/2248 SLP025 T01111022 (DM)","FM-15","7",,,,,,,,,,,,,,,,,,,,,,,,,,,,"2009-05-22"
"72503794745","2020-04-02T18:56:00","FM-15","7",,,,,,,,,,,,,,,,,,,,,,,,,,,,,,,,,,,,,,"29.61","29","50","0.00",,"-0.03","3","44","29.62","FEW:02 60","29.19","10.00","41","310","28","20",,,,,,,,,,,,,,,,,,,,,,,,,,,,,,,,,,,,,"MET13804/02/20 18:56:02 METAR KHPN 022356Z 31017G24KT 10SM FEW060 10/M02 A2961 RMK AO2 PK WND 32030/2326 SLP029 T01001017 10139 20100 53011 (DM)","FM-15","7",,,,,,,,,,,,,,,,,,,,,,,,,,,,"2009-05-22"
"72503794745","2020-04-02T19:56:00","FM-15","7",,,,,,,,,,,,,,,,,,,,,,,,,,,,,,,,,,,,,,"29.62","29","49","0.00",,,,"46","29.63","CLR:00","29.20","10.00","41","310","24","17",,,,,,,,,,,,,,,,,,,,,,,,,,,,,,,,,,,,,"MET11204/02/20 19:56:01 METAR KHPN 030056Z 31015G21KT 10SM CLR 09/M02 A2962 RMK AO2 PK WND 33027/0011 SLP034 T00941017","FM-15","7",,,,,,,,,,,,,,,,,,,,,,,,,,,,"2009-05-22"
"72503794745","2020-04-02T20:56:00","FM-15","7",,,,,,,,,,,,,,,,,,,,,,,,,,,,,,,,,,,,,,"29.62","28","49","T","-DZ:01 |DZ |DZ",,,"44","29.62","FEW:02 55 BKN:07 70 OVC:08 90","29.20","10.00","40","320","28","17",,,,,,,,,,,,,,,,,,,,,,,,,,,,,,,,,,,,,"MET12704/02/20 20:56:01 METAR KHPN 030156Z 32015G24KT 10SM -DZ FEW055 BKN070 OVC090 09/M02 A2962 RMK AO2 DZB54 SLP031 P0000 T00941022","FM-15","7",,,,,,,,,,,,,,,,,,,,,,,,,,,,"2009-05-22"
"72503794745","2020-04-02T21:56:00","FM-15","7",,,,,,,,,,,,,,,,,,,,,,,,,,,,,,,,,,,,,,"29.61","29","48","T","-DZ:01 |DZ |DZ","+0.00","8","48","29.61","FEW:02 55 OVC:08 70","29.19","10.00","40","350","33","16",,,,,,,,,,,,,,,,,,,,,,,,,,,,,,,,,,,,,"MET14404/02/20 21:56:01 METAR KHPN 030256Z 35014G29KT 10SM -DZ FEW055 OVC070 09/M02 A2961 RMK AO2 PK WND 35032/0243 SLP028 P0000 60000 T00891017 58000","FM-15","7",,,,,,,,,,,,,,,,,,,,,,,,,,,,"2009-05-22"
"72503794745","2020-04-02T22:56:00","FM-15","7",,,,,,,,,,,,,,,,,,,,,,,,,,,,,,,,,,,,,,"29.61","33","45","T","-DZ:01 |DZ |DZ",,,"63","29.61","OVC:08 55","29.19","10.00","40","330","26","21",,,,,,,,,,,,,,,,,,,,,,,,,,,,,,,,,,,,,"MET12404/02/20 22:56:02 METAR KHPN 030356Z 33018G23KT 10SM -DZ OVC055 07/01 A2961 RMK AO2 PK WND 34028/0318 SLP028 P0000 T00720006","FM-15","7",,,,,,,,,,,,,,,,,,,,,,,,,,,,"2009-05-22"
"72503794745","2020-04-02T23:56:00","FM-15","7",,,,,,,,,,,,,,,,,,,,,,,,,,,,,,,,,,,,,,"29.59","34","44","T","-DZ:01 |DZ |DZ",,,"68","29.59","OVC:08 50","29.17","10.00","40","320",,"15",,,,,,,,,,,,,,,,,,,,,,,,,,,,,,,,,,,,,"MET11304/02/20 23:56:02 METAR KHPN 030456Z 32013KT 10SM -DZ OVC050 07/01 A2959 RMK AO2 SLP022 P0000 T00670011 401390022","FM-15","7",,,,,,,,,,,,,,,,,,,,,,,,,,,,"2009-05-22"
"72503794745","2020-04-02T23:59:00","SOD  ","6",,,,,,,,,,,,,,,,"47",,,"29.24",,"19.1","0","3.1","18","57","36","360","44","T",,,"330","35","DZ",,,,,,,,,,,,,,,,,,,,,,,,,,,,,,,,,,,,,,,,,,,,,,,,,,,,,,,,"SOD72724 HR PRECIPITATION (IN):T     24 HR MAX TEMP (F):57 24 HR MAX TEMP TIME (LST):1409 24 HR MIN TEMP (F):36 24 HR MIN TEMP TIME (LST):0555 AVERAGE STATION PRESSURE:29.240 MINIMUM SEA LEVEL PRESSURE:29.58 TIME OF OCCURRENCE:1630 PEAK WIND SPEED (MPH):44  PEAK WIND DIR (DEG):360 PEAK WIND TIME (LST):1557  FASTEST 2MIN SPEED (MPH):35 FASTEST 2MIN DIR (DEG):330 FASTEST 2MIN TIME (LST):1525 AVERAGE WIND SPEED (MPH):19.1 24 HR AVG TEMP (F):47 HEATING DEGREE DAYS:18  COOLING DEGREE DAYS:0   LATEST DAY MAX TEMP (0700-1900 LST):57  LATEST NIGHT MIN TEMP(1900-0800 LST):36 HOURLY INCREMENTAL PRECIPITATION VALUES (IN):.00 0.00 0.00 0.00 0.00 0.00 0.00 0.00 0.00 0.00 0.00 0.00 0.00 0.00 0.00 0.00 0.00 0.00 0.00 0.00 T    T    T    T","SOD  ","6",,,,,,,,,,,,,,,,,,,,,,,,,"0535","1822",,"2009-05-22"
"72503794745","2020-04-03T00:56:00","FM-15","7",,,,,,,,,,,,,,,,,,,,,,,,,,,,,,,,,,,,,,"29.58","33","45","T","-DZ:01 |DZ |DZ","+0.03","8","63","29.58","BKN:07 60 OVC:08 95","29.16","10.00","40","330",,"15",,,,,,,,,,,,,,,,,,,,,,,,,,,,,,,,,,,,,"MET13904/03/20 00:56:02 METAR KHPN 030556Z 33013KT 10SM -DZ BKN060 OVC095 07/01 A2958 RMK AO2 SLP017 P0000 60000 T00720006 10100 20067 58009 (RV)","FM-15","7",,,,,,,,,,,,,,,,,,,,,,,,,,,,"2009-05-22"
"72503794745","2020-04-03T01:56:00","FM-15","7",,,,,,,,,,,,,,,,,,,,,,,,,,,,,,,,,,,,,,"29.57","33","44","T","-DZ:01 |DZ |DZ",,,"65","29.57","BKN:07 55 OVC:08 75","29.15","10.00","39","340",,"15",,,,,,,,,,,,,,,,,,,,,,,,,,,,,,,,,,,,,"MET11504/03/20 01:56:02 METAR KHPN 030656Z 34013KT 10SM -DZ BKN055 OVC075 07/01 A2957 RMK AO2 SLP014 P0000 T00670006 (RV)","FM-15","7",,,,,,,,,,,,,,,,,,,,,,,,,,,,"2009-05-22"
"72503794745","2020-04-03T02:56:00","FM-15","7",,,,,,,,,,,,,,,,,,,,,,,,,,,,,,,,,,,,,,"29.56","34","43","T","-RA:02 |RA |RA",,,"71","29.57","FEW:02 60 OVC:08 75","29.14","10.00","39","340",,"16",,,,,,,,,,,,,,,,,,,,,,,,,,,,,,,,,,,,,"MET12604/03/20 02:56:02 METAR KHPN 030756Z 34014KT 10SM -RA FEW060 OVC075 06/01 A2956 RMK AO2 DZE52RAB55 SLP012 P0000 T00610011 (RV)","FM-15","7",,,,,,,,,,,,,,,,,,,,,,,,,,,,"2009-05-22"
"72503794745","2020-04-03T03:56:00","FM-15","7",,,,,,,,,,,,,,,,,,,,,,,,,,,,,,,,,,,,,,"29.57","35","42","T","-RA:02 |RA |RA","+0.01","5","76","29.58","OVC:08 45","29.15","10.00","39","330",,"15",,,,,,,,,,,,,,,,,,,,,,,,,,,,,,,,,,,,,"MET12004/03/20 03:56:02 METAR KHPN 030856Z 33013KT 10SM -RA OVC045 06/02 A2957 RMK AO2 SLP016 P0000 60000 T00560017 55003 (RV)","FM-15","7",,,,,,,,,,,,,,,,,,,,,,,,,,,,"2009-05-22"
"72503794745","2020-04-03T04:56:00","FM-15","7",,,,,,,,,,,,,,,,,,,,,,,,,,,,,,,,,,,,,,"29.59","36","42","T","-RA:02 |RA |RA",,,"79","29.59","OVC:08 41","29.17","10.00","39","330","22","14",,,,,,,,,,,,,,,,,,,,,,,,,,,,,,,,,,,,,"MET11104/03/20 04:56:02 METAR KHPN 030956Z 33012G19KT 10SM -RA OVC041 06/02 A2959 RMK AO2 SLP022 P0000 T00560022 (RV)","FM-15","7",,,,,,,,,,,,,,,,,,,,,,,,,,,,"2009-05-22"
"72503794745","2020-04-03T05:56:00","FM-15","7",,,,,,,,,,,,,,,,,,,,,,,,,,,,,,,,,,,,,,"29.61","36","41","0.01","-RA:02 |RA |RA",,,"82","29.62","FEW:02 27 OVC:08 42","29.19","10.00","39","320","25","17",,,,,,,,,,,,,,,,,,,,,,,,,,,,,,,,,,,,,"MET11804/03/20 05:56:02 METAR KHPN 031056Z 32015G22KT 10SM -RA FEW027 OVC042 05/02 A2961 RMK AO2 SLP029 P0001 T00500022 (RV)","FM-15","7",,,,,,,,,,,,,,,,,,,,,,,,,,,,"2009-05-22"
"72503794745","2020-04-03T06:56:00","FM-15","7",,,,,,,,,,,,,,,,,,,,,,,,,,,,,,,,,,,,,,"29.62","37","41","0.01",,"-0.05","1","86","29.62","FEW:02 10 BKN:07 34","29.20","10.00","39","330",,"20",,,,,,,,,,,,,,,,,,,,,,,,,,,,,,,,,,,,,"MET14704/03/20 06:56:02 METAR KHPN 031156Z 33017KT 10SM FEW010 BKN034 05/03 A2962 RMK AO2 RAE42 SLP032 P0001 60002 70002 T00500028 10072 20050 51016 (RV)","FM-15","7",,,,,,,,,,,,,,,,,,,,,,,,,,,,"2009-05-22"
"72503794745","2020-04-03T07:56:00","FM-15","7",,,,,,,,,,,,,,,,,,,,,,,,,,,,,,,,,,,,,,"29.62","38","43","T",,,,"82","29.62","FEW:02 10 OVC:08 50","29.20","8.00","41","330","29","21",,,,,,,,,,,,,,,,,,,,,,,,,,,,,,,,,,,,,"MET14004/03/20 07:56:02 METAR KHPN 031256Z 33018G25KT 8SM FEW010 OVC050 06/03 A2962 RMK AO2 PK WND 33026/1242 RAB31E51 SLP032 P0000 T00610033 (RV)","FM-15","7",,,,,,,,,,,,,,,,,,,,,,,,,,,,"2009-05-22"
"72503794745","2020-04-03T08:56:00","FM-15","7",,,,,,,,,,,,,,,,,,,,,,,,,,,,,,,,,,,,,,"29.63","38","44","0.00",,,,"79","29.64","FEW:02 19 BKN:07 50","29.21","10.00","41","330","32","26",,,,,,,,,,,,,,,,,,,,,,,,,,,,,,,,,,,,,"MET12604/03/20 08:56:02 METAR KHPN 031356Z 33023G28KT 10SM FEW019 BKN050 07/03 A2963 RMK AO2 PK WND 33029/1336 SLP037 T00670033 (RV)","FM-15","7",,,,,,,,,,,,,,,,,,,,,,,,,,,,"2009-05-22"
"72503794745","2020-04-03T09:54:00","FM-16","6",,,,,,,,,,,,,,,,,,,,,,,,,,,,,,,,,,,,,,"29.65","39","45",,"-RA:02 |RA |RA",,,"81",,"SCT:04 19 BKN:07 24 OVC:08 70","29.23","8.00","42","330","26","16",,,,,,,,,,,,,,,,,,,,,,,,,,,,,,,,,,,,,"MET13604/03/20 09:54:02 SPECI KHPN 031454Z 33014G23KT 8SM -RA SCT019 BKN024 OVC070 07/04 A2965 RMK AO2 PK WND 33028/1410 RAB35 P0000 FIBI (RV)","FM-16","6",,,,,,,,,,,,,,,,,,,,,,,,,,,,"2009-05-22"
"72503794745","2020-04-03T09:56:00","FM-15","7",,,,,,,,,,,,,,,,,,,,,,,,,,,,,,,,,,,,,,"29.65","39","44","T","-RA:02 |RA |RA","-0.03","3","83","29.65","SCT:04 19 BKN:07 24 OVC:08 70","29.23","8.00","42","330","30","22",,,,,,,,,,,,,,,,,,,,,,,,,,,,,,,,,,,,,"MET16004/03/20 09:56:02 METAR KHPN 031456Z 33019G26KT 8SM -RA SCT019 BKN024 OVC070 07/04 A2965 RMK AO2 PK WND 33028/1410 RAB35 SLP042 P0000 60000 T00670039 53010 (RV)","FM-15","7",,,,,,,,,,,,,,,,,,,,,,,,,,,,"2009-05-22"
"72503794745","2020-04-03T10:54:00","FM-16","6",,,,,,,,,,,,,,,,,,,,,,,,,,,,,,,,,,,,,,"29.64","41","46",,,,,"82",,"SCT:04 55 BKN:07 70","29.22","10.00","44","330","31","21",,,,,,,,,,,,,,,,,,,,,,,,,,,,,,,,,,,,,"MET12804/03/20 10:54:02 SPECI KHPN 031554Z 33018G27KT 10SM SCT055 BKN070 08/05 A2964 RMK AO2 PK WND 32027/1554 RAE52 P0000 $ FIBI (RV)","FM-16","6",,,,,,,,,,,,,,,,,,,,,,,,,,,,"2009-05-22"
"72503794745","2020-04-03T10:56:00","FM-15","7",,,,,,,,,,,,,,,,,,,,,,,,,,,,,,,,,,,,,,"29.65","40","46","0.01",,,,"79","29.65","SCT:04 55 BKN:07 70","29.23","10.00","43","330","31","23",,,,,,,,,,,,,,,,,,,,,,,,,,,,,,,,,,,,,"MET14004/03/20 10:56:02 METAR KHPN 031556Z 33020G27KT 10SM SCT055 BKN070 08/04 A2965 RMK AO2 PK WND 32027/1554 RAE52 SLP042 P0000 T00780044 $ (RV)","FM-15","7",,,,,,,,,,,,,,,,,,,,,,,,,,,,"2009-05-22"
"72503794745","2020-04-03T11:54:00","FM-16","6",,,,,,,,,,,,,,,,,,,,,,,,,,,,,,,,,,,,,,"29.65","39","46",,,,,"76",,"BKN:07 23 BKN:07 31 OVC:08 49","29.23","10.00","43","340","31","25",,,,,,,,,,,,,,,,,,,,,,,,,,,,,,,,,,,,,"MET12904/03/20 11:54:02 SPECI KHPN 031654Z 34022G27KT 10SM BKN023 BKN031 OVC049 08/04 A2965 RMK AO2 PK WND 33029/1630 P0001 $ FIBI (DM)","FM-16","6",,,,,,,,,,,,,,,,,,,,,,,,,,,,"2009-05-22"
"72503794745","2020-04-03T11:56:00","FM-15","7",,,,,,,,,,,,,,,,,,,,,,,,,,,,,,,,,,,,,,"29.65","40","47","0.00",,,,"77","29.66","BKN:07 23 BKN:07 31 OVC:08 49","29.23","10.00","44","340","31","23",,,,,,,,,,,,,,,,,,,,,,,,,,,,,,,,,,,,,"MET14104/03/20 11:56:02 METAR KHPN 031656Z 34020G27KT 10SM BKN023 BKN031 OVC049 08/04 A2965 RMK AO2 PK WND 33029/1630 SLP043 P0001 T00830044 $ (DM)","FM-15","7",,,,,,,,,,,,,,,,,,,,,,,,,,,,"2009-05-22"
"72503794745","2020-04-03T12:56:00","FM-15","7",,,,,,,,,,,,,,,,,,,,,,,,,,,,,,,,,,,,,,"29.66","41","47","0.00",,"-0.01","3","80","29.66","BKN:07 23 BKN:07 29 OVC:08 55","29.23","10.00","44","340","32","22",,,,,,,,,,,,,,,,,,,,,,,,,,,,,,,,,,,,,"MET15904/03/20 12:56:02 METAR KHPN 031756Z 34019G28KT 10SM BKN023 BKN029 OVC055 08/05 A2966 RMK AO2 PK WND 32028/1752 SLP045 60001 T00830050 10089 20050 53003 $ (DM)","FM-15","7",,,,,,,,,,,,,,,,,,,,,,,,,,,,"2009-05-22"
"72503794745","2020-04-03T13:56:00","FM-15","7",,,,,,,,,,,,,,,,,,,,,,,,,,,,,,,,,,,,,,"29.66","41","49","T","-RA:02 |RA |RA",,,"74","29.67","BKN:07 25 OVC:08 33","29.23","10.00","45","340","24","15",,,,,,,,,,,,,,,,,,,,,,,,,,,,,,,,,,,,,"MET14404/03/20 13:56:02 METAR KHPN 031856Z 34013G21KT 10SM -RA BKN025 OVC033 09/05 A2966 RMK AO2 PK WND 35027/1801 RAB56 SLP046 P0000 T00940050 $ (DM)","FM-15","7",,,,,,,,,,,,,,,,,,,,,,,,,,,,"2009-05-22"
"72503794745","2020-04-03T14:56:00","FM-15","7",,,,,,,,,,,,,,,,,,,,,,,,,,,,,,,,,,,,,,"29.68","41","49","T",,,,"74","29.68","BKN:07 25","29.26","10.00","45","350","24","16",,,,,,,,,,,,,,,,,,,,,,,,,,,,,,,,,,,,,"MET13304/03/20 14:56:02 METAR KHPN 031956Z 35014G21KT 10SM BKN025 09/05 A2968 RMK AO2 PK WND 33027/1926 RAE52 SLP052 P0000 T00940050 $ (DM)","FM-15","7",,,,,,,,,,,,,,,,,,,,,,,,,,,,"2009-05-22"
"72503794745","2020-04-03T15:56:00","FM-15","7",,,,,,,,,,,,,,,,,,,,,,,,,,,,,,,,,,,,,,"29.70","42","50","0.00",,"-0.05","3","74","29.71","BKN:07 24 OVC:08 30","29.28","10.00","46","340","28","17",,,,,,,,,,,,,,,,,,,,,,,,,,,,,,,,,,,,,"MET14004/03/20 15:56:02 METAR KHPN 032056Z 34015G24KT 10SM BKN024 OVC030 10/06 A2970 RMK AO2 PK WND 34029/2026 SLP061 60000 T01000056 53016 $ (MM)","FM-15","7",,,,,,,,,,,,,,,,,,,,,,,,,,,,"2009-05-22"
"72503794745","2020-04-03T16:54:00","FM-16","6",,,,,,,,,,,,,,,,,,,,,,,,,,,,,,,,,,,,,,"29.73","43","50",,,,,"76",,"FEW:02 19 BKN:07 30 OVC:08 38","29.31","10.00","47","350","24","15",,,,,,,,,,,,,,,,,,,,,,,,,,,,,,,,,,,,,"MET12304/03/20 16:54:02 SPECI KHPN 032154Z 35013G21KT 10SM FEW019 BKN030 OVC038 10/06 A2973 RMK AO2 PK WND 33026/2115 $ FIBI (MM)","FM-16","6",,,,,,,,,,,,,,,,,,,,,,,,,,,,"2009-05-22"
"72503794745","2020-04-03T16:56:00","FM-15","7",,,,,,,,,,,,,,,,,,,,,,,,,,,,,,,,,,,,,,"29.74","42","50","0.00",,,,"74","29.74","SCT:04 22 BKN:07 28 OVC:08 38","29.31","10.00","46","350","25","18",,,,,,,,,,,,,,,,,,,,,,,,,,,,,,,,,,,,,"MET13504/03/20 16:56:02 METAR KHPN 032156Z 35016G22KT 10SM SCT022 BKN028 OVC038 10/06 A2974 RMK AO2 PK WND 33026/2115 SLP072 T01000056 $ (MM)","FM-15","7",,,,,,,,,,,,,,,,,,,,,,,,,,,,"2009-05-22"
"72503794745","2020-04-03T17:54:00","FM-16","6",,,,,,,,,,,,,,,,,,,,,,,,,,,,,,,,,,,,,,"29.77","43","48",,,,,"82",,"FEW:02 18 BKN:07 31","29.34","10.00","46","350",,"16",,,,,,,,,,,,,,,,,,,,,,,,,,,,,,,,,,,,,"MET11004/03/20 17:54:02 SPECI KHPN 032254Z 35014KT 10SM FEW018 BKN031 09/06 A2977 RMK AO2 DZB20E52 P0000 $ FIBI (MM)","FM-16","6",,,,,,,,,,,,,,,,,,,,,,,,,,,,"2009-05-22"
"72503794745","2020-04-03T17:56:00","FM-15","7",,,,,,,,,,,,,,,,,,,,,,,,,,,,,,,,,,,,,,"29.77","43","49","T",,,,"80","29.78","FEW:02 18 BKN:07 31","29.34","10.00","46","340",,"17",,,,,,,,,,,,,,,,,,,,,,,,,,,,,,,,,,,,,"MET12204/03/20 17:56:02 METAR KHPN 032256Z 34015KT 10SM FEW018 BKN031 09/06 A2977 RMK AO2 DZB20E52 SLP084 P0000 T00940061 $ (MM)","FM-15","7",,,,,,,,,,,,,,,,,,,,,,,,,,,,"2009-05-22"
"72503794745","2020-04-03T18:54:00","FM-16","6",,,,,,,,,,,,,,,,,,,,,,,,,,,,,,,,,,,,,,"29.80","43","48",,,,,"82",,"BKN:07 25 BKN:07 35","29.37","10.00","46","350",,"14",,,,,,,,,,,,,,,,,,,,,,,,,,,,,,,,,,,,,"MET09504/03/20 18:54:02 SPECI KHPN 032354Z 35012KT 10SM BKN025 BKN035 09/06 A2980 RMK AO2 $ FIBI (MM)","FM-16","6",,,,,,,,,,,,,,,,,,,,,,,,,,,,"2009-05-22"
"72503794745","2020-04-03T18:56:00","FM-15","7",,,,,,,,,,,,,,,,,,,,,,,,,,,,,,,,,,,,,,"29.80","43","49","0.00",,"-0.10","3","80","29.81","BKN:07 25 BKN:07 35","29.37","10.00","46","360",,"13",,,,,,,,,,,,,,,,,,,,,,,,,,,,,,,,,,,,,"MET13104/03/20 18:56:02 METAR KHPN 032356Z 36011KT 10SM BKN025 BKN035 09/06 A2980 RMK AO2 SLP095 60000 T00940061 10100 20083 53033 $ (MM)","FM-15","7",,,,,,,,,,,,,,,,,,,,,,,,,,,,"2009-05-22"
"72503794745","2020-04-03T19:54:00","FM-16","6",,,,,,,,,,,,,,,,,,,,,,,,,,,,,,,,,,,,,,"29.82","43","48",,,,,"82",,"BKN:07 32 OVC:08 60","29.39","10.00","46","350","21","14",,,,,,,,,,,,,,,,,,,,,,,,,,,,,,,,,,,,,"MET09804/03/20 19:54:03 SPECI KHPN 040054Z 35012G18KT 10SM BKN032 OVC060 09/06 A2982 RMK AO2 $ FIBI (MM)","FM-16","6",,,,,,,,,,,,,,,,,,,,,,,,,,,,"2009-05-22"
"72503794745","2020-04-03T19:56:00","FM-15","7",,,,,,,,,,,,,,,,,,,,,,,,,,,,,,,,,,,,,,"29.82","42","48","0.00",,,,"80","29.83","BKN:07 32 OVC:08 60","29.39","10.00","45","350",,"11",,,,,,,,,,,,,,,,,,,,,,,,,,,,,,,,,,,,,"MET10204/03/20 19:56:01 METAR KHPN 040056Z 35010KT 10SM BKN032 OVC060 09/06 A2982 RMK AO2 SLP102 T00890056 $","FM-15","7",,,,,,,,,,,,,,,,,,,,,,,,,,,,"2009-05-22"
"72503794745","2020-04-03T20:54:00","FM-16","6",,,,,,,,,,,,,,,,,,,,,,,,,,,,,,,,,,,,,,"29.85","41","48",,,,,"76",,"BKN:07 28 OVC:08 34","29.42","10.00","45","360",,"13",,,,,,,,,,,,,,,,,,,,,,,,,,,,,,,,,,,,,"MET11304/03/20 20:54:03 SPECI KHPN 040154Z 36011KT 10SM BKN028 OVC034 09/05 A2985 RMK AO2 PK WND 01026/0125 $ FIBI (MM)","FM-16","6",,,,,,,,,,,,,,,,,,,,,,,,,,,,"2009-05-22"
"72503794745","2020-04-03T20:56:00","FM-15","7",,,,,,,,,,,,,,,,,,,,,,,,,,,,,,,,,,,,,,"29.85","42","48","T","-DZ:01 |DZ |DZ",,,"80","29.85","BKN:07 28 OVC:08 33","29.42","10.00","45","360",,"11",,,,,,,,,,,,,,,,,,,,,,,,,,,,,,,,,,,,,"MET13604/03/20 20:56:01 METAR KHPN 040156Z 36010KT 10SM -DZ BKN028 OVC033 09/06 A2985 RMK AO2 PK WND 01026/0125 DZB56 SLP110 P0000 T00890056 $","FM-15","7",,,,,,,,,,,,,,,,,,,,,,,,,,,,"2009-05-22"
"72503794745","2020-04-03T21:56:00","FM-15","7",,,,,,,,,,,,,,,,,,,,,,,,,,,,,,,,,,,,,,"29.85","40","48","T","-DZ:01 |DZ |DZ","-0.05","1","74","29.86","BKN:07 28 OVC:08 33","29.42","10.00","44","360","18","8",,,,,,,,,,,,,,,,,,,,,,,,,,,,,,,,,,,,,"MET12704/03/20 21:56:01 METAR KHPN 040256Z 36007G16KT 10SM -DZ BKN028 OVC033 09/04 A2985 RMK AO2 SLP112 P0000 60000 T00890044 51017 $","FM-15","7",,,,,,,,,,,,,,,,,,,,,,,,,,,,"2009-05-22"
"72503794745","2020-04-03T22:56:00","FM-15","7",,,,,,,,,,,,,,,,,,,,,,,,,,,,,,,,,,,,,,"29.86","40","48","T",,,,"74","29.86","BKN:07 28","29.43","10.00","44","020","21","15",,,,,,,,,,,,,,,,,,,,,,,,,,,,,,,,,,,,,"MET11004/03/20 22:56:02 METAR KHPN 040356Z 02013G18KT 10SM BKN028 09/04 A2986 RMK AO2 DZE30 SLP113 P0000 T00890044 $","FM-15","7",,,,,,,,,,,,,,,,,,,,,,,,,,,,"2009-05-22"
"72503794745","2020-04-03T23:56:00","FM-15","7",,,,,,,,,,,,,,,,,,,,,,,,,,,,,,,,,,,,,,"29.86","39","48","T","-DZ:01 |DZ |DZ",,,"71","29.87","BKN:07 27","29.43","10.00","44","020",,"10",,,,,,,,,,,,,,,,,,,,,,,,,,,,,,,,,,,,,"MET12104/03/20 23:56:02 METAR KHPN 040456Z 02009KT 10SM -DZ BKN027 09/04 A2986 RMK AO2 DZB26 SLP115 P0000 T00890039 401000050 $","FM-15","7",,,,,,,,,,,,,,,,,,,,,,,,,,,,"2009-05-22"
"72503794745","2020-04-03T23:59:00","SOD  ","6",,,,,,,,,,,,,,,,"46",,,"29.23",,"16.7","0","1.8","19","50","41","340","34","0.03",,,"330","26","RA DZ",,,,,,,,,,,,,,,,,,,,,,,,,,,,,,,,,,,,,,,,,,,,,,,,,,,,,,,,"SOD72724 HR PRECIPITATION (IN):0.03  24 HR MAX TEMP (F):50 24 HR MAX TEMP TIME (LST):1705 24 HR MIN TEMP (F):41 24 HR MIN TEMP TIME (LST):0700 AVERAGE STATION PRESSURE:29.235 MINIMUM SEA LEVEL PRESSURE:29.57 TIME OF OCCURRENCE:0355 PEAK WIND SPEED (MPH):34  PEAK WIND DIR (DEG):340 PEAK WIND TIME (LST):1526  FASTEST 2MIN SPEED (MPH):26 FASTEST 2MIN DIR (DEG):330 FASTEST 2MIN TIME (LST):1138 AVERAGE WIND SPEED (MPH):16.7 24 HR AVG TEMP (F):46 HEATING DEGREE DAYS:19  COOLING DEGREE DAYS:0   LATEST DAY MAX TEMP (0700-1900 LST):50  LATEST NIGHT MIN TEMP(1900-0800 LST):41 HOURLY INCREMENTAL PRECIPITATION VALUES (IN):    T    T    T    T    0.01 0.01 T    0.00 T    0.01 0.00 0.00 T    T    0.00 0.00 T    0.00 0.00 T    T    T    T","SOD  ","6",,,,,,,,,,,,,,,,,,,,,,,,,"0534","1823",,"2009-05-22"
"72503794745","2020-04-04T00:56:00","FM-15","7",,,,,,,,,,,,,,,,,,,,,,,,,,,,,,,,,,,,,,"29.86","40","47","T","-DZ:01 |DZ |DZ","-0.01","1","77","29.87","BKN:07 27","29.43","10.00","44","020",,"8",,,,,,,,,,,,,,,,,,,,,,,,,,,,,,,,,,,,,"MET12904/04/20 00:56:02 METAR KHPN 040556Z 02007KT 10SM -DZ BKN027 08/04 A2986 RMK AO2 SLP116 P0000 60000 T00830044 10094 20083 51004 $","FM-15","7",,,,,,,,,,,,,,,,,,,,,,,,,,,,"2009-05-22"
"72503794745","2020-04-04T01:56:00","FM-15","7",,,,,,,,,,,,,,,,,,,,,,,,,,,,,,,,,,,,,,"29.86","40","47","T",,,,"77","29.87","OVC:08 24","29.43","10.00","44","020",,"10",,,,,,,,,,,,,,,,,,,,,,,,,,,,,,,,,,,,,"MET11204/04/20 01:56:02 METAR KHPN 040656Z 02009KT 10SM OVC024 08/04 A2986 RMK AO2 DZE49 SLP114 P0000 T00830044 $ (AF)","FM-15","7",,,,,,,,,,,,,,,,,,,,,,,,,,,,"2009-05-22"
"72503794745","2020-04-04T02:56:00","FM-15","7",,,,,,,,,,,,,,,,,,,,,,,,,,,,,,,,,,,,,,"29.87","40","47","0.00",,,,"77","29.88","OVC:08 22","29.44","10.00","44","020",,"6",,,,,,,,,,,,,,,,,,,,,,,,,,,,,,,,,,,,,"MET10004/04/20 02:56:02 METAR KHPN 040756Z 02005KT 10SM OVC022 08/04 A2987 RMK AO2 SLP119 T00830044 $ (AF)","FM-15","7",,,,,,,,,,,,,,,,,,,,,,,,,,,,"2009-05-22"
"72503794745","2020-04-04T03:56:00","FM-15","7",,,,,,,,,,,,,,,,,,,,,,,,,,,,,,,,,,,,,,"29.89","39","47","0.00",,"-0.03","3","74","29.90","OVC:08 22","29.46","10.00","43","VRB","17","7",,,,,,,,,,,,,,,,,,,,,,,,,,,,,,,,,,,,,"MET11504/04/20 03:56:02 METAR KHPN 040856Z VRB06G15KT 10SM OVC022 08/04 A2989 RMK AO2 SLP125 60000 T00830039 53010 $ (AF)","FM-15","7",,,,,,,,,,,,,,,,,,,,,,,,,,,,"2009-05-22"
"72503794745","2020-04-04T04:56:00","FM-15","7",,,,,,,,,,,,,,,,,,,,,,,,,,,,,,,,,,,,,,"29.92","39","45","0.00",,,,"80","29.93","OVC:08 27","29.49","10.00","42","040",,"6",,,,,,,,,,,,,,,,,,,,,,,,,,,,,,,,,,,,,"MET10004/04/20 04:56:02 METAR KHPN 040956Z 04005KT 10SM OVC027 07/04 A2992 RMK AO2 SLP135 T00720039 $ (AF)","FM-15","7",,,,,,,,,,,,,,,,,,,,,,,,,,,,"2009-05-22"
"72503794745","2020-04-04T05:56:00","FM-15","7",,,,,,,,,,,,,,,,,,,,,,,,,,,,,,,,,,,,,,"29.94","40","45","0.00",,,,"83","29.95","SCT:04 15 BKN:07 20 OVC:08 27","29.51","10.00","43","040",,"8",,,,,,,,,,,,,,,,,,,,,,,,,,,,,,,,,,,,,"MET11404/04/20 05:56:02 METAR KHPN 041056Z 04007KT 10SM SCT015 BKN020 OVC027 07/04 A2994 RMK AO2 SLP141 T00720044 $ (AF)","FM-15","7",,,,,,,,,,,,,,,,,,,,,,,,,,,,"2009-05-22"
"72503794745","2020-04-04T06:56:00","FM-15","7",,,,,,,,,,,,,,,,,,,,,,,,,,,,,,,,,,,,,,"29.97","39","45","T",,"-0.07","3","80","29.98","OVC:08 18","29.54","8.00","42","020",,"8",,,,,,,,,,,,,,,,,,,,,,,,,,,,,,,,,,,,,"MET12904/04/20 06:56:02 METAR KHPN 041156Z 02007KT 8SM OVC018 07/04 A2997 RMK AO2 SLP151 60000 70001 T00720039 10083 20072 53024 $ (AF)","FM-15","7",,,,,,,,,,,,,,,,,,,,,,,,,,,,"2009-05-22"
"72503794745","2020-04-04T07:56:00","FM-15","7",,,,,,,,,,,,,,,,,,,,,,,,,,,,,,,,,,,,,,"29.98","38","46","T",,,,"73","29.99","OVC:08 18","29.55","10.00","42","050",,"11",,,,,,,,,,,,,,,,,,,,,,,,,,,,,,,,,,,,,"MET11704/04/20 07:56:02 METAR KHPN 041256Z 05010KT 10SM OVC018 08/03 A2998 RMK AO2 DZB1157E51 SLP156 P0000 T00780033 $ (AF)","FM-15","7",,,,,,,,,,,,,,,,,,,,,,,,,,,,"2009-05-22"
"72503794745","2020-04-04T08:56:00","FM-15","7",,,,,,,,,,,,,,,,,,,,,,,,,,,,,,,,,,,,,,"30.00","39","47","0.00",,,,"74","30.01","BKN:07 22","29.57","10.00","43","010",,"10",,,,,,,,,,,,,,,,,,,,,,,,,,,,,,,,,,,,,"MET10004/04/20 08:56:02 METAR KHPN 041356Z 01009KT 10SM BKN022 08/04 A3000 RMK AO2 SLP163 T00830039 $ (AF)","FM-15","7",,,,,,,,,,,,,,,,,,,,,,,,,,,,"2009-05-22"
"72503794745","2020-04-04T09:56:00","FM-15","7",,,,,,,,,,,,,,,,,,,,,,,,,,,,,,,,,,,,,,"30.01","38","50","0.00",,"-0.04","1","63","30.01","BKN:07 22","29.58","10.00","44","VRB",,"8",,,,,,,,,,,,,,,,,,,,,,,,,,,,,,,,,,,,,"MET11204/04/20 09:56:02 METAR KHPN 041456Z 03007KT 10SM BKN022 10/03 A3001 RMK AO2 SLP164 60000 T01000033 51014 $ (AF)","FM-15","7",,,,,,,,,,,,,,,,,,,,,,,,,,,,"2009-05-22"
"72503794745","2020-04-04T10:56:00","FM-15","7",,,,,,,,,,,,,,,,,,,,,,,,,,,,,,,,,,,,,,"30.00","39","52","0.00",,,,"61","30.01","BKN:07 27","29.57","10.00","46","330",,"10",,,,,,,,,,,,,,,,,,,,,,,,,,,,,,,,,,,,,"MET09804/04/20 10:56:02 METAR KHPN 041556Z 33009KT 10SM BKN027 11/04 A3000 RMK AO2 SLP162 T01110039 (AB)","FM-15","7",,,,,,,,,,,,,,,,,,,,,,,,,,,,"2009-05-22"
"72503794745","2020-04-04T11:54:00","FM-16","6",,,,,,,,,,,,,,,,,,,,,,,,,,,,,,,,,,,,,,"29.99","37","55",,,,,"51",,"SCT:04 27","29.56","10.00","47","060",,"9",,,,,,,,,,,,,,,,,,,,,,,,,,,,,,,,,,,,,"MET08604/04/20 11:54:02 SPECI KHPN 041654Z 06008KT 10SM SCT027 13/03 A2999 RMK AO2 FIBI (AB)","FM-16","6",,,,,,,,,,,,,,,,,,,,,,,,,,,,"2009-05-22"
"72503794745","2020-04-04T11:56:00","FM-15","7",,,,,,,,,,,,,,,,,,,,,,,,,,,,,,,,,,,,,,"29.99","38","55","0.00",,,,"53","29.99","SCT:04 27","29.56","10.00","47","060",,"6",,,,,,,,,,,,,,,,,,,,,,,,,,,,,,,,,,,,,"MET09804/04/20 11:56:02 METAR KHPN 041656Z 06005KT 10SM SCT027 13/03 A2999 RMK AO2 SLP157 T01280033 (AB)","FM-15","7",,,,,,,,,,,,,,,,,,,,,,,,,,,,"2009-05-22"
"72503794745","2020-04-04T12:56:00","FM-15","7",,,,,,,,,,,,,,,,,,,,,,,,,,,,,,,,,,,,,,"29.98","40","55","0.00",,"+0.03","8","57","29.99","SCT:04 38","29.55","10.00","48","160",,"8",,,,,,,,,,,,,,,,,,,,,,,,,,,,,,,,,,,,,"MET12204/04/20 12:56:02 METAR KHPN 041756Z 16007KT 10SM SCT038 13/04 A2998 RMK AO2 SLP155 60000 T01280044 10133 20072 58009 (AB)","FM-15","7",,,,,,,,,,,,,,,,,,,,,,,,,,,,"2009-05-22"
"72503794745","2020-04-04T13:56:00","FM-15","7",,,,,,,,,,,,,,,,,,,,,,,,,,,,,,,,,,,,,,"29.97","39","53","0.00",,,,"59","29.98","SCT:04 43","29.54","10.00","46","140",,"11",,,,,,,,,,,,,,,,,,,,,,,,,,,,,,,,,,,,,"MET09804/04/20 13:56:02 METAR KHPN 041856Z 14010KT 10SM SCT043 12/04 A2997 RMK AO2 SLP151 T01170039 (AB)","FM-15","7",,,,,,,,,,,,,,,,,,,,,,,,,,,,"2009-05-22"
"72503794745","2020-04-04T14:56:00","FM-15","7",,,,,,,,,,,,,,,,,,,,,,,,,,,,,,,,,,,,,,"29.97","39","53","0.00",,,,"59","29.97","SCT:04 50","29.54","10.00","46","150",,"8",,,,,,,,,,,,,,,,,,,,,,,,,,,,,,,,,,,,,"MET09804/04/20 14:56:02 METAR KHPN 041956Z 15007KT 10SM SCT050 12/04 A2997 RMK AO2 SLP150 T01170039 (AB)","FM-15","7",,,,,,,,,,,,,,,,,,,,,,,,,,,,"2009-05-22"
"72503794745","2020-04-04T15:56:00","FM-15","7",,,,,,,,,,,,,,,,,,,,,,,,,,,,,,,,,,,,,,"29.96","38","54","0.00",,"+0.02","6","55","29.97","SCT:04 55","29.53","10.00","46","120",,"10",,,,,,,,,,,,,,,,,,,,,,,,,,,,,,,,,,,,,"MET10404/04/20 15:56:02 METAR KHPN 042056Z 12009KT 10SM SCT055 12/03 A2996 RMK AO2 SLP148 T01220033 56006 (AB)","FM-15","7",,,,,,,,,,,,,,,,,,,,,,,,,,,,"2009-05-22"
"72503794745","2020-04-04T16:56:00","FM-15","7",,,,,,,,,,,,,,,,,,,,,,,,,,,,,,,,,,,,,,"29.97","37","53","0.00",,,,"55","29.98","BKN:07 60","29.54","10.00","46","120",,"7",,,,,,,,,,,,,,,,,,,,,,,,,,,,,,,,,,,,,"MET09804/04/20 16:56:02 METAR KHPN 042156Z 12006KT 10SM BKN060 12/03 A2997 RMK AO2 SLP151 T01170028 (AB)","FM-15","7",,,,,,,,,,,,,,,,,,,,,,,,,,,,"2009-05-22"
"72503794745","2020-04-04T17:56:00","FM-15","7",,,,,,,,,,,,,,,,,,,,,,,,,,,,,,,,,,,,,,"29.99","36","52","0.00",,,,"55","29.99","BKN:07 60","29.56","10.00","45","130",,"8",,,,,,,,,,,,,,,,,,,,,,,,,,,,,,,,,,,,,"MET09804/04/20 17:56:02 METAR KHPN 042256Z 13007KT 10SM BKN060 11/02 A2999 RMK AO2 SLP156 T01110022 (AB)","FM-15","7",,,,,,,,,,,,,,,,,,,,,,,,,,,,"2009-05-22"
"72503794745","2020-04-04T18:56:00","FM-15","7",,,,,,,,,,,,,,,,,,,,,,,,,,,,,,,,,,,,,,"29.99","40","51","0.00",,"-0.03","1","66","30.00","BKN:07 70","29.56","10.00","46","160",,"6",,,,,,,,,,,,,,,,,,,,,,,,,,,,,,,,,,,,,"MET11604/04/20 18:56:02 METAR KHPN 042356Z 16005KT 10SM BKN070 11/04 A2999 RMK AO2 SLP159 T01060044 10133 20106 51009 (AB)","FM-15","7",,,,,,,,,,,,,,,,,,,,,,,,,,,,"2009-05-22"
"72503794745","2020-04-04T19:56:00","FM-15","7",,,,,,,,,,,,,,,,,,,,,,,,,,,,,,,,,,,,,,"30.00","40","49","0.00",,,,"71","30.01","SCT:04 50 BKN:07 70","29.57","10.00","45","180",,"5",,,,,,,,,,,,,,,,,,,,,,,,,,,,,,,,,,,,,"MET10004/04/20 19:56:01 METAR KHPN 050056Z 18004KT 10SM SCT050 BKN070 09/04 A3000 RMK AO2 SLP163 T00940044","FM-15","7",,,,,,,,,,,,,,,,,,,,,,,,,,,,"2009-05-22"
"72503794745","2020-04-04T20:56:00","FM-15","7",,,,,,,,,,,,,,,,,,,,,,,,,,,,,,,,,,,,,,"30.01","40","48","0.00",,,,"74","30.02","BKN:07 50 OVC:08 70","29.58","10.00","44","170",,"5",,,,,,,,,,,,,,,,,,,,,,,,,,,,,,,,,,,,,"MET10004/04/20 20:56:01 METAR KHPN 050156Z 17004KT 10SM BKN050 OVC070 09/04 A3001 RMK AO2 SLP166 T00890044","FM-15","7",,,,,,,,,,,,,,,,,,,,,,,,,,,,"2009-05-22"
"72503794745","2020-04-04T21:56:00","FM-15","7",,,,,,,,,,,,,,,,,,,,,,,,,,,,,,,,,,,,,,"30.02","40","46","0.00",,"-0.03","1","79","30.03","BKN:07 50 BKN:07 70","29.59","10.00","43","180",,"3",,,,,,,,,,,,,,,,,,,,,,,,,,,,,,,,,,,,,"MET10604/04/20 21:56:01 METAR KHPN 050256Z 18003KT 10SM BKN050 BKN070 08/04 A3002 RMK AO2 SLP169 T00780044 51009","FM-15","7",,,,,,,,,,,,,,,,,,,,,,,,,,,,"2009-05-22"
"72503794745","2020-04-04T22:56:00","FM-15","7",,,,,,,,,,,,,,,,,,,,,,,,,,,,,,,,,,,,,,"30.02","40","46","0.00",,,,"79","30.03","BKN:07 70","29.59","10.00","43","000",,"0",,,,,,,,,,,,,,,,,,,,,,,,,,,,,,,,,,,,,"MET09304/04/20 22:56:02 METAR KHPN 050356Z 00000KT 10SM BKN070 08/04 A3002 RMK AO2 SLP168 T00780044","FM-15","7",,,,,,,,,,,,,,,,,,,,,,,,,,,,"2009-05-22"
"72503794745","2020-04-04T23:56:00","FM-15","7",,,,,,,,,,,,,,,,,,,,,,,,,,,,,,,,,,,,,,"30.02","40","44","0.00",,,,"85","30.03","BKN:07 70","29.59","10.00","42","140",,"6",,,,,,,,,,,,,,,,,,,,,,,,,,,,,,,,,,,,,"MET10304/04/20 23:56:02 METAR KHPN 050456Z 14005KT 10SM BKN070 07/04 A3002 RMK AO2 SLP169 T00670044 401330067","FM-15","7",,,,,,,,,,,,,,,,,,,,,,,,,,,,"2009-05-22"
"72503794745","2020-04-04T23:59:00","SOD  ","6",,,,,,,,,,,,,,,,"50",,,"29.52",,"7.3","0","5.4","15","56","44","010","21","T",,,"010","15","DZ",,,,,,,,,,,,,,,,,,,,,,,,,,,,,,,,,,,,,,,,,,,,,,,,,,,,,,,,"SOD73024 HR PRECIPITATION (IN):T     24 HR MAX TEMP (F):56 24 HR MAX TEMP TIME (LST):1423 24 HR MIN TEMP (F):44 24 HR MIN TEMP TIME (LST):2359 AVERAGE STATION PRESSURE:29.520 MINIMUM SEA LEVEL PRESSURE:29.87 TIME OF OCCURRENCE:0224 PEAK WIND SPEED (MPH):21  PEAK WIND DIR (DEG):10  PEAK WIND TIME (LST):0002  FASTEST 2MIN SPEED (MPH):15 FASTEST 2MIN DIR (DEG):10  FASTEST 2MIN TIME (LST):0003 AVERAGE WIND SPEED (MPH):7.3  24 HR AVG TEMP (F):50 HEATING DEGREE DAYS:15  COOLING DEGREE DAYS:0   LATEST DAY MAX TEMP (0700-1900 LST):56  LATEST NIGHT MIN TEMP(1900-0800 LST):45 HOURLY INCREMENTAL PRECIPITATION VALUES (IN):    T    0.00 0.00 0.00 0.00 T    T    0.00 0.00 0.00 0.00 0.00 0.00 0.00 0.00 0.00 0.00 0.00 0.00 0.00 0.00 0.00 0.00","SOD  ","6",,,,,,,,,,,,,,,,,,,,,,,,,"0532","1824",,"2009-05-22"
"72503794745","2020-04-05T00:56:00","FM-15","7",,,,,,,,,,,,,,,,,,,,,,,,,,,,,,,,,,,,,,"30.02","41","44","0.00",,"+0.00","8","89","30.02","BKN:07 65","29.59","10.00","43","160",,"5",,,,,,,,,,,,,,,,,,,,,,,,,,,,,,,,,,,,,"MET11604/05/20 00:56:02 METAR KHPN 050556Z 16004KT 10SM BKN065 07/05 A3002 RMK AO2 SLP167 T00670050 10106 20067 58001 (TC)","FM-15","7",,,,,,,,,,,,,,,,,,,,,,,,,,,,"2009-05-22"
"72503794745","2020-04-05T01:54:00","FM-16","6",,,,,,,,,,,,,,,,,,,,,,,,,,,,,,,,,,,,,,"30.01","41","45",,,,,"87",,"FEW:02 7 BKN:07 65","29.58","10.00","43","130",,"3",,,,,,,,,,,,,,,,,,,,,,,,,,,,,,,,,,,,,"MET09304/05/20 01:54:02 SPECI KHPN 050654Z 13003KT 10SM FEW007 BKN065 07/05 A3001 RMK AO2 FIBI (TC)","FM-16","6",,,,,,,,,,,,,,,,,,,,,,,,,,,,"2009-05-22"
"72503794745","2020-04-05T01:56:00","FM-15","7",,,,,,,,,,,,,,,,,,,,,,,,,,,,,,,,,,,,,,"30.01","41","44","0.00",,,,"89","30.01","FEW:02 7 BKN:07 65","29.58","10.00","43","130",,"3",,,,,,,,,,,,,,,,,,,,,,,,,,,,,,,,,,,,,"MET10504/05/20 01:56:02 METAR KHPN 050656Z 13003KT 10SM FEW007 BKN065 07/05 A3001 RMK AO2 SLP164 T00670050 (TC)","FM-15","7",,,,,,,,,,,,,,,,,,,,,,,,,,,,"2009-05-22"
"72503794745","2020-04-05T02:56:00","FM-15","7",,,,,,,,,,,,,,,,,,,,,,,,,,,,,,,,,,,,,,"30.01","40","43","0.00",,,,"89","30.02","SCT:04 12","29.58","10.00","42","130",,"3",,,,,,,,,,,,,,,,,,,,,,,,,,,,,,,,,,,,,"MET09804/05/20 02:56:02 METAR KHPN 050756Z 13003KT 10SM SCT012 06/04 A3001 RMK AO2 SLP167 T00610044 (TC)","FM-15","7",,,,,,,,,,,,,,,,,,,,,,,,,,,,"2009-05-22"
"72503794745","2020-04-05T03:54:00","FM-16","6",,,,,,,,,,,,,,,,,,,,,,,,,,,,,,,,,,,,,,"30.01","41","43",,,,,"93",,"OVC:08 5","29.58","10.00","42","130",,"3",,,,,,,,,,,,,,,,,,,,,,,,,,,,,,,,,,,,,"MET08604/05/20 03:54:02 SPECI KHPN 050854Z 13003KT 10SM OVC005 06/05 A3001 RMK AO2 FIBI (TC)","FM-16","6",,,,,,,,,,,,,,,,,,,,,,,,,,,,"2009-05-22"
"72503794745","2020-04-05T03:56:00","FM-15","7",,,,,,,,,,,,,,,,,,,,,,,,,,,,,,,,,,,,,,"30.01","41","43","0.00",,"+0.00","6","93","30.02","OVC:08 5","29.58","10.00","42","130",,"5",,,,,,,,,,,,,,,,,,,,,,,,,,,,,,,,,,,,,"MET10404/05/20 03:56:02 METAR KHPN 050856Z 13004KT 10SM OVC005 06/05 A3001 RMK AO2 SLP166 T00610050 56001 (TC)","FM-15","7",,,,,,,,,,,,,,,,,,,,,,,,,,,,"2009-05-22"
"72503794745","2020-04-05T04:56:00","FM-15","7",,,,,,,,,,,,,,,,,,,,,,,,,,,,,,,,,,,,,,"30.01","42","43","0.00","BR:1 ||",,,"97","30.02","OVC:08 5","29.58","6.00","43","130",,"3",,,,,,,,,,,,,,,,,,,,,,,,,,,,,,,,,,,,,"MET10004/05/20 04:56:02 METAR KHPN 050956Z 13003KT 6SM BR OVC005 06/06 A3001 RMK AO2 SLP166 T00610056 (TC)","FM-15","7",,,,,,,,,,,,,,,,,,,,,,,,,,,,"2009-05-22"
"72503794745","2020-04-05T05:56:00","FM-15","7",,,,,,,,,,,,,,,,,,,,,,,,,,,,,,,,,,,,,,"30.03","42","44","0.00","BR:1 ||",,,"93","30.03","OVC:08 5","29.60","6.00","43","130",,"3",,,,,,,,,,,,,,,,,,,,,,,,,,,,,,,,,,,,,"MET10004/05/20 05:56:02 METAR KHPN 051056Z 13003KT 6SM BR OVC005 07/06 A3003 RMK AO2 SLP171 T00670056 (AB)","FM-15","7",,,,,,,,,,,,,,,,,,,,,,,,,,,,"2009-05-22"
"72503794745","2020-04-05T06:56:00","FM-15","7",,,,,,,,,,,,,,,,,,,,,,,,,,,,,,,,,,,,,,"30.05","42","45","0.00","BR:1 ||","-0.03","3","90","30.06","OVC:08 5","29.62","6.00","44","160",,"3",,,,,,,,,,,,,,,,,,,,,,,,,,,,,,,,,,,,,"MET11804/05/20 06:56:02 METAR KHPN 051156Z 16003KT 6SM BR OVC005 07/06 A3005 RMK AO2 SLP178 T00720056 10072 20061 53011 (AB)","FM-15","7",,,,,,,,,,,,,,,,,,,,,,,,,,,,"2009-05-22"
"72503794745","2020-04-05T07:56:00","FM-15","7",,,,,,,,,,,,,,,,,,,,,,,,,,,,,,,,,,,,,,"30.05","42","46","0.00","BR:1 ||",,,"86","30.06","SCT:04 6 OVC:08 50","29.62","6.00","44","140",,"5",,,,,,,,,,,,,,,,,,,,,,,,,,,,,,,,,,,,,"MET10704/05/20 07:56:02 METAR KHPN 051256Z 14004KT 6SM BR SCT006 OVC050 08/06 A3005 RMK AO2 SLP179 T00780056 (AB)","FM-15","7",,,,,,,,,,,,,,,,,,,,,,,,,,,,"2009-05-22"
"72503794745","2020-04-05T08:08:00","FM-16","7",,,,,,,,,,,,,,,,,,,,,,,,,,,,,,,,,,,,,,"30.05","42","46",,"BR:1 ||",,,"86",,"BKN:07 6 OVC:08 50","29.62","6.00","44","120",,"5",,,,,,,,,,,,,,,,,,,,,,,,,,,,,,,,,,,,,"MET10004/05/20 08:08:02 SPECI KHPN 051308Z 12004KT 6SM BR BKN006 OVC050 08/06 A3005 RMK AO2 T00780056 (AB)","FM-16","7",,,,,,,,,,,,,,,,,,,,,,,,,,,,"2009-05-22"
"72503794745","2020-04-05T08:56:00","FM-15","7",,,,,,,,,,,,,,,,,,,,,,,,,,,,,,,,,,,,,,"30.06","43","47","0.00",,,,"86","30.06","BKN:07 7 OVC:08 55","29.63","7.00","45","170",,"3",,,,,,,,,,,,,,,,,,,,,,,,,,,,,,,,,,,,,"MET10404/05/20 08:56:02 METAR KHPN 051356Z 17003KT 7SM BKN007 OVC055 08/06 A3006 RMK AO2 SLP181 T00830061 (AB)","FM-15","7",,,,,,,,,,,,,,,,,,,,,,,,,,,,"2009-05-22"
"72503794745","2020-04-05T09:26:00","FM-16","7",,,,,,,,,,,,,,,,,,,,,,,,,,,,,,,,,,,,,,"30.05","43","48",,,,,"83",,"SCT:04 7 BKN:07 55","29.62","7.00","46","160",,"3",,,,,,,,,,,,,,,,,,,,,,,,,,,,,,,,,,,,,"MET09704/05/20 09:26:02 SPECI KHPN 051426Z 16003KT 7SM SCT007 BKN055 09/06 A3005 RMK AO2 T00890061 (AB)","FM-16","7",,,,,,,,,,,,,,,,,,,,,,,,,,,,"2009-05-22"
"72503794745","2020-04-05T09:56:00","FM-15","7",,,,,,,,,,,,,,,,,,,,,,,,,,,,,,,,,,,,,,"30.05","43","49","0.00",,"-0.01","0","80","30.06","BKN:07 60","29.62","8.00","46","000",,"0",,,,,,,,,,,,,,,,,,,,,,,,,,,,,,,,,,,,,"MET10304/05/20 09:56:02 METAR KHPN 051456Z 00000KT 8SM BKN060 09/06 A3005 RMK AO2 SLP180 T00940061 50002 (AB)","FM-15","7",,,,,,,,,,,,,,,,,,,,,,,,,,,,"2009-05-22"
"72503794745","2020-04-05T10:56:00","FM-15","7",,,,,,,,,,,,,,,,,,,,,,,,,,,,,,,,,,,,,,"30.04","44","52","0.00",,,,"75","30.05","FEW:02 20 BKN:07 60","29.61","8.00","48","140",,"5",,,,,,,,,,,,,,,,,,,,,,,,,,,,,,,,,,,,,"MET10404/05/20 10:56:02 METAR KHPN 051556Z 14004KT 8SM FEW020 BKN060 11/07 A3004 RMK AO2 SLP175 T01110067 (AB)","FM-15","7",,,,,,,,,,,,,,,,,,,,,,,,,,,,"2009-05-22"
"72503794745","2020-04-05T11:56:00","FM-15","7",,,,,,,,,,,,,,,,,,,,,,,,,,,,,,,,,,,,,,"30.03","44","54","0.00",,,,"69","30.03","FEW:02 20 BKN:07 60","29.60","8.00","49","150",,"7",,,,,,,,,,,,,,,,,,,,,,,,,,,,,,,,,,,,,"MET10604/05/20 11:56:02 METAR KHPN 051656Z 15006KT 8SM FEW020 BKN060 12/07 A3003 RMK AO2 SLP170 T01220067 $ (AB)","FM-15","7",,,,,,,,,,,,,,,,,,,,,,,,,,,,"2009-05-22"
"72503794745","2020-04-05T12:56:00","FM-15","7",,,,,,,,,,,,,,,,,,,,,,,,,,,,,,,,,,,,,,"30.01","45","57","0.00",,"+0.05","8","64","30.01","SCT:04 60","29.58","9.00","51","140",,"7",,,,,,,,,,,,,,,,,,,,,,,,,,,,,,,,,,,,,"MET11704/05/20 12:56:02 METAR KHPN 051756Z 14006KT 9SM SCT060 14/07 A3001 RMK AO2 SLP163 T01390072 10139 20072 58016 $ (AB)","FM-15","7",,,,,,,,,,,,,,,,,,,,,,,,,,,,"2009-05-22"
"72503794745","2020-04-05T13:56:00","FM-15","7",,,,,,,,,,,,,,,,,,,,,,,,,,,,,,,,,,,,,,"29.99","44","57","0.00",,,,"62","29.99","SCT:04 60","29.56","10.00","50","130",,"10",,,,,,,,,,,,,,,,,,,,,,,,,,,,,,,,,,,,,"MET10004/05/20 13:56:02 METAR KHPN 051856Z 13009KT 10SM SCT060 14/07 A2999 RMK AO2 SLP156 T01390067 $ (AB)","FM-15","7",,,,,,,,,,,,,,,,,,,,,,,,,,,,"2009-05-22"
"72503794745","2020-04-05T14:56:00","FM-15","7",,,,,,,,,,,,,,,,,,,,,,,,,,,,,,,,,,,,,,"29.98","45","57","0.00",,,,"64","29.98","BKN:07 60","29.55","10.00","51","140",,"8",,,,,,,,,,,,,,,,,,,,,,,,,,,,,,,,,,,,,"MET10004/05/20 14:56:02 METAR KHPN 051956Z 14007KT 10SM BKN060 14/07 A2998 RMK AO2 SLP152 T01390072 $ (MM)","FM-15","7",,,,,,,,,,,,,,,,,,,,,,,,,,,,"2009-05-22"
"72503794745","2020-04-05T15:56:00","FM-15","7",,,,,,,,,,,,,,,,,,,,,,,,,,,,,,,,,,,,,,"29.97","45","59","0.00",,"+0.04","6","60","29.97","SCT:04 60 BKN:07 85","29.54","10.00","52","190",,"8",,,,,,,,,,,,,,,,,,,,,,,,,,,,,,,,,,,,,"MET11304/05/20 15:56:02 METAR KHPN 052056Z 19007KT 10SM SCT060 BKN085 15/07 A2997 RMK AO2 SLP149 T01500072 56014 $ (MM)","FM-15","7",,,,,,,,,,,,,,,,,,,,,,,,,,,,"2009-05-22"
"72503794745","2020-04-05T16:56:00","FM-15","7",,,,,,,,,,,,,,,,,,,,,,,,,,,,,,,,,,,,,,"29.98","45","56","0.00",,,,"67","29.98","BKN:07 55","29.55","10.00","50","140",,"8",,,,,,,,,,,,,,,,,,,,,,,,,,,,,,,,,,,,,"MET10004/05/20 16:56:02 METAR KHPN 052156Z 14007KT 10SM BKN055 13/07 A2998 RMK AO2 SLP152 T01330072 $ (MM)","FM-15","7",,,,,,,,,,,,,,,,,,,,,,,,,,,,"2009-05-22"
"72503794745","2020-04-05T17:56:00","FM-15","7",,,,,,,,,,,,,,,,,,,,,,,,,,,,,,,,,,,,,,"29.98","44","53","0.00",,,,"72","29.98","SCT:04 60","29.55","10.00","49","180",,"6",,,,,,,,,,,,,,,,,,,,,,,,,,,,,,,,,,,,,"MET10004/05/20 17:56:02 METAR KHPN 052256Z 18005KT 10SM SCT060 12/07 A2998 RMK AO2 SLP152 T01170067 $ (MM)","FM-15","7",,,,,,,,,,,,,,,,,,,,,,,,,,,,"2009-05-22"
"72503794745","2020-04-05T18:56:00","FM-15","7",,,,,,,,,,,,,,,,,,,,,,,,,,,,,,,,,,,,,,"29.97","43","48","0.00",,"-0.01","0","83","29.98","FEW:02 80","29.54","10.00","46","130",,"6",,,,,,,,,,,,,,,,,,,,,,,,,,,,,,,,,,,,,"MET11804/05/20 18:56:02 METAR KHPN 052356Z 13005KT 10SM FEW080 09/06 A2997 RMK AO2 SLP153 T00890061 10156 20089 50003 $ (MM)","FM-15","7",,,,,,,,,,,,,,,,,,,,,,,,,,,,"2009-05-22"
"72503794745","2020-04-05T19:56:00","FM-15","7",,,,,,,,,,,,,,,,,,,,,,,,,,,,,,,,,,,,,,"29.98","43","49","0.00",,,,"80","29.99","BKN:07 75","29.55","10.00","46","000",,"0",,,,,,,,,,,,,,,,,,,,,,,,,,,,,,,,,,,,,"MET09504/05/20 19:56:01 METAR KHPN 060056Z 00000KT 10SM BKN075 09/06 A2998 RMK AO2 SLP155 T00940061 $","FM-15","7",,,,,,,,,,,,,,,,,,,,,,,,,,,,"2009-05-22"
"72503794745","2020-04-05T20:56:00","FM-15","7",,,,,,,,,,,,,,,,,,,,,,,,,,,,,,,,,,,,,,"29.99","44","49","0.00",,,,"83","29.99","BKN:07 55","29.56","10.00","47","000",,"0",,,,,,,,,,,,,,,,,,,,,,,,,,,,,,,,,,,,,"MET09504/05/20 20:56:01 METAR KHPN 060156Z 00000KT 10SM BKN055 09/07 A2999 RMK AO2 SLP157 T00940067 $","FM-15","7",,,,,,,,,,,,,,,,,,,,,,,,,,,,"2009-05-22"
"72503794745","2020-04-05T21:56:00","FM-15","7",,,,,,,,,,,,,,,,,,,,,,,,,,,,,,,,,,,,,,"29.97","43","47","0.00",,"-0.00","0","86","29.98","SCT:04 50","29.54","10.00","45","000",,"0",,,,,,,,,,,,,,,,,,,,,,,,,,,,,,,,,,,,,"MET10104/05/20 21:56:01 METAR KHPN 060256Z 00000KT 10SM SCT050 08/06 A2997 RMK AO2 SLP153 T00830061 50000 $","FM-15","7",,,,,,,,,,,,,,,,,,,,,,,,,,,,"2009-05-22"
"72503794745","2020-04-05T22:56:00","FM-15","7",,,,,,,,,,,,,,,,,,,,,,,,,,,,,,,,,,,,,,"29.97","43","46","0.00",,,,"89","29.98","SCT:04 50 BKN:07 60","29.54","10.00","45","080",,"5",,,,,,,,,,,,,,,,,,,,,,,,,,,,,,,,,,,,,"MET10204/05/20 22:56:02 METAR KHPN 060356Z 08004KT 10SM SCT050 BKN060 08/06 A2997 RMK AO2 SLP151 T00780061 $","FM-15","7",,,,,,,,,,,,,,,,,,,,,,,,,,,,"2009-05-22"
"72503794745","2020-04-05T23:56:00","FM-15","7",,,,,,,,,,,,,,,,,,,,,,,,,,,,,,,,,,,,,,"29.98","43","45","0.00",,,,"93","29.99","FEW:02 60","29.55","10.00","44","000",,"0",,,,,,,,,,,,,,,,,,,,,,,,,,,,,,,,,,,,,"MET10504/05/20 23:56:02 METAR KHPN 060456Z 00000KT 10SM FEW060 07/06 A2998 RMK AO2 SLP155 T00720061 401560061 $","FM-15","7",,,,,,,,,,,,,,,,,,,,,,,,,,,,"2009-05-22"
"72503794745","2020-04-05T23:59:00","SOD  ","6",,,,,,,,,,,,,,,,"52",,,"29.58",,"4.3","0","7.0","13","60","43","170","16","0.00",,,"130","13","BR",,,,,,,,,,,,,,,,,,,,,,,,,,,,,,,,,,,,,,,,,,,,,,,,,,,,,,,,"SOD73024 HR PRECIPITATION (IN):0.00  24 HR MAX TEMP (F):60 24 HR MAX TEMP TIME (LST):1553 24 HR MIN TEMP (F):43 24 HR MIN TEMP TIME (LST):0507 AVERAGE STATION PRESSURE:29.580 MINIMUM SEA LEVEL PRESSURE:29.97 TIME OF OCCURRENCE:1632 PEAK WIND SPEED (MPH):16  PEAK WIND DIR (DEG):170 PEAK WIND TIME (LST):1334  FASTEST 2MIN SPEED (MPH):13 FASTEST 2MIN DIR (DEG):130 FASTEST 2MIN TIME (LST):1354 AVERAGE WIND SPEED (MPH):4.3  24 HR AVG TEMP (F):52 HEATING DEGREE DAYS:13  COOLING DEGREE DAYS:0   LATEST DAY MAX TEMP (0700-1900 LST):60  LATEST NIGHT MIN TEMP(1900-0800 LST):43 HOURLY INCREMENTAL PRECIPITATION VALUES (IN):.00 0.00 0.00 0.00 0.00 0.00 0.00 0.00 0.00 0.00 0.00 0.00 0.00 0.00 0.00 0.00 0.00 0.00 0.00 0.00 0.00 0.00 0.00 0.00","SOD  ","6",,,,,,,,,,,,,,,,,,,,,,,,,"0530","1825",,"2009-05-22"
"72503794745","2020-04-06T00:56:00","FM-15","7",,,,,,,,,,,,,,,,,,,,,,,,,,,,,,,,,,,,,,"29.97","42","44","0.00",,"-0.00","0","93","29.98","FEW:02 85","29.54","10.00","43","330",,"3",,,,,,,,,,,,,,,,,,,,,,,,,,,,,,,,,,,,,"MET11804/06/20 00:56:02 METAR KHPN 060556Z 33003KT 10SM FEW085 07/06 A2997 RMK AO2 SLP152 T00670056 10100 20061 50000 $ (EC)","FM-15","7",,,,,,,,,,,,,,,,,,,,,,,,,,,,"2009-05-22"
"72503794745","2020-04-06T01:56:00","FM-15","7",,,,,,,,,,,,,,,,,,,,,,,,,,,,,,,,,,,,,,"29.98","43","46","T","-RA:02 |RA |RA",,,"89","29.98","BKN:07 60 OVC:08 100","29.55","10.00","45","350",,"5",,,,,,,,,,,,,,,,,,,,,,,,,,,,,,,,,,,,,"MET12304/06/20 01:56:02 METAR KHPN 060656Z 35004KT 10SM -RA BKN060 OVC100 08/06 A2998 RMK AO2 RAB44 SLP153 P0000 T00780061 $ (EC)","FM-15","7",,,,,,,,,,,,,,,,,,,,,,,,,,,,"2009-05-22"
"72503794745","2020-04-06T02:56:00","FM-15","7",,,,,,,,,,,,,,,,,,,,,,,,,,,,,,,,,,,,,,"29.97","41","48","T",,,,"77","29.98","FEW:02 45 BKN:07 65","29.54","10.00","45","340",,"8",,,,,,,,,,,,,,,,,,,,,,,,,,,,,,,,,,,,,"MET11904/06/20 02:56:02 METAR KHPN 060756Z 34007KT 10SM FEW045 BKN065 09/05 A2997 RMK AO2 RAE42 SLP151 P0000 T00890050 $ (EC)","FM-15","7",,,,,,,,,,,,,,,,,,,,,,,,,,,,"2009-05-22"
"72503794745","2020-04-06T03:56:00","FM-15","7",,,,,,,,,,,,,,,,,,,,,,,,,,,,,,,,,,,,,,"29.98","37","46","0.00",,"-0.01","3","71","29.98","SCT:04 65","29.55","10.00","42","360",,"7",,,,,,,,,,,,,,,,,,,,,,,,,,,,,,,,,,,,,"MET11204/06/20 03:56:02 METAR KHPN 060856Z 36006KT 10SM SCT065 08/03 A2998 RMK AO2 SLP153 60000 T00780028 53002 $ (EC)","FM-15","7",,,,,,,,,,,,,,,,,,,,,,,,,,,,"2009-05-22"
"72503794745","2020-04-06T04:56:00","FM-15","7",,,,,,,,,,,,,,,,,,,,,,,,,,,,,,,,,,,,,,"29.99","36","46","0.00",,,,"68","29.99","SCT:04 55","29.56","10.00","42","350",,"9",,,,,,,,,,,,,,,,,,,,,,,,,,,,,,,,,,,,,"MET10004/06/20 04:56:02 METAR KHPN 060956Z 35008KT 10SM SCT055 08/02 A2999 RMK AO2 SLP157 T00780022 $ (EC)","FM-15","7",,,,,,,,,,,,,,,,,,,,,,,,,,,,"2009-05-22"
"72503794745","2020-04-06T05:56:00","FM-15","7",,,,,,,,,,,,,,,,,,,,,,,,,,,,,,,,,,,,,,"30.02","35","45","0.00",,,,"68","29.97","FEW:02 50","29.59","10.00","41","350",,"8",,,,,,,,,,,,,,,,,,,,,,,,,,,,,,,,,,,,,"MET10004/06/20 05:56:02 METAR KHPN 061056Z 35007KT 10SM FEW050 07/02 A3002 RMK AO2 SLP150 T00720017 $ (EC)","FM-15","7",,,,,,,,,,,,,,,,,,,,,,,,,,,,"2009-05-22"
"72503794745","2020-04-06T06:56:00","FM-15","7",,,,,,,,,,,,,,,,,,,,,,,,,,,,,,,,,,,,,,,"35","47","0.00",,,,"63",,"FEW:02 60",,"10.00",,"340",,"8",,,,,,,,,,,,,,,,,,,,,,,,,,,,,,,,,,,,,"MET11304/06/20 06:56:02 METAR KHPN 061156Z 34007KT 10SM FEW060 08/02 RMK AO2 SLP3004 60000 T00830017 10089 20067 $ (EC)","FM-15","7",,,,,,,,,,,,,,,,,,,,,,,,,,,,"2009-05-22"
"72503794745","2020-04-06T07:56:00","FM-15","7",,,,,,,,,,,,,,,,,,,,,,,,,,,,,,,,,,,,,,"30.05","32","50","0.00",,,,"50","30.01","FEW:02 60","29.62","10.00","42","010",,"9",,,,,,,,,,,,,,,,,,,,,,,,,,,,,,,,,,,,,"MET10004/06/20 07:56:02 METAR KHPN 061256Z 01008KT 10SM FEW060 10/00 A3005 RMK AO2 SLP161 T01000000 $ (FR)","FM-15","7",,,,,,,,,,,,,,,,,,,,,,,,,,,,"2009-05-22"
"72503794745","2020-04-06T08:56:00","FM-15","7",,,,,,,,,,,,,,,,,,,,,,,,,,,,,,,,,,,,,,"30.05","31","53","0.00",,,,"43","30.01","FEW:02 40","29.62","10.00","43","340","20","8",,,,,,,,,,,,,,,,,,,,,,,,,,,,,,,,,,,,,"MET10404/06/20 08:56:02 METAR KHPN 061356Z 34007G17KT 10SM FEW040 12/M01 A3005 RMK AO2 SLP161 T01171006 $ (FR)","FM-15","7",,,,,,,,,,,,,,,,,,,,,,,,,,,,"2009-05-22"
"72503794745","2020-04-06T09:56:00","FM-15","7",,,,,,,,,,,,,,,,,,,,,,,,,,,,,,,,,,,,,,"30.05",,"54","0.00",,,,,"30.01","FEW:02 40","29.62","10.00",,"010",,"11",,,,,,,,,,,,,,,,,,,,,,,,,,,,,,,,,,,,,"MET09304/06/20 09:56:02 METAR KHPN 061456Z 01010KT 10SM FEW040 12/A3005 RMK AO2 SLP161 T0122 $ (FR)","FM-15","7",,,,,,,,,,,,,,,,,,,,,,,,,,,,"2009-05-22"
"72503794745","2020-04-06T10:56:00","FM-15","7",,,,,,,,,,,,,,,,,,,,,,,,,,,,,,,,,,,,,,"30.04","31","56","0.00",,,,"39","29.99","FEW:02 40","29.61","10.00","45","350","17","10",,,,,,,,,,,,,,,,,,,,,,,,,,,,,,,,,,,,,"MET10404/06/20 10:56:02 METAR KHPN 061556Z 35009G15KT 10SM FEW040 13/M01 A3004 RMK AO2 SLP157 T01331006 $ (FR)","FM-15","7",,,,,,,,,,,,,,,,,,,,,,,,,,,,"2009-05-22"
"72503794745","2020-04-06T11:56:00","FM-15","7",,,,,,,,,,,,,,,,,,,,,,,,,,,,,,,,,,,,,,"30.02","27","58","0.00",,,,"31","29.97","FEW:02 40","29.59","10.00","45","330",,"14",,,,,,,,,,,,,,,,,,,,,,,,,,,,,,,,,,,,,"MET10104/06/20 11:56:02 METAR KHPN 061656Z 33012KT 10SM FEW040 14/M03 A3002 RMK AO2 SLP149 T01441028 $ (FR)","FM-15","7",,,,,,,,,,,,,,,,,,,,,,,,,,,,"2009-05-22"
"72503794745","2020-04-06T12:56:00","FM-15","7",,,,,,,,,,,,,,,,,,,,,,,,,,,,,,,,,,,,,,"29.99","27","59","0.00",,"+0.06","8","29","29.94","FEW:02 40","29.56","10.00","45","340",,"5",,,,,,,,,,,,,,,,,,,,,,,,,,,,,,,,,,,,,"MET11904/06/20 12:56:02 METAR KHPN 061756Z 34004KT 10SM FEW040 15/M03 A2999 RMK AO2 SLP139 T01501028 10150 20083 58020 $ (FR)","FM-15","7",,,,,,,,,,,,,,,,,,,,,,,,,,,,"2009-05-22"
"72503794745","2020-04-06T13:56:00","FM-15","7",,,,,,,,,,,,,,,,,,,,,,,,,,,,,,,,,,,,,,"29.97","26","60","0.00",,,,"27","29.92","FEW:02 40","29.54","10.00","45","300",,"13",,,,,,,,,,,,,,,,,,,,,,,,,,,,,,,,,,,,,"MET10104/06/20 13:56:02 METAR KHPN 061856Z 30011KT 10SM FEW040 16/M03 A2997 RMK AO2 SLP132 T01561033 $ (FR)","FM-15","7",,,,,,,,,,,,,,,,,,,,,,,,,,,,"2009-05-22"
"72503794745","2020-04-06T14:56:00","FM-15","7",,,,,,,,,,,,,,,,,,,,,,,,,,,,,,,,,,,,,,"29.97","27","62","0.00",,,,"26","29.92","CLR:00","29.54","10.00","46","340",,"9",,,,,,,,,,,,,,,,,,,,,,,,,,,,,,,,,,,,,"MET09804/06/20 14:56:02 METAR KHPN 061956Z 34008KT 10SM CLR 17/M03 A2997 RMK AO2 SLP131 T01671028 $ (AH)","FM-15","7",,,,,,,,,,,,,,,,,,,,,,,,,,,,"2009-05-22"
"72503794745","2020-04-06T15:56:00","FM-15","7",,,,,,,,,,,,,,,,,,,,,,,,,,,,,,,,,,,,,,"29.92","26","62","0.00",,"+0.03","6","25","29.92","CLR:00","29.49","10.00","46","VRB",,"5",,,,,,,,,,,,,,,,,,,,,,,,,,,,,,,,,,,,,"MET10204/06/20 15:56:02 METAR KHPN 062056Z VRB04KT 10SM CLR 17/M03 A2992 RMK AO2 SLP132 T01671033 56009 (AH)","FM-15","7",,,,,,,,,,,,,,,,,,,,,,,,,,,,"2009-05-22"
"72503794745","2020-04-06T16:56:00","FM-15","7",,,,,,,,,,,,,,,,,,,,,,,,,,,,,,,,,,,,,,"29.92","20","63","0.00",,,,"19","29.92","CLR:00","29.49","10.00","45","300",,"10",,,,,,,,,,,,,,,,,,,,,,,,,,,,,,,,,,,,,"MET09604/06/20 16:56:02 METAR KHPN 062156Z 30009KT 10SM CLR 17/M07 A2992 RMK AO2 SLP131 T01721067 (AH)","FM-15","7",,,,,,,,,,,,,,,,,,,,,,,,,,,,"2009-05-22"
"72503794745","2020-04-06T17:56:00","FM-15","7",,,,,,,,,,,,,,,,,,,,,,,,,,,,,,,,,,,,,,"29.92","19","60","0.00",,,,"20","29.92","CLR:00","29.49","10.00","43","300",,"10",,,,,,,,,,,,,,,,,,,,,,,,,,,,,,,,,,,,,"MET09604/06/20 17:56:02 METAR KHPN 062256Z 30009KT 10SM CLR 16/M07 A2992 RMK AO2 SLP131 T01561072 (AH)","FM-15","7",,,,,,,,,,,,,,,,,,,,,,,,,,,,"2009-05-22"
"72503794745","2020-04-06T18:56:00","FM-15","7",,,,,,,,,,,,,,,,,,,,,,,,,,,,,,,,,,,,,,"29.92","19","58","0.00",,"-0.00","3","22","29.92","CLR:00","29.49","10.00","42","280",,"6",,,,,,,,,,,,,,,,,,,,,,,,,,,,,,,,,,,,,"MET11404/06/20 18:56:02 METAR KHPN 062356Z 28005KT 10SM CLR 14/M07 A2992 RMK AO2 SLP133 T01441072 10172 20144 53001 (AH)","FM-15","7",,,,,,,,,,,,,,,,,,,,,,,,,,,,"2009-05-22"
"72503794745","2020-04-06T19:56:00","FM-15","7",,,,,,,,,,,,,,,,,,,,,,,,,,,,,,,,,,,,,,"29.95","20","55","0.00",,,,"25","29.95","CLR:00","29.52","10.00","41","300",,"11",,,,,,,,,,,,,,,,,,,,,,,,,,,,,,,,,,,,,"MET09104/06/20 19:56:01 METAR KHPN 070056Z 30010KT 10SM CLR 13/M07 A2995 RMK AO2 SLP142 T01281067","FM-15","7",,,,,,,,,,,,,,,,,,,,,,,,,,,,"2009-05-22"
"72503794745","2020-04-06T20:56:00","FM-15","7",,,,,,,,,,,,,,,,,,,,,,,,,,,,,,,,,,,,,,"29.96","19","54","0.00",,,,"25","29.96","CLR:00","29.53","10.00","40","310",,"7",,,,,,,,,,,,,,,,,,,,,,,,,,,,,,,,,,,,,"MET09104/06/20 20:56:01 METAR KHPN 070156Z 31006KT 10SM CLR 12/M07 A2996 RMK AO2 SLP144 T01221072","FM-15","7",,,,,,,,,,,,,,,,,,,,,,,,,,,,"2009-05-22"
"72503794745","2020-04-06T21:56:00","FM-15","7",,,,,,,,,,,,,,,,,,,,,,,,,,,,,,,,,,,,,,"29.95","17","53","0.00",,"-0.03","0","24","29.96","CLR:00","29.52","10.00","39","310",,"6",,,,,,,,,,,,,,,,,,,,,,,,,,,,,,,,,,,,,"MET09704/06/20 21:56:01 METAR KHPN 070256Z 31005KT 10SM CLR 12/M08 A2995 RMK AO2 SLP144 T01171083 50010","FM-15","7",,,,,,,,,,,,,,,,,,,,,,,,,,,,"2009-05-22"
"72503794745","2020-04-06T22:56:00","FM-15","7",,,,,,,,,,,,,,,,,,,,,,,,,,,,,,,,,,,,,,"29.96","18","52","0.00",,,,"26","29.96","CLR:00","29.53","10.00","39","310",,"7",,,,,,,,,,,,,,,,,,,,,,,,,,,,,,,,,,,,,"MET09104/06/20 22:56:02 METAR KHPN 070356Z 31006KT 10SM CLR 11/M08 A2996 RMK AO2 SLP145 T01111078","FM-15","7",,,,,,,,,,,,,,,,,,,,,,,,,,,,"2009-05-22"
"72503794745","2020-04-06T23:56:00","FM-15","7",,,,,,,,,,,,,,,,,,,,,,,,,,,,,,,,,,,,,,"29.96","17","50","0.00",,,,"27","29.96","CLR:00","29.53","10.00","38","320",,"5",,,,,,,,,,,,,,,,,,,,,,,,,,,,,,,,,,,,,"MET10104/06/20 23:56:02 METAR KHPN 070456Z 32004KT 10SM CLR 10/M08 A2996 RMK AO2 SLP146 T01001083 401720061","FM-15","7",,,,,,,,,,,,,,,,,,,,,,,,,,,,"2009-05-22"
"72503794745","2020-04-06T23:59:00","SOD  ","6",,,,,,,,,,,,,,,,"53",,,"29.52",,"8.1","0","7.7","12","63","43","320","20","T",,,"290","16","RA",,,,,,,,,,,,,,,,,,,,,,,,,,,,,,,,,,,,,,,,,,,,,,,,,,,,,,,,"SOD73024 HR PRECIPITATION (IN):T     24 HR MAX TEMP (F):63 24 HR MAX TEMP TIME (LST):1658 24 HR MIN TEMP (F):43 24 HR MIN TEMP TIME (LST):0044 AVERAGE STATION PRESSURE:29.515 MINIMUM SEA LEVEL PRESSURE:29.91 TIME OF OCCURRENCE:1651 PEAK WIND SPEED (MPH):20  PEAK WIND DIR (DEG):320 PEAK WIND TIME (LST):1359  FASTEST 2MIN SPEED (MPH):16 FASTEST 2MIN DIR (DEG):290 FASTEST 2MIN TIME (LST):1504 AVERAGE WIND SPEED (MPH):8.1  24 HR AVG TEMP (F):53 HEATING DEGREE DAYS:12  COOLING DEGREE DAYS:0   LATEST DAY MAX TEMP (0700-1900 LST):63  LATEST NIGHT MIN TEMP(1900-0800 LST):43 HOURLY INCREMENTAL PRECIPITATION VALUES (IN):.00 T    T    0.00 0.00 0.00 0.00 0.00 0.00 0.00 0.00 0.00 0.00 0.00 0.00 0.00 0.00 0.00 0.00 0.00 0.00 0.00 0.00 0.00","SOD  ","6",,,,,,,,,,,,,,,,,,,,,,,,,"0529","1826",,"2009-05-22"
"72503794745","2020-04-07T00:56:00","FM-15","7",,,,,,,,,,,,,,,,,,,,,,,,,,,,,,,,,,,,,,"29.95","18","51","0.00",,"-0.00","0","27","29.95","CLR:00","29.52","10.00","38","320",,"10",,,,,,,,,,,,,,,,,,,,,,,,,,,,,,,,,,,,,"MET11404/07/20 00:56:02 METAR KHPN 070556Z 32009KT 10SM CLR 11/M08 A2995 RMK AO2 SLP143 T01061078 10144 20100 50000 (RV)","FM-15","7",,,,,,,,,,,,,,,,,,,,,,,,,,,,"2009-05-22"
"72503794745","2020-04-07T01:56:00","FM-15","7",,,,,,,,,,,,,,,,,,,,,,,,,,,,,,,,,,,,,,"29.95","19","51","0.00",,,,"28","29.95","BKN:07 110","29.52","10.00","39","300",,"8",,,,,,,,,,,,,,,,,,,,,,,,,,,,,,,,,,,,,"MET09904/07/20 01:56:02 METAR KHPN 070656Z 30007KT 10SM BKN110 11/M07 A2995 RMK AO2 SLP143 T01061072 (RV)","FM-15","7",,,,,,,,,,,,,,,,,,,,,,,,,,,,"2009-05-22"
"72503794745","2020-04-07T02:56:00","FM-15","7",,,,,,,,,,,,,,,,,,,,,,,,,,,,,,,,,,,,,,"29.94","21","50","0.00",,,,"32","29.94","BKN:07 110","29.51","10.00","39","310",,"5",,,,,,,,,,,,,,,,,,,,,,,,,,,,,,,,,,,,,"MET09904/07/20 02:56:02 METAR KHPN 070756Z 31004KT 10SM BKN110 10/M06 A2994 RMK AO2 SLP140 T01001061 (RV)","FM-15","7",,,,,,,,,,,,,,,,,,,,,,,,,,,,"2009-05-22"
"72503794745","2020-04-07T03:56:00","FM-15","7",,,,,,,,,,,,,,,,,,,,,,,,,,,,,,,,,,,,,,"29.94","21","50","0.00",,"+0.01","8","32","29.93","OVC:08 110","29.51","10.00","39","000",,"0",,,,,,,,,,,,,,,,,,,,,,,,,,,,,,,,,,,,,"MET10504/07/20 03:56:02 METAR KHPN 070856Z 00000KT 10SM OVC110 10/M06 A2994 RMK AO2 SLP137 T01001061 58005 (RV)","FM-15","7",,,,,,,,,,,,,,,,,,,,,,,,,,,,"2009-05-22"
"72503794745","2020-04-07T04:56:00","FM-15","7",,,,,,,,,,,,,,,,,,,,,,,,,,,,,,,,,,,,,,"29.94","26","48","0.00",,,,"42","29.94","OVC:08 110","29.51","10.00","39","300",,"6",,,,,,,,,,,,,,,,,,,,,,,,,,,,,,,,,,,,,"MET09904/07/20 04:56:02 METAR KHPN 070956Z 30005KT 10SM OVC110 09/M03 A2994 RMK AO2 SLP139 T00891033 (RV)","FM-15","7",,,,,,,,,,,,,,,,,,,,,,,,,,,,"2009-05-22"
"72503794745","2020-04-07T05:56:00","FM-15","7",,,,,,,,,,,,,,,,,,,,,,,,,,,,,,,,,,,,,,"29.95","26","49","0.00",,,,"41","29.95","FEW:02 110","29.52","10.00","40","000",,"0",,,,,,,,,,,,,,,,,,,,,,,,,,,,,,,,,,,,,"MET09904/07/20 05:56:02 METAR KHPN 071056Z 00000KT 10SM FEW110 09/M03 A2995 RMK AO2 SLP142 T00941033 (RV)","FM-15","7",,,,,,,,,,,,,,,,,,,,,,,,,,,,"2009-05-22"
"72503794745","2020-04-07T06:56:00","FM-15","7",,,,,,,,,,,,,,,,,,,,,,,,,,,,,,,,,,,,,,"29.97","28","50","0.00",,"-0.03","3","43","29.97","BKN:07 100","29.54","10.00","41","280",,"5",,,,,,,,,,,,,,,,,,,,,,,,,,,,,,,,,,,,,"MET11904/07/20 06:56:02 METAR KHPN 071156Z 28004KT 10SM BKN100 10/M02 A2997 RMK AO2 SLP149 T01001022 10111 20083 53011 $ (RV)","FM-15","7",,,,,,,,,,,,,,,,,,,,,,,,,,,,"2009-05-22"
"72503794745","2020-04-07T07:56:00","FM-15","7",,,,,,,,,,,,,,,,,,,,,,,,,,,,,,,,,,,,,,"29.97","30","51","0.00",,,,"44","29.97","CLR:00","29.54","10.00","42","310",,"9",,,,,,,,,,,,,,,,,,,,,,,,,,,,,,,,,,,,,"MET09804/07/20 07:56:02 METAR KHPN 071256Z 31008KT 10SM CLR 11/M01 A2997 RMK AO2 SLP148 T01061011 $ (RS)","FM-15","7",,,,,,,,,,,,,,,,,,,,,,,,,,,,"2009-05-22"
"72503794745","2020-04-07T08:56:00","FM-15","7",,,,,,,,,,,,,,,,,,,,,,,,,,,,,,,,,,,,,,"29.96","30","53","0.00",,,,"41","29.96","BKN:07 100","29.53","10.00","43","290",,"7",,,,,,,,,,,,,,,,,,,,,,,,,,,,,,,,,,,,,"MET10104/07/20 08:56:02 METAR KHPN 071356Z 29006KT 10SM BKN100 12/M01 A2996 RMK AO2 SLP146 T01171011 $ (RS)","FM-15","7",,,,,,,,,,,,,,,,,,,,,,,,,,,,"2009-05-22"
"72503794745","2020-04-07T09:56:00","FM-15","7",,,,,,,,,,,,,,,,,,,,,,,,,,,,,,,,,,,,,,"29.94","29","56","0.00",,"+0.02","8","36","29.94","FEW:02 120","29.51","10.00","44","310",,"9",,,,,,,,,,,,,,,,,,,,,,,,,,,,,,,,,,,,,"MET10704/07/20 09:56:02 METAR KHPN 071456Z 31008KT 10SM FEW120 13/M02 A2994 RMK AO2 SLP140 T01331017 58008 $ (RS)","FM-15","7",,,,,,,,,,,,,,,,,,,,,,,,,,,,"2009-05-22"
"72503794745","2020-04-07T10:56:00","FM-15","7",,,,,,,,,,,,,,,,,,,,,,,,,,,,,,,,,,,,,,"29.92","30","58","0.00",,,,"35","29.92","SCT:04 100","29.49","10.00","45","310",,"9",,,,,,,,,,,,,,,,,,,,,,,,,,,,,,,,,,,,,"MET09904/07/20 10:56:02 METAR KHPN 071556Z 31008KT 10SM SCT100 14/M01 A2992 RMK AO2 SLP131 T01441011 (RS)","FM-15","7",,,,,,,,,,,,,,,,,,,,,,,,,,,,"2009-05-22"
"72503794745","2020-04-07T11:56:00","FM-15","7",,,,,,,,,,,,,,,,,,,,,,,,,,,,,,,,,,,,,,"29.88","33","59","0.00",,,,"38","29.88","FEW:02 100","29.45","10.00","47","320",,"7",,,,,,,,,,,,,,,,,,,,,,,,,,,,,,,,,,,,,"MET10004/07/20 11:56:02 METAR KHPN 071656Z 32006KT 10SM FEW100 15/01 A2988 RMK AO2 SLP117 T01500006 $ (RS)","FM-15","7",,,,,,,,,,,,,,,,,,,,,,,,,,,,"2009-05-22"
"72503794745","2020-04-07T12:56:00","FM-15","7",,,,,,,,,,,,,,,,,,,,,,,,,,,,,,,,,,,,,,"29.85","28","62","0.00",,"+0.10","8","28","29.84","FEW:02 50","29.42","10.00","47","260","18","11",,,,,,,,,,,,,,,,,,,,,,,,,,,,,,,,,,,,,"MET12204/07/20 12:56:02 METAR KHPN 071756Z 26010G16KT 10SM FEW050 17/M02 A2985 RMK AO2 SLP106 T01671022 10172 20100 58033 $ (RS)","FM-15","7",,,,,,,,,,,,,,,,,,,,,,,,,,,,"2009-05-22"
"72503794745","2020-04-07T13:56:00","FM-15","7",,,,,,,,,,,,,,,,,,,,,,,,,,,,,,,,,,,,,,"29.80","28","63","0.00",,,,"27","29.80","FEW:02 80","29.37","10.00","47","VRB","16","6",,,,,,,,,,,,,,,,,,,,,,,,,,,,,,,,,,,,,"MET10204/07/20 13:56:02 METAR KHPN 071856Z VRB05G14KT 10SM FEW080 17/M02 A2980 RMK AO2 SLP092 T01721022 (RS)","FM-15","7",,,,,,,,,,,,,,,,,,,,,,,,,,,,"2009-05-22"
"72503794745","2020-04-07T14:56:00","FM-15","7",,,,,,,,,,,,,,,,,,,,,,,,,,,,,,,,,,,,,,"29.77","29","63","0.00",,,,"28","29.77","FEW:02 80","29.34","10.00","47","VRB","18","8",,,,,,,,,,,,,,,,,,,,,,,,,,,,,,,,,,,,,"MET10204/07/20 14:56:02 METAR KHPN 071956Z 22007G16KT 10SM FEW080 17/M02 A2977 RMK AO2 SLP081 T01721017 (RS)","FM-15","7",,,,,,,,,,,,,,,,,,,,,,,,,,,,"2009-05-22"
"72503794745","2020-04-07T15:56:00","FM-15","7",,,,,,,,,,,,,,,,,,,,,,,,,,,,,,,,,,,,,,"29.76","30","60","0.00",,"+0.09","6","32","29.76","FEW:02 80","29.34","10.00","46","180",,"18",,,,,,,,,,,,,,,,,,,,,,,,,,,,,,,,,,,,,"MET10504/07/20 15:56:02 METAR KHPN 072056Z 18016KT 10SM FEW080 16/M01 A2976 RMK AO2 SLP077 T01561011 56029 (RS)","FM-15","7",,,,,,,,,,,,,,,,,,,,,,,,,,,,"2009-05-22"
"72503794745","2020-04-07T16:56:00","FM-15","7",,,,,,,,,,,,,,,,,,,,,,,,,,,,,,,,,,,,,,"29.75","27","58","0.00",,,,"31","29.75","CLR:00","29.33","10.00","44","180","21","11",,,,,,,,,,,,,,,,,,,,,,,,,,,,,,,,,,,,,"MET09904/07/20 16:56:02 METAR KHPN 072156Z 18010G18KT 10SM CLR 14/M03 A2975 RMK AO2 SLP074 T01441028 (MM)","FM-15","7",,,,,,,,,,,,,,,,,,,,,,,,,,,,"2009-05-22"
"72503794745","2020-04-07T17:56:00","FM-15","7",,,,,,,,,,,,,,,,,,,,,,,,,,,,,,,,,,,,,,"29.74","24","55","0.00",,,,"30","29.74","CLR:00","29.31","10.00","42","180",,"6",,,,,,,,,,,,,,,,,,,,,,,,,,,,,,,,,,,,,"MET09604/07/20 17:56:02 METAR KHPN 072256Z 18005KT 10SM CLR 13/M04 A2974 RMK AO2 SLP070 T01281044 (MM)","FM-15","7",,,,,,,,,,,,,,,,,,,,,,,,,,,,"2009-05-22"
"72503794745","2020-04-07T18:56:00","FM-15","7",,,,,,,,,,,,,,,,,,,,,,,,,,,,,,,,,,,,,,"29.73","26","52","0.00",,"+0.03","6","37","29.74","CLR:00","29.31","10.00","41","160",,"7",,,,,,,,,,,,,,,,,,,,,,,,,,,,,,,,,,,,,"MET11404/07/20 18:56:02 METAR KHPN 072356Z 16006KT 10SM CLR 11/M03 A2973 RMK AO2 SLP070 T01111033 10178 20111 56009 (MM)","FM-15","7",,,,,,,,,,,,,,,,,,,,,,,,,,,,"2009-05-22"
"72503794745","2020-04-07T19:56:00","FM-15","7",,,,,,,,,,,,,,,,,,,,,,,,,,,,,,,,,,,,,,"29.73","33","51","0.00",,,,"50","29.73","CLR:00","29.31","10.00","43","VRB",,"6",,,,,,,,,,,,,,,,,,,,,,,,,,,,,,,,,,,,,"MET09004/07/20 19:56:01 METAR KHPN 080056Z VRB05KT 10SM CLR 11/01 A2973 RMK AO2 SLP068 T01060006","FM-15","7",,,,,,,,,,,,,,,,,,,,,,,,,,,,"2009-05-22"
"72503794745","2020-04-07T20:56:00","FM-15","7",,,,,,,,,,,,,,,,,,,,,,,,,,,,,,,,,,,,,,"29.71","38","51","0.00",,,,"61","29.71","FEW:02 80 BKN:07 110","29.28","10.00","45","170",,"5",,,,,,,,,,,,,,,,,,,,,,,,,,,,,,,,,,,,,"MET10004/07/20 20:56:01 METAR KHPN 080156Z 17004KT 10SM FEW080 BKN110 11/03 A2971 RMK AO2 SLP060 T01060033","FM-15","7",,,,,,,,,,,,,,,,,,,,,,,,,,,,"2009-05-22"
"72503794745","2020-04-07T21:56:00","FM-15","7",,,,,,,,,,,,,,,,,,,,,,,,,,,,,,,,,,,,,,"29.68","40","50","T","-RA:02 |RA |RA","+0.05","8","68","29.68","FEW:02 60 BKN:07 75 OVC:08 95","29.26","10.00","45","170",,"5",,,,,,,,,,,,,,,,,,,,,,,,,,,,,,,,,,,,,"MET13504/07/20 21:56:01 METAR KHPN 080256Z 17004KT 10SM -RA FEW060 BKN075 OVC095 10/04 A2968 RMK AO2 RAB23 SLP051 P0000 60000 T01000044 58017","FM-15","7",,,,,,,,,,,,,,,,,,,,,,,,,,,,"2009-05-22"
"72503794745","2020-04-07T22:56:00","FM-15","7",,,,,,,,,,,,,,,,,,,,,,,,,,,,,,,,,,,,,,"29.64","42","51","T","-RA:02 |RA |RA",,,"71","29.64","OVC:08 70","29.22","10.00","47","160",,"3",,,,,,,,,,,,,,,,,,,,,,,,,,,,,,,,,,,,,"MET11404/07/20 22:56:02 METAR KHPN 080356Z 16003KT 10SM -RA OVC070 11/06 A2964 RMK AO2 RAE0259B47 SLP038 P0000 T01060056","FM-15","7",,,,,,,,,,,,,,,,,,,,,,,,,,,,"2009-05-22"
"72503794745","2020-04-07T23:56:00","FM-15","7",,,,,,,,,,,,,,,,,,,,,,,,,,,,,,,,,,,,,,"29.62","42","50","T","-DZ:01 |DZ |DZ",,,"74","29.62","OVC:08 70","29.20","9.00","46","100",,"3",,,,,,,,,,,,,,,,,,,,,,,,,,,,,,,,,,,,,"MET12304/07/20 23:56:02 METAR KHPN 080456Z 10003KT 9SM -DZ OVC070 10/06 A2962 RMK AO2 RAE44DZB44 SLP029 P0000 T01000056 401780050","FM-15","7",,,,,,,,,,,,,,,,,,,,,,,,,,,,"2009-05-22"
"72503794745","2020-04-07T23:59:00","SOD  ","6",,,,,,,,,,,,,,,,"53s",,,"29.44",,"6.9","0s","7.3s","12s","64","41s","180","24","T",,,"180","18","RA DZ",,,,,,,,,,,,,,,,,,,,,,,,,,,,,,,,,,,,,,,,,,,,,,,,,,,,,,,,"SOD72724 HR PRECIPITATION (IN):T     24 HR MAX TEMP (F):64 24 HR MAX TEMP TIME (LST):1527 24 HR MIN TEMP (F):41 24 HR MIN TEMP TIME (LST):1153 AVERAGE STATION PRESSURE:29.445 MINIMUM SEA LEVEL PRESSURE:29.62 TIME OF OCCURRENCE:2356 PEAK WIND SPEED (MPH):24  PEAK WIND DIR (DEG):180 PEAK WIND TIME (LST):1559  FASTEST 2MIN SPEED (MPH):18 FASTEST 2MIN DIR (DEG):180 FASTEST 2MIN TIME (LST):1600 AVERAGE WIND SPEED (MPH):6.9  24 HR AVG TEMP (F):53 HEATING DEGREE DAYS:12  COOLING DEGREE DAYS:0   LATEST DAY MAX TEMP (0700-1900 LST):64  LATEST NIGHT MIN TEMP(1900-0800 LST):47 HOURLY INCREMENTAL PRECIPITATION VALUES (IN):.00 0.00 0.00 0.00 0.00 0.00 0.00 0.00 0.00 0.00 0.00 0.00 0.00 0.00 0.00 0.00 0.00 0.00 0.00 0.00 0.00 T    T    T","SOD  ","6",,,,,,,,,,,,,,,,,,,,,,,,,"0527","1827",,"2009-05-22"
"72503794745","2020-04-08T00:56:00","FM-15","7",,,,,,,,,,,,,,,,,,,,,,,,,,,,,,,,,,,,,,"29.58","44","49","0.01","-RA:02 |RA |RA","+0.10","8","83","29.58","OVC:08 60","29.16","10.00","47","100",,"5",,,,,,,,,,,,,,,,,,,,,,,,,,,,,,,,,,,,,"MET14304/08/20 00:56:02 METAR KHPN 080556Z 10004KT 10SM -RA OVC060 09/07 A2958 RMK AO2 DZE41RAB41 SLP016 P0001 60001 T00940067 10111 20094 58034 (RV)","FM-15","7",,,,,,,,,,,,,,,,,,,,,,,,,,,,"2009-05-22"
"72503794745","2020-04-08T01:56:00","FM-15","7",,,,,,,,,,,,,,,,,,,,,,,,,,,,,,,,,,,,,,"29.53","46","49","0.05","RA:02 BR:1 |RA |RA",,,"90","29.53","OVC:08 49","29.11","5.00","48","120",,"7",,,,,,,,,,,,,,,,,,,,,,,,,,,,,,,,,,,,,"MET10904/08/20 01:56:02 METAR KHPN 080656Z 12006KT 5SM RA BR OVC049 09/08 A2953 RMK AO2 SLP999 P0005 T00940078 (RV)","FM-15","7",,,,,,,,,,,,,,,,,,,,,,,,,,,,"2009-05-22"
"72503794745","2020-04-08T02:56:00","FM-15","7",,,,,,,,,,,,,,,,,,,,,,,,,,,,,,,,,,,,,,"29.52","46","48","0.06","RA:02 BR:1 |RA |RA",,,"93","29.52","BKN:07 46 OVC:08 70","29.10","6.00","47","VRB",,"3",,,,,,,,,,,,,,,,,,,,,,,,,,,,,,,,,,,,,"MET11604/08/20 02:56:02 METAR KHPN 080756Z VRB03KT 6SM RA BR BKN046 OVC070 09/08 A2952 RMK AO2 SLP997 P0006 T00890078 (RV)","FM-15","7",,,,,,,,,,,,,,,,,,,,,,,,,,,,"2009-05-22"
"72503794745","2020-04-08T03:56:00","FM-15","7",,,,,,,,,,,,,,,,,,,,,,,,,,,,,,,,,,,,,,"29.50","46","48","T","BR:1 ||","+0.08","6","93","29.50","SCT:04 24 BKN:07 44 OVC:08 80","29.08","6.00","47","000",,"0",,,,,,,,,,,,,,,,,,,,,,,,,,,,,,,,,,,,,"MET13804/08/20 03:56:02 METAR KHPN 080856Z 00000KT 6SM BR SCT024 BKN044 OVC080 09/08 A2950 RMK AO2 RAE18 SLP991 P0000 60011 T00890078 56026 (RV)","FM-15","7",,,,,,,,,,,,,,,,,,,,,,,,,,,,"2009-05-22"
"72503794745","2020-04-08T04:07:00","FM-16","7",,,,,,,,,,,,,,,,,,,,,,,,,,,,,,,,,,,,,,"29.50","45","48",,"BR:1 ||",,,"89",,"BKN:07 4 OVC:08 15","29.08","4.00","47","000",,"0",,,,,,,,,,,,,,,,,,,,,,,,,,,,,,,,,,,,,"MET10004/08/20 04:07:02 SPECI KHPN 080907Z 00000KT 4SM BR BKN004 OVC015 09/07 A2950 RMK AO2 T00890072 (RV)","FM-16","7",,,,,,,,,,,,,,,,,,,,,,,,,,,,"2009-05-22"
"72503794745","2020-04-08T04:56:00","FM-15","7",,,,,,,,,,,,,,,,,,,,,,,,,,,,,,,,,,,,,,"29.45","46","47","0.00","BR:1 ||",,,"97","29.45","BKN:07 2 OVC:08 7","29.03","2.00","47","070",,"8",,,,,,,,,,,,,,,,,,,,,,,,,,,,,,,,,,,,,"MET10704/08/20 04:56:02 METAR KHPN 080956Z 07007KT 2SM BR BKN002 OVC007 08/08 A2945 RMK AO2 SLP974 T00830078 (RV)","FM-15","7",,,,,,,,,,,,,,,,,,,,,,,,,,,,"2009-05-22"
"72503794745","2020-04-08T05:56:00","FM-15","7",,,,,,,,,,,,,,,,,,,,,,,,,,,,,,,,,,,,,,"29.48","45","47","0.00","BR:1 ||",,,"93","29.48","OVC:08 4","29.06","2.00","46","060",,"5",,,,,,,,,,,,,,,,,,,,,,,,,,,,,,,,,,,,,"MET11204/08/20 05:56:02 METAR KHPN 081056Z 06004KT 2SM BR OVC004 08/07 A2948 RMK AO2 CIG 003V007 SLP984 T00830072 (RV)","FM-15","7",,,,,,,,,,,,,,,,,,,,,,,,,,,,"2009-05-22"
"72503794745","2020-04-08T06:54:00","FM-16","6",,,,,,,,,,,,,,,,,,,,,,,,,,,,,,,,,,,,,,"29.51","45","48",,"BR:1 ||",,,"87",,"OVC:08 9","29.09","3.00","47","010",,"5",,,,,,,,,,,,,,,,,,,,,,,,,,,,,,,,,,,,,"MET08804/08/20 06:54:02 SPECI KHPN 081154Z 01004KT 3SM BR OVC009 09/07 A2951 RMK AO2 FIBI (RV)","FM-16","6",,,,,,,,,,,,,,,,,,,,,,,,,,,,"2009-05-22"
"72503794745","2020-04-08T06:56:00","FM-15","7",,,,,,,,,,,,,,,,,,,,,,,,,,,,,,,,,,,,,,"29.51","45","48","0.00","BR:1 ||","-0.01","3","89","29.52","OVC:08 9","29.09","3.00","47","010",,"5",,,,,,,,,,,,,,,,,,,,,,,,,,,,,,,,,,,,,"MET13004/08/20 06:56:02 METAR KHPN 081156Z 01004KT 3SM BR OVC009 09/07 A2951 RMK AO2 SLP996 60011 70012 T00890072 10094 20083 53004 (RV)","FM-15","7",,,,,,,,,,,,,,,,,,,,,,,,,,,,"2009-05-22"
"72503794745","2020-04-08T07:56:00","FM-15","7",,,,,,,,,,,,,,,,,,,,,,,,,,,,,,,,,,,,,,"29.52","45","48","0.00",,,,"89","29.52","BKN:07 6 OVC:08 10","29.10","7.00","47","040",,"7",,,,,,,,,,,,,,,,,,,,,,,,,,,,,,,,,,,,,"MET10404/08/20 07:56:02 METAR KHPN 081256Z 04006KT 7SM BKN006 OVC010 09/07 A2952 RMK AO2 SLP997 T00890072 (RV)","FM-15","7",,,,,,,,,,,,,,,,,,,,,,,,,,,,"2009-05-22"
"72503794745","2020-04-08T08:56:00","FM-15","7",,,,,,,,,,,,,,,,,,,,,,,,,,,,,,,,,,,,,,"29.53","45","50","0.00",,,,"83","29.54","BKN:07 7","29.11","9.00","48","010",,"7",,,,,,,,,,,,,,,,,,,,,,,,,,,,,,,,,,,,,"MET09704/08/20 08:56:02 METAR KHPN 081356Z 01006KT 9SM BKN007 10/07 A2953 RMK AO2 SLP002 T01000072 (WS)","FM-15","7",,,,,,,,,,,,,,,,,,,,,,,,,,,,"2009-05-22"
"72503794745","2020-04-08T09:56:00","FM-15","7",,,,,,,,,,,,,,,,,,,,,,,,,,,,,,,,,,,,,,"29.55","45","51","0.00",,"-0.04","3","80","29.55","BKN:07 9","29.13","10.00","48","VRB",,"5",,,,,,,,,,,,,,,,,,,,,,,,,,,,,,,,,,,,,"MET10404/08/20 09:56:02 METAR KHPN 081456Z VRB04KT 10SM BKN009 11/07 A2955 RMK AO2 SLP008 T01060072 53012 (WS)","FM-15","7",,,,,,,,,,,,,,,,,,,,,,,,,,,,"2009-05-22"
"72503794745","2020-04-08T10:54:00","FM-16","6",,,,,,,,,,,,,,,,,,,,,,,,,,,,,,,,,,,,,,"29.56","46","54",,,,,"77",,"BKN:07 14 BKN:07 30","29.14","10.00","50","360",,"6",,,,,,,,,,,,,,,,,,,,,,,,,,,,,,,,,,,,,"MET09304/08/20 10:54:02 SPECI KHPN 081554Z 36005KT 10SM BKN014 BKN030 12/08 A2956 RMK AO2 FIBI (WS)","FM-16","6",,,,,,,,,,,,,,,,,,,,,,,,,,,,"2009-05-22"
"72503794745","2020-04-08T10:56:00","FM-15","7",,,,,,,,,,,,,,,,,,,,,,,,,,,,,,,,,,,,,,"29.56","46","54","0.00",,,,"75","29.56","BKN:07 14 BKN:07 30","29.14","10.00","50","000",,"0",,,,,,,,,,,,,,,,,,,,,,,,,,,,,,,,,,,,,"MET10504/08/20 10:56:02 METAR KHPN 081556Z 00000KT 10SM BKN014 BKN030 12/08 A2956 RMK AO2 SLP009 T01220078 (WS)","FM-15","7",,,,,,,,,,,,,,,,,,,,,,,,,,,,"2009-05-22"
"72503794745","2020-04-08T11:56:00","FM-15","6",,,,,,,,,,,,,,,,,,,,,,,,,,,,,,,,,,,,,,"29.56","45","53","0.00",,,,"74","29.56","BKN:07 16","29.14","10.00","49","320",,"8",,,,,,,,,,,,,,,,,,,,,,,,,,,,,,,,,,,,,"MET09804/08/20 11:56:02 METAR KHPN 081656Z 32007KT 10SM BKN016 12/07 A2956 RMK AO2 SLP011 T01170072 (WS)","FM-15","6",,,,,,,,,,,,,,,,,,,,,,,,,,,,"2009-05-22"
"72503794745","2020-04-08T12:56:00","FM-15","7",,,,,,,,,,,,,,,,,,,,,,,,,,,,,,,,,,,,,,"29.57","45","54","0.00",,"-0.02","3","72","29.57","BKN:07 20 OVC:08 26","29.15","10.00","49","320",,"8",,,,,,,,,,,,,,,,,,,,,,,,,,,,,,,,,,,,,"MET12304/08/20 12:56:02 METAR KHPN 081756Z 32007KT 10SM BKN020 OVC026 12/07 A2957 RMK AO2 SLP013 T01220072 10122 20089 53006 (WS)","FM-15","7",,,,,,,,,,,,,,,,,,,,,,,,,,,,"2009-05-22"
"72503794745","2020-04-08T13:54:00","FM-16","6",,,,,,,,,,,,,,,,,,,,,,,,,,,,,,,,,,,,,,"29.57","45","54",,,,,"72",,"FEW:02 20 FEW:02 25 OVC:08 36","29.15","10.00","49","320",,"8",,,,,,,,,,,,,,,,,,,,,,,,,,,,,,,,,,,,,"MET11704/08/20 13:54:02 SPECI KHPN 081854Z 32007KT 10SM R16/2600VP6000FT FEW020 FEW025 OVC036 12/07 A2957 RMK AO2 FIBI (WS)","FM-16","6",,,,,,,,,,,,,,,,,,,,,,,,,,,,"2009-05-22"
"72503794745","2020-04-08T13:56:00","FM-15","7",,,,,,,,,,,,,,,,,,,,,,,,,,,,,,,,,,,,,,"29.57","44","54","0.00",,,,"69","29.57","FEW:02 20 SCT:04 27 BKN:07 34","29.15","10.00","49","300",,"8",,,,,,,,,,,,,,,,,,,,,,,,,,,,,,,,,,,,,"MET12904/08/20 13:56:02 METAR KHPN 081856Z 30007KT 10SM R16/2600VP6000FT FEW020 SCT027 BKN034 12/07 A2957 RMK AO2 SLP014 T01220067 (WS)","FM-15","7",,,,,,,,,,,,,,,,,,,,,,,,,,,,"2009-05-22"
"72503794745","2020-04-08T14:56:00","FM-15","7",,,,,,,,,,,,,,,,,,,,,,,,,,,,,,,,,,,,,,"29.57","45","59","0.00",,,,"60","29.57","BKN:07 55","29.15","10.00","52","320",,"10",,,,,,,,,,,,,,,,,,,,,,,,,,,,,,,,,,,,,"MET09804/08/20 14:56:02 METAR KHPN 081956Z 32009KT 10SM BKN055 15/07 A2957 RMK AO2 SLP014 T01500072 (WS)","FM-15","7",,,,,,,,,,,,,,,,,,,,,,,,,,,,"2009-05-22"
"72503794745","2020-04-08T15:56:00","FM-15","7",,,,,,,,,,,,,,,,,,,,,,,,,,,,,,,,,,,,,,"29.58","43","58","0.00",,"-0.01","3","58","29.57","SCT:04 37","29.16","10.00","50","340",,"13",,,,,,,,,,,,,,,,,,,,,,,,,,,,,,,,,,,,,"MET10404/08/20 15:56:02 METAR KHPN 082056Z 34011KT 10SM SCT037 14/06 A2958 RMK AO2 SLP015 T01440061 53002 (WS)","FM-15","7",,,,,,,,,,,,,,,,,,,,,,,,,,,,"2009-05-22"
"72503794745","2020-04-08T16:56:00","FM-15","7",,,,,,,,,,,,,,,,,,,,,,,,,,,,,,,,,,,,,,"29.58","42","59","0.00",,,,"54","29.58","FEW:02 37","29.16","10.00","50","330",,"11",,,,,,,,,,,,,,,,,,,,,,,,,,,,,,,,,,,,,"MET09804/08/20 16:56:02 METAR KHPN 082156Z 33010KT 10SM FEW037 15/06 A2958 RMK AO2 SLP016 T01500056 (WS)","FM-15","7",,,,,,,,,,,,,,,,,,,,,,,,,,,,"2009-05-22"
"72503794745","2020-04-08T17:56:00","FM-15","7",,,,,,,,,,,,,,,,,,,,,,,,,,,,,,,,,,,,,,"29.59","42","57","0.00",,,,"58","29.59","CLR:00","29.17","10.00","49","330",,"6",,,,,,,,,,,,,,,,,,,,,,,,,,,,,,,,,,,,,"MET09504/08/20 17:56:02 METAR KHPN 082256Z 33005KT 10SM CLR 14/06 A2959 RMK AO2 SLP022 T01390056 (MM)","FM-15","7",,,,,,,,,,,,,,,,,,,,,,,,,,,,"2009-05-22"
"72503794745","2020-04-08T18:56:00","FM-15","7",,,,,,,,,,,,,,,,,,,,,,,,,,,,,,,,,,,,,,"29.62","43","51","0.00",,"-0.04","3","74","29.62","SCT:04 70","29.20","10.00","47","170",,"3",,,,,,,,,,,,,,,,,,,,,,,,,,,,,,,,,,,,,"MET11604/08/20 18:56:02 METAR KHPN 082356Z 17003KT 10SM SCT070 11/06 A2962 RMK AO2 SLP030 T01060061 10156 20106 53014 (MM)","FM-15","7",,,,,,,,,,,,,,,,,,,,,,,,,,,,"2009-05-22"
"72503794745","2020-04-08T19:56:00","FM-15","7",,,,,,,,,,,,,,,,,,,,,,,,,,,,,,,,,,,,,,"29.64","44","50","0.00",,,,"80","29.65","CLR:00","29.22","10.00","47","000",,"0",,,,,,,,,,,,,,,,,,,,,,,,,,,,,,,,,,,,,"MET09004/08/20 19:56:01 METAR KHPN 090056Z 00000KT 10SM CLR 10/07 A2964 RMK AO2 SLP040 T01000067","FM-15","7",,,,,,,,,,,,,,,,,,,,,,,,,,,,"2009-05-22"
"72503794745","2020-04-08T20:56:00","FM-15","7",,,,,,,,,,,,,,,,,,,,,,,,,,,,,,,,,,,,,,"29.67","43","49","0.00",,,,"80","29.68","CLR:00","29.25","10.00","46","190",,"8",,,,,,,,,,,,,,,,,,,,,,,,,,,,,,,,,,,,,"MET09004/08/20 20:56:01 METAR KHPN 090156Z 19007KT 10SM CLR 09/06 A2967 RMK AO2 SLP050 T00940061","FM-15","7",,,,,,,,,,,,,,,,,,,,,,,,,,,,"2009-05-22"
"72503794745","2020-04-08T21:56:00","FM-15","7",,,,,,,,,,,,,,,,,,,,,,,,,,,,,,,,,,,,,,"29.66","43","46","0.00",,"-0.04","0","89","29.66","CLR:00","29.23","10.00","45","000",,"0",,,,,,,,,,,,,,,,,,,,,,,,,,,,,,,,,,,,,"MET09604/08/20 21:56:01 METAR KHPN 090256Z 00000KT 10SM CLR 08/06 A2966 RMK AO2 SLP045 T00780061 50015","FM-15","7",,,,,,,,,,,,,,,,,,,,,,,,,,,,"2009-05-22"
"72503794745","2020-04-08T22:56:00","FM-15","7",,,,,,,,,,,,,,,,,,,,,,,,,,,,,,,,,,,,,,"29.65","42","44","0.00",,,,"93","29.66","CLR:00","29.23","8.00","43","000",,"0",,,,,,,,,,,,,,,,,,,,,,,,,,,,,,,,,,,,,"MET08904/08/20 22:56:02 METAR KHPN 090356Z 00000KT 8SM CLR 07/06 A2965 RMK AO2 SLP043 T00670056","FM-15","7",,,,,,,,,,,,,,,,,,,,,,,,,,,,"2009-05-22"
"72503794745","2020-04-08T23:56:00","FM-15","7",,,,,,,,,,,,,,,,,,,,,,,,,,,,,,,,,,,,,,"29.61","40","42","0.00",,,,"92","29.62","CLR:00","29.19","7.00","41","140",,"3",,,,,,,,,,,,,,,,,,,,,,,,,,,,,,,,,,,,,"MET09904/08/20 23:56:02 METAR KHPN 090456Z 14003KT 7SM CLR 06/04 A2961 RMK AO2 SLP030 T00560044 401560056","FM-15","7",,,,,,,,,,,,,,,,,,,,,,,,,,,,"2009-05-22"
"72503794745","2020-04-08T23:59:00","SOD  ","6",,,,,,,,,,,,,,,,"51",,,"29.15",,"5.4","0","4.9","14","60","42","340","21","0.12",,,"330","17","RA BR",,,,,,,,,,,,,,,,,,,,,,,,,,,,,,,,,,,,,,,,,,,,,,,,,,,,,,,,"SOD73024 HR PRECIPITATION (IN):0.12  24 HR MAX TEMP (F):60 24 HR MAX TEMP TIME (LST):1645 24 HR MIN TEMP (F):42 24 HR MIN TEMP TIME (LST):2359 AVERAGE STATION PRESSURE:29.145 MINIMUM SEA LEVEL PRESSURE:29.45 TIME OF OCCURRENCE:0500 PEAK WIND SPEED (MPH):21  PEAK WIND DIR (DEG):340 PEAK WIND TIME (LST):1537  FASTEST 2MIN SPEED (MPH):17 FASTEST 2MIN DIR (DEG):330 FASTEST 2MIN TIME (LST):1541 AVERAGE WIND SPEED (MPH):5.4  24 HR AVG TEMP (F):51 HEATING DEGREE DAYS:14  COOLING DEGREE DAYS:0   LATEST DAY MAX TEMP (0700-1900 LST):60  LATEST NIGHT MIN TEMP(1900-0800 LST):47 HOURLY INCREMENTAL PRECIPITATION VALUES (IN):.01 0.05 0.06 T    0.00 0.00 0.00 0.00 0.00 0.00 0.00 0.00 0.00 0.00 0.00 0.00 0.00 0.00 0.00 0.00 0.00 0.00 0.00 0.00","SOD  ","6",,,,,,,,,,,,,,,,,,,,,,,,,"0526","1828",,"2009-05-22"
"72503794745","2020-04-09T00:56:00","FM-15","7",,,,,,,,,,,,,,,,,,,,,,,,,,,,,,,,,,,,,,"29.62","42","44","0.00",,"+0.04","5","93","29.62","CLR:00","29.20","8.00","43","000",,"0",,,,,,,,,,,,,,,,,,,,,,,,,,,,,,,,,,,,,"MET11204/09/20 00:56:02 METAR KHPN 090556Z 00000KT 8SM CLR 07/06 A2962 RMK AO2 SLP032 T00670056 10111 20044 55014 (MM)","FM-15","7",,,,,,,,,,,,,,,,,,,,,,,,,,,,"2009-05-22"
"72503794745","2020-04-09T01:56:00","FM-15","7",,,,,,,,,,,,,,,,,,,,,,,,,,,,,,,,,,,,,,"29.60","41","43","0.00",,,,"93","29.60","CLR:00","29.18","7.00","42","000",,"0",,,,,,,,,,,,,,,,,,,,,,,,,,,,,,,,,,,,,"MET09404/09/20 01:56:02 METAR KHPN 090656Z 00000KT 7SM CLR 06/05 A2960 RMK AO2 SLP024 T00610050 (MM)","FM-15","7",,,,,,,,,,,,,,,,,,,,,,,,,,,,"2009-05-22"
"72503794745","2020-04-09T02:56:00","FM-15","7",,,,,,,,,,,,,,,,,,,,,,,,,,,,,,,,,,,,,,"29.58","38","41","0.00","BR:1 ||",,,"89","29.58","CLR:00","29.16","6.00","40","000",,"0",,,,,,,,,,,,,,,,,,,,,,,,,,,,,,,,,,,,,"MET09704/09/20 02:56:02 METAR KHPN 090756Z 00000KT 6SM BR CLR 05/03 A2958 RMK AO2 SLP018 T00500033 (RV)","FM-15","7",,,,,,,,,,,,,,,,,,,,,,,,,,,,"2009-05-22"
"72503794745","2020-04-09T03:08:00","FM-16","7",,,,,,,,,,,,,,,,,,,,,,,,,,,,,,,,,,,,,,"29.57","39","41",,"BR:1 ||",,,"93",,"CLR:00","29.15","1.50","40","000",,"0",,,,,,,,,,,,,,,,,,,,,,,,,,,,,,,,,,,,,"MET09404/09/20 03:08:02 SPECI KHPN 090808Z 00000KT 1 1/2SM BR CLR 05/04 A2957 RMK AO2 T00500039 (RV)","FM-16","7",,,,,,,,,,,,,,,,,,,,,,,,,,,,"2009-05-22"
"72503794745","2020-04-09T03:54:00","FM-16","6",,,,,,,,,,,,,,,,,,,,,,,,,,,,,,,,,,,,,,"29.56","39","41",,"BR:1 ||",,,"93",,"CLR:00","29.14","5.00","40","000",,"0",,,,,,,,,,,,,,,,,,,,,,,,,,,,,,,,,,,,,"MET08504/09/20 03:54:02 SPECI KHPN 090854Z 00000KT 5SM BR CLR 05/04 A2956 RMK AO2 FIBI (RV)","FM-16","6",,,,,,,,,,,,,,,,,,,,,,,,,,,,"2009-05-22"
"72503794745","2020-04-09T03:56:00","FM-15","7",,,,,,,,,,,,,,,,,,,,,,,,,,,,,,,,,,,,,,"29.56","40","41","0.00","BR:1 ||","+0.06","6","96","29.56","CLR:00","29.14","5.00","41","000",,"0",,,,,,,,,,,,,,,,,,,,,,,,,,,,,,,,,,,,,"MET10304/09/20 03:56:02 METAR KHPN 090856Z 00000KT 5SM BR CLR 05/04 A2956 RMK AO2 SLP011 T00500044 56020 (RV)","FM-15","7",,,,,,,,,,,,,,,,,,,,,,,,,,,,"2009-05-22"
"72503794745","2020-04-09T04:09:00","FM-16","7",,,,,,,,,,,,,,,,,,,,,,,,,,,,,,,,,,,,,,"29.55","40","42",,"BR:1 ||",,,"92",,"FEW:02 3 SCT:04 30","29.13","4.00","41","000",,"0",,,,,,,,,,,,,,,,,,,,,,,,,,,,,,,,,,,,,"MET10004/09/20 04:09:02 SPECI KHPN 090909Z 00000KT 4SM BR FEW003 SCT030 06/04 A2955 RMK AO2 T00560044 (RV)","FM-16","7",,,,,,,,,,,,,,,,,,,,,,,,,,,,"2009-05-22"
"72503794745","2020-04-09T04:54:00","FM-16","6",,,,,,,,,,,,,,,,,,,,,,,,,,,,,,,,,,,,,,"29.53","41","43",,"BR:1 ||",,,"93",,"BKN:07 2 BKN:07 10","29.11","1.50","42","000",,"0",,,,,,,,,,,,,,,,,,,,,,,,,,,,,,,,,,,,,"MET09904/09/20 04:54:02 SPECI KHPN 090954Z 00000KT 1 1/2SM BR BKN002 BKN010 06/05 A2953 RMK AO2 FIBI (RV)","FM-16","6",,,,,,,,,,,,,,,,,,,,,,,,,,,,"2009-05-22"
"72503794745","2020-04-09T04:56:00","FM-15","7",,,,,,,,,,,,,,,,,,,,,,,,,,,,,,,,,,,,,,"29.53","41","43","0.00","BR:1 ||",,,"93","29.53","BKN:07 2 BKN:07 10","29.11","1.50","42","000",,"0",,,,,,,,,,,,,,,,,,,,,,,,,,,,,,,,,,,,,"MET11104/09/20 04:56:02 METAR KHPN 090956Z 00000KT 1 1/2SM BR BKN002 BKN010 06/05 A2953 RMK AO2 SLP001 T00610050 (RV)","FM-15","7",,,,,,,,,,,,,,,,,,,,,,,,,,,,"2009-05-22"
"72503794745","2020-04-09T05:56:00","FM-15","7",,,,,,,,,,,,,,,,,,,,,,,,,,,,,,,,,,,,,,"29.49","43","44","0.00","BR:1 ||",,,"96","29.49","VV:09 2","29.07","1.00","44","120",,"8",,,,,,,,,,,,,,,,,,,,,,,,,,,,,,,,,,,,,"MET11104/09/20 05:56:02 METAR KHPN 091056Z 12007KT 1SM R16/P6000FT BR VV002 07/06 A2949 RMK AO2 SLP987 T00670061 (RV)","FM-15","7",,,,,,,,,,,,,,,,,,,,,,,,,,,,"2009-05-22"
"72503794745","2020-04-09T06:54:00","FM-16","6",,,,,,,,,,,,,,,,,,,,,,,,,,,,,,,,,,,,,,"29.47","45","45",,"BR:1 ||",,,"100",,"VV:09 2","29.05","0.75","45","120",,"9",,,,,,,,,,,,,,,,,,,,,,,,,,,,,,,,,,,,,"MET10104/09/20 06:54:02 SPECI KHPN 091154Z 12008KT 3/4SM R16/P6000FT BR VV002 07/07 A2947 RMK AO2 FIBI (RV)","FM-16","6",,,,,,,,,,,,,,,,,,,,,,,,,,,,"2009-05-22"
"72503794745","2020-04-09T06:56:00","FM-15","7",,,,,,,,,,,,,,,,,,,,,,,,,,,,,,,,,,,,,,"29.46","44","45","0.00","BR:1 ||","+0.09","6","97","29.47","VV:09 2","29.04","0.75","45","120",,"7",,,,,,,,,,,,,,,,,,,,,,,,,,,,,,,,,,,,,"MET13104/09/20 06:56:02 METAR KHPN 091156Z 12006KT 3/4SM R16/P6000FT BR VV002 07/07 A2946 RMK AO2 SLP980 T00720067 10072 20044 56031 (RV)","FM-15","7",,,,,,,,,,,,,,,,,,,,,,,,,,,,"2009-05-22"
"72503794745","2020-04-09T07:54:00","FM-16","6",,,,,,,,,,,,,,,,,,,,,,,,,,,,,,,,,,,,,,"29.43","45","46",,"-RA:02 BR:1 |RA |RA",,,"93",,"BKN:07 3 OVC:08 10","29.01","1.25","46","110",,"5",,,,,,,,,,,,,,,,,,,,,,,,,,,,,,,,,,,,,"MET11504/09/20 07:54:02 SPECI KHPN 091254Z 11004KT 1 1/4SM -RA BR BKN003 OVC010 08/07 A2943 RMK AO2 RAB42 P0000 FIBI (RV)","FM-16","6",,,,,,,,,,,,,,,,,,,,,,,,,,,,"2009-05-22"
"72503794745","2020-04-09T07:56:00","FM-15","7",,,,,,,,,,,,,,,,,,,,,,,,,,,,,,,,,,,,,,"29.43","45","46","T","-RA:02 BR:1 |RA |RA",,,"96","29.43","BKN:07 3 OVC:08 10","29.01","1.25","46","100",,"3",,,,,,,,,,,,,,,,,,,,,,,,,,,,,,,,,,,,,"MET12704/09/20 07:56:02 METAR KHPN 091256Z 10003KT 1 1/4SM -RA BR BKN003 OVC010 08/07 A2943 RMK AO2 RAB42 SLP967 P0000 T00780072 (RV)","FM-15","7",,,,,,,,,,,,,,,,,,,,,,,,,,,,"2009-05-22"
"72503794745","2020-04-09T08:56:00","FM-15","7",,,,,,,,,,,,,,,,,,,,,,,,,,,,,,,,,,,,,,"29.36","45","47","0.11","-RA:02 BR:1 |RA |RA",,,"93","29.36","BKN:07 3 BKN:07 29 OVC:08 34","28.94","1.00","46","110",,"8",,,,,,,,,,,,,,,,,,,,,,,,,,,,,,,,,,,,,"MET14304/09/20 08:56:02 METAR KHPN 091356Z 11007KT 1SM R16/P6000FT -RA BR BKN003 BKN029 OVC034 08/07 A2936 RMK AO2 PRESFR SLP943 P0010 T00830072 (RV)","FM-15","7",,,,,,,,,,,,,,,,,,,,,,,,,,,,"2009-05-22"
"72503794745","2020-04-09T09:54:00","FM-16","6",,,,,,,,,,,,,,,,,,,,,,,,,,,,,,,,,,,,,,"29.30","46","48",,"BR:1 ||",,,"94",,"FEW:02 5 OVC:08 22","28.88","2.50","47","110",,"9",,,,,,,,,,,,,,,,,,,,,,,,,,,,,,,,,,,,,"MET11104/09/20 09:54:02 SPECI KHPN 091454Z 11008KT 2 1/2SM BR FEW005 OVC022 09/08 A2930 RMK AO2 RAE42 P0002 FIBI (RV)","FM-16","6",,,,,,,,,,,,,,,,,,,,,,,,,,,,"2009-05-22"
"72503794745","2020-04-09T09:56:00","FM-15","7",,,,,,,,,,,,,,,,,,,,,,,,,,,,,,,,,,,,,,"29.30","47","48","0.02","-RA:02 BR:1 |RA |RA","+0.17","8","96","29.30","FEW:02 5 OVC:08 22","28.88","2.50","47","110",,"8",,,,,,,,,,,,,,,,,,,,,,,,,,,,,,,,,,,,,"MET13304/09/20 09:56:02 METAR KHPN 091456Z 11007KT 2 1/2SM -RA BR FEW005 OVC022 09/08 A2930 RMK AO2 SLP923 P0002 60012 T00890083 58056 (RV)","FM-15","7",,,,,,,,,,,,,,,,,,,,,,,,,,,,"2009-05-22"
"72503794745","2020-04-09T10:54:00","FM-16","6",,,,,,,,,,,,,,,,,,,,,,,,,,,,,,,,,,,,,,"29.22","46","48",,"-RA:02 BR:1 |RA |RA",,,"94",,"FEW:02 5 OVC:08 11","28.80","2.50","47","120",,"7",,,,,,,,,,,,,,,,,,,,,,,,,,,,,,,,,,,,,"MET10904/09/20 10:54:02 SPECI KHPN 091554Z 12006KT 2 1/2SM -RA BR FEW005 OVC011 09/08 A2922 RMK AO2 P0002 FIBI (RV)","FM-16","6",,,,,,,,,,,,,,,,,,,,,,,,,,,,"2009-05-22"
"72503794745","2020-04-09T10:56:00","FM-15","7",,,,,,,,,,,,,,,,,,,,,,,,,,,,,,,,,,,,,,"29.22","47","49","0.01","-RA:02 BR:1 |RA |RA",,,"93","29.22","FEW:02 5 OVC:08 11","28.80","6.00","48","120",,"6",,,,,,,,,,,,,,,,,,,,,,,,,,,,,,,,,,,,,"MET11704/09/20 10:56:02 METAR KHPN 091556Z 12005KT 6SM -RA BR FEW005 OVC011 09/08 A2922 RMK AO2 SLP896 P0002 T00940083 (RV)","FM-15","7",,,,,,,,,,,,,,,,,,,,,,,,,,,,"2009-05-22"
"72503794745","2020-04-09T11:54:00","FM-16","6",,,,,,,,,,,,,,,,,,,,,,,,,,,,,,,,,,,,,,"29.16","48","50",,"BR:1 ||",,,"94",,"BKN:07 5 OVC:08 10","28.74","2.50","49","160",,"7",,,,,,,,,,,,,,,,,,,,,,,,,,,,,,,,,,,,,"MET12304/09/20 11:54:02 SPECI KHPN 091654Z 16006KT 2 1/2SM BR BKN005 OVC010 10/09 A2916 RMK AO2 LTG DSNT NE RAE53 P0000 FIBI (RV)","FM-16","6",,,,,,,,,,,,,,,,,,,,,,,,,,,,"2009-05-22"
"72503794745","2020-04-09T11:56:00","FM-15","7",,,,,,,,,,,,,,,,,,,,,,,,,,,,,,,,,,,,,,"29.16","48","50","T","BR:1 ||",,,"93","29.16","BKN:07 5 OVC:08 10","28.74","2.50","49","150",,"6",,,,,,,,,,,,,,,,,,,,,,,,,,,,,,,,,,,,,"MET13004/09/20 11:56:02 METAR KHPN 091656Z 15005KT 2 1/2SM BR BKN005 OVC010 10/09 A2916 RMK AO2 LTG DSNT NE RAE53 SLP876 P0000 T01000089","FM-15","7",,,,,,,,,,,,,,,,,,,,,,,,,,,,"2009-05-22"
"72503794745","2020-04-09T12:54:00","FM-16","6",,,,,,,,,,,,,,,,,,,,,,,,,,,,,,,,,,,,,,"29.16","50","52",,"RA:02 BR:1 |RA |RA",,,"94",,"BKN:07 2 OVC:08 10","28.74","1.50","51","270","45","31s",,,,,,,,,,,,,,,,,,,,,,,,,,,,,,,,,,,,,"MET15204/09/20 12:54:02 SPECI KHPN 091754Z 27027G39KT 1 1/2SM R16/6000VP6000FT RA BR BKN002 OVC010 11/10 A2916 RMK AO2 PK WND 27027/1754 RAB29 P0008 FIBI (ML)","FM-16","6",,,,,,,,,,,,,,,,,,,,,,,,,,,,"2009-05-22"
"72503794745","2020-04-09T12:56:00","FM-15","7",,,,,,,,,,,,,,,,,,,,,,,,,,,,,,,,,,,,,,"29.16","49","52","0.09","RA:02 BR:1 |RA |RA","+0.13","5","89","29.17","BKN:07 4 OVC:08 10","28.74","1.50","50","270","45","31",,,,,,,,,,,,,,,,,,,,,,,,,,,,,,,,,,,,,"MET20004/09/20 12:56:02 METAR KHPN 091756Z 27027G39KT 1 1/2SM R16/6000VP6000FT RA BR BKN004 OVC010 11/09 A2916 RMK AO2 PK WND 29029/1756 LTG DSNT SW RAB29 SLP877 P0008 60022 T01110094 10111 20072 55045 (ML)","FM-15","7",,,,,,,,,,,,,,,,,,,,,,,,,,,,"2009-05-22"
"72503794745","2020-04-09T13:54:00","FM-16","6",,,,,,,,,,,,,,,,,,,,,,,,,,,,,,,,,,,,,,"29.16","45","52",,"-RA:02 |RA |RA",,,"77",,"SCT:04 28 BKN:07 34 OVC:08 55","28.74","1.50","48","300","43","30",,,,,,,,,,,,,,,,,,,,,,,,,,,,,,,,,,,,,"MET14604/09/20 13:54:02 SPECI KHPN 091854Z 30026G37KT 1 1/2SM -RA SCT028 BKN034 OVC055 11/07 A2916 RMK AO2 PK WND 31037/1854 LTG DSNT SE P0004 FIBI (ML)","FM-16","6",,,,,,,,,,,,,,,,,,,,,,,,,,,,"2009-05-22"
"72503794745","2020-04-09T13:56:00","FM-15","7",,,,,,,,,,,,,,,,,,,,,,,,,,,,,,,,,,,,,,"29.16","43","51","0.03","-RA:02 |RA |RA",,,"74","29.16","SCT:04 28 BKN:07 36 OVC:08 49","28.74","1.50","47","310","48","34",,,,,,,,,,,,,,,,,,,,,,,,,,,,,,,,,,,,,"MET15804/09/20 13:56:02 METAR KHPN 091856Z 31030G42KT 1 1/2SM -RA SCT028 BKN036 OVC049 11/06 A2916 RMK AO2 PK WND 31042/1855 LTG DSNT SE SLP876 P0004 T01060061 (ML)","FM-15","7",,,,,,,,,,,,,,,,,,,,,,,,,,,,"2009-05-22"
"72503794745","2020-04-09T14:10:00","FM-16","7",,,,,,,,,,,,,,,,,,,,,,,,,,,,,,,,,,,,,,"29.18","39","50","T","-RA:02 |RA |RA",,,"66",,"FEW:02 30 SCT:04 47 BKN:07 110","28.76","10.00","45","300","46","37",,,,,,,,,,,,,,,,,,,,,,,,,,,,,,,,,,,,,"MET14304/09/20 14:10:02 SPECI KHPN 091910Z 30032G40KT 10SM -RA FEW030 SCT047 BKN110 10/04 A2918 RMK AO2 PK WND 30040/1909 PRESRR P0000 T01000039 (ML)","FM-16","7",,,,,,,,,,,,,,,,,,,,,,,,,,,,"2009-05-22"
"72503794745","2020-04-09T14:56:00","FM-15","7",,,,,,,,,,,,,,,,,,,,,,,,,,,,,,,,,,,,,,"29.19","37","52","T",,,,"57","29.19","FEW:02 100 SCT:04 110","28.77","10.00","45","300","33","25",,,,,,,,,,,,,,,,,,,,,,,,,,,,,,,,,,,,,"MET13804/09/20 14:56:02 METAR KHPN 091956Z 30022G29KT 10SM FEW100 SCT110 11/03 A2919 RMK AO2 PK WND 30040/1909 RAE52 SLP885 P0000 T01110028 (ML)","FM-15","7",,,,,,,,,,,,,,,,,,,,,,,,,,,,"2009-05-22"
"72503794745","2020-04-09T15:56:00","FM-15","7",,,,,,,,,,,,,,,,,,,,,,,,,,,,,,,,,,,,,,"29.22","32","49","0.00",,"-0.06","3","52","29.23","CLR:00","28.80","10.00","42","310","41","29",,,,,,,,,,,,,,,,,,,,,,,,,,,,,,,,,,,,,"MET12804/09/20 15:56:02 METAR KHPN 092056Z 31025G36KT 10SM CLR 09/00 A2922 RMK AO2 PK WND 30042/2038 SLP900 60004 T00940000 53021 (ML)","FM-15","7",,,,,,,,,,,,,,,,,,,,,,,,,,,,"2009-05-22"
"72503794745","2020-04-09T16:56:00","FM-15","7",,,,,,,,,,,,,,,,,,,,,,,,,,,,,,,,,,,,,,"29.27","27","47","0.00",,,,"46","29.28","FEW:02 40","28.85","10.00","39","300","46","29",,,,,,,,,,,,,,,,,,,,,,,,,,,,,,,,,,,,,"MET12004/09/20 16:56:02 METAR KHPN 092156Z 30025G40KT 10SM FEW040 08/M03 A2927 RMK AO2 PK WND 29041/2127 SLP915 T00831028 (ML)","FM-15","7",,,,,,,,,,,,,,,,,,,,,,,,,,,,"2009-05-22"
"72503794745","2020-04-09T17:56:00","FM-15","7",,,,,,,,,,,,,,,,,,,,,,,,,,,,,,,,,,,,,,"29.30","25","47","0.00",,,,"42","29.30","FEW:02 35","28.88","10.00","38","300","31","21",,,,,,,,,,,,,,,,,,,,,,,,,,,,,,,,,,,,,"MET12004/09/20 17:56:02 METAR KHPN 092256Z 30018G27KT 10SM FEW035 08/M04 A2930 RMK AO2 PK WND 31037/2233 SLP923 T00831039 (ML)","FM-15","7",,,,,,,,,,,,,,,,,,,,,,,,,,,,"2009-05-22"
"72503794745","2020-04-09T18:56:00","FM-15","7",,,,,,,,,,,,,,,,,,,,,,,,,,,,,,,,,,,,,,"29.32","25","46","0.00",,"-0.09","1","44","29.33","CLR:00","28.90","10.00","38","290","31","17",,,,,,,,,,,,,,,,,,,,,,,,,,,,,,,,,,,,,"MET14104/09/20 18:56:02 METAR KHPN 092356Z 29015G27KT 10SM CLR 08/M04 A2932 RMK AO2 PK WND 30028/2306 SLP931 60004 T00781039 10117 20078 51032 (ML)","FM-15","7",,,,,,,,,,,,,,,,,,,,,,,,,,,,"2009-05-22"
"72503794745","2020-04-09T19:56:00","FM-15","7",,,,,,,,,,,,,,,,,,,,,,,,,,,,,,,,,,,,,,"29.35","24","45","0.00",,,,"44","29.35","CLR:00","28.93","10.00","37","290","28","18",,,,,,,,,,,,,,,,,,,,,,,,,,,,,,,,,,,,,"MET11204/09/20 19:56:01 METAR KHPN 100056Z 29016G24KT 10SM CLR 07/M04 A2935 RMK AO2 PK WND 30029/0039 SLP940 T00721044","FM-15","7",,,,,,,,,,,,,,,,,,,,,,,,,,,,"2009-05-22"
"72503794745","2020-04-09T20:56:00","FM-15","7",,,,,,,,,,,,,,,,,,,,,,,,,,,,,,,,,,,,,,"29.34","23","44","0.00",,,,"43","29.35","CLR:00","28.92","10.00","36","280","24","13",,,,,,,,,,,,,,,,,,,,,,,,,,,,,,,,,,,,,"MET09404/09/20 20:56:01 METAR KHPN 100156Z 28011G21KT 10SM CLR 07/M05 A2934 RMK AO2 SLP939 T00671050","FM-15","7",,,,,,,,,,,,,,,,,,,,,,,,,,,,"2009-05-22"
"72503794745","2020-04-09T21:56:00","FM-15","7",,,,,,,,,,,,,,,,,,,,,,,,,,,,,,,,,,,,,,"29.33","22","44","0.00",,"-0.01","0","41","29.34","CLR:00","28.91","10.00","36","280","26","15",,,,,,,,,,,,,,,,,,,,,,,,,,,,,,,,,,,,,"MET10004/09/20 21:56:01 METAR KHPN 100256Z 28013G23KT 10SM CLR 07/M06 A2933 RMK AO2 SLP934 T00671056 50003","FM-15","7",,,,,,,,,,,,,,,,,,,,,,,,,,,,"2009-05-22"
"72503794745","2020-04-09T22:56:00","FM-15","7",,,,,,,,,,,,,,,,,,,,,,,,,,,,,,,,,,,,,,"29.32","23","43","0.00",,,,"45","29.32","CLR:00","28.90","10.00","35","280","21","13",,,,,,,,,,,,,,,,,,,,,,,,,,,,,,,,,,,,,"MET09404/09/20 22:56:02 METAR KHPN 100356Z 28011G18KT 10SM CLR 06/M05 A2932 RMK AO2 SLP930 T00611050","FM-15","7",,,,,,,,,,,,,,,,,,,,,,,,,,,,"2009-05-22"
"72503794745","2020-04-09T23:56:00","FM-15","7",,,,,,,,,,,,,,,,,,,,,,,,,,,,,,,,,,,,,,"29.31","24","43","0.00",,,,"47","29.32","BKN:07 80","28.89","10.00","36","270","17","9",,,,,,,,,,,,,,,,,,,,,,,,,,,,,,,,,,,,,"MET10704/09/20 23:56:02 METAR KHPN 100456Z 27008G15KT 10SM BKN080 06/M04 A2931 RMK AO2 SLP928 T00611044 401170044","FM-15","7",,,,,,,,,,,,,,,,,,,,,,,,,,,,"2009-05-22"
"72503794745","2020-04-09T23:59:00","SOD  ","6",,,,,,,,,,,,,,,,"47",,,"28.97",,"12.5","0","0.6","18","53","40","300","49","0.26",,,"300","39","RA BR",,,,,,,,,,,,,,,,,,,,,,,,,,,,,,,,,,,,,,,,,,,,,,,,,,,,,,,,"SOD73024 HR PRECIPITATION (IN):0.26  24 HR MAX TEMP (F):53 24 HR MAX TEMP TIME (LST):1514 24 HR MIN TEMP (F):40 24 HR MIN TEMP TIME (LST):0400 AVERAGE STATION PRESSURE:28.965 MINIMUM SEA LEVEL PRESSURE:29.13 TIME OF OCCURRENCE:1323 PEAK WIND SPEED (MPH):49  PEAK WIND DIR (DEG):300 PEAK WIND TIME (LST):1538  FASTEST 2MIN SPEED (MPH):39 FASTEST 2MIN DIR (DEG):300 FASTEST 2MIN TIME (LST):1539 AVERAGE WIND SPEED (MPH):12.5 24 HR AVG TEMP (F):47 HEATING DEGREE DAYS:18  COOLING DEGREE DAYS:0   LATEST DAY MAX TEMP (0700-1900 LST):53  LATEST NIGHT MIN TEMP(1900-0800 LST):40 HOURLY INCREMENTAL PRECIPITATION VALUES (IN):.00 0.00 0.00 0.00 0.00 0.00 0.00 T    0.11 0.02 0.01 T    0.09 0.03 T    0.00 0.00 0.00 0.00 0.00 0.00 0.00 0.00 0.00","SOD  ","6",,,,,,,,,,,,,,,,,,,,,,,,,"0524","1829",,"2009-05-22"
"72503794745","2020-04-10T00:56:00","FM-15","7",,,,,,,,,,,,,,,,,,,,,,,,,,,,,,,,,,,,,,"29.29","27","41","0.00",,"+0.04","8","57","29.30","FEW:02 110","28.87","10.00","35","280","23","16",,,,,,,,,,,,,,,,,,,,,,,,,,,,,,,,,,,,,"MET12004/10/20 00:56:02 METAR KHPN 100556Z 28014G20KT 10SM FEW110 05/M03 A2929 RMK AO2 SLP922 T00501028 10078 20050 58012 (JR)","FM-15","7",,,,,,,,,,,,,,,,,,,,,,,,,,,,"2009-05-22"
"72503794745","2020-04-10T01:56:00","FM-15","7",,,,,,,,,,,,,,,,,,,,,,,,,,,,,,,,,,,,,,"29.29","29","40","0.00",,,,"65","29.29","CLR:00","28.87","10.00","36","270","22","13",,,,,,,,,,,,,,,,,,,,,,,,,,,,,,,,,,,,,"MET09904/10/20 01:56:02 METAR KHPN 100656Z 27011G19KT 10SM CLR 04/M02 A2929 RMK AO2 SLP919 T00441017 (JR)","FM-15","7",,,,,,,,,,,,,,,,,,,,,,,,,,,,"2009-05-22"
"72503794745","2020-04-10T02:56:00","FM-15","7",,,,,,,,,,,,,,,,,,,,,,,,,,,,,,,,,,,,,,"29.31","30","40","0.00",,,,"68","29.32","SCT:04 25 SCT:04 34 BKN:07 70","28.89","10.00","36","270","20","9",,,,,,,,,,,,,,,,,,,,,,,,,,,,,,,,,,,,,"MET11604/10/20 02:56:02 METAR KHPN 100756Z 27008G17KT 10SM SCT025 SCT034 BKN070 04/M01 A2931 RMK AO2 SLP928 T00441011 (JR)","FM-15","7",,,,,,,,,,,,,,,,,,,,,,,,,,,,"2009-05-22"
"72503794745","2020-04-10T03:56:00","FM-15","7",,,,,,,,,,,,,,,,,,,,,,,,,,,,,,,,,,,,,,"29.33","31","35","0.02",,"-0.04","3","85","29.34","FEW:02 27 SCT:04 80 BKN:07 110","28.91","10.00","33","260",,"9",,,,,,,,,,,,,,,,,,,,,,,,,,,,,,,,,,,,,"MET14004/10/20 03:56:02 METAR KHPN 100856Z 26008KT 10SM FEW027 SCT080 BKN110 02/M01 A2933 RMK AO2 RAB06E27 SLP937 P0002 60002 T00171006 53013 (JR)","FM-15","7",,,,,,,,,,,,,,,,,,,,,,,,,,,,"2009-05-22"
"72503794745","2020-04-10T04:56:00","FM-15","7",,,,,,,,,,,,,,,,,,,,,,,,,,,,,,,,,,,,,,"29.32","28","36","0.00",,,,"73","29.33","FEW:02 32","28.90","10.00","33","280","24","16",,,,,,,,,,,,,,,,,,,,,,,,,,,,,,,,,,,,,"MET10204/10/20 04:56:02 METAR KHPN 100956Z 28014G21KT 10SM FEW032 02/M02 A2932 RMK AO2 SLP932 T00221022 (JR)","FM-15","7",,,,,,,,,,,,,,,,,,,,,,,,,,,,"2009-05-22"
"72503794745","2020-04-10T05:56:00","FM-15","7",,,,,,,,,,,,,,,,,,,,,,,,,,,,,,,,,,,,,,"29.32","27","37","0.00",,,,"67","29.33","BKN:07 38","28.90","10.00","33","270","23","13",,,,,,,,,,,,,,,,,,,,,,,,,,,,,,,,,,,,,"MET10204/10/20 05:56:02 METAR KHPN 101056Z 27011G20KT 10SM BKN038 03/M03 A2932 RMK AO2 SLP932 T00281028 (JR)","FM-15","7",,,,,,,,,,,,,,,,,,,,,,,,,,,,"2009-05-22"
"72503794745","2020-04-10T06:56:00","FM-15","7",,,,,,,,,,,,,,,,,,,,,,,,,,,,,,,,,,,,,,"29.33","27","38","0.00",,"+0.00","5","65","29.34","SCT:04 38","28.91","10.00","34","VRB","26","14",,,,,,,,,,,,,,,,,,,,,,,,,,,,,,,,,,,,,"MET15004/10/20 06:56:02 METAR KHPN 101156Z 27012G23KT 10SM SCT038 03/M03 A2933 RMK AO2 PK WND 26026/1112 SLP936 60002 70028 T00331028 10050 20017 55001 (RS)","FM-15","7",,,,,,,,,,,,,,,,,,,,,,,,,,,,"2009-05-22"
"72503794745","2020-04-10T07:56:00","FM-15","7",,,,,,,,,,,,,,,,,,,,,,,,,,,,,,,,,,,,,,"29.32","26","39","0.00",,,,"60","29.34","SCT:04 40 BKN:07 48","28.90","10.00","34","270","26","13",,,,,,,,,,,,,,,,,,,,,,,,,,,,,,,,,,,,,"MET10904/10/20 07:56:02 METAR KHPN 101256Z 27011G23KT 10SM SCT040 BKN048 04/M03 A2932 RMK AO2 SLP935 T00391033 (RS)","FM-15","7",,,,,,,,,,,,,,,,,,,,,,,,,,,,"2009-05-22"
"72503794745","2020-04-10T08:56:00","FM-15","7",,,,,,,,,,,,,,,,,,,,,,,,,,,,,,,,,,,,,,"29.33","23","40","0.00",,,,"51","29.34","BKN:07 45","28.91","10.00","34","280","29","14",,,,,,,,,,,,,,,,,,,,,,,,,,,,,,,,,,,,,"MET12004/10/20 08:56:02 METAR KHPN 101356Z 28012G25KT 10SM BKN045 04/M05 A2933 RMK AO2 PK WND 30026/1339 SLP937 T00441050 (RS)","FM-15","7",,,,,,,,,,,,,,,,,,,,,,,,,,,,"2009-05-22"
"72503794745","2020-04-10T09:56:00","FM-15","7",,,,,,,,,,,,,,,,,,,,,,,,,,,,,,,,,,,,,,"29.35","22","41","0.00",,"-0.02","3","47","29.36","BKN:07 60","28.93","10.00","34","290","29","22",,,,,,,,,,,,,,,,,,,,,,,,,,,,,,,,,,,,,"MET12604/10/20 09:56:02 METAR KHPN 101456Z 29019G25KT 10SM BKN060 05/M06 A2935 RMK AO2 PK WND 28027/1400 SLP941 T00501056 53007 (RS)","FM-15","7",,,,,,,,,,,,,,,,,,,,,,,,,,,,"2009-05-22"
"72503794745","2020-04-10T10:56:00","FM-15","7",,,,,,,,,,,,,,,,,,,,,,,,,,,,,,,,,,,,,,"29.35","23","43","T",,,,"45","29.36","BKN:07 55","28.93","10.00","35","290","31","22",,,,,,,,,,,,,,,,,,,,,,,,,,,,,,,,,,,,,"MET13504/10/20 10:56:02 METAR KHPN 101556Z 29019G27KT 10SM BKN055 06/M05 A2935 RMK AO2 PK WND 28029/1543 RAB39E48 SLP942 P0000 T00611050 (RS)","FM-15","7",,,,,,,,,,,,,,,,,,,,,,,,,,,,"2009-05-22"
"72503794745","2020-04-10T11:56:00","FM-15","7",,,,,,,,,,,,,,,,,,,,,,,,,,,,,,,,,,,,,,"29.34","22","44","0.00",,,,"41","29.35","SCT:04 55 BKN:07 70","28.92","10.00","36","290","28","21",,,,,,,,,,,,,,,,,,,,,,,,,,,,,,,,,,,,,"MET12704/10/20 11:56:02 METAR KHPN 101656Z 29018G24KT 10SM SCT055 BKN070 07/M06 A2934 RMK AO2 PK WND 27031/1646 SLP940 T00671056 (RS)","FM-15","7",,,,,,,,,,,,,,,,,,,,,,,,,,,,"2009-05-22"
"72503794745","2020-04-10T12:56:00","FM-15","7",,,,,,,,,,,,,,,,,,,,,,,,,,,,,,,,,,,,,,"29.37","26","42","T","-RA:02 |RA |RA","-0.02","3","53","29.38","SCT:04 50 BKN:07 70","28.95","10.00","36","300","37","24",,,,,,,,,,,,,,,,,,,,,,,,,,,,,,,,,,,,,"MET16704/10/20 12:56:02 METAR KHPN 101756Z 30021G32KT 10SM -RA SCT050 BKN070 06/M03 A2937 RMK AO2 PK WND 30034/1746 RAB54 SLP949 P0000 60000 T00561033 10078 20033 53006 (RS)","FM-15","7",,,,,,,,,,,,,,,,,,,,,,,,,,,,"2009-05-22"
"72503794745","2020-04-10T13:56:00","FM-15","7",,,,,,,,,,,,,,,,,,,,,,,,,,,,,,,,,,,,,,"29.38","25","44","T",,,,"47","29.39","FEW:02 41 SCT:04 60 BKN:07 75","28.96","10.00","36","300","33","23",,,,,,,,,,,,,,,,,,,,,,,,,,,,,,,,,,,,,"MET15204/10/20 13:56:02 METAR KHPN 101856Z 30020G29KT 10SM FEW041 SCT060 BKN075 07/M04 A2938 RMK AO2 PK WND 31043/1839 RAE06B38E51 SLP954 P0000 T00671039 (RS)","FM-15","7",,,,,,,,,,,,,,,,,,,,,,,,,,,,"2009-05-22"
"72503794745","2020-04-10T14:56:00","FM-15","7",,,,,,,,,,,,,,,,,,,,,,,,,,,,,,,,,,,,,,"29.40","24","43","T",,,,"47","29.41","SCT:04 49 BKN:07 60 BKN:07 75","28.98","10.00","36","290","36","26",,,,,,,,,,,,,,,,,,,,,,,,,,,,,,,,,,,,,"MET13404/10/20 14:56:02 METAR KHPN 101956Z 29023G31KT 10SM SCT049 BKN060 BKN075 06/M04 A2940 RMK AO2 PK WND 30041/1918 SLP961 T00611044 (RS)","FM-15","7",,,,,,,,,,,,,,,,,,,,,,,,,,,,"2009-05-22"
"72503794745","2020-04-10T15:56:00","FM-15","7",,,,,,,,,,,,,,,,,,,,,,,,,,,,,,,,,,,,,,"29.43","25","44","T",,"-0.06","3","47","29.44","BKN:07 48 BKN:07 60","29.01","10.00","36","300","40","20",,,,,,,,,,,,,,,,,,,,,,,,,,,,,,,,,,,,,"MET15604/10/20 15:56:02 METAR KHPN 102056Z 30017G35KT 10SM BKN048 BKN060 07/M04 A2943 RMK AO2 PK WND 30039/1959 DZB1959E05 SLP970 P0000 60000 T00671039 53021 (FT)","FM-15","7",,,,,,,,,,,,,,,,,,,,,,,,,,,,"2009-05-22"
"72503794745","2020-04-10T16:56:00","FM-15","7",,,,,,,,,,,,,,,,,,,,,,,,,,,,,,,,,,,,,,"29.47","25","44","0.00",,,,"47","29.48","BKN:07 50 BKN:07 65","29.05","10.00","36","300","36","26",,,,,,,,,,,,,,,,,,,,,,,,,,,,,,,,,,,,,"MET12704/10/20 16:56:02 METAR KHPN 102156Z 30023G31KT 10SM BKN050 BKN065 07/M04 A2947 RMK AO2 PK WND 29035/2123 SLP983 T00671039 (FT)","FM-15","7",,,,,,,,,,,,,,,,,,,,,,,,,,,,"2009-05-22"
"72503794745","2020-04-10T17:56:00","FM-15","7",,,,,,,,,,,,,,,,,,,,,,,,,,,,,,,,,,,,,,"29.53","24","43","0.00",,,,"47","29.54","BKN:07 49 BKN:07 60","29.11","10.00","36","300","37","29",,,,,,,,,,,,,,,,,,,,,,,,,,,,,,,,,,,,,"MET12704/10/20 17:56:02 METAR KHPN 102256Z 30025G32KT 10SM BKN049 BKN060 06/M04 A2953 RMK AO2 PK WND 29039/2228 SLP003 T00611044 (FT)","FM-15","7",,,,,,,,,,,,,,,,,,,,,,,,,,,,"2009-05-22"
"72503794745","2020-04-10T18:56:00","FM-15","7",,,,,,,,,,,,,,,,,,,,,,,,,,,,,,,,,,,,,,"29.57","26","42","0.00",,"-0.14","3","53","29.58","BKN:07 55","29.15","10.00","36","300","34","23",,,,,,,,,,,,,,,,,,,,,,,,,,,,,,,,,,,,,"MET14404/10/20 18:56:02 METAR KHPN 102356Z 30020G30KT 10SM BKN055 06/M03 A2957 RMK AO2 PK WND 29033/2305 SLP018 60000 T00561033 10083 20050 53047 (FT)","FM-15","7",,,,,,,,,,,,,,,,,,,,,,,,,,,,"2009-05-22"
"72503794745","2020-04-10T19:56:00","FM-15","7",,,,,,,,,,,,,,,,,,,,,,,,,,,,,,,,,,,,,,"29.62","25","42","0.00",,,,"51","29.64","BKN:07 60","29.20","10.00","35","300","33","23",,,,,,,,,,,,,,,,,,,,,,,,,,,,,,,,,,,,,"MET11504/10/20 19:56:01 METAR KHPN 110056Z 30020G29KT 10SM BKN060 06/M04 A2962 RMK AO2 PK WND 29033/0014 SLP036 T00561039","FM-15","7",,,,,,,,,,,,,,,,,,,,,,,,,,,,"2009-05-22"
"72503794745","2020-04-10T20:56:00","FM-15","7",,,,,,,,,,,,,,,,,,,,,,,,,,,,,,,,,,,,,,"29.66","26","42","0.00",,,,"53","29.67","SCT:04 49 BKN:07 60","29.23","10.00","36","280","23","15",,,,,,,,,,,,,,,,,,,,,,,,,,,,,,,,,,,,,"MET12204/10/20 20:56:01 METAR KHPN 110156Z 28013G20KT 10SM SCT049 BKN060 06/M03 A2966 RMK AO2 PK WND 29030/0107 SLP047 T00561033","FM-15","7",,,,,,,,,,,,,,,,,,,,,,,,,,,,"2009-05-22"
"72503794745","2020-04-10T21:56:00","FM-15","7",,,,,,,,,,,,,,,,,,,,,,,,,,,,,,,,,,,,,,"29.68","27","41","0.00",,"-0.11","1","57","29.69","BKN:07 70","29.26","10.00","35","290","25","16",,,,,,,,,,,,,,,,,,,,,,,,,,,,,,,,,,,,,"MET10304/10/20 21:56:01 METAR KHPN 110256Z 29014G22KT 10SM BKN070 05/M03 A2968 RMK AO2 SLP055 T00501028 51037","FM-15","7",,,,,,,,,,,,,,,,,,,,,,,,,,,,"2009-05-22"
"72503794745","2020-04-10T22:56:00","FM-15","7",,,,,,,,,,,,,,,,,,,,,,,,,,,,,,,,,,,,,,"29.70","25","41","0.00",,,,"53","29.71","OVC:08 70","29.28","10.00","35","290","28","21",,,,,,,,,,,,,,,,,,,,,,,,,,,,,,,,,,,,,"MET09704/10/20 22:56:02 METAR KHPN 110356Z 29018G24KT 10SM OVC070 05/M04 A2970 RMK AO2 SLP061 T00501039","FM-15","7",,,,,,,,,,,,,,,,,,,,,,,,,,,,"2009-05-22"
"72503794745","2020-04-10T23:56:00","FM-15","7",,,,,,,,,,,,,,,,,,,,,,,,,,,,,,,,,,,,,,"29.71","24","40","0.00",,,,"53","29.73","CLR:00","29.28","10.00","34","290","25","17",,,,,,,,,,,,,,,,,,,,,,,,,,,,,,,,,,,,,"MET12204/10/20 23:56:02 METAR KHPN 110456Z 29015G22KT 10SM CLR 04/M04 A2971 RMK AO2 PK WND 30027/0431 SLP067 T00441044 400830017","FM-15","7",,,,,,,,,,,,,,,,,,,,,,,,,,,,"2009-05-22"
"72503794745","2020-04-10T23:59:00","SOD  ","6",,,,,,,,,,,,,,,,"41",,,"28.97",,"18.5","0","-5.8","24","47","35","310","49","0.02",,,"300","38","RA",,,,,,,,,,,,,,,,,,,,,,,,,,,,,,,,,,,,,,,,,,,,,,,,,,,,,,,,"SOD73024 HR PRECIPITATION (IN):0.02  24 HR MAX TEMP (F):47 24 HR MAX TEMP TIME (LST):1331 24 HR MIN TEMP (F):35 24 HR MIN TEMP TIME (LST):0445 AVERAGE STATION PRESSURE:28.965 MINIMUM SEA LEVEL PRESSURE:29.29 TIME OF OCCURRENCE:0157 PEAK WIND SPEED (MPH):49  PEAK WIND DIR (DEG):310 PEAK WIND TIME (LST):1339  FASTEST 2MIN SPEED (MPH):38 FASTEST 2MIN DIR (DEG):300 FASTEST 2MIN TIME (LST):1339 AVERAGE WIND SPEED (MPH):18.5 24 HR AVG TEMP (F):41 HEATING DEGREE DAYS:24  COOLING DEGREE DAYS:0   LATEST DAY MAX TEMP (0700-1900 LST):47  LATEST NIGHT MIN TEMP(1900-0800 LST):35 HOURLY INCREMENTAL PRECIPITATION VALUES (IN):.00 0.00 0.00 0.02 0.00 0.00 0.00 0.00 0.00 0.00 T    0.00 T    T    T    T    0.00 0.00 0.00 0.00 0.00 0.00 0.00 0.00","SOD  ","6",,,,,,,,,,,,,,,,,,,,,,,,,"0522","1830",,"2009-05-22"
"72503794745","2020-04-11T00:56:00","FM-15","7",,,,,,,,,,,,,,,,,,,,,,,,,,,,,,,,,,,,,,"29.73","23","40","0.00",,"-0.05","1","51","29.75","CLR:00","29.31","10.00","34","290","28","17",,,,,,,,,,,,,,,,,,,,,,,,,,,,,,,,,,,,,"MET11204/11/20 00:56:02 METAR KHPN 110556Z 29015G24KT 10SM CLR 04/M05 A2973 RMK AO2 SLP073 T00441050 10061 20044 51017","FM-15","7",,,,,,,,,,,,,,,,,,,,,,,,,,,,"2009-05-22"
"72503794745","2020-04-11T01:56:00","FM-15","7",,,,,,,,,,,,,,,,,,,,,,,,,,,,,,,,,,,,,,"29.75","22","39","0.00",,,,"50","29.76","BKN:07 50","29.33","10.00","33","280","22","13",,,,,,,,,,,,,,,,,,,,,,,,,,,,,,,,,,,,,"MET12004/11/20 01:56:02 METAR KHPN 110656Z 28011G19KT 10SM BKN050 04/M06 A2975 RMK AO2 PK WND 30026/0601 SLP078 T00391056 (AF)","FM-15","7",,,,,,,,,,,,,,,,,,,,,,,,,,,,"2009-05-22"
"72503794745","2020-04-11T02:56:00","FM-15","7",,,,,,,,,,,,,,,,,,,,,,,,,,,,,,,,,,,,,,"29.76","22","38","0.00",,,,"52","29.78","CLR:00","29.34","10.00","32","290",,"11",,,,,,,,,,,,,,,,,,,,,,,,,,,,,,,,,,,,,"MET09604/11/20 02:56:02 METAR KHPN 110756Z 29010KT 10SM CLR 03/M06 A2976 RMK AO2 SLP083 T00331056 (AF)","FM-15","7",,,,,,,,,,,,,,,,,,,,,,,,,,,,"2009-05-22"
"72503794745","2020-04-11T03:56:00","FM-15","7",,,,,,,,,,,,,,,,,,,,,,,,,,,,,,,,,,,,,,"29.77","21","38","0.00",,"-0.04","1","51","29.79","CLR:00","29.34","10.00","32","290","23","17",,,,,,,,,,,,,,,,,,,,,,,,,,,,,,,,,,,,,"MET10504/11/20 03:56:02 METAR KHPN 110856Z 29015G20KT 10SM CLR 03/M06 A2977 RMK AO2 SLP087 T00331061 51015 (AF)","FM-15","7",,,,,,,,,,,,,,,,,,,,,,,,,,,,"2009-05-22"
"72503794745","2020-04-11T04:56:00","FM-15","7",,,,,,,,,,,,,,,,,,,,,,,,,,,,,,,,,,,,,,"29.80","20","37","0.00",,,,"50","29.81","CLR:00","29.37","10.00","31","290",,"11",,,,,,,,,,,,,,,,,,,,,,,,,,,,,,,,,,,,,"MET09604/11/20 04:56:02 METAR KHPN 110956Z 29010KT 10SM CLR 03/M07 A2980 RMK AO2 SLP095 T00281067 (AF)","FM-15","7",,,,,,,,,,,,,,,,,,,,,,,,,,,,"2009-05-22"
"72503794745","2020-04-11T05:56:00","FM-15","7",,,,,,,,,,,,,,,,,,,,,,,,,,,,,,,,,,,,,,"29.83","19","36","0.00",,,,"50","29.85","CLR:00","29.40","10.00","30","290","18","11",,,,,,,,,,,,,,,,,,,,,,,,,,,,,,,,,,,,,"MET09904/11/20 05:56:02 METAR KHPN 111056Z 29010G16KT 10SM CLR 02/M07 A2983 RMK AO2 SLP107 T00221072 (AF)","FM-15","7",,,,,,,,,,,,,,,,,,,,,,,,,,,,"2009-05-22"
"72503794745","2020-04-11T06:56:00","FM-15","7",,,,,,,,,,,,,,,,,,,,,,,,,,,,,,,,,,,,,,"29.86","19","38","0.00",,"-0.09","3","46","29.88","CLR:00","29.43","10.00","31","280","23","15",,,,,,,,,,,,,,,,,,,,,,,,,,,,,,,,,,,,,"MET11704/11/20 06:56:02 METAR KHPN 111156Z 28013G20KT 10SM CLR 03/M07 A2986 RMK AO2 SLP118 T00331072 10044 20022 53030 (AF)","FM-15","7",,,,,,,,,,,,,,,,,,,,,,,,,,,,"2009-05-22"
"72503794745","2020-04-11T07:56:00","FM-15","7",,,,,,,,,,,,,,,,,,,,,,,,,,,,,,,,,,,,,,"29.88","19","39","0.00",,,,"45","29.89","CLR:00","29.45","10.00","32","300","24","18",,,,,,,,,,,,,,,,,,,,,,,,,,,,,,,,,,,,,"MET09904/11/20 07:56:02 METAR KHPN 111256Z 30016G21KT 10SM CLR 04/M07 A2988 RMK AO2 SLP122 T00391072 (AF)","FM-15","7",,,,,,,,,,,,,,,,,,,,,,,,,,,,"2009-05-22"
"72503794745","2020-04-11T08:56:00","FM-15","7",,,,,,,,,,,,,,,,,,,,,,,,,,,,,,,,,,,,,,"29.87","19","42","0.00",,,,"40","29.89","FEW:02 40","29.44","10.00","34","280","23","16",,,,,,,,,,,,,,,,,,,,,,,,,,,,,,,,,,,,,"MET10204/11/20 08:56:02 METAR KHPN 111356Z 28014G20KT 10SM FEW040 06/M07 A2987 RMK AO2 SLP121 T00561072 (AF)","FM-15","7",,,,,,,,,,,,,,,,,,,,,,,,,,,,"2009-05-22"
"72503794745","2020-04-11T09:56:00","FM-15","7",,,,,,,,,,,,,,,,,,,,,,,,,,,,,,,,,,,,,,"29.88","19","45","0.00",,"-0.02","2","35","29.90","SCT:04 40","29.45","10.00","35","290","28","24",,,,,,,,,,,,,,,,,,,,,,,,,,,,,,,,,,,,,"MET12604/11/20 09:56:02 METAR KHPN 111456Z 29021G24KT 10SM SCT040 07/M07 A2988 RMK AO2 PK WND 29026/1442 SLP124 T00721072 52006 (AF)","FM-15","7",,,,,,,,,,,,,,,,,,,,,,,,,,,,"2009-05-22"
"72503794745","2020-04-11T10:56:00","FM-15","7",,,,,,,,,,,,,,,,,,,,,,,,,,,,,,,,,,,,,,"29.88","18","45","0.00",,,,"34","29.89","SCT:04 40","29.45","10.00","35","310","26","17",,,,,,,,,,,,,,,,,,,,,,,,,,,,,,,,,,,,,"MET12004/11/20 10:56:02 METAR KHPN 111556Z 31015G23KT 10SM SCT040 07/M08 A2988 RMK AO2 PK WND 31026/1524 SLP121 T00721078 (DM)","FM-15","7",,,,,,,,,,,,,,,,,,,,,,,,,,,,"2009-05-22"
"72503794745","2020-04-11T11:56:00","FM-15","7",,,,,,,,,,,,,,,,,,,,,,,,,,,,,,,,,,,,,,"29.86","19","48","0.00",,,,"32","29.88","SCT:04 40","29.43","10.00","37","320","28","18",,,,,,,,,,,,,,,,,,,,,,,,,,,,,,,,,,,,,"MET10204/11/20 11:56:02 METAR KHPN 111656Z 32016G24KT 10SM SCT040 09/M07 A2986 RMK AO2 SLP117 T00891072 (DM)","FM-15","7",,,,,,,,,,,,,,,,,,,,,,,,,,,,"2009-05-22"
"72503794745","2020-04-11T12:56:00","FM-15","7",,,,,,,,,,,,,,,,,,,,,,,,,,,,,,,,,,,,,,"29.86","14","49","0.00",,"+0.02","6","25","29.87","SCT:04 75","29.43","10.00","36","VRB","21","14",,,,,,,,,,,,,,,,,,,,,,,,,,,,,,,,,,,,,"MET12004/11/20 12:56:02 METAR KHPN 111756Z 29012G18KT 10SM SCT075 09/M10 A2986 RMK AO2 SLP116 T00941100 10100 20033 56008 (DM)","FM-15","7",,,,,,,,,,,,,,,,,,,,,,,,,,,,"2009-05-22"
"72503794745","2020-04-11T13:56:00","FM-15","7",,,,,,,,,,,,,,,,,,,,,,,,,,,,,,,,,,,,,,"29.86","16","50","0.00",,,,"26","29.87","FEW:02 75","29.43","10.00","37","290","30","14",,,,,,,,,,,,,,,,,,,,,,,,,,,,,,,,,,,,,"MET12004/11/20 13:56:02 METAR KHPN 111856Z 29012G26KT 10SM FEW075 10/M09 A2986 RMK AO2 PK WND 29026/1848 SLP115 T01001089 (DM)","FM-15","7",,,,,,,,,,,,,,,,,,,,,,,,,,,,"2009-05-22"
"72503794745","2020-04-11T14:56:00","FM-15","7",,,,,,,,,,,,,,,,,,,,,,,,,,,,,,,,,,,,,,"29.86","15","51","0.00",,,,"24","29.87","FEW:02 80","29.43","10.00","38","300","24","16",,,,,,,,,,,,,,,,,,,,,,,,,,,,,,,,,,,,,"MET12004/11/20 14:56:02 METAR KHPN 111956Z 30014G21KT 10SM FEW080 11/M09 A2986 RMK AO2 PK WND 28026/1903 SLP115 T01061094 (DM)","FM-15","7",,,,,,,,,,,,,,,,,,,,,,,,,,,,"2009-05-22"
"72503794745","2020-04-11T15:56:00","FM-15","7",,,,,,,,,,,,,,,,,,,,,,,,,,,,,,,,,,,,,,"29.87","16","51","0.00",,"-0.01","3","25","29.88","FEW:02 80","29.44","10.00","38","280","25","16",,,,,,,,,,,,,,,,,,,,,,,,,,,,,,,,,,,,,"MET10804/11/20 15:56:02 METAR KHPN 112056Z 28014G22KT 10SM FEW080 11/M09 A2987 RMK AO2 SLP117 T01061089 53002 (DM)","FM-15","7",,,,,,,,,,,,,,,,,,,,,,,,,,,,"2009-05-22"
"72503794745","2020-04-11T16:56:00","FM-15","7",,,,,,,,,,,,,,,,,,,,,,,,,,,,,,,,,,,,,,"29.89","16","51","0.00",,,,"25","29.90","FEW:02 80","29.46","10.00","38","310",,"18",,,,,,,,,,,,,,,,,,,,,,,,,,,,,,,,,,,,,"MET11704/11/20 16:56:02 METAR KHPN 112156Z 31016KT 10SM FEW080 11/M09 A2989 RMK AO2 PK WND 31027/2116 SLP125 T01061089 (DM)","FM-15","7",,,,,,,,,,,,,,,,,,,,,,,,,,,,"2009-05-22"
"72503794745","2020-04-11T17:56:00","FM-15","7",,,,,,,,,,,,,,,,,,,,,,,,,,,,,,,,,,,,,,"29.91","17","50","0.00",,,,"27","29.92","FEW:02 80","29.48","10.00","38","290",,"11",,,,,,,,,,,,,,,,,,,,,,,,,,,,,,,,,,,,,"MET09904/11/20 17:56:02 METAR KHPN 112256Z 29010KT 10SM FEW080 10/M08 A2991 RMK AO2 SLP133 T01001083 (DM)","FM-15","7",,,,,,,,,,,,,,,,,,,,,,,,,,,,"2009-05-22"
"72503794745","2020-04-11T18:56:00","FM-15","7",,,,,,,,,,,,,,,,,,,,,,,,,,,,,,,,,,,,,,"29.94","17","48","0.00",,"-0.07","3","29","29.95","CLR:00","29.51","10.00","37","300","21","11",,,,,,,,,,,,,,,,,,,,,,,,,,,,,,,,,,,,,"MET11704/11/20 18:56:02 METAR KHPN 112356Z 30010G18KT 10SM CLR 09/M08 A2994 RMK AO2 SLP142 T00891083 10111 20083 53025 (DM)","FM-15","7",,,,,,,,,,,,,,,,,,,,,,,,,,,,"2009-05-22"
"72503794745","2020-04-11T19:56:00","FM-15","7",,,,,,,,,,,,,,,,,,,,,,,,,,,,,,,,,,,,,,"29.98","19","45","0.00",,,,"35","29.99","CLR:00","29.55","10.00","35","300",,"6",,,,,,,,,,,,,,,,,,,,,,,,,,,,,,,,,,,,,"MET09104/11/20 19:56:01 METAR KHPN 120056Z 30005KT 10SM CLR 07/M07 A2998 RMK AO2 SLP156 T00721072","FM-15","7",,,,,,,,,,,,,,,,,,,,,,,,,,,,"2009-05-22"
"72503794745","2020-04-11T20:56:00","FM-15","7",,,,,,,,,,,,,,,,,,,,,,,,,,,,,,,,,,,,,,"30.01","24","42","0.00",,,,"49","30.02","CLR:00","29.58","10.00","35","000",,"0",,,,,,,,,,,,,,,,,,,,,,,,,,,,,,,,,,,,,"MET09104/11/20 20:56:01 METAR KHPN 120156Z 00000KT 10SM CLR 06/M04 A3001 RMK AO2 SLP167 T00561044","FM-15","7",,,,,,,,,,,,,,,,,,,,,,,,,,,,"2009-05-22"
"72503794745","2020-04-11T21:56:00","FM-15","7",,,,,,,,,,,,,,,,,,,,,,,,,,,,,,,,,,,,,,"30.02","22","42","0.00",,"-0.08","1","45","30.03","CLR:00","29.59","10.00","34","280",,"3",,,,,,,,,,,,,,,,,,,,,,,,,,,,,,,,,,,,,"MET09704/11/20 21:56:02 METAR KHPN 120256Z 28003KT 10SM CLR 06/M06 A3002 RMK AO2 SLP170 T00561056 51027","FM-15","7",,,,,,,,,,,,,,,,,,,,,,,,,,,,"2009-05-22"
"72503794745","2020-04-11T22:56:00","FM-15","7",,,,,,,,,,,,,,,,,,,,,,,,,,,,,,,,,,,,,,"30.04","23","40","0.00",,,,"51","30.05","CLR:00","29.61","10.00","34","000",,"0",,,,,,,,,,,,,,,,,,,,,,,,,,,,,,,,,,,,,"MET09304/11/20 22:56:02 METAR KHPN 120356Z 00000KT 10SM CLR 04/M05 A3004 RMK AO2 SLP177 T00441050 $","FM-15","7",,,,,,,,,,,,,,,,,,,,,,,,,,,,"2009-05-22"
"72503794745","2020-04-11T23:56:00","FM-15","7",,,,,,,,,,,,,,,,,,,,,,,,,,,,,,,,,,,,,,"30.07","25","37","0.00",,,,"62","30.09","CLR:00","29.64","10.00","33","000",,"0",,,,,,,,,,,,,,,,,,,,,,,,,,,,,,,,,,,,,"MET10304/11/20 23:56:02 METAR KHPN 120456Z 00000KT 10SM CLR 03/M04 A3007 RMK AO2 SLP188 T00281039 401110022 $","FM-15","7",,,,,,,,,,,,,,,,,,,,,,,,,,,,"2009-05-22"
"72503794745","2020-04-11T23:59:00","SOD  ","6",,,,,,,,,,,,,,,,"44",,,"29.42",,"12.6","0","-3.2","21","52","36","310","31","0.00",,,"300","24",,,,,,,,,,,,,,,,,,,,,,,,,,,,,,,,,,,,,,,,,,,,,,,,,,,,,,,,,"SOD73024 HR PRECIPITATION (IN):0.00  24 HR MAX TEMP (F):52 24 HR MAX TEMP TIME (LST):1545 24 HR MIN TEMP (F):36 24 HR MIN TEMP TIME (LST):0558 AVERAGE STATION PRESSURE:29.420 MINIMUM SEA LEVEL PRESSURE:29.73 TIME OF OCCURRENCE:0018 PEAK WIND SPEED (MPH):31  PEAK WIND DIR (DEG):310 PEAK WIND TIME (LST):1616  FASTEST 2MIN SPEED (MPH):24 FASTEST 2MIN DIR (DEG):300 FASTEST 2MIN TIME (LST):1636 AVERAGE WIND SPEED (MPH):12.6 24 HR AVG TEMP (F):44 HEATING DEGREE DAYS:21  COOLING DEGREE DAYS:0   LATEST DAY MAX TEMP (0700-1900 LST):52  LATEST NIGHT MIN TEMP(1900-0800 LST):36 HOURLY INCREMENTAL PRECIPITATION VALUES (IN):.00 0.00 0.00 0.00 0.00 0.00 0.00 0.00 0.00 0.00 0.00 0.00 0.00 0.00 0.00 0.00 0.00 0.00 0.00 0.00 0.00 0.00 0.00 0.00","SOD  ","6",,,,,,,,,,,,,,,,,,,,,,,,,"0521","1831",,"2009-05-22"
"72503794745","2020-04-12T00:56:00","FM-15","7",,,,,,,,,,,,,,,,,,,,,,,,,,,,,,,,,,,,,,"30.09","24","35","0.00",,"-0.07","1","64","30.10","CLR:00","29.66","10.00","31","300",,"5",,,,,,,,,,,,,,,,,,,,,,,,,,,,,,,,,,,,,"MET11604/12/20 00:56:02 METAR KHPN 120556Z 30004KT 10SM CLR 02/M04 A3009 RMK AO2 SLP194 T00171044 10089 20017 51023 $ (EC)","FM-15","7",,,,,,,,,,,,,,,,,,,,,,,,,,,,"2009-05-22"
"72503794745","2020-04-12T01:56:00","FM-15","7",,,,,,,,,,,,,,,,,,,,,,,,,,,,,,,,,,,,,,"30.09","25","36","0.00",,,,"64","30.10","CLR:00","29.66","10.00","32","000",,"0",,,,,,,,,,,,,,,,,,,,,,,,,,,,,,,,,,,,,"MET09804/12/20 01:56:02 METAR KHPN 120656Z 00000KT 10SM CLR 02/M04 A3009 RMK AO2 SLP192 T00221039 $ (EC)","FM-15","7",,,,,,,,,,,,,,,,,,,,,,,,,,,,"2009-05-22"
"72503794745","2020-04-12T02:56:00","FM-15","7",,,,,,,,,,,,,,,,,,,,,,,,,,,,,,,,,,,,,,"30.10","25","34","0.00",,,,"70","30.11","CLR:00","29.67","10.00","31","000",,"0",,,,,,,,,,,,,,,,,,,,,,,,,,,,,,,,,,,,,"MET09804/12/20 02:56:02 METAR KHPN 120756Z 00000KT 10SM CLR 01/M04 A3010 RMK AO2 SLP198 T00111039 $ (AB)","FM-15","7",,,,,,,,,,,,,,,,,,,,,,,,,,,,"2009-05-22"
"72503794745","2020-04-12T03:56:00","FM-15","7",,,,,,,,,,,,,,,,,,,,,,,,,,,,,,,,,,,,,,"30.12","23","35","0.00",,"-0.03","3","61","30.13","CLR:00","29.69","10.00","31","000",,"0",,,,,,,,,,,,,,,,,,,,,,,,,,,,,,,,,,,,,"MET10404/12/20 03:56:02 METAR KHPN 120856Z 00000KT 10SM CLR 02/M05 A3012 RMK AO2 SLP203 T00171050 53009 $ (AB)","FM-15","7",,,,,,,,,,,,,,,,,,,,,,,,,,,,"2009-05-22"
"72503794745","2020-04-12T04:56:00","FM-15","7",,,,,,,,,,,,,,,,,,,,,,,,,,,,,,,,,,,,,,"30.15","23","33","0.00",,,,"66","30.16","CLR:00","29.72","10.00","29","000",,"0",,,,,,,,,,,,,,,,,,,,,,,,,,,,,,,,,,,,,"MET09804/12/20 04:56:02 METAR KHPN 120956Z 00000KT 10SM CLR 01/M05 A3015 RMK AO2 SLP214 T00061050 $ (AB)","FM-15","7",,,,,,,,,,,,,,,,,,,,,,,,,,,,"2009-05-22"
"72503794745","2020-04-12T05:56:00","FM-15","7",,,,,,,,,,,,,,,,,,,,,,,,,,,,,,,,,,,,,,"30.17","22","36","0.00",,,,"57","30.18","CLR:00","29.74","10.00","31","090",,"3",,,,,,,,,,,,,,,,,,,,,,,,,,,,,,,,,,,,,"MET09804/12/20 05:56:02 METAR KHPN 121056Z 09003KT 10SM CLR 02/M06 A3017 RMK AO2 SLP220 T00221056 $ (AB)","FM-15","7",,,,,,,,,,,,,,,,,,,,,,,,,,,,"2009-05-22"
"72503794745","2020-04-12T06:56:00","FM-15","7",,,,,,,,,,,,,,,,,,,,,,,,,,,,,,,,,,,,,,"30.18","29","42","0.00",,"-0.06","1","60","30.20","CLR:00","29.75","10.00","37","090",,"6",,,,,,,,,,,,,,,,,,,,,,,,,,,,,,,,,,,,,"MET11604/12/20 06:56:02 METAR KHPN 121156Z 09005KT 10SM CLR 06/M02 A3018 RMK AO2 SLP226 T00561017 10056 20000 51022 $ (AB)","FM-15","7",,,,,,,,,,,,,,,,,,,,,,,,,,,,"2009-05-22"
"72503794745","2020-04-12T07:56:00","FM-15","7",,,,,,,,,,,,,,,,,,,,,,,,,,,,,,,,,,,,,,"30.19","28","46","0.00",,,,"50","30.20","FEW:02 90","29.76","10.00","39","130",,"8",,,,,,,,,,,,,,,,,,,,,,,,,,,,,,,,,,,,,"MET10104/12/20 07:56:02 METAR KHPN 121256Z 13007KT 10SM FEW090 08/M02 A3019 RMK AO2 SLP228 T00781022 $ (AB)","FM-15","7",,,,,,,,,,,,,,,,,,,,,,,,,,,,"2009-05-22"
"72503794745","2020-04-12T08:56:00","FM-15","7",,,,,,,,,,,,,,,,,,,,,,,,,,,,,,,,,,,,,,"30.19","29","51","0.00",,,,"43","30.20","CLR:00","29.76","10.00","42","160",,"7",,,,,,,,,,,,,,,,,,,,,,,,,,,,,,,,,,,,,"MET09804/12/20 08:56:02 METAR KHPN 121356Z 16006KT 10SM CLR 11/M02 A3019 RMK AO2 SLP226 T01061017 $ (AB)","FM-15","7",,,,,,,,,,,,,,,,,,,,,,,,,,,,"2009-05-22"
"72503794745","2020-04-12T09:56:00","FM-15","7",,,,,,,,,,,,,,,,,,,,,,,,,,,,,,,,,,,,,,"30.18","29","54","0.00",,"+0.00","8","38","30.19","CLR:00","29.75","10.00","43","150",,"11",,,,,,,,,,,,,,,,,,,,,,,,,,,,,,,,,,,,,"MET10404/12/20 09:56:02 METAR KHPN 121456Z 15010KT 10SM CLR 12/M02 A3018 RMK AO2 SLP224 T01221017 58000 $ (AB)","FM-15","7",,,,,,,,,,,,,,,,,,,,,,,,,,,,"2009-05-22"
"72503794745","2020-04-12T10:56:00","FM-15","7",,,,,,,,,,,,,,,,,,,,,,,,,,,,,,,,,,,,,,"30.19","29","57","0.00",,,,"34","30.19","FEW:02 100","29.76","10.00","45","150",,"9",,,,,,,,,,,,,,,,,,,,,,,,,,,,,,,,,,,,,"MET10104/12/20 10:56:02 METAR KHPN 121556Z 15008KT 10SM FEW100 14/M02 A3019 RMK AO2 SLP224 T01391017 $ (AB)","FM-15","7",,,,,,,,,,,,,,,,,,,,,,,,,,,,"2009-05-22"
"72503794745","2020-04-12T11:56:00","FM-15","7",,,,,,,,,,,,,,,,,,,,,,,,,,,,,,,,,,,,,,"30.17","28","56","0.00",,,,"34","30.18","FEW:02 100","29.74","10.00","44","170",,"11",,,,,,,,,,,,,,,,,,,,,,,,,,,,,,,,,,,,,"MET10104/12/20 11:56:02 METAR KHPN 121656Z 17010KT 10SM FEW100 13/M02 A3017 RMK AO2 SLP220 T01331022 $ (AB)","FM-15","7",,,,,,,,,,,,,,,,,,,,,,,,,,,,"2009-05-22"
"72503794745","2020-04-12T12:56:00","FM-15","7",,,,,,,,,,,,,,,,,,,,,,,,,,,,,,,,,,,,,,"30.16","30","55","0.00",,"+0.02","8","38","30.17","BKN:07 100 BKN:07 120","29.73","10.00","44","160","22","14",,,,,,,,,,,,,,,,,,,,,,,,,,,,,,,,,,,,,"MET12904/12/20 12:56:02 METAR KHPN 121756Z 16012G19KT 10SM BKN100 BKN120 13/M01 A3016 RMK AO2 SLP216 T01281011 10139 20056 58008 $ (AB)","FM-15","7",,,,,,,,,,,,,,,,,,,,,,,,,,,,"2009-05-22"
"72503794745","2020-04-12T13:56:00","FM-15","7",,,,,,,,,,,,,,,,,,,,,,,,,,,,,,,,,,,,,,"30.13","39","55","0.00",,,,"55","30.14","BKN:07 100","29.70","10.00","47","150",,"11",,,,,,,,,,,,,,,,,,,,,,,,,,,,,,,,,,,,,"MET10004/12/20 13:56:02 METAR KHPN 121856Z 15010KT 10SM BKN100 13/04 A3013 RMK AO2 SLP205 T01280039 $ (AB)","FM-15","7",,,,,,,,,,,,,,,,,,,,,,,,,,,,"2009-05-22"
"72503794745","2020-04-12T14:56:00","FM-15","7",,,,,,,,,,,,,,,,,,,,,,,,,,,,,,,,,,,,,,"30.12","42","57","0.00",,,,"58","30.13","FEW:02 110","29.69","10.00","50","130",,"13",,,,,,,,,,,,,,,,,,,,,,,,,,,,,,,,,,,,,"MET10004/12/20 14:56:02 METAR KHPN 121956Z 13011KT 10SM FEW110 14/06 A3012 RMK AO2 SLP202 T01390056 $ (MM)","FM-15","7",,,,,,,,,,,,,,,,,,,,,,,,,,,,"2009-05-22"
"72503794745","2020-04-12T15:56:00","FM-15","7",,,,,,,,,,,,,,,,,,,,,,,,,,,,,,,,,,,,,,"30.11","43","57","0.00",,"+0.05","6","60","30.11","CLR:00","29.68","10.00","50","150",,"10",,,,,,,,,,,,,,,,,,,,,,,,,,,,,,,,,,,,,"MET10304/12/20 15:56:02 METAR KHPN 122056Z 15009KT 10SM CLR 14/06 A3011 RMK AO2 SLP197 T01390061 56018 $ (MM)","FM-15","7",,,,,,,,,,,,,,,,,,,,,,,,,,,,"2009-05-22"
"72503794745","2020-04-12T16:56:00","FM-15","7",,,,,,,,,,,,,,,,,,,,,,,,,,,,,,,,,,,,,,"30.10","42","57","0.00",,,,"58","30.11","CLR:00","29.67","10.00","50","130",,"8",,,,,,,,,,,,,,,,,,,,,,,,,,,,,,,,,,,,,"MET09704/12/20 16:56:02 METAR KHPN 122156Z 13007KT 10SM CLR 14/06 A3010 RMK AO2 SLP197 T01390056 $ (MM)","FM-15","7",,,,,,,,,,,,,,,,,,,,,,,,,,,,"2009-05-22"
"72503794745","2020-04-12T17:56:00","FM-15","7",,,,,,,,,,,,,,,,,,,,,,,,,,,,,,,,,,,,,,"30.07","37","57","0.00",,,,"47","30.08","CLR:00","29.64","10.00","48","160",,"10",,,,,,,,,,,,,,,,,,,,,,,,,,,,,,,,,,,,,"MET09704/12/20 17:56:02 METAR KHPN 122256Z 16009KT 10SM CLR 14/03 A3007 RMK AO2 SLP186 T01390028 $ (MM)","FM-15","7",,,,,,,,,,,,,,,,,,,,,,,,,,,,"2009-05-22"
"72503794745","2020-04-12T18:56:00","FM-15","7",,,,,,,,,,,,,,,,,,,,,,,,,,,,,,,,,,,,,,"30.07","38","55","0.00",,"+0.03","5","53","30.08","CLR:00","29.64","10.00","47","VRB",,"10",,,,,,,,,,,,,,,,,,,,,,,,,,,,,,,,,,,,,"MET11504/12/20 18:56:02 METAR KHPN 122356Z 17009KT 10SM CLR 13/03 A3007 RMK AO2 SLP185 T01280033 10144 20122 55011 $ (MM)","FM-15","7",,,,,,,,,,,,,,,,,,,,,,,,,,,,"2009-05-22"
"72503794745","2020-04-12T19:56:00","FM-15","7",,,,,,,,,,,,,,,,,,,,,,,,,,,,,,,,,,,,,,"30.12","41","54","0.00",,,,"62","30.12","CLR:00","29.69","10.00","48","180","23","9",,,,,,,,,,,,,,,,,,,,,,,,,,,,,,,,,,,,,"MET09504/12/20 19:56:01 METAR KHPN 130056Z 18008G20KT 10SM CLR 12/05 A3012 RMK AO2 SLP200 T01220050 $","FM-15","7",,,,,,,,,,,,,,,,,,,,,,,,,,,,"2009-05-22"
"72503794745","2020-04-12T20:56:00","FM-15","7",,,,,,,,,,,,,,,,,,,,,,,,,,,,,,,,,,,,,,"30.12","42","52","0.00",,,,"69","30.12","CLR:00","29.69","10.00","47","160",,"8",,,,,,,,,,,,,,,,,,,,,,,,,,,,,,,,,,,,,"MET09204/12/20 20:56:01 METAR KHPN 130156Z 16007KT 10SM CLR 11/06 A3012 RMK AO2 SLP199 T01110056 $","FM-15","7",,,,,,,,,,,,,,,,,,,,,,,,,,,,"2009-05-22"
"72503794745","2020-04-12T21:56:00","FM-15","7",,,,,,,,,,,,,,,,,,,,,,,,,,,,,,,,,,,,,,"30.10","44","52","0.00",,"-0.02","0","75","30.10","CLR:00","29.67","10.00","48","150",,"8",,,,,,,,,,,,,,,,,,,,,,,,,,,,,,,,,,,,,"MET09804/12/20 21:56:01 METAR KHPN 130256Z 15007KT 10SM CLR 11/07 A3010 RMK AO2 SLP192 T01110067 50008 $","FM-15","7",,,,,,,,,,,,,,,,,,,,,,,,,,,,"2009-05-22"
"72503794745","2020-04-12T22:56:00","FM-15","7",,,,,,,,,,,,,,,,,,,,,,,,,,,,,,,,,,,,,,"30.06","47","54","0.00",,,,"77","30.06","BKN:07 65","29.63","10.00","50","170","17","8",,,,,,,,,,,,,,,,,,,,,,,,,,,,,,,,,,,,,"MET09804/12/20 22:56:02 METAR KHPN 130356Z 17007G15KT 10SM BKN065 12/08 A3006 RMK AO2 SLP180 T01220083 $","FM-15","7",,,,,,,,,,,,,,,,,,,,,,,,,,,,"2009-05-22"
"72503794745","2020-04-12T23:56:00","FM-15","7",,,,,,,,,,,,,,,,,,,,,,,,,,,,,,,,,,,,,,"30.05","48","54","0.00",,,,"80","30.05","SCT:04 60 OVC:08 90","29.62","10.00","51","170",,"11",,,,,,,,,,,,,,,,,,,,,,,,,,,,,,,,,,,,,"MET11204/12/20 23:56:02 METAR KHPN 130456Z 17010KT 10SM SCT060 OVC090 12/09 A3005 RMK AO2 SLP176 T01220089 401440000 $","FM-15","7",,,,,,,,,,,,,,,,,,,,,,,,,,,,"2009-05-22"
"72503794745","2020-04-12T23:59:00","SOD  ","6",,,,,,,,,,,,,,,,"45",,,"29.70",,"7.6","0","-2.5","20","58","32","200","23","0.00",,,"150","17",,,,,,,,,,,,,,,,,,,,,,,,,,,,,,,,,,,,,,,,,,,,,,,,,,,,,,,,,"SOD73024 HR PRECIPITATION (IN):0.00  24 HR MAX TEMP (F):58 24 HR MAX TEMP TIME (LST):1751 24 HR MIN TEMP (F):32 24 HR MIN TEMP TIME (LST):0425 AVERAGE STATION PRESSURE:29.695 MINIMUM SEA LEVEL PRESSURE:30.05 TIME OF OCCURRENCE:2359 PEAK WIND SPEED (MPH):23  PEAK WIND DIR (DEG):200 PEAK WIND TIME (LST):1948  FASTEST 2MIN SPEED (MPH):17 FASTEST 2MIN DIR (DEG):150 FASTEST 2MIN TIME (LST):1244 AVERAGE WIND SPEED (MPH):7.6  24 HR AVG TEMP (F):45 HEATING DEGREE DAYS:20  COOLING DEGREE DAYS:0   LATEST DAY MAX TEMP (0700-1900 LST):58  LATEST NIGHT MIN TEMP(1900-0800 LST):32 HOURLY INCREMENTAL PRECIPITATION VALUES (IN):.00 0.00 0.00 0.00 0.00 0.00 0.00 0.00 0.00 0.00 0.00 0.00 0.00 0.00 0.00 0.00 0.00 0.00 0.00 0.00 0.00 0.00 0.00 0.00","SOD  ","6",,,,,,,,,,,,,,,,,,,,,,,,,"0519","1832",,"2009-05-22"
"72503794745","2020-04-13T00:56:00","FM-15","7",,,,,,,,,,,,,,,,,,,,,,,,,,,,,,,,,,,,,,"30.03","49","53","0.01","-RA:02 |RA |RA","+0.07","6","86","30.03","OVC:08 85","29.60","10.00","51","160",,"9",,,,,,,,,,,,,,,,,,,,,,,,,,,,,,,,,,,,,"MET14004/13/20 00:56:02 METAR KHPN 130556Z 16008KT 10SM -RA OVC085 12/09 A3003 RMK AO2 RAB06 SLP169 P0001 60001 T01170094 10128 20111 56023 $ (EC)","FM-15","7",,,,,,,,,,,,,,,,,,,,,,,,,,,,"2009-05-22"
"72503794745","2020-04-13T01:42:00","FM-16","7",,,,,,,,,,,,,,,,,,,,,,,,,,,,,,,,,,,,,,"29.99","50","52","0.05","-RA:02 BR:1 |RA |RA",,,"93",,"FEW:02 6 BKN:07 60 OVC:08 80","29.56","6.00","51","160",,"8",,,,,,,,,,,,,,,,,,,,,,,,,,,,,,,,,,,,,"MET11904/13/20 01:42:02 SPECI KHPN 130642Z 16007KT 6SM -RA BR FEW006 BKN060 OVC080 11/10 A2999 RMK AO2 P0005 T01110100 $ (EC)","FM-16","7",,,,,,,,,,,,,,,,,,,,,,,,,,,,"2009-05-22"
"72503794745","2020-04-13T01:56:00","FM-15","7",,,,,,,,,,,,,,,,,,,,,,,,,,,,,,,,,,,,,,"29.98","51","52","0.07","-RA:02 BR:1 |RA |RA",,,"97","29.99","BKN:07 6 BKN:07 14 OVC:08 75","29.55","6.00","51","160",,"8",,,,,,,,,,,,,,,,,,,,,,,,,,,,,,,,,,,,,"MET12604/13/20 01:56:02 METAR KHPN 130656Z 16007KT 6SM -RA BR BKN006 BKN014 OVC075 11/11 A2998 RMK AO2 SLP155 P0007 T01110106 $ (EC)","FM-15","7",,,,,,,,,,,,,,,,,,,,,,,,,,,,"2009-05-22"
"72503794745","2020-04-13T02:16:00","FM-16","7",,,,,,,,,,,,,,,,,,,,,,,,,,,,,,,,,,,,,,"29.98","51","53","0.02","-RA:02 |RA |RA",,,"93",,"OVC:08 4","29.55","7.00","52","170",,"10",,,,,,,,,,,,,,,,,,,,,,,,,,,,,,,,,,,,,"MET10204/13/20 02:16:02 SPECI KHPN 130716Z 17009KT 7SM -RA OVC004 12/11 A2998 RMK AO2 P0002 T01170106 $ (EC)","FM-16","7",,,,,,,,,,,,,,,,,,,,,,,,,,,,"2009-05-22"
"72503794745","2020-04-13T02:56:00","FM-15","7",,,,,,,,,,,,,,,,,,,,,,,,,,,,,,,,,,,,,,"29.96","52","53","0.07","-RA:02 |RA |RA",,,"96","29.96","OVC:08 4","29.53","7.00","52","VRB",,"10",,,,,,,,,,,,,,,,,,,,,,,,,,,,,,,,,,,,,"MET12104/13/20 02:56:02 METAR KHPN 130756Z 17009KT 7SM -RA OVC004 12/11 A2996 RMK AO2 CIG 003V007 SLP147 P0006 T01170111 $ (EC)","FM-15","7",,,,,,,,,,,,,,,,,,,,,,,,,,,,"2009-05-22"
"72503794745","2020-04-13T03:56:00","FM-15","7",,,,,,,,,,,,,,,,,,,,,,,,,,,,,,,,,,,,,,"29.94","51","52","0.05","-RA:02 |RA |RA","+0.09","6","97","29.94","OVC:08 4","29.51","7.00","51","160",,"9",,,,,,,,,,,,,,,,,,,,,,,,,,,,,,,,,,,,,"MET12104/13/20 03:56:02 METAR KHPN 130856Z 16008KT 7SM -RA OVC004 11/11 A2994 RMK AO2 SLP139 P0006 60019 T01110106 56029 $ (EC)","FM-15","7",,,,,,,,,,,,,,,,,,,,,,,,,,,,"2009-05-22"
"72503794745","2020-04-13T04:56:00","FM-15","7",,,,,,,,,,,,,,,,,,,,,,,,,,,,,,,,,,,,,,"29.91","51","52","0.15","-RA:02 BR:1 |RA |RA",,,"97","29.91","SCT:04 2 OVC:08 3","29.48","4.00","51","170",,"10",,,,,,,,,,,,,,,,,,,,,,,,,,,,,,,,,,,,,"MET11904/13/20 04:56:02 METAR KHPN 130956Z 17009KT 4SM -RA BR SCT002 OVC003 11/11 A2991 RMK AO2 SLP128 P0015 T01110106 $ (EC)","FM-15","7",,,,,,,,,,,,,,,,,,,,,,,,,,,,"2009-05-22"
"72503794745","2020-04-13T05:54:00","FM-16","6",,,,,,,,,,,,,,,,,,,,,,,,,,,,,,,,,,,,,,"29.88","50","52",,"BR:1 ||",,,"94",,"BKN:07 5 OVC:08 44","29.45","5.00","51","130",,"9",,,,,,,,,,,,,,,,,,,,,,,,,,,,,,,,,,,,,"MET11604/13/20 05:54:02 SPECI KHPN 131054Z 13008KT 5SM BR BKN005 OVC044 11/10 A2988 RMK AO2 RAE53 PRESFR P0004 $ FIBI (EC)","FM-16","6",,,,,,,,,,,,,,,,,,,,,,,,,,,,"2009-05-22"
"72503794745","2020-04-13T05:56:00","FM-15","7",,,,,,,,,,,,,,,,,,,,,,,,,,,,,,,,,,,,,,"29.88","50","52","0.04","BR:1 ||",,,"93","29.88","BKN:07 5 OVC:08 44","29.45","5.00","51","130",,"11",,,,,,,,,,,,,,,,,,,,,,,,,,,,,,,,,,,,,"MET12804/13/20 05:56:02 METAR KHPN 131056Z 13010KT 5SM BR BKN005 OVC044 11/10 A2988 RMK AO2 RAE53 PRESFR SLP118 P0004 T01110100 $ (EC)","FM-15","7",,,,,,,,,,,,,,,,,,,,,,,,,,,,"2009-05-22"
"72503794745","2020-04-13T06:25:00","FM-16","7",,,,,,,,,,,,,,,,,,,,,,,,,,,,,,,,,,,,,,"29.87","51","52","0.06","BR:1 ||",,,"97",,"BKN:07 5 OVC:08 44","29.44","2.50","51","140",,"13",,,,,,,,,,,,,,,,,,,,,,,,,,,,,,,,,,,,,"MET10504/13/20 06:25:02 SPECI KHPN 131125Z 14011KT 2 1/2SM BR BKN005 OVC044 11/11 A2987 RMK AO2 P0006 T01110106","FM-16","7",,,,,,,,,,,,,,,,,,,,,,,,,,,,"2009-05-22"
"72503794745","2020-04-13T06:34:00","FM-16","7",,,,,,,,,,,,,,,,,,,,,,,,,,,,,,,,,,,,,,"29.86","52","53","0.09","RA:02 BR:1 |RA |RA",,,"96",,"BKN:07 5 OVC:08 10","29.43","2.00","52","140",,"14",,,,,,,,,,,,,,,,,,,,,,,,,,,,,,,,,,,,,"MET13404/13/20 06:34:02 SPECI KHPN 131134Z 14012KT 2SM RA BR BKN005 OVC010 12/11 A2986 RMK AO2 RAB31 CIG 003V008 PRESFR P0009 T01170111 (WS)","FM-16","7",,,,,,,,,,,,,,,,,,,,,,,,,,,,"2009-05-22"
"72503794745","2020-04-13T06:54:00","FM-16","6",,,,,,,,,,,,,,,,,,,,,,,,,,,,,,,,,,,,,,"29.82","54","55",,"-RA:02 BR:1 |RA |RA",,,"94",,"VV:09 3","29.39","2.00","54","160","28","13",,,,,,,,,,,,,,,,,,,,,,,,,,,,,,,,,,,,,"MET10604/13/20 06:54:02 SPECI KHPN 131154Z 16011G24KT 2SM -RA BR VV003 13/12 A2982 RMK AO2 RAB31 P0015 FIBI (WS)","FM-16","6",,,,,,,,,,,,,,,,,,,,,,,,,,,,"2009-05-22"
"72503794745","2020-04-13T06:56:00","FM-15","7",,,,,,,,,,,,,,,,,,,,,,,,,,,,,,,,,,,,,,"29.82","54","55","0.16","-RA:02 BR:1 |RA |RA","+0.12","8","96","29.82","VV:09 3","29.39","2.00","54","160",,"16",,,,,,,,,,,,,,,,,,,,,,,,,,,,,,,,,,,,,"MET14504/13/20 06:56:02 METAR KHPN 131156Z 16014KT 2SM -RA BR VV003 13/12 A2982 RMK AO2 RAB31 SLP099 P0015 60053 70054 T01280122 10128 20111 58040 (WS)","FM-15","7",,,,,,,,,,,,,,,,,,,,,,,,,,,,"2009-05-22"
"72503794745","2020-04-13T07:54:00","FM-16","7",,,,,,,,,,,,,,,,,,,,,,,,,,,,,,,,,,,,,,"29.79","55","57","0.21","RA:02 BR:1 |RA |RA",,,"94",,"VV:09 5","29.36","1.50","56","170","23","16",,,,,,,,,,,,,,,,,,,,,,,,,,,,,,,,,,,,,"MET11104/13/20 07:54:02 SPECI KHPN 131254Z 17014G20KT 1 1/2SM RA BR VV005 14/13 A2979 RMK AO2 PK WND 18030/1234 P0021","FM-16","7",,,,,,,,,,,,,,,,,,,,,,,,,,,,"2009-05-22"
"72503794745","2020-04-13T07:56:00","FM-15","7",,,,,,,,,,,,,,,,,,,,,,,,,,,,,,,,,,,,,,"29.79","56","57","0.23","RA:02 BR:1 |RA |RA",,,"96","29.78","VV:09 5","29.36","1.50","56","170","26","18",,,,,,,,,,,,,,,,,,,,,,,,,,,,,,,,,,,,,"MET12804/13/20 07:56:02 METAR KHPN 131256Z 17016G23KT 1 1/2SM RA BR VV005 14/13 A2979 RMK AO2 PK WND 18030/1234 SLP086 P0022 T01390133","FM-15","7",,,,,,,,,,,,,,,,,,,,,,,,,,,,"2009-05-22"
"72503794745","2020-04-13T08:54:00","FM-16","6",,,,,,,,,,,,,,,,,,,,,,,,,,,,,,,,,,,,,,"29.74","55","57",,"RA:02 BR:1 |RA |RA",,,"94",,"VV:09 4","29.31","1.50","56","180","43","20",,,,,,,,,,,,,,,,,,,,,,,,,,,,,,,,,,,,,"MET12104/13/20 08:54:02 SPECI KHPN 131354Z 18017G37KT 1 1/2SM RA BR VV004 14/13 A2974 RMK AO2 PK WND 18037/1348 P0031 FIBI (WS)","FM-16","6",,,,,,,,,,,,,,,,,,,,,,,,,,,,"2009-05-22"
"72503794745","2020-04-13T08:56:00","FM-15","7",,,,,,,,,,,,,,,,,,,,,,,,,,,,,,,,,,,,,,"29.74","56","58","0.30","RA:02 BR:1 |RA |RA",,,"93","29.74","VV:09 4","29.31","1.50","57","VRB","43","20",,,,,,,,,,,,,,,,,,,,,,,,,,,,,,,,,,,,,"MET12804/13/20 08:56:02 METAR KHPN 131356Z 18017G37KT 1 1/2SM RA BR VV004 14/13 A2974 RMK AO2 PK WND 18037/1348 SLP070 P0031 T01440133","FM-15","7",,,,,,,,,,,,,,,,,,,,,,,,,,,,"2009-05-22"
"72503794745","2020-04-13T09:54:00","FM-16","6",,,,,,,,,,,,,,,,,,,,,,,,,,,,,,,,,,,,,,"29.69","55","57",,"RA:02 BR:1 |RA |RA",,,"94",,"VV:09 5","29.26","1.00","56","160","39","22",,,,,,,,,,,,,,,,,,,,,,,,,,,,,,,,,,,,,"MET12904/13/20 09:54:02 SPECI KHPN 131454Z 16019G34KT 1SM R16/P6000FT RA BR VV005 14/13 A2969 RMK AO2 PK WND 16038/1408 P0030 FIBI (WS)","FM-16","6",,,,,,,,,,,,,,,,,,,,,,,,,,,,"2009-05-22"
"72503794745","2020-04-13T09:56:00","FM-15","7",,,,,,,,,,,,,,,,,,,,,,,,,,,,,,,,,,,,,,"29.69","56","58","0.33","+RA:02 BR:1 |RA |RA","+0.14","8","93","29.69","VV:09 5","29.26","1.00","57","160","39","21",,,,,,,,,,,,,,,,,,,,,,,,,,,,,,,,,,,,,"MET14904/13/20 09:56:02 METAR KHPN 131456Z 16018G34KT 1SM R16/P6000FT +RA BR VV005 14/13 A2969 RMK AO2 PK WND 16038/1408 SLP053 P0032 60085 T01440133 58046","FM-15","7",,,,,,,,,,,,,,,,,,,,,,,,,,,,"2009-05-22"
"72503794745","2020-04-13T10:54:00","FM-16","6",,,,,,,,,,,,,,,,,,,,,,,,,,,,,,,,,,,,,,"29.63","55","57",,"+RA:02 BR:1 |RA |RA",,,"94",,"VV:09 5","29.21","0.75","56","170","38","17",,,,,,,,,,,,,,,,,,,,,,,,,,,,,,,,,,,,,"MET14404/13/20 10:54:02 SPECI KHPN 131554Z 17015G33KT 3/4SM R16/4500VP6000FT +RA BR VV005 14/13 A2963 RMK AO2 PK WND 17037/1518 PRESFR P0042 FIBI (WS)","FM-16","6",,,,,,,,,,,,,,,,,,,,,,,,,,,,"2009-05-22"
"72503794745","2020-04-13T10:56:00","FM-15","7",,,,,,,,,,,,,,,,,,,,,,,,,,,,,,,,,,,,,,"29.63","56","57","0.45","+RA:02 BR:1 |RA |RA",,,"96","29.63","VV:09 5","29.21","0.75","56","180","38","18",,,,,,,,,,,,,,,,,,,,,,,,,,,,,,,,,,,,,"MET14404/13/20 10:56:02 METAR KHPN 131556Z 18016G33KT 3/4SM R16/4000VP6000FT +RA BR VV005 14/13 A2963 RMK AO2 PK WND 17037/1518 SLP033 P0044 T01390133","FM-15","7",,,,,,,,,,,,,,,,,,,,,,,,,,,,"2009-05-22"
"72503794745","2020-04-13T11:54:00","FM-16","6",,,,,,,,,,,,,,,,,,,,,,,,,,,,,,,,,,,,,,"29.59","55","57",,"RA:02 BR:1 |RA |RA",,,"94",,"VV:09 4","29.17","1.00","56","180","46","23",,,,,,,,,,,,,,,,,,,,,,,,,,,,,,,,,,,,,"MET12904/13/20 11:54:02 SPECI KHPN 131654Z 18020G40KT 1SM R16/P6000FT RA BR VV004 14/13 A2959 RMK AO2 PK WND 19040/1647 P0014 FIBI (WS)","FM-16","6",,,,,,,,,,,,,,,,,,,,,,,,,,,,"2009-05-22"
"72503794745","2020-04-13T11:56:00","FM-15","7",,,,,,,,,,,,,,,,,,,,,,,,,,,,,,,,,,,,,,"29.59","55","57","0.11","RA:02 BR:1 |RA |RA",,,"93","29.58","VV:09 4","29.17","1.00","56","170","46","26",,,,,,,,,,,,,,,,,,,,,,,,,,,,,,,,,,,,,"MET13604/13/20 11:56:02 METAR KHPN 131656Z 17023G40KT 1SM R16/P6000FT RA BR VV004 14/13 A2959 RMK AO2 PK WND 19040/1647 SLP018 P0014 T01390128","FM-15","7",,,,,,,,,,,,,,,,,,,,,,,,,,,,"2009-05-22"
"72503794745","2020-04-13T12:54:00","FM-16","6",,,,,,,,,,,,,,,,,,,,,,,,,,,,,,,,,,,,,,"29.52","55","57",,"+RA:02 BR:1 |RA |RA",,,"94",,"VV:09 4","29.10","0.75","56","170","40","24",,,,,,,,,,,,,,,,,,,,,,,,,,,,,,,,,,,,,"MET14404/13/20 12:54:02 SPECI KHPN 131754Z 17021G35KT 3/4SM R16/4000VP6000FT +RA BR VV004 14/13 A2952 RMK AO2 PK WND 17036/1704 PRESFR P0010 FIBI (WS)","FM-16","6",,,,,,,,,,,,,,,,,,,,,,,,,,,,"2009-05-22"
"72503794745","2020-04-13T12:56:00","FM-15","7",,,,,,,,,,,,,,,,,,,,,,,,,,,,,,,,,,,,,,"29.52","56","58","0.12","+RA:02 BR:1 |RA |RA","+0.16","8","93","29.52","VV:09 4","29.10","0.75","57","170","40","20",,,,,,,,,,,,,,,,,,,,,,,,,,,,,,,,,,,,,"MET16804/13/20 12:56:02 METAR KHPN 131756Z 17017G35KT 3/4SM R16/4000VP6000FT +RA BR VV004 14/13 A2952 RMK AO2 PK WND 17036/1704 SLP997 P0011 60154 T01440133 10150 20128 58055","FM-15","7",,,,,,,,,,,,,,,,,,,,,,,,,,,,"2009-05-22"
"72503794745","2020-04-13T13:54:00","FM-16","6",,,,,,,,,,,,,,,,,,,,,,,,,,,,,,,,,,,,,,"29.48","55","57",,"RA:02 BR:1 |RA |RA",,,"94",,"VV:09 4","29.06","1.25","56","170","36","20",,,,,,,,,,,,,,,,,,,,,,,,,,,,,,,,,,,,,"MET13804/13/20 13:54:02 SPECI KHPN 131854Z 17017G31KT 1 1/4SM R16/6000VP6000FT RA BR VV004 14/13 A2948 RMK AO2 PK WND 17041/1826 P0015 FIBI (WS)","FM-16","6",,,,,,,,,,,,,,,,,,,,,,,,,,,,"2009-05-22"
"72503794745","2020-04-13T13:56:00","FM-15","7",,,,,,,,,,,,,,,,,,,,,,,,,,,,,,,,,,,,,,"29.47","56","57","0.17","RA:02 BR:1 |RA |RA",,,"96","29.47","VV:09 4","29.05","1.25","56","170","33","22",,,,,,,,,,,,,,,,,,,,,,,,,,,,,,,,,,,,,"MET15204/13/20 13:56:02 METAR KHPN 131856Z 17019G29KT 1 1/4SM R16/6000VP6000FT RA BR VV004 14/13 A2947 RMK AO2 PK WND 17041/1826 PRESFR SLP980 P0016 T01390133","FM-15","7",,,,,,,,,,,,,,,,,,,,,,,,,,,,"2009-05-22"
"72503794745","2020-04-13T14:56:00","FM-15","7",,,,,,,,,,,,,,,,,,,,,,,,,,,,,,,,,,,,,,"29.47","55","56","0.14","RA:02 BR:1 |RA |RA",,,"97","29.47","VV:09 4","29.05","1.50","55","190","33","18",,,,,,,,,,,,,,,,,,,,,,,,,,,,,,,,,,,,,"MET12804/13/20 14:56:02 METAR KHPN 131956Z 19016G29KT 1 1/2SM RA BR VV004 13/13 A2947 RMK AO2 PK WND 17035/1902 SLP980 P0015 T01330128","FM-15","7",,,,,,,,,,,,,,,,,,,,,,,,,,,,"2009-05-22"
"72503794745","2020-04-13T15:45:00","FM-16","7",,,,,,,,,,,,,,,,,,,,,,,,,,,,,,,,,,,,,,"29.42","54","55","0.07","FG:2 |FG |",,,"96",,"VV:09 1","29.00","0.25","54","170","25","16",,,,,,,,,,,,,,,,,,,,,,,,,,,,,,,,,,,,,"MET13804/13/20 15:45:02 SPECI KHPN 132045Z 17014G22KT 1/4SM R16/2200V3000FT FG VV001 13/12 A2942 RMK AO2 PK WND 19028/1959 RAE28 P0007 T01280122","FM-16","7",,,,,,,,,,,,,,,,,,,,,,,,,,,,"2009-05-22"
"72503794745","2020-04-13T15:56:00","FM-15","7",,,,,,,,,,,,,,,,,,,,,,,,,,,,,,,,,,,,,,"29.46","55","55","0.06","FG:2 |FG |","+0.06","6","100","29.46","VV:09 1","29.04","0.25","55","180","21","10",,,,,,,,,,,,,,,,,,,,,,,,,,,,,,,,,,,,,"MET16404/13/20 15:56:02 METAR KHPN 132056Z 18009G18KT 1/4SM R16/2200V4000FT FG VV001 13/13 A2946 RMK AO2 PK WND 19028/1959 RAE28 PRESRR SLP975 P0007 60038 T01280128 56022","FM-15","7",,,,,,,,,,,,,,,,,,,,,,,,,,,,"2009-05-22"
"72503794745","2020-04-13T16:54:00","FM-16","6",,,,,,,,,,,,,,,,,,,,,,,,,,,,,,,,,,,,,,"29.48","57","57",,"BR:1 ||",,,"100",,"SCT:04 1 BKN:07 4","29.06","1.25","57","170","17","9",,,,,,,,,,,,,,,,,,,,,,,,,,,,,,,,,,,,,"MET11704/13/20 16:54:02 SPECI KHPN 132154Z 17008G15KT 1 1/4SM BR SCT001 BKN004 14/14 A2948 RMK AO2 RAB27E53 P0007 FIBI (JR)","FM-16","6",,,,,,,,,,,,,,,,,,,,,,,,,,,,"2009-05-22"
"72503794745","2020-04-13T16:56:00","FM-15","7",,,,,,,,,,,,,,,,,,,,,,,,,,,,,,,,,,,,,,"29.48","57","58","0.07","BR:1 ||",,,"97","29.48","SCT:04 1 BKN:07 4","29.06","1.25","57","170",,"11",,,,,,,,,,,,,,,,,,,,,,,,,,,,,,,,,,,,,"MET12104/13/20 16:56:02 METAR KHPN 132156Z 17010KT 1 1/4SM BR SCT001 BKN004 14/14 A2948 RMK AO2 RAB27E53 SLP982 P0007 T01440139","FM-15","7",,,,,,,,,,,,,,,,,,,,,,,,,,,,"2009-05-22"
"72503794745","2020-04-13T17:37:00","FM-16","7",,,,,,,,,,,,,,,,,,,,,,,,,,,,,,,,,,,,,,"29.52","58","61","T","BR:1 ||",,,"90",,"SCT:04 4 BKN:07 19 BKN:07 25","29.10","3.00","59","VRB",,"9",,,,,,,,,,,,,,,,,,,,,,,,,,,,,,,,,,,,,"MET11704/13/20 17:37:02 SPECI KHPN 132237Z 23008KT 3SM BR SCT004 BKN019 BKN025 16/14 A2952 RMK AO2 DZB07E37 P0000 T01610144","FM-16","7",,,,,,,,,,,,,,,,,,,,,,,,,,,,"2009-05-22"
"72503794745","2020-04-13T17:54:00","FM-16","6",,,,,,,,,,,,,,,,,,,,,,,,,,,,,,,,,,,,,,"29.54","59","61",,"BR:1 ||",,,"94",,"FEW:02 19 FEW:02 40","29.12","3.00","60","250",,"8",,,,,,,,,,,,,,,,,,,,,,,,,,,,,,,,,,,,,"MET11004/13/20 17:54:02 SPECI KHPN 132254Z 25007KT 3SM BR FEW019 FEW040 16/15 A2954 RMK AO2 DZB07E37 P0000 FIBI (JR)","FM-16","6",,,,,,,,,,,,,,,,,,,,,,,,,,,,"2009-05-22"
"72503794745","2020-04-13T17:56:00","FM-15","7",,,,,,,,,,,,,,,,,,,,,,,,,,,,,,,,,,,,,,"29.54","59","61","T","BR:1 ||",,,"93","29.54","FEW:02 19 BKN:07 40","29.12","3.00","60","260",,"8",,,,,,,,,,,,,,,,,,,,,,,,,,,,,,,,,,,,,"MET11704/13/20 17:56:02 METAR KHPN 132256Z 26007KT 3SM BR FEW019 BKN040 16/15 A2954 RMK AO2 DZB07E37 SLP002 P0000 T01610150","FM-15","7",,,,,,,,,,,,,,,,,,,,,,,,,,,,"2009-05-22"
"72503794745","2020-04-13T18:56:00","FM-15","7",,,,,,,,,,,,,,,,,,,,,,,,,,,,,,,,,,,,,,"29.63","54","62","0.05","-RA:02 |RA |RA","-0.17","3","75","29.62","SCT:04 36 BKN:07 46","29.21","10.00","57","280","30","18",,,,,,,,,,,,,,,,,,,,,,,,,,,,,,,,,,,,,"MET16804/13/20 18:56:02 METAR KHPN 132356Z 28016G26KT 10SM -RA SCT036 BKN046 17/12 A2963 RMK AO2 PK WND 29031/2341 RAB31 PRESRR SLP030 P0005 60050 T01670122 10178 20128 53057","FM-15","7",,,,,,,,,,,,,,,,,,,,,,,,,,,,"2009-05-22"
"72503794745","2020-04-13T19:56:00","FM-15","7",,,,,,,,,,,,,,,,,,,,,,,,,,,,,,,,,,,,,,"29.69","54","60","T","-RA:02 |RA |RA",,,"80","29.68","CLR:00","29.26","10.00","57","VRB",,"3",,,,,,,,,,,,,,,,,,,,,,,,,,,,,,,,,,,,,"MET10904/13/20 19:56:01 METAR KHPN 140056Z VRB03KT 10SM -RA CLR 16/12 A2969 RMK AO2 RAE05B55 SLP051 P0000 T01560122","FM-15","7",,,,,,,,,,,,,,,,,,,,,,,,,,,,"2009-05-22"
"72503794745","2020-04-13T20:56:00","FM-15","7",,,,,,,,,,,,,,,,,,,,,,,,,,,,,,,,,,,,,,"29.73","51","62","0.00",,,,"67","29.72","CLR:00","29.31","10.00","56","240",,"8",,,,,,,,,,,,,,,,,,,,,,,,,,,,,,,,,,,,,"MET10404/13/20 20:56:01 METAR KHPN 140156Z 24007KT 10SM CLR 17/11 A2973 RMK AO2 RAE0057 SLP066 P0000 T01670106","FM-15","7",,,,,,,,,,,,,,,,,,,,,,,,,,,,"2009-05-22"
"72503794745","2020-04-13T21:56:00","FM-15","7",,,,,,,,,,,,,,,,,,,,,,,,,,,,,,,,,,,,,,"29.78","49","61","0.00",,"-0.15","1","65","29.77","CLR:00","29.36","10.00","55","270",,"8",,,,,,,,,,,,,,,,,,,,,,,,,,,,,,,,,,,,,"MET10204/13/20 21:56:01 METAR KHPN 140256Z 27007KT 10SM CLR 16/09 A2978 RMK AO2 SLP082 60000 T01610094 51051","FM-15","7",,,,,,,,,,,,,,,,,,,,,,,,,,,,"2009-05-22"
"72503794745","2020-04-13T22:56:00","FM-15","7",,,,,,,,,,,,,,,,,,,,,,,,,,,,,,,,,,,,,,"29.82","43","58","0.00",,,,"58","29.82","CLR:00","29.39","10.00","50","280","30","11",,,,,,,,,,,,,,,,,,,,,,,,,,,,,,,,,,,,,"MET11104/13/20 22:56:01 METAR KHPN 140356Z 28010G26KT 10SM CLR 14/06 A2982 RMK AO2 PK WND 29027/0336 SLP099 T01440061","FM-15","7",,,,,,,,,,,,,,,,,,,,,,,,,,,,"2009-05-22"
"72503794745","2020-04-13T23:56:00","FM-15","7",,,,,,,,,,,,,,,,,,,,,,,,,,,,,,,,,,,,,,"29.88","39","52","0.00",,,,"61","29.88","CLR:00","29.45","10.00","46","310","28","24",,,,,,,,,,,,,,,,,,,,,,,,,,,,,,,,,,,,,"MET12104/13/20 23:56:01 METAR KHPN 140456Z 31021G24KT 10SM CLR 11/04 A2988 RMK AO2 PK WND 29027/0436 SLP119 T01110039 401780111","FM-15","7",,,,,,,,,,,,,,,,,,,,,,,,,,,,"2009-05-22"
"72503794745","2020-04-13T23:59:00","SOD  ","6",,,,,,,,,,,,,,,,"58",,,"29.29",,"14.2","0","10.1","7","64","52","170","47","2.58",,,"170","32","RA FG BR",,,,,,,,,,,,,,,,,,,,,,,,,,,,,,,,,,,,,,,,,,,,,,,,,,,,,,,,"SOD75124 HR PRECIPITATION (IN): 2.58 WEATHER(CODE):2  24 HR MAX TEMP (F):64 24 HR MAX TEMP TIME (LST):1832 24 HR MIN TEMP (F):52 24 HR MIN TEMP TIME (LST):2359 AVERAGE STATION PRESSURE(D):29.289 MINIMUM SEA LEVEL PRESSURE:29.41 TIME OF OCCURRENCE:1539 PEAK WIND SPEED (MPH):47  PEAK WIND DIR (DEG):170 PEAK WIND TIME (LST):1326  FASTEST 2MIN SPEED (MPH):32 FASTEST 2MIN DIR (DEG):170 FASTEST 2MIN TIME (LST):1330 AVERAGE WIND SPEED (MPH):14.2 24 HR AVG TEMP (F):58 HEATING DEGREE DAYS:  7 COOLING DEGREE DAYS:  0 LATEST DAY MAX TEMP (0700-1900 LST): 64 LATEST NIGHT MIN TEMP(1900-0800 LST):52 HOURLY INCREMENTAL PRECIPITATION VALUES (IN):0.01 0.07 0.07 0.05 0.15 0.04 0.16 0.23 0.30 0.33 0.45 0.11 0.12 0.17 0.14 0.06 0.07T     0.05T     0.00 0.00 0.00 0.00","SOD  ","6",,,,,,,,,,,,,,,,,,,,,,,,,"0518","1833",,"2009-05-22"
"72503794745","2020-04-14T00:56:00","FM-15","7",,,,,,,,,,,,,,,,,,,,,,,,,,,,,,,,,,,,,,"29.91","35","49","0.00",,"-0.13","1","59","29.91","CLR:00","29.48","10.00","43","300","28","23",,,,,,,,,,,,,,,,,,,,,,,,,,,,,,,,,,,,,"MET14004/14/20 00:56:02 METAR KHPN 140556Z 30020G24KT 10SM CLR 09/02 A2991 RMK AO2 PK WND 30027/0501 SLP128 60000 T00940017 10167 20094 51043 (RV)","FM-15","7",,,,,,,,,,,,,,,,,,,,,,,,,,,,"2009-05-22"
"72503794745","2020-04-14T01:56:00","FM-15","7",,,,,,,,,,,,,,,,,,,,,,,,,,,,,,,,,,,,,,"29.94","32","47","0.00",,,,"56","29.94","CLR:00","29.51","10.00","41","290","30","17",,,,,,,,,,,,,,,,,,,,,,,,,,,,,,,,,,,,,"MET11604/14/20 01:56:02 METAR KHPN 140656Z 29015G26KT 10SM CLR 08/00 A2994 RMK AO2 PK WND 31032/0611 SLP139 T00830000 (RV)","FM-15","7",,,,,,,,,,,,,,,,,,,,,,,,,,,,"2009-05-22"
"72503794745","2020-04-14T02:56:00","FM-15","7",,,,,,,,,,,,,,,,,,,,,,,,,,,,,,,,,,,,,,"29.94","31","46","0.00",,,,"56","29.95","CLR:00","29.51","10.00","40","310","31","16",,,,,,,,,,,,,,,,,,,,,,,,,,,,,,,,,,,,,"MET11704/14/20 02:56:02 METAR KHPN 140756Z 31014G27KT 10SM CLR 08/M01 A2994 RMK AO2 PK WND 32027/0753 SLP142 T00781006 (RV)","FM-15","7",,,,,,,,,,,,,,,,,,,,,,,,,,,,"2009-05-22"
"72503794745","2020-04-14T03:56:00","FM-15","7",,,,,,,,,,,,,,,,,,,,,,,,,,,,,,,,,,,,,,"29.96","30","45","0.00",,"-0.05","1","56","29.96","CLR:00","29.53","10.00","39","310","22","17",,,,,,,,,,,,,,,,,,,,,,,,,,,,,,,,,,,,,"MET12304/14/20 03:56:02 METAR KHPN 140856Z 31015G19KT 10SM CLR 07/M01 A2996 RMK AO2 PK WND 31026/0757 SLP147 T00721011 51018 (RV)","FM-15","7",,,,,,,,,,,,,,,,,,,,,,,,,,,,"2009-05-22"
"72503794745","2020-04-14T04:56:00","FM-15","7",,,,,,,,,,,,,,,,,,,,,,,,,,,,,,,,,,,,,,"29.98","28","44","0.00",,,,"53","29.98","FEW:02 10","29.55","10.00","38","310",,"13",,,,,,,,,,,,,,,,,,,,,,,,,,,,,,,,,,,,,"MET09904/14/20 04:56:02 METAR KHPN 140956Z 31011KT 10SM FEW010 07/M02 A2998 RMK AO2 SLP153 T00671022 (RV)","FM-15","7",,,,,,,,,,,,,,,,,,,,,,,,,,,,"2009-05-22"
"72503794745","2020-04-14T05:56:00","FM-15","7",,,,,,,,,,,,,,,,,,,,,,,,,,,,,,,,,,,,,,"30.01","28","45","0.00",,,,"52","30.02","BKN:07 120","29.58","10.00","38","310",,"16",,,,,,,,,,,,,,,,,,,,,,,,,,,,,,,,,,,,,"MET09904/14/20 05:56:02 METAR KHPN 141056Z 31014KT 10SM BKN120 07/M02 A3001 RMK AO2 SLP165 T00721022 (RV)","FM-15","7",,,,,,,,,,,,,,,,,,,,,,,,,,,,"2009-05-22"
"72503794745","2020-04-14T06:56:00","FM-15","7",,,,,,,,,,,,,,,,,,,,,,,,,,,,,,,,,,,,,,"30.04","27","47","0.00",,"-0.08","3","46","30.04","CLR:00","29.61","10.00","39","310","23","17",,,,,,,,,,,,,,,,,,,,,,,,,,,,,,,,,,,,,"MET12304/14/20 06:56:02 METAR KHPN 141156Z 31015G20KT 10SM CLR 08/M03 A3004 RMK AO2 SLP174 70204 T00831028 10094 20067 53028 (WS)","FM-15","7",,,,,,,,,,,,,,,,,,,,,,,,,,,,"2009-05-22"
"72503794745","2020-04-14T07:56:00","FM-15","7",,,,,,,,,,,,,,,,,,,,,,,,,,,,,,,,,,,,,,"30.06","26","46","0.00",,,,"46","30.06","SCT:04 120","29.63","10.00","38","290",,"16",,,,,,,,,,,,,,,,,,,,,,,,,,,,,,,,,,,,,"MET09904/14/20 07:56:02 METAR KHPN 141256Z 29014KT 10SM SCT120 08/M03 A3006 RMK AO2 SLP180 T00781033 (WS)","FM-15","7",,,,,,,,,,,,,,,,,,,,,,,,,,,,"2009-05-22"
"72503794745","2020-04-14T08:56:00","FM-15","7",,,,,,,,,,,,,,,,,,,,,,,,,,,,,,,,,,,,,,"30.06","26","47","0.00",,,,"44","30.06","CLR:00","29.63","10.00","39","320","23","15",,,,,,,,,,,,,,,,,,,,,,,,,,,,,,,,,,,,,"MET09904/14/20 08:56:02 METAR KHPN 141356Z 32013G20KT 10SM CLR 08/M03 A3006 RMK AO2 SLP178 T00831033 (WS)","FM-15","7",,,,,,,,,,,,,,,,,,,,,,,,,,,,"2009-05-22"
"72503794745","2020-04-14T09:56:00","FM-15","7",,,,,,,,,,,,,,,,,,,,,,,,,,,,,,,,,,,,,,"30.07","25","49","0.00",,"-0.02","1","39","30.06","CLR:00","29.64","10.00","39","290",,"13",,,,,,,,,,,,,,,,,,,,,,,,,,,,,,,,,,,,,"MET10204/14/20 09:56:02 METAR KHPN 141456Z 29011KT 10SM CLR 09/M04 A3007 RMK AO2 SLP181 T00941039 51007 (WS)","FM-15","7",,,,,,,,,,,,,,,,,,,,,,,,,,,,"2009-05-22"
"72503794745","2020-04-14T10:56:00","FM-15","7",,,,,,,,,,,,,,,,,,,,,,,,,,,,,,,,,,,,,,"30.08","24","50","0.00",,,,"36","30.08","OVC:08 110","29.65","10.00","40","290",,"9",,,,,,,,,,,,,,,,,,,,,,,,,,,,,,,,,,,,,"MET09904/14/20 10:56:02 METAR KHPN 141556Z 29008KT 10SM OVC110 10/M04 A3008 RMK AO2 SLP186 T01001044 (WS)","FM-15","7",,,,,,,,,,,,,,,,,,,,,,,,,,,,"2009-05-22"
"72503794745","2020-04-14T11:56:00","FM-15","7",,,,,,,,,,,,,,,,,,,,,,,,,,,,,,,,,,,,,,"30.03","24","50","0.00",,,,"36","30.04","FEW:02 40 BKN:07 110","29.60","10.00","40","320",,"6",,,,,,,,,,,,,,,,,,,,,,,,,,,,,,,,,,,,,"MET10604/14/20 11:56:02 METAR KHPN 141656Z 32005KT 10SM FEW040 BKN110 10/M04 A3003 RMK AO2 SLP172 T01001044 (WS)","FM-15","7",,,,,,,,,,,,,,,,,,,,,,,,,,,,"2009-05-22"
"72503794745","2020-04-14T12:56:00","FM-15","7",,,,,,,,,,,,,,,,,,,,,,,,,,,,,,,,,,,,,,"30.03","25","53","0.00",,"+0.04","8","34","30.03","BKN:07 120","29.60","10.00","41","330",,"6",,,,,,,,,,,,,,,,,,,,,,,,,,,,,,,,,,,,,"MET11704/14/20 12:56:02 METAR KHPN 141756Z 33005KT 10SM BKN120 12/M04 A3003 RMK AO2 SLP169 T01171039 10122 20078 58014 (WS)","FM-15","7",,,,,,,,,,,,,,,,,,,,,,,,,,,,"2009-05-22"
"72503794745","2020-04-14T13:56:00","FM-15","7",,,,,,,,,,,,,,,,,,,,,,,,,,,,,,,,,,,,,,"30.00","25","54","0.00",,,,"33","30.00","CLR:00","29.57","10.00","42","VRB",,"6",,,,,,,,,,,,,,,,,,,,,,,,,,,,,,,,,,,,,"MET09604/14/20 13:56:02 METAR KHPN 141856Z VRB05KT 10SM CLR 12/M04 A3000 RMK AO2 SLP160 T01221039 (WS)","FM-15","7",,,,,,,,,,,,,,,,,,,,,,,,,,,,"2009-05-22"
"72503794745","2020-04-14T14:56:00","FM-15","7",,,,,,,,,,,,,,,,,,,,,,,,,,,,,,,,,,,,,,"29.98","27","54","0.00",,,,"35","29.99","CLR:00","29.55","10.00","43","310",,"13",,,,,,,,,,,,,,,,,,,,,,,,,,,,,,,,,,,,,"MET09604/14/20 14:56:02 METAR KHPN 141956Z 31011KT 10SM CLR 12/M03 A2998 RMK AO2 SLP155 T01221028 (MM)","FM-15","7",,,,,,,,,,,,,,,,,,,,,,,,,,,,"2009-05-22"
"72503794745","2020-04-14T15:56:00","FM-15","7",,,,,,,,,,,,,,,,,,,,,,,,,,,,,,,,,,,,,,"29.96","27","53","0.00",,"+0.06","6","37","29.96","CLR:00","29.53","10.00","42","330",,"8",,,,,,,,,,,,,,,,,,,,,,,,,,,,,,,,,,,,,"MET10204/14/20 15:56:02 METAR KHPN 142056Z 33007KT 10SM CLR 12/M03 A2996 RMK AO2 SLP147 T01171028 56022 (MM)","FM-15","7",,,,,,,,,,,,,,,,,,,,,,,,,,,,"2009-05-22"
"72503794745","2020-04-14T16:56:00","FM-15","7",,,,,,,,,,,,,,,,,,,,,,,,,,,,,,,,,,,,,,"29.93","27","53","0.00",,,,"37","29.93","CLR:00","29.50","10.00","42","340",,"8",,,,,,,,,,,,,,,,,,,,,,,,,,,,,,,,,,,,,"MET10304/14/20 16:56:02 METAR KHPN 142156Z 34007KT 10SM CLR 12/M03 A2993 RMK AO2 PRESFR SLP137 T01171028 (MM)","FM-15","7",,,,,,,,,,,,,,,,,,,,,,,,,,,,"2009-05-22"
"72503794745","2020-04-14T17:56:00","FM-15","7",,,,,,,,,,,,,,,,,,,,,,,,,,,,,,,,,,,,,,"29.98","26","51","0.00",,,,"38","29.98","SCT:04 100 BKN:07 120","29.55","10.00","41","300",,"6",,,,,,,,,,,,,,,,,,,,,,,,,,,,,,,,,,,,,"MET11304/14/20 17:56:02 METAR KHPN 142256Z 30005KT 10SM SCT100 BKN120 11/M03 A2998 RMK AO2 PRESRR SLP153 T01061033 (MM)","FM-15","7",,,,,,,,,,,,,,,,,,,,,,,,,,,,"2009-05-22"
"72503794745","2020-04-14T18:56:00","FM-15","7",,,,,,,,,,,,,,,,,,,,,,,,,,,,,,,,,,,,,,"29.95","29","49","0.00",,"+0.01","6","46","29.96","BKN:07 100","29.52","10.00","41","160",,"8",,,,,,,,,,,,,,,,,,,,,,,,,,,,,,,,,,,,,"MET11704/14/20 18:56:02 METAR KHPN 142356Z 16007KT 10SM BKN100 09/M02 A2995 RMK AO2 SLP146 T00941017 10128 20094 56002 (MM)","FM-15","7",,,,,,,,,,,,,,,,,,,,,,,,,,,,"2009-05-22"
"72503794745","2020-04-14T19:56:00","FM-15","7",,,,,,,,,,,,,,,,,,,,,,,,,,,,,,,,,,,,,,"29.98","33","48","0.00",,,,"56","29.99","BKN:07 85","29.55","10.00","41","180",,"5",,,,,,,,,,,,,,,,,,,,,,,,,,,,,,,,,,,,,"MET09304/14/20 19:56:01 METAR KHPN 150056Z 18004KT 10SM BKN085 09/01 A2998 RMK AO2 SLP155 T00890006","FM-15","7",,,,,,,,,,,,,,,,,,,,,,,,,,,,"2009-05-22"
"72503794745","2020-04-14T20:56:00","FM-15","7",,,,,,,,,,,,,,,,,,,,,,,,,,,,,,,,,,,,,,"29.98","33","48","T",,,,"56","29.98","BKN:07 60 BKN:07 75 OVC:08 90","29.55","10.00","41","120",,"5",,,,,,,,,,,,,,,,,,,,,,,,,,,,,,,,,,,,,"MET13004/14/20 20:56:01 METAR KHPN 150156Z 12004KT 10SM BKN060 BKN075 OVC090 09/01 A2998 RMK AO2 DZB12E35RAB35E51 SLP154 P0000 T00890006","FM-15","7",,,,,,,,,,,,,,,,,,,,,,,,,,,,"2009-05-22"
"72503794745","2020-04-14T21:56:00","FM-15","7",,,,,,,,,,,,,,,,,,,,,,,,,,,,,,,,,,,,,,"29.97","34","47","0.00",,"-0.02","0","61","29.98","BKN:07 65","29.54","10.00","41","000",,"0",,,,,,,,,,,,,,,,,,,,,,,,,,,,,,,,,,,,,"MET10504/14/20 21:56:01 METAR KHPN 150256Z 00000KT 10SM BKN065 08/01 A2997 RMK AO2 SLP152 60000 T00830011 50006","FM-15","7",,,,,,,,,,,,,,,,,,,,,,,,,,,,"2009-05-22"
"72503794745","2020-04-14T22:56:00","FM-15","7",,,,,,,,,,,,,,,,,,,,,,,,,,,,,,,,,,,,,,"29.97","31","48","0.00",,,,"52","29.98","BKN:07 55 OVC:08 70","29.54","10.00","41","280",,"7",,,,,,,,,,,,,,,,,,,,,,,,,,,,,,,,,,,,,"MET10104/14/20 22:56:01 METAR KHPN 150356Z 28006KT 10SM BKN055 OVC070 09/M01 A2997 RMK AO2 SLP152 T00891006","FM-15","7",,,,,,,,,,,,,,,,,,,,,,,,,,,,"2009-05-22"
"72503794745","2020-04-14T23:56:00","FM-15","7",,,,,,,,,,,,,,,,,,,,,,,,,,,,,,,,,,,,,,"29.97","29","47","T",,,,"50","29.98","OVC:08 50","29.54","10.00","39","280","18","10",,,,,,,,,,,,,,,,,,,,,,,,,,,,,,,,,,,,,"MET12204/14/20 23:56:01 METAR KHPN 150456Z 28009G16KT 10SM OVC050 08/M02 A2997 RMK AO2 DZB09E52 SLP151 P0000 T00831017 401280067","FM-15","7",,,,,,,,,,,,,,,,,,,,,,,,,,,,"2009-05-22"
"72503794745","2020-04-14T23:59:00","SOD  ","6",,,,,,,,,,,,,,,,"50",,,"29.55",,"10.8","0","1.8","15","55","44","310","37","T",,,"310","29",,,,,,,,,,,,,,,,,,,,,,,,,,,,,,,,,,,,,,,,,,,,,,,,,,,,,,,,,"SOD72724 HR PRECIPITATION (IN):T     24 HR MAX TEMP (F):55 24 HR MAX TEMP TIME (LST):1509 24 HR MIN TEMP (F):44 24 HR MIN TEMP TIME (LST):0631 AVERAGE STATION PRESSURE:29.550 MINIMUM SEA LEVEL PRESSURE:29.89 TIME OF OCCURRENCE:0007 PEAK WIND SPEED (MPH):37  PEAK WIND DIR (DEG):310 PEAK WIND TIME (LST):0111  FASTEST 2MIN SPEED (MPH):29 FASTEST 2MIN DIR (DEG):310 FASTEST 2MIN TIME (LST):0131 AVERAGE WIND SPEED (MPH):10.8 24 HR AVG TEMP (F):50 HEATING DEGREE DAYS:15  COOLING DEGREE DAYS:0   LATEST DAY MAX TEMP (0700-1900 LST):55  LATEST NIGHT MIN TEMP(1900-0800 LST):44 HOURLY INCREMENTAL PRECIPITATION VALUES (IN):.00 0.00 0.00 0.00 0.00 0.00 0.00 0.00 0.00 0.00 0.00 0.00 0.00 0.00 0.00 0.00 0.00 0.00 0.00 0.00 T    0.00 0.00 T","SOD  ","6",,,,,,,,,,,,,,,,,,,,,,,,,"0516","1834",,"2009-05-22"
"72503794745","2020-04-15T00:56:00","FM-15","7",,,,,,,,,,,,,,,,,,,,,,,,,,,,,,,,,,,,,,"29.94","29","45","T",,"+0.03","8","54","29.95","SCT:04 37 OVC:08 50","29.51","10.00","38","270",,"13",,,,,,,,,,,,,,,,,,,,,,,,,,,,,,,,,,,,,"MET14504/15/20 00:56:02 METAR KHPN 150556Z 27011KT 10SM SCT037 OVC050 07/M02 A2994 RMK AO2 DZB45E51 SLP142 P0000 60000 T00721017 10100 20072 58009 (RV)","FM-15","7",,,,,,,,,,,,,,,,,,,,,,,,,,,,"2009-05-22"
"72503794745","2020-04-15T01:56:00","FM-15","7",,,,,,,,,,,,,,,,,,,,,,,,,,,,,,,,,,,,,,"29.95","31","43","T",,,,"63","29.96","SCT:04 30 BKN:07 42 OVC:08 70","29.52","10.00","38","280",,"11",,,,,,,,,,,,,,,,,,,,,,,,,,,,,,,,,,,,,"MET13004/15/20 01:56:02 METAR KHPN 150656Z 28010KT 10SM SCT030 BKN042 OVC070 06/M01 A2995 RMK AO2 RAB0558E05 SLP146 P0000 T00611006 (RV)","FM-15","7",,,,,,,,,,,,,,,,,,,,,,,,,,,,"2009-05-22"
"72503794745","2020-04-15T02:56:00","FM-15","7",,,,,,,,,,,,,,,,,,,,,,,,,,,,,,,,,,,,,,"29.95","33","41","T",,,,"73","29.96","SCT:04 23 BKN:07 33 OVC:08 60","29.52","10.00","38","290",,"16",,,,,,,,,,,,,,,,,,,,,,,,,,,,,,,,,,,,,"MET12704/15/20 02:56:02 METAR KHPN 150756Z 29014KT 10SM SCT023 BKN033 OVC060 05/01 A2995 RMK AO2 RAB07E38 SLP145 P0000 T00500006 (RV)","FM-15","7",,,,,,,,,,,,,,,,,,,,,,,,,,,,"2009-05-22"
"72503794745","2020-04-15T03:56:00","FM-15","7",,,,,,,,,,,,,,,,,,,,,,,,,,,,,,,,,,,,,,"29.94","31","41","0.00",,"+0.00","8","67","29.95","OVC:08 65","29.51","10.00","37","310",,"8",,,,,,,,,,,,,,,,,,,,,,,,,,,,,,,,,,,,,"MET11104/15/20 03:56:02 METAR KHPN 150856Z 31007KT 10SM OVC065 05/M01 A2994 RMK AO2 SLP142 60000 T00501006 58000 (RV)","FM-15","7",,,,,,,,,,,,,,,,,,,,,,,,,,,,"2009-05-22"
"72503794745","2020-04-15T04:56:00","FM-15","7",,,,,,,,,,,,,,,,,,,,,,,,,,,,,,,,,,,,,,"29.95","30","41","0.00",,,,"65","29.96","BKN:07 33 BKN:07 120","29.52","10.00","37","290",,"13",,,,,,,,,,,,,,,,,,,,,,,,,,,,,,,,,,,,,"MET10604/15/20 04:56:02 METAR KHPN 150956Z 29011KT 10SM BKN033 BKN120 05/M01 A2995 RMK AO2 SLP144 T00501011 (RV)","FM-15","7",,,,,,,,,,,,,,,,,,,,,,,,,,,,"2009-05-22"
"72503794745","2020-04-15T05:56:00","FM-15","7",,,,,,,,,,,,,,,,,,,,,,,,,,,,,,,,,,,,,,"29.95","30","40","0.00",,,,"68","29.96","FEW:02 28 SCT:04 37 SCT:04 110","29.52","10.00","36","330",,"9",,,,,,,,,,,,,,,,,,,,,,,,,,,,,,,,,,,,,"MET11304/15/20 05:56:02 METAR KHPN 151056Z 33008KT 10SM FEW028 SCT037 SCT110 04/M01 A2995 RMK AO2 SLP146 T00441011 (RV)","FM-15","7",,,,,,,,,,,,,,,,,,,,,,,,,,,,"2009-05-22"
"72503794745","2020-04-15T06:56:00","FM-15","7",,,,,,,,,,,,,,,,,,,,,,,,,,,,,,,,,,,,,,"29.96","31","38","T",,"-0.02","3","76","29.98","FEW:02 33 SCT:04 41 BKN:07 55","29.53","10.00","35","350",,"8",,,,,,,,,,,,,,,,,,,,,,,,,,,,,,,,,,,,,"MET15204/15/20 06:56:02 METAR KHPN 151156Z 35007KT 10SM FEW033 SCT041 BKN055 03/M01 A2996 RMK AO2 RAB09E25 SLP151 P0000 60000 T00331006 10072 20028 53007 (RV)","FM-15","7",,,,,,,,,,,,,,,,,,,,,,,,,,,,"2009-05-22"
"72503794745","2020-04-15T07:56:00","FM-15","7",,,,,,,,,,,,,,,,,,,,,,,,,,,,,,,,,,,,,,"29.96","28","40","0.00",,,,"63","29.97","FEW:02 15","29.53","10.00","35","340",,"11",,,,,,,,,,,,,,,,,,,,,,,,,,,,,,,,,,,,,"MET09904/15/20 07:56:02 METAR KHPN 151256Z 34010KT 10SM FEW015 04/M02 A2996 RMK AO2 SLP149 T00441022 (RV)","FM-15","7",,,,,,,,,,,,,,,,,,,,,,,,,,,,"2009-05-22"
"72503794745","2020-04-15T08:56:00","FM-15","7",,,,,,,,,,,,,,,,,,,,,,,,,,,,,,,,,,,,,,"29.95","21","41","0.00",,,,"45","29.96","SCT:04 50","29.52","10.00","34","340",,"15",,,,,,,,,,,,,,,,,,,,,,,,,,,,,,,,,,,,,"MET09904/15/20 08:56:02 METAR KHPN 151356Z 34013KT 10SM SCT050 05/M06 A2995 RMK AO2 SLP145 T00501061 (RV)","FM-15","7",,,,,,,,,,,,,,,,,,,,,,,,,,,,"2009-05-22"
"72503794745","2020-04-15T09:54:00","FM-16","6",,,,,,,,,,,,,,,,,,,,,,,,,,,,,,,,,,,,,,"29.94","21","45",,,,,"39",,"FEW:02 40","29.51","10.00","36","350",,"15",,,,,,,,,,,,,,,,,,,,,,,,,,,,,,,,,,,,,"MET09804/15/20 09:54:02 SPECI KHPN 151454Z 35013KT 10SM FEW040 07/M06 A2994 RMK AO2 WSHFT 1437 FIBI (ML)","FM-16","6",,,,,,,,,,,,,,,,,,,,,,,,,,,,"2009-05-22"
"72503794745","2020-04-15T09:56:00","FM-15","7",,,,,,,,,,,,,,,,,,,,,,,,,,,,,,,,,,,,,,"29.94","22","45","0.00",,"+0.02","6","40","29.95","FEW:02 40","29.51","10.00","36","330","21","11",,,,,,,,,,,,,,,,,,,,,,,,,,,,,,,,,,,,,"MET11904/15/20 09:56:02 METAR KHPN 151456Z 33010G18KT 10SM FEW040 07/M06 A2994 RMK AO2 WSHFT 1437 SLP143 T00721056 56006 (ML)","FM-15","7",,,,,,,,,,,,,,,,,,,,,,,,,,,,"2009-05-22"
"72503794745","2020-04-15T10:56:00","FM-15","7",,,,,,,,,,,,,,,,,,,,,,,,,,,,,,,,,,,,,,"29.93","19","45","0.00",,,,"35","29.93","FEW:02 40","29.50","10.00","35","330",,"10",,,,,,,,,,,,,,,,,,,,,,,,,,,,,,,,,,,,,"MET09904/15/20 10:56:02 METAR KHPN 151556Z 33009KT 10SM FEW040 07/M07 A2993 RMK AO2 SLP137 T00721072 (ML)","FM-15","7",,,,,,,,,,,,,,,,,,,,,,,,,,,,"2009-05-22"
"72503794745","2020-04-15T11:56:00","FM-15","7",,,,,,,,,,,,,,,,,,,,,,,,,,,,,,,,,,,,,,"29.91","15","47","0.00",,,,"28","29.92","SCT:04 40","29.48","10.00","35","290","24","15",,,,,,,,,,,,,,,,,,,,,,,,,,,,,,,,,,,,,"MET10204/15/20 11:56:02 METAR KHPN 151656Z 29013G21KT 10SM SCT040 08/M09 A2991 RMK AO2 SLP132 T00831094 (ML)","FM-15","7",,,,,,,,,,,,,,,,,,,,,,,,,,,,"2009-05-22"
"72503794745","2020-04-15T12:56:00","FM-15","7",,,,,,,,,,,,,,,,,,,,,,,,,,,,,,,,,,,,,,"29.90","15","48","0.00",,"+0.04","6","27","29.91","SCT:04 75","29.47","10.00","36","310","17","11",,,,,,,,,,,,,,,,,,,,,,,,,,,,,,,,,,,,,"MET12004/15/20 12:56:02 METAR KHPN 151756Z 31010G15KT 10SM SCT075 09/M09 A2990 RMK AO2 SLP128 T00891094 10094 20033 56015 (ML)","FM-15","7",,,,,,,,,,,,,,,,,,,,,,,,,,,,"2009-05-22"
"72503794745","2020-04-15T13:56:00","FM-15","7",,,,,,,,,,,,,,,,,,,,,,,,,,,,,,,,,,,,,,"29.89","18","50","0.00",,,,"28","29.90","BKN:07 80","29.46","10.00","38","290","25","14",,,,,,,,,,,,,,,,,,,,,,,,,,,,,,,,,,,,,"MET10204/15/20 13:56:02 METAR KHPN 151856Z 29012G22KT 10SM BKN080 10/M08 A2989 RMK AO2 SLP126 T01001078 (ML)","FM-15","7",,,,,,,,,,,,,,,,,,,,,,,,,,,,"2009-05-22"
"72503794745","2020-04-15T14:56:00","FM-15","7",,,,,,,,,,,,,,,,,,,,,,,,,,,,,,,,,,,,,,"29.87","17","49","0.00",,,,"28","29.88","SCT:04 80","29.44","10.00","37","280","21","8",,,,,,,,,,,,,,,,,,,,,,,,,,,,,,,,,,,,,"MET10204/15/20 14:56:02 METAR KHPN 151956Z 28007G18KT 10SM SCT080 09/M08 A2987 RMK AO2 SLP120 T00941083 (MM)","FM-15","7",,,,,,,,,,,,,,,,,,,,,,,,,,,,"2009-05-22"
"72503794745","2020-04-15T15:56:00","FM-15","7",,,,,,,,,,,,,,,,,,,,,,,,,,,,,,,,,,,,,,"29.87","14","49","0.00",,"+0.04","6","25","29.88","SCT:04 80","29.44","10.00","36","250",,"10",,,,,,,,,,,,,,,,,,,,,,,,,,,,,,,,,,,,,"MET10504/15/20 15:56:02 METAR KHPN 152056Z 25009KT 10SM SCT080 09/M10 A2987 RMK AO2 SLP118 T00941100 56012 (MM)","FM-15","7",,,,,,,,,,,,,,,,,,,,,,,,,,,,"2009-05-22"
"72503794745","2020-04-15T16:56:00","FM-15","7",,,,,,,,,,,,,,,,,,,,,,,,,,,,,,,,,,,,,,"29.87","*","*","0.00",,,,"*",,"SCT:04 90","29.44","10.00","*","300","40","20",,,,,,,,,,,,,,,,,,,,,,,,,,,,,,,,,,,,,"MET08504/15/20 16:56:02 METAR KHPN 152156Z      KT SCT090 09/M09 A2987 RMK AO2 SLPNO $ (MM)","FM-15","7",,,,,,,,,,,,,,,,,,,,,,,,,,,,"2009-05-22"
"72503794745","2020-04-15T17:56:00","FM-15","7",,,,,,,,,,,,,,,,,,,,,,,,,,,,,,,,,,,,,,"29.88","12","47","0.00",,,,"24","29.89","CLR:00","29.45","10.00","35","300",,"10",,,,,,,,,,,,,,,,,,,,,,,,,,,,,,,,,,,,,"MET09804/15/20 17:56:02 METAR KHPN 152256Z 30009KT 10SM CLR 08/M11 A2988 RMK AO2 SLP122 T00831111 $ (MM)","FM-15","7",,,,,,,,,,,,,,,,,,,,,,,,,,,,"2009-05-22"
"72503794745","2020-04-15T18:56:00","FM-15","7",,,,,,,,,,,,,,,,,,,,,,,,,,,,,,,,,,,,,,"29.91","15","45","0.00",,"-0.04","3","30","29.92","CLR:00","29.48","10.00","34","290",,"5",,,,,,,,,,,,,,,,,,,,,,,,,,,,,,,,,,,,,"MET11604/15/20 18:56:02 METAR KHPN 152356Z 29004KT 10SM CLR 07/M09 A2991 RMK AO2 SLP133 T00721094 10100 20067 53015 $ (MM)","FM-15","7",,,,,,,,,,,,,,,,,,,,,,,,,,,,"2009-05-22"
"72503794745","2020-04-15T19:56:00","FM-15","7",,,,,,,,,,,,,,,,,,,,,,,,,,,,,,,,,,,,,,"29.94","20","41","0.00",,,,"43","29.95","CLR:00","29.51","10.00","33","000",,"0",,,,,,,,,,,,,,,,,,,,,,,,,,,,,,,,,,,,,"MET09304/15/20 19:56:01 METAR KHPN 160056Z 00000KT 10SM CLR 05/M07 A2994 RMK AO2 SLP143 T00501067 $","FM-15","7",,,,,,,,,,,,,,,,,,,,,,,,,,,,"2009-05-22"
"72503794745","2020-04-15T20:56:00","FM-15","7",,,,,,,,,,,,,,,,,,,,,,,,,,,,,,,,,,,,,,"29.94","19","39","0.00",,,,"45","29.96","CLR:00","29.51","10.00","32","000",,"0",,,,,,,,,,,,,,,,,,,,,,,,,,,,,,,,,,,,,"MET09304/15/20 20:56:01 METAR KHPN 160156Z 00000KT 10SM CLR 04/M07 A2994 RMK AO2 SLP145 T00391072 $","FM-15","7",,,,,,,,,,,,,,,,,,,,,,,,,,,,"2009-05-22"
"72503794745","2020-04-15T21:56:00","FM-15","7",,,,,,,,,,,,,,,,,,,,,,,,,,,,,,,,,,,,,,"29.94","21","38","0.00",,"-0.03","0","51","29.96","CLR:00","29.51","10.00","32","000",,"0",,,,,,,,,,,,,,,,,,,,,,,,,,,,,,,,,,,,,"MET09904/15/20 21:56:01 METAR KHPN 160256Z 00000KT 10SM CLR 03/M06 A2994 RMK AO2 SLP145 T00331061 50011 $","FM-15","7",,,,,,,,,,,,,,,,,,,,,,,,,,,,"2009-05-22"
"72503794745","2020-04-15T22:56:00","FM-15","7",,,,,,,,,,,,,,,,,,,,,,,,,,,,,,,,,,,,,,"29.95","17","42","0.00",,,,"36","29.96","CLR:00","29.52","10.00","33","250",,"3",,,,,,,,,,,,,,,,,,,,,,,,,,,,,,,,,,,,,"MET09304/15/20 22:56:01 METAR KHPN 160356Z 25003KT 10SM CLR 06/M08 A2995 RMK AO2 SLP146 T00561083 $","FM-15","7",,,,,,,,,,,,,,,,,,,,,,,,,,,,"2009-05-22"
"72503794745","2020-04-15T23:56:00","FM-15","7",,,,,,,,,,,,,,,,,,,,,,,,,,,,,,,,,,,,,,"29.94","19","44","T",,,,"37","29.95","BKN:07 90","29.51","10.00","35","220",,"6",,,,,,,,,,,,,,,,,,,,,,,,,,,,,,,,,,,,,"MET10604/15/20 23:56:01 METAR KHPN 160456Z 22005KT 10SM BKN090 07/M07 A2994 RMK AO2 SLP143 T00671072 401500028 $","FM-15","7",,,,,,,,,,,,,,,,,,,,,,,,,,,,"2009-05-22"
"72503794745","2020-04-15T23:59:00","SOD  ","6",,,,,,,,,,,,,,,,"48s",,,"29.50",,"9.1","0s","-0.6s","17s","59s","37","320","27","T",,,"290","21",,,,,,,,,,,,,,,,,,,,,,,,,,,,,,,,,,,,,,,,,,,,,,,,,,,,,,,,,"SOD72724 HR PRECIPITATION (IN):T     24 HR MAX TEMP (F):59 24 HR MAX TEMP TIME (LST):1657 24 HR MIN TEMP (F):37 24 HR MIN TEMP TIME (LST):2151 AVERAGE STATION PRESSURE:29.500 MINIMUM SEA LEVEL PRESSURE:29.87 TIME OF OCCURRENCE:1608 PEAK WIND SPEED (MPH):27  PEAK WIND DIR (DEG):320 PEAK WIND TIME (LST):1327  FASTEST 2MIN SPEED (MPH):21 FASTEST 2MIN DIR (DEG):290 FASTEST 2MIN TIME (LST):0018 AVERAGE WIND SPEED (MPH):9.1  24 HR AVG TEMP (F):48 HEATING DEGREE DAYS:17  COOLING DEGREE DAYS:0   LATEST DAY MAX TEMP (0700-1900 LST):50  LATEST NIGHT MIN TEMP(1900-0800 LST):37 HOURLY INCREMENTAL PRECIPITATION VALUES (IN):    T    T    0.00 0.00 0.00 T    0.00 0.00 0.00 0.00 0.00 0.00 0.00 0.00 0.00 0.00 0.00 0.00 0.00 0.00 0.00 0.00 T","SOD  ","6",,,,,,,,,,,,,,,,,,,,,,,,,"0515","1835",,"2009-05-22"
"72503794745","2020-04-16T00:56:00","FM-15","7",,,,,,,,,,,,,,,,,,,,,,,,,,,,,,,,,,,,,,"29.94","19","45","T",,"+0.00","8","35","29.95","OVC:08 80","29.51","10.00","35","VRB",,"5",,,,,,,,,,,,,,,,,,,,,,,,,,,,,,,,,,,,,"MET14204/16/20 00:56:02 METAR KHPN 160556Z VRB04KT 10SM OVC080 07/M07 A2994 RMK AO2 PLB0459E00 SLP142 P0000 60000 T00721072 10072 20028 58000 $ (RV)","FM-15","7",,,,,,,,,,,,,,,,,,,,,,,,,,,,"2009-05-22"
"72503794745","2020-04-16T01:56:00","FM-15","7",,,,,,,,,,,,,,,,,,,,,,,,,,,,,,,,,,,,,,"29.93","20","44","0.00",,,,"38","29.94","OVC:08 80","29.50","10.00","35","250","20","11",,,,,,,,,,,,,,,,,,,,,,,,,,,,,,,,,,,,,"MET10404/16/20 01:56:02 METAR KHPN 160656Z 25010G17KT 10SM OVC080 07/M07 A2993 RMK AO2 SLP140 T00671067 $ (RV)","FM-15","7",,,,,,,,,,,,,,,,,,,,,,,,,,,,"2009-05-22"
"72503794745","2020-04-16T02:56:00","FM-15","7",,,,,,,,,,,,,,,,,,,,,,,,,,,,,,,,,,,,,,"29.94","21","43","0.00",,,,"42","29.95","FEW:02 75 OVC:08 100","29.51","10.00","35","260",,"7",,,,,,,,,,,,,,,,,,,,,,,,,,,,,,,,,,,,,"MET10804/16/20 02:56:02 METAR KHPN 160756Z 26006KT 10SM FEW075 OVC100 06/M06 A2994 RMK AO2 SLP142 T00611061 $ (RV)","FM-15","7",,,,,,,,,,,,,,,,,,,,,,,,,,,,"2009-05-22"
"72503794745","2020-04-16T03:56:00","FM-15","7",,,,,,,,,,,,,,,,,,,,,,,,,,,,,,,,,,,,,,"29.95","24","42","0.00",,"-0.01","3","49","29.96","FEW:02 55 SCT:04 80 BKN:07 90","29.52","10.00","35","250",,"6",,,,,,,,,,,,,,,,,,,,,,,,,,,,,,,,,,,,,"MET12104/16/20 03:56:02 METAR KHPN 160856Z 25005KT 10SM FEW055 SCT080 BKN090 06/M04 A2995 RMK AO2 SLP146 T00561044 53004 $ (RV)","FM-15","7",,,,,,,,,,,,,,,,,,,,,,,,,,,,"2009-05-22"
"72503794745","2020-04-16T04:56:00","FM-15","7",,,,,,,,,,,,,,,,,,,,,,,,,,,,,,,,,,,,,,"29.97","28","41","0.00",,,,"60",,"SCT:04 40","29.54","10.00","36","260",,"9",,,,,,,,,,,,,,,,,,,,,,,,,,,,,,,,,,,,,"MET10004/16/20 04:56:02 METAR KHPN 160956Z 26008KT 10SM SCT040 05/M02 A2997 RMK AO2 SLPNO T00501022 $ (RV)","FM-15","7",,,,,,,,,,,,,,,,,,,,,,,,,,,,"2009-05-22"
"72503794745","2020-04-16T05:56:00","FM-15","7",,,,,,,,,,,,,,,,,,,,,,,,,,,,,,,,,,,,,,"30.00","29","39","0.00",,,,"67","30.01","SCT:04 26 BKN:07 34","29.57","10.00","35","300","24","20",,,,,,,,,,,,,,,,,,,,,,,,,,,,,,,,,,,,,"MET11104/16/20 05:56:02 METAR KHPN 161056Z 30017G21KT 10SM SCT026 BKN034 04/M02 A3000 RMK AO2 SLP163 T00391017 $ (RV)","FM-15","7",,,,,,,,,,,,,,,,,,,,,,,,,,,,"2009-05-22"
"72503794745","2020-04-16T06:54:00","FM-16","6",,,,,,,,,,,,,,,,,,,,,,,,,,,,,,,,,,,,,,"30.04","28","37",,,,,"70",,"BKN:07 22","29.61","10.00","34","350",,"15",,,,,,,,,,,,,,,,,,,,,,,,,,,,,,,,,,,,,"MET08704/16/20 06:54:02 SPECI KHPN 161154Z 35013KT 10SM BKN022 03/M02 A3004 RMK AO2 FIBI (ML)","FM-16","6",,,,,,,,,,,,,,,,,,,,,,,,,,,,"2009-05-22"
"72503794745","2020-04-16T06:56:00","FM-15","7",,,,,,,,,,,,,,,,,,,,,,,,,,,,,,,,,,,,,,"30.04","28","37","0.00",,"-0.09","3","70","30.06","SCT:04 26 BKN:07 34","29.61","10.00","34","350","23","13",,,,,,,,,,,,,,,,,,,,,,,,,,,,,,,,,,,,,"MET13804/16/20 06:56:02 METAR KHPN 161156Z 35011G20KT 10SM SCT026 BKN034 03/M02 A3004 RMK AO2 WSHFT 1141 SLP178 T00281022 10072 20028 53029 (ML)","FM-15","7",,,,,,,,,,,,,,,,,,,,,,,,,,,,"2009-05-22"
"72503794745","2020-04-16T07:56:00","FM-15","7",,,,,,,,,,,,,,,,,,,,,,,,,,,,,,,,,,,,,,"30.05","28","40","0.00",,,,"63","30.07","BKN:07 35","29.62","10.00","35","310",,"13",,,,,,,,,,,,,,,,,,,,,,,,,,,,,,,,,,,,,"MET11004/16/20 07:56:02 METAR KHPN 161256Z 31011KT 10SM BKN035 04/M02 A3005 RMK AO2 WSHFT 1143 SLP182 T00441022 (ML)","FM-15","7",,,,,,,,,,,,,,,,,,,,,,,,,,,,"2009-05-22"
"72503794745","2020-04-16T08:56:00","FM-15","7",,,,,,,,,,,,,,,,,,,,,,,,,,,,,,,,,,,,,,"30.06","20","42","0.00",,,,"41","30.07","SCT:04 35","29.63","10.00","34","300","25","18",,,,,,,,,,,,,,,,,,,,,,,,,,,,,,,,,,,,,"MET10204/16/20 08:56:02 METAR KHPN 161356Z 30016G22KT 10SM SCT035 06/M07 A3006 RMK AO2 SLP184 T00561067 (ML)","FM-15","7",,,,,,,,,,,,,,,,,,,,,,,,,,,,"2009-05-22"
"72503794745","2020-04-16T09:56:00","FM-15","7",,,,,,,,,,,,,,,,,,,,,,,,,,,,,,,,,,,,,,"30.06","18","42","0.00",,"-0.02","1","38","30.08","FEW:02 40","29.63","10.00","33","310","29","18",,,,,,,,,,,,,,,,,,,,,,,,,,,,,,,,,,,,,"MET12604/16/20 09:56:02 METAR KHPN 161456Z 31016G25KT 10SM FEW040 06/M08 A3006 RMK AO2 PK WND 30026/1434 SLP186 T00561078 51008 (ML)","FM-15","7",,,,,,,,,,,,,,,,,,,,,,,,,,,,"2009-05-22"
"72503794745","2020-04-16T10:56:00","FM-15","7",,,,,,,,,,,,,,,,,,,,,,,,,,,,,,,,,,,,,,"30.06","14","43","0.00",,,,"31","30.07","FEW:02 60","29.63","10.00","33","300","30","24",,,,,,,,,,,,,,,,,,,,,,,,,,,,,,,,,,,,,"MET12004/16/20 10:56:02 METAR KHPN 161556Z 30021G26KT 10SM FEW060 06/M10 A3006 RMK AO2 PK WND 31028/1546 SLP184 T00611100 (ML)","FM-15","7",,,,,,,,,,,,,,,,,,,,,,,,,,,,"2009-05-22"
"72503794745","2020-04-16T11:56:00","FM-15","7",,,,,,,,,,,,,,,,,,,,,,,,,,,,,,,,,,,,,,"30.06","14","44","0.00",,,,"30","30.07","SCT:04 30","29.63","10.00","34","310","23","17",,,,,,,,,,,,,,,,,,,,,,,,,,,,,,,,,,,,,"MET12004/16/20 11:56:02 METAR KHPN 161656Z 31015G20KT 10SM SCT030 07/M10 A3006 RMK AO2 PK WND 30029/1559 SLP183 T00671100 (ML)","FM-15","7",,,,,,,,,,,,,,,,,,,,,,,,,,,,"2009-05-22"
"72503794745","2020-04-16T12:56:00","FM-15","7",,,,,,,,,,,,,,,,,,,,,,,,,,,,,,,,,,,,,,"30.06","11","45","0.00",,"+0.01","8","25","30.07","SCT:04 75","29.63","10.00","34","310","32","23",,,,,,,,,,,,,,,,,,,,,,,,,,,,,,,,,,,,,"MET13804/16/20 12:56:02 METAR KHPN 161756Z 31020G28KT 10SM SCT075 07/M12 A3006 RMK AO2 PK WND 31028/1721 SLP182 T00721117 10078 20028 58002 (ML)","FM-15","7",,,,,,,,,,,,,,,,,,,,,,,,,,,,"2009-05-22"
"72503794745","2020-04-16T13:56:00","FM-15","7",,,,,,,,,,,,,,,,,,,,,,,,,,,,,,,,,,,,,,"30.07","11","43","0.00",,,,"27","30.08","SCT:04 80","29.64","10.00","32","310","34","24",,,,,,,,,,,,,,,,,,,,,,,,,,,,,,,,,,,,,"MET12004/16/20 13:56:02 METAR KHPN 161856Z 31021G30KT 10SM SCT080 06/M12 A3007 RMK AO2 PK WND 33031/1840 SLP186 T00611117 (ML)","FM-15","7",,,,,,,,,,,,,,,,,,,,,,,,,,,,"2009-05-22"
"72503794745","2020-04-16T14:56:00","FM-15","7",,,,,,,,,,,,,,,,,,,,,,,,,,,,,,,,,,,,,,"30.07","12","45","0.00",,,,"26","30.08","SCT:04 85","29.64","10.00","34","300","36","22",,,,,,,,,,,,,,,,,,,,,,,,,,,,,,,,,,,,,"MET12004/16/20 14:56:02 METAR KHPN 161956Z 30019G31KT 10SM SCT085 07/M11 A3007 RMK AO2 PK WND 31031/1949 SLP186 T00721111 (ML)","FM-15","7",,,,,,,,,,,,,,,,,,,,,,,,,,,,"2009-05-22"
"72503794745","2020-04-16T15:56:00","FM-15","7",,,,,,,,,,,,,,,,,,,,,,,,,,,,,,,,,,,,,,"30.07","10","45","0.00",,"-0.01","1","24","30.08","SCT:04 90","29.64","10.00","33","300","32","22",,,,,,,,,,,,,,,,,,,,,,,,,,,,,,,,,,,,,"MET12604/16/20 15:56:02 METAR KHPN 162056Z 30019G28KT 10SM SCT090 07/M12 A3007 RMK AO2 PK WND 30028/2056 SLP187 T00721122 51005 (JR)","FM-15","7",,,,,,,,,,,,,,,,,,,,,,,,,,,,"2009-05-22"
"72503794745","2020-04-16T16:56:00","FM-15","7",,,,,,,,,,,,,,,,,,,,,,,,,,,,,,,,,,,,,,"30.07","13","45","0.00",,,,"27","30.09","SCT:04 85","29.64","10.00","34","320","24","16",,,,,,,,,,,,,,,,,,,,,,,,,,,,,,,,,,,,,"MET12004/16/20 16:56:02 METAR KHPN 162156Z 32014G21KT 10SM SCT085 07/M11 A3007 RMK AO2 PK WND 28026/2057 SLP189 T00721106 (JR)","FM-15","7",,,,,,,,,,,,,,,,,,,,,,,,,,,,"2009-05-22"
"72503794745","2020-04-16T17:56:00","FM-15","7",,,,,,,,,,,,,,,,,,,,,,,,,,,,,,,,,,,,,,"30.08","11","43","0.00",,,,"27","30.09","SCT:04 90","29.65","10.00","32","310",,"14",,,,,,,,,,,,,,,,,,,,,,,,,,,,,,,,,,,,,"MET09904/16/20 17:56:02 METAR KHPN 162256Z 31012KT 10SM SCT090 06/M12 A3008 RMK AO2 SLP191 T00611117 (JR)","FM-15","7",,,,,,,,,,,,,,,,,,,,,,,,,,,,"2009-05-22"
"72503794745","2020-04-16T18:56:00","FM-15","7",,,,,,,,,,,,,,,,,,,,,,,,,,,,,,,,,,,,,,"30.10","12","42","0.00",,"-0.02","3","29","30.11","BKN:07 100","29.67","10.00","32","310","22","11",,,,,,,,,,,,,,,,,,,,,,,,,,,,,,,,,,,,,"MET12004/16/20 18:56:02 METAR KHPN 162356Z 31010G19KT 10SM BKN100 06/M11 A3010 RMK AO2 SLP197 T00561111 10078 20050 53008 (JR)","FM-15","7",,,,,,,,,,,,,,,,,,,,,,,,,,,,"2009-05-22"
"72503794745","2020-04-16T19:56:00","FM-15","7",,,,,,,,,,,,,,,,,,,,,,,,,,,,,,,,,,,,,,"30.13","17","41","0.00",,,,"38","30.14","BKN:07 75","29.70","10.00","33","300",,"17",,,,,,,,,,,,,,,,,,,,,,,,,,,,,,,,,,,,,"MET09404/16/20 19:56:01 METAR KHPN 170056Z 30015KT 10SM BKN075 05/M08 A3013 RMK AO2 SLP208 T00501083","FM-15","7",,,,,,,,,,,,,,,,,,,,,,,,,,,,"2009-05-22"
"72503794745","2020-04-16T20:56:00","FM-15","7",,,,,,,,,,,,,,,,,,,,,,,,,,,,,,,,,,,,,,"30.16","21","39","0.00",,,,"48","30.18","FEW:02 65 SCT:04 75 BKN:07 90","29.73","10.00","32","270",,"11",,,,,,,,,,,,,,,,,,,,,,,,,,,,,,,,,,,,,"MET10804/16/20 20:56:01 METAR KHPN 170156Z 27010KT 10SM FEW065 SCT075 BKN090 04/M06 A3016 RMK AO2 SLP219 T00391061","FM-15","7",,,,,,,,,,,,,,,,,,,,,,,,,,,,"2009-05-22"
"72503794745","2020-04-16T21:56:00","FM-15","7",,,,,,,,,,,,,,,,,,,,,,,,,,,,,,,,,,,,,,"30.19","22","37","0.00",,"-0.09","1","54","30.21","CLR:00","29.76","10.00","32","290",,"16",,,,,,,,,,,,,,,,,,,,,,,,,,,,,,,,,,,,,"MET11504/16/20 21:56:01 METAR KHPN 170256Z 29014KT 10SM CLR 03/M06 A3019 RMK AO2 PK WND 31027/0232 SLP229 T00281056 51031","FM-15","7",,,,,,,,,,,,,,,,,,,,,,,,,,,,"2009-05-22"
"72503794745","2020-04-16T22:56:00","FM-15","7",,,,,,,,,,,,,,,,,,,,,,,,,,,,,,,,,,,,,,"30.20","21","36","0.00",,,,"55","30.22","CLR:00","29.77","10.00","31","290","25","16",,,,,,,,,,,,,,,,,,,,,,,,,,,,,,,,,,,,,"MET09404/16/20 22:56:01 METAR KHPN 170356Z 29014G22KT 10SM CLR 02/M06 A3020 RMK AO2 SLP233 T00221061","FM-15","7",,,,,,,,,,,,,,,,,,,,,,,,,,,,"2009-05-22"
"72503794745","2020-04-16T23:56:00","FM-15","7",,,,,,,,,,,,,,,,,,,,,,,,,,,,,,,,,,,,,,"30.22","22","35","0.00",,,,"59","30.23","CLR:00","29.79","10.00","30","300",,"14",,,,,,,,,,,,,,,,,,,,,,,,,,,,,,,,,,,,,"MET10104/16/20 23:56:02 METAR KHPN 170456Z 30012KT 10SM CLR 02/M06 A3022 RMK AO2 SLP237 T00171056 400780017","FM-15","7",,,,,,,,,,,,,,,,,,,,,,,,,,,,"2009-05-22"
"72503794745","2020-04-16T23:59:00","SOD  ","6",,,,,,,,,,,,,,,,"41",,,"29.60",,"15.3","0","-7.9","24","46","35","330","36","Ts",,,"310","28",,,,,,,,,,,,,,,,,,,,,,,,,,,,,,,,,,,,,,,,,,,,,,,,,,,,,,,,,"SOD73024 HR PRECIPITATION (IN):T     24 HR MAX TEMP (F):46 24 HR MAX TEMP TIME (LST):1611 24 HR MIN TEMP (F):35 24 HR MIN TEMP TIME (LST):2359 AVERAGE STATION PRESSURE:29.600 MINIMUM SEA LEVEL PRESSURE:29.94 TIME OF OCCURRENCE:0208 PEAK WIND SPEED (MPH):36  PEAK WIND DIR (DEG):330 PEAK WIND TIME (LST):1340  FASTEST 2MIN SPEED (MPH):28 FASTEST 2MIN DIR (DEG):310 FASTEST 2MIN TIME (LST):1450 AVERAGE WIND SPEED (MPH):15.3 24 HR AVG TEMP (F):41 HEATING DEGREE DAYS:24  COOLING DEGREE DAYS:0   LATEST DAY MAX TEMP (0700-1900 LST):46  LATEST NIGHT MIN TEMP(1900-0800 LST):37 HOURLY INCREMENTAL PRECIPITATION VALUES (IN):    0.00 0.00 0.00 0.00 0.00 0.00 0.00 0.00 0.00 0.00 0.00 0.00 0.00 0.00 0.00 0.00 0.00 0.00 0.00 0.00 0.00 0.00 0.00","SOD  ","6",,,,,,,,,,,,,,,,,,,,,,,,,"0513","1837",,"2009-05-22"
"72503794745","2020-04-17T00:56:00","FM-15","7",,,,,,,,,,,,,,,,,,,,,,,,,,,,,,,,,,,,,,"30.21","22","34","0.00",,"-0.02","0","61","30.23","CLR:00","29.78","10.00","30","280",,"6",,,,,,,,,,,,,,,,,,,,,,,,,,,,,,,,,,,,,"MET11404/17/20 00:56:02 METAR KHPN 170556Z 28005KT 10SM CLR 01/M06 A3021 RMK AO2 SLP236 T00111056 10056 20006 50007 (RV)","FM-15","7",,,,,,,,,,,,,,,,,,,,,,,,,,,,"2009-05-22"
"72503794745","2020-04-17T01:56:00","FM-15","7",,,,,,,,,,,,,,,,,,,,,,,,,,,,,,,,,,,,,,"30.22","22","32","0.00",,,,"66","30.24","CLR:00","29.79","10.00","29","250",,"5",,,,,,,,,,,,,,,,,,,,,,,,,,,,,,,,,,,,,"MET09604/17/20 01:56:02 METAR KHPN 170656Z 25004KT 10SM CLR 00/M06 A3022 RMK AO2 SLP239 T00001056 (RV)","FM-15","7",,,,,,,,,,,,,,,,,,,,,,,,,,,,"2009-05-22"
"72503794745","2020-04-17T02:56:00","FM-15","7",,,,,,,,,,,,,,,,,,,,,,,,,,,,,,,,,,,,,,"30.23","21","32","0.00",,,,"64","30.24","CLR:00","29.80","10.00","28","000",,"0",,,,,,,,,,,,,,,,,,,,,,,,,,,,,,,,,,,,,"MET09604/17/20 02:56:02 METAR KHPN 170756Z 00000KT 10SM CLR 00/M06 A3023 RMK AO2 SLP242 T00001061 (RV)","FM-15","7",,,,,,,,,,,,,,,,,,,,,,,,,,,,"2009-05-22"
"72503794745","2020-04-17T03:56:00","FM-15","7",,,,,,,,,,,,,,,,,,,,,,,,,,,,,,,,,,,,,,"30.22","19","32","0.00",,"-0.01","0","59","30.24","CLR:00","29.79","10.00","28","240",,"5",,,,,,,,,,,,,,,,,,,,,,,,,,,,,,,,,,,,,"MET10204/17/20 03:56:02 METAR KHPN 170856Z 24004KT 10SM CLR 00/M07 A3022 RMK AO2 SLP239 T00001072 50003 (RV)","FM-15","7",,,,,,,,,,,,,,,,,,,,,,,,,,,,"2009-05-22"
"72503794745","2020-04-17T04:56:00","FM-15","7",,,,,,,,,,,,,,,,,,,,,,,,,,,,,,,,,,,,,,"30.23","19","32","0.00",,,,"59","30.25","CLR:00","29.80","10.00","28","270",,"5",,,,,,,,,,,,,,,,,,,,,,,,,,,,,,,,,,,,,"MET09604/17/20 04:56:02 METAR KHPN 170956Z 27004KT 10SM CLR 00/M07 A3023 RMK AO2 SLP243 T00001072 (RV)","FM-15","7",,,,,,,,,,,,,,,,,,,,,,,,,,,,"2009-05-22"
"72503794745","2020-04-17T05:56:00","FM-15","7",,,,,,,,,,,,,,,,,,,,,,,,,,,,,,,,,,,,,,"30.28","19","32","0.00",,,,"59","30.29","CLR:00","29.85","10.00","28","260",,"5",,,,,,,,,,,,,,,,,,,,,,,,,,,,,,,,,,,,,"MET09604/17/20 05:56:02 METAR KHPN 171056Z 26004KT 10SM CLR 00/M07 A3028 RMK AO2 SLP259 T00001072 (RV)","FM-15","7",,,,,,,,,,,,,,,,,,,,,,,,,,,,"2009-05-22"
"72503794745","2020-04-17T06:56:00","FM-15","7",,,,,,,,,,,,,,,,,,,,,,,,,,,,,,,,,,,,,,"30.29","19","36","0.00",,"-0.07","3","50","30.31","CLR:00","29.86","10.00","30","280",,"7",,,,,,,,,,,,,,,,,,,,,,,,,,,,,,,,,,,,,"MET11404/17/20 06:56:02 METAR KHPN 171156Z 28006KT 10SM CLR 02/M07 A3029 RMK AO2 SLP263 T00221072 10022 21006 53024 (RV)","FM-15","7",,,,,,,,,,,,,,,,,,,,,,,,,,,,"2009-05-22"
"72503794745","2020-04-17T07:56:00","FM-15","7",,,,,,,,,,,,,,,,,,,,,,,,,,,,,,,,,,,,,,"30.27","17","39","0.00",,,,"41","30.29","CLR:00","29.84","10.00","31","280",,"14",,,,,,,,,,,,,,,,,,,,,,,,,,,,,,,,,,,,,"MET09604/17/20 07:56:02 METAR KHPN 171256Z 28012KT 10SM CLR 04/M08 A3027 RMK AO2 SLP256 T00391083 (RV)","FM-15","7",,,,,,,,,,,,,,,,,,,,,,,,,,,,"2009-05-22"
"72503794745","2020-04-17T08:56:00","FM-15","7",,,,,,,,,,,,,,,,,,,,,,,,,,,,,,,,,,,,,,"30.26","18","41","0.00",,,,"39","30.28","FEW:02 40","29.83","10.00","33","300","25","14",,,,,,,,,,,,,,,,,,,,,,,,,,,,,,,,,,,,,"MET10204/17/20 08:56:02 METAR KHPN 171356Z 30012G22KT 10SM FEW040 05/M08 A3026 RMK AO2 SLP253 T00501078 (RV)","FM-15","7",,,,,,,,,,,,,,,,,,,,,,,,,,,,"2009-05-22"
"72503794745","2020-04-17T09:56:00","FM-15","7",,,,,,,,,,,,,,,,,,,,,,,,,,,,,,,,,,,,,,"30.25","17","42","0.00",,"+0.04","6","36","30.27","FEW:02 50","29.82","10.00","33","270","21","10",,,,,,,,,,,,,,,,,,,,,,,,,,,,,,,,,,,,,"MET10804/17/20 09:56:02 METAR KHPN 171456Z 27009G18KT 10SM FEW050 06/M08 A3025 RMK AO2 SLP249 T00561083 56014 (ML)","FM-15","7",,,,,,,,,,,,,,,,,,,,,,,,,,,,"2009-05-22"
"72503794745","2020-04-17T10:56:00","FM-15","7",,,,,,,,,,,,,,,,,,,,,,,,,,,,,,,,,,,,,,"30.21","14","44","0.00",,,,"30","30.23","FEW:02 50","29.78","10.00","34","270","21","11",,,,,,,,,,,,,,,,,,,,,,,,,,,,,,,,,,,,,"MET10204/17/20 10:56:02 METAR KHPN 171556Z 27010G18KT 10SM FEW050 07/M10 A3021 RMK AO2 SLP237 T00671100 (ML)","FM-15","7",,,,,,,,,,,,,,,,,,,,,,,,,,,,"2009-05-22"
"72503794745","2020-04-17T11:56:00","FM-15","7",,,,,,,,,,,,,,,,,,,,,,,,,,,,,,,,,,,,,,"30.17","15","47","0.00",,,,"28","30.19","FEW:02 50","29.74","10.00","36","VRB","22","11",,,,,,,,,,,,,,,,,,,,,,,,,,,,,,,,,,,,,"MET10204/17/20 11:56:02 METAR KHPN 171656Z 24010G19KT 10SM FEW050 08/M09 A3017 RMK AO2 SLP222 T00831094 (ML)","FM-15","7",,,,,,,,,,,,,,,,,,,,,,,,,,,,"2009-05-22"
"72503794745","2020-04-17T12:56:00","FM-15","7",,,,,,,,,,,,,,,,,,,,,,,,,,,,,,,,,,,,,,"30.14","16","47","0.00",,"+0.11","6","29","30.16","FEW:02 50 SCT:04 95","29.71","10.00","36","VRB","20","7",,,,,,,,,,,,,,,,,,,,,,,,,,,,,,,,,,,,,"MET12704/17/20 12:56:02 METAR KHPN 171756Z VRB06G17KT 10SM FEW050 SCT095 08/M09 A3014 RMK AO2 SLP212 T00831089 10089 20022 56036 (ML)","FM-15","7",,,,,,,,,,,,,,,,,,,,,,,,,,,,"2009-05-22"
"72503794745","2020-04-17T13:56:00","FM-15","7",,,,,,,,,,,,,,,,,,,,,,,,,,,,,,,,,,,,,,"30.13","16","47","0.00",,,,"29","30.14","SCT:04 90","29.70","10.00","36","270","23","14",,,,,,,,,,,,,,,,,,,,,,,,,,,,,,,,,,,,,"MET10204/17/20 13:56:02 METAR KHPN 171856Z 27012G20KT 10SM SCT090 08/M09 A3013 RMK AO2 SLP208 T00831089 (ML)","FM-15","7",,,,,,,,,,,,,,,,,,,,,,,,,,,,"2009-05-22"
"72503794745","2020-04-17T14:56:00","FM-15","7",,,,,,,,,,,,,,,,,,,,,,,,,,,,,,,,,,,,,,"30.10","15","47","0.00",,,,"28","30.11","OVC:08 75","29.67","10.00","36","VRB",,"8",,,,,,,,,,,,,,,,,,,,,,,,,,,,,,,,,,,,,"MET09904/17/20 14:56:02 METAR KHPN 171956Z 25007KT 10SM OVC075 08/M09 A3010 RMK AO2 SLP198 T00831094 (ML)","FM-15","7",,,,,,,,,,,,,,,,,,,,,,,,,,,,"2009-05-22"
"72503794745","2020-04-17T15:56:00","FM-15","7",,,,,,,,,,,,,,,,,,,,,,,,,,,,,,,,,,,,,,"30.09","18","46","0.00",,"+0.06","8","32","30.10","OVC:08 70","29.66","10.00","36","260","21","13",,,,,,,,,,,,,,,,,,,,,,,,,,,,,,,,,,,,,"MET10804/17/20 15:56:02 METAR KHPN 172056Z 26011G18KT 10SM OVC070 08/M08 A3009 RMK AO2 SLP193 T00781078 58019 (ML)","FM-15","7",,,,,,,,,,,,,,,,,,,,,,,,,,,,"2009-05-22"
"72503794745","2020-04-17T16:54:00","FM-16","6",,,,,,,,,,,,,,,,,,,,,,,,,,,,,,,,,,,,,,"30.09","27","43",,"-RA:02 |RA |RA",,,"53",,"BKN:07 15 BKN:07 43 OVC:08 55","29.66","10.00","37","VRB","21","8",,,,,,,,,,,,,,,,,,,,,,,,,,,,,,,,,,,,,"MET12004/17/20 16:54:02 SPECI KHPN 172154Z 24007G18KT 10SM -RA BKN015 BKN043 OVC055 06/M03 A3009 RMK AO2 RAB50 P0000 FIBI (ML)","FM-16","6",,,,,,,,,,,,,,,,,,,,,,,,,,,,"2009-05-22"
"72503794745","2020-04-17T16:56:00","FM-15","7",,,,,,,,,,,,,,,,,,,,,,,,,,,,,,,,,,,,,,"30.09","28","42","T","-RA:02 |RA |RA",,,"58","30.11","BKN:07 15 BKN:07 43 OVC:08 55","29.66","10.00","36","VRB","21","9",,,,,,,,,,,,,,,,,,,,,,,,,,,,,,,,,,,,,"MET13204/17/20 16:56:02 METAR KHPN 172156Z 26008G18KT 10SM -RA BKN015 BKN043 OVC055 06/M02 A3009 RMK AO2 RAB50 SLP197 P0000 T00561022 (ML)","FM-15","7",,,,,,,,,,,,,,,,,,,,,,,,,,,,"2009-05-22"
"72503794745","2020-04-17T17:54:00","FM-16","6",,,,,,,,,,,,,,,,,,,,,,,,,,,,,,,,,,,,,,"30.07","30","39",,,,,"70",,"BKN:07 42 OVC:08 55","29.64","10.00","35","280",,"6",,,,,,,,,,,,,,,,,,,,,,,,,,,,,,,,,,,,,"MET10604/17/20 17:54:02 SPECI KHPN 172254Z 28005KT 10SM BKN042 OVC055 04/M01 A3007 RMK AO2 RAE31 P0000 FIBI (ML)","FM-16","6",,,,,,,,,,,,,,,,,,,,,,,,,,,,"2009-05-22"
"72503794745","2020-04-17T17:56:00","FM-15","7",,,,,,,,,,,,,,,,,,,,,,,,,,,,,,,,,,,,,,"30.06","30","40","T","-RA:02 |RA |RA",,,"68","30.08","BKN:07 42 OVC:08 60","29.63","10.00","36","300",,"5",,,,,,,,,,,,,,,,,,,,,,,,,,,,,,,,,,,,,"MET12504/17/20 17:56:02 METAR KHPN 172256Z 30004KT 10SM -RA BKN042 OVC060 04/M01 A3006 RMK AO2 RAE31B55 SLP187 P0000 T00441011 (ML)","FM-15","7",,,,,,,,,,,,,,,,,,,,,,,,,,,,"2009-05-22"
"72503794745","2020-04-17T18:54:00","FM-16","6",,,,,,,,,,,,,,,,,,,,,,,,,,,,,,,,,,,,,,"30.05","32","39",,,,,"75",,"BKN:07 23 OVC:08 32","29.62","10.00","36","000",,"0",,,,,,,,,,,,,,,,,,,,,,,,,,,,,,,,,,,,,"MET10504/17/20 18:54:02 SPECI KHPN 172354Z 00000KT 10SM BKN023 OVC032 04/00 A3005 RMK AO2 RAE51 P0000 FIBI (ML)","FM-16","6",,,,,,,,,,,,,,,,,,,,,,,,,,,,"2009-05-22"
"72503794745","2020-04-17T18:56:00","FM-15","7",,,,,,,,,,,,,,,,,,,,,,,,,,,,,,,,,,,,,,"30.05","32","39","T",,"+0.04","8","76","30.06","BKN:07 24 OVC:08 32","29.62","10.00","36","000",,"0",,,,,,,,,,,,,,,,,,,,,,,,,,,,,,,,,,,,,"MET14104/17/20 18:56:02 METAR KHPN 172356Z 00000KT 10SM BKN024 OVC032 04/00 A3005 RMK AO2 RAE51 SLP181 P0000 60000 T00390000 10089 20039 58013 (JR)","FM-15","7",,,,,,,,,,,,,,,,,,,,,,,,,,,,"2009-05-22"
"72503794745","2020-04-17T19:56:00","FM-15","7",,,,,,,,,,,,,,,,,,,,,,,,,,,,,,,,,,,,,,"30.03","34","38","T","-RA:02 |RA |RA",,,"86","30.05","BKN:07 20 OVC:08 27","29.60","10.00","36","030",,"7",,,,,,,,,,,,,,,,,,,,,,,,,,,,,,,,,,,,,"MET11604/17/20 19:56:01 METAR KHPN 180056Z 03006KT 10SM -RA BKN020 OVC027 03/01 A3003 RMK AO2 RAB23 SLP175 P0000 T00330011","FM-15","7",,,,,,,,,,,,,,,,,,,,,,,,,,,,"2009-05-22"
"72503794745","2020-04-17T20:54:00","FM-16","6",,,,,,,,,,,,,,,,,,,,,,,,,,,,,,,,,,,,,,"30.00","34","37",,"-RA:02 |RA |RA",,,"87",,"SCT:04 20 BKN:07 55 OVC:08 70","29.57","10.00","36","060",,"6",,,,,,,,,,,,,,,,,,,,,,,,,,,,,,,,,,,,,"MET11004/17/20 20:54:03 SPECI KHPN 180154Z 06005KT 10SM -RA SCT020 BKN055 OVC070 03/01 A3000 RMK AO2 P0000 FIBI (JR)","FM-16","6",,,,,,,,,,,,,,,,,,,,,,,,,,,,"2009-05-22"
"72503794745","2020-04-17T20:56:00","FM-15","7",,,,,,,,,,,,,,,,,,,,,,,,,,,,,,,,,,,,,,"29.99","34","37","T","-RA:02 |RA |RA",,,"89","30.01","SCT:04 20 BKN:07 55 OVC:08 70","29.56","9.00","36","060",,"8",,,,,,,,,,,,,,,,,,,,,,,,,,,,,,,,,,,,,"MET11604/17/20 20:56:01 METAR KHPN 180156Z 06007KT 9SM -RA SCT020 BKN055 OVC070 03/01 A2999 RMK AO2 SLP162 P0000 T00280011","FM-15","7",,,,,,,,,,,,,,,,,,,,,,,,,,,,"2009-05-22"
"72503794745","2020-04-17T21:40:00","FM-16","7",,,,,,,,,,,,,,,,,,,,,,,,,,,,,,,,,,,,,,"29.98","35","37","0.02","-RA:02 |RA |RA",,,"93",,"BKN:07 16 BKN:07 26 OVC:08 44","29.55","7.00","36","090",,"5",,,,,,,,,,,,,,,,,,,,,,,,,,,,,,,,,,,,,"MET10904/17/20 21:40:01 SPECI KHPN 180240Z 09004KT 7SM -RA BKN016 BKN026 OVC044 03/02 A2998 RMK AO2 P0002 T00280017","FM-16","7",,,,,,,,,,,,,,,,,,,,,,,,,,,,"2009-05-22"
"72503794745","2020-04-17T21:56:00","FM-15","7",,,,,,,,,,,,,,,,,,,,,,,,,,,,,,,,,,,,,,"29.96","35","37","0.02","-RA:02 BR:1 |RA |RA","+0.08","8","93","29.98","BKN:07 18 OVC:08 46","29.53","6.00","36","090",,"5",,,,,,,,,,,,,,,,,,,,,,,,,,,,,,,,,,,,,"MET12404/17/20 21:56:01 METAR KHPN 180256Z 09004KT 6SM -RA BR BKN018 OVC046 03/02 A2996 RMK AO2 SLP152 P0002 60002 T00280017 58028","FM-15","7",,,,,,,,,,,,,,,,,,,,,,,,,,,,"2009-05-22"
"72503794745","2020-04-17T22:54:00","FM-16","6",,,,,,,,,,,,,,,,,,,,,,,,,,,,,,,,,,,,,,"29.91","36","37",,"-RA:02 BR:1 |RA |RA",,,"93",,"OVC:08 46","29.48","4.00","37","070",,"8",,,,,,,,,,,,,,,,,,,,,,,,,,,,,,,,,,,,,"MET09804/17/20 22:54:03 SPECI KHPN 180354Z 07007KT 4SM -RA BR OVC046 03/02 A2991 RMK AO2 P0002 FIBI (EC)","FM-16","6",,,,,,,,,,,,,,,,,,,,,,,,,,,,"2009-05-22"
"72503794745","2020-04-17T22:56:00","FM-15","7",,,,,,,,,,,,,,,,,,,,,,,,,,,,,,,,,,,,,,"29.91","36","38","0.03","-RA:02 BR:1 |RA |RA",,,"93","29.92","OVC:08 46","29.48","4.00","37","070",,"7",,,,,,,,,,,,,,,,,,,,,,,,,,,,,,,,,,,,,"MET10504/17/20 22:56:02 METAR KHPN 180356Z 07006KT 4SM -RA BR OVC046 03/02 A2991 RMK AO2 SLP133 P0002 T00330022","FM-15","7",,,,,,,,,,,,,,,,,,,,,,,,,,,,"2009-05-22"
"72503794745","2020-04-17T23:54:00","FM-16","6",,,,,,,,,,,,,,,,,,,,,,,,,,,,,,,,,,,,,,"29.89","36","37",,"RA:02 BR:1 |RA |RA",,,"93",,"OVC:08 3","29.46","3.00","37","100",,"7",,,,,,,,,,,,,,,,,,,,,,,,,,,,,,,,,,,,,"MET09704/17/20 23:54:03 SPECI KHPN 180454Z 10006KT 3SM RA BR OVC003 03/02 A2989 RMK AO2 P0004 FIBI (EC)","FM-16","6",,,,,,,,,,,,,,,,,,,,,,,,,,,,"2009-05-22"
"72503794745","2020-04-17T23:56:00","FM-15","7",,,,,,,,,,,,,,,,,,,,,,,,,,,,,,,,,,,,,,"29.88","36","38","0.04","RA:02 BR:1 |RA |RA",,,"93","29.90","OVC:08 3","29.45","3.00","37","090",,"7",,,,,,,,,,,,,,,,,,,,,,,,,,,,,,,,,,,,,"MET12104/17/20 23:56:02 METAR KHPN 180456Z 09006KT 3SM RA BR OVC003 03/02 A2988 RMK AO2 PRESFR SLP124 P0004 T00330022 400891006","FM-15","7",,,,,,,,,,,,,,,,,,,,,,,,,,,,"2009-05-22"
"72503794745","2020-04-17T23:59:00","SOD  ","6",,,,,,,,,,,,,,,,"40",,,"29.74",,"7.3","0","-9.3","25","48","31","290","25","0.09",,,"300","18","RA BR",,,,,,,,,,,,,,,,,,,,,,,,,,,,,,,,,,,,,,,,,,,,,,,,,,,,,,,,"SOD73024 HR PRECIPITATION (IN):0.09  24 HR MAX TEMP (F):48 24 HR MAX TEMP TIME (LST):1321 24 HR MIN TEMP (F):31 24 HR MIN TEMP TIME (LST):0535 AVERAGE STATION PRESSURE:29.740 MINIMUM SEA LEVEL PRESSURE:29.89 TIME OF OCCURRENCE:2359 PEAK WIND SPEED (MPH):25  PEAK WIND DIR (DEG):290 PEAK WIND TIME (LST):0848  FASTEST 2MIN SPEED (MPH):18 FASTEST 2MIN DIR (DEG):300 FASTEST 2MIN TIME (LST):1218 AVERAGE WIND SPEED (MPH):7.3  24 HR AVG TEMP (F):40 HEATING DEGREE DAYS:25  COOLING DEGREE DAYS:0   LATEST DAY MAX TEMP (0700-1900 LST):48  LATEST NIGHT MIN TEMP(1900-0800 LST):31 HOURLY INCREMENTAL PRECIPITATION VALUES (IN):.00 0.00 0.00 0.00 0.00 0.00 0.00 0.00 0.00 0.00 0.00 0.00 0.00 0.00 0.00 0.00 T    T    T    T    T    0.02 0.03 0.04","SOD  ","6",,,,,,,,,,,,,,,,,,,,,,,,,"0511","1838",,"2009-05-22"
"72503794745","2020-04-18T00:56:00","FM-15","7",,,,,,,,,,,,,,,,,,,,,,,,,,,,,,,,,,,,,,"29.84","37","38","0.08","-RA:02 BR:1 |RA |RA","+0.12","6","97","29.85","OVC:08 3","29.41","3.00","38","110",,"5",,,,,,,,,,,,,,,,,,,,,,,,,,,,,,,,,,,,,"MET13404/18/20 00:56:02 METAR KHPN 180556Z 11004KT 3SM -RA BR OVC003 03/03 A2984 RMK AO2 SLP110 P0009 60017 T00330028 10039 20028 56040 (EC)","FM-15","7",,,,,,,,,,,,,,,,,,,,,,,,,,,,"2009-05-22"
"72503794745","2020-04-18T01:56:00","FM-15","7",,,,,,,,,,,,,,,,,,,,,,,,,,,,,,,,,,,,,,"29.80","37","39","0.06","-RA:02 BR:1 |RA |RA",,,"93","29.81","OVC:08 2","29.37","5.00","38","100",,"9",,,,,,,,,,,,,,,,,,,,,,,,,,,,,,,,,,,,,"MET11004/18/20 01:56:02 METAR KHPN 180656Z 10008KT 5SM -RA BR OVC002 04/03 A2980 RMK AO2 SLP094 P0006 T00390028 (EC)","FM-15","7",,,,,,,,,,,,,,,,,,,,,,,,,,,,"2009-05-22"
"72503794745","2020-04-18T02:56:00","FM-15","7",,,,,,,,,,,,,,,,,,,,,,,,,,,,,,,,,,,,,,"29.78","38","39","0.07","-RA:02 BR:1 |RA |RA",,,"96","29.79","OVC:08 2","29.36","5.00","39","090",,"7",,,,,,,,,,,,,,,,,,,,,,,,,,,,,,,,,,,,,"MET11004/18/20 02:56:02 METAR KHPN 180756Z 09006KT 5SM -RA BR OVC002 04/03 A2978 RMK AO2 SLP088 P0007 T00390033 (EC)","FM-15","7",,,,,,,,,,,,,,,,,,,,,,,,,,,,"2009-05-22"
"72503794745","2020-04-18T03:56:00","FM-15","7",,,,,,,,,,,,,,,,,,,,,,,,,,,,,,,,,,,,,,"29.75","38","40","0.06","-RA:02 BR:1 |RA |RA","+0.09","6","93","29.76","OVC:08 3","29.33","6.00","39","100",,"8",,,,,,,,,,,,,,,,,,,,,,,,,,,,,,,,,,,,,"MET12204/18/20 03:56:02 METAR KHPN 180856Z 10007KT 6SM -RA BR OVC003 04/03 A2975 RMK AO2 SLP079 P0006 60019 T00440033 56031 (EC)","FM-15","7",,,,,,,,,,,,,,,,,,,,,,,,,,,,"2009-05-22"
"72503794745","2020-04-18T04:56:00","FM-15","7",,,,,,,,,,,,,,,,,,,,,,,,,,,,,,,,,,,,,,"29.73","39","40","0.01","BR:1 ||",,,"97","29.74","OVC:08 2","29.31","1.25","40","090",,"8",,,,,,,,,,,,,,,,,,,,,,,,,,,,,,,,,,,,,"MET11604/18/20 04:56:02 METAR KHPN 180956Z 09007KT 1 1/4SM BR OVC002 04/04 A2973 RMK AO2 RAE52 SLP072 P0001 T00440039 (EC)","FM-15","7",,,,,,,,,,,,,,,,,,,,,,,,,,,,"2009-05-22"
"72503794745","2020-04-18T05:54:00","FM-16","6",,,,,,,,,,,,,,,,,,,,,,,,,,,,,,,,,,,,,,"29.72","39","39",,"BR:1 ||",,,"100",,"OVC:08 2","29.30","0.75","39","080",,"8",,,,,,,,,,,,,,,,,,,,,,,,,,,,,,,,,,,,,"MET10204/18/20 05:54:02 SPECI KHPN 181054Z 08007KT 3/4SM R16/P6000FT BR OVC002 04/04 A2972 RMK AO2 FIBI (EC)","FM-16","6",,,,,,,,,,,,,,,,,,,,,,,,,,,,"2009-05-22"
"72503794745","2020-04-18T05:56:00","FM-15","7",,,,,,,,,,,,,,,,,,,,,,,,,,,,,,,,,,,,,,"29.73","39","40","0.00","BR:1 ||",,,"97","29.74","OVC:08 2","29.31","0.75","40","080",,"7",,,,,,,,,,,,,,,,,,,,,,,,,,,,,,,,,,,,,"MET11404/18/20 05:56:02 METAR KHPN 181056Z 08006KT 3/4SM R16/P6000FT BR OVC002 04/04 A2973 RMK AO2 SLP071 T00440039 (EC)","FM-15","7",,,,,,,,,,,,,,,,,,,,,,,,,,,,"2009-05-22"
"72503794745","2020-04-18T06:56:00","FM-15","7",,,,,,,,,,,,,,,,,,,,,,,,,,,,,,,,,,,,,,"29.73","39","40","0.00","BR:1 ||","+0.02","5","97","29.75","VV:09 2","29.31","0.75","40","070",,"7",,,,,,,,,,,,,,,,,,,,,,,,,,,,,,,,,,,,,"MET14304/18/20 06:56:02 METAR KHPN 181156Z 07006KT 3/4SM R16/P6000FT BR VV002 04/04 A2973 RMK AO2 SLP073 60020 70037 T00440039 10044 20033 55007 (EC)","FM-15","7",,,,,,,,,,,,,,,,,,,,,,,,,,,,"2009-05-22"
"72503794745","2020-04-18T07:54:00","FM-16","6",,,,,,,,,,,,,,,,,,,,,,,,,,,,,,,,,,,,,,"29.74","39","39",,"-RA:02 BR:1 |RA |RA",,,"100",,"VV:09 3","29.31","1.50","39","050",,"5",,,,,,,,,,,,,,,,,,,,,,,,,,,,,,,,,,,,,"MET10704/18/20 07:54:02 SPECI KHPN 181254Z 05004KT 1 1/2SM -RA BR VV003 04/04 A2974 RMK AO2 RAB11 P0003 FIBI (AB)","FM-16","6",,,,,,,,,,,,,,,,,,,,,,,,,,,,"2009-05-22"
"72503794745","2020-04-18T07:56:00","FM-15","7",,,,,,,,,,,,,,,,,,,,,,,,,,,,,,,,,,,,,,"29.73","39","40","0.03","-RA:02 BR:1 |RA |RA",,,"97","29.75","VV:09 3","29.31","1.50","40","040",,"6",,,,,,,,,,,,,,,,,,,,,,,,,,,,,,,,,,,,,"MET11904/18/20 07:56:02 METAR KHPN 181256Z 04005KT 1 1/2SM -RA BR VV003 04/04 A2973 RMK AO2 RAB11 SLP074 P0003 T00440039 (AB)","FM-15","7",,,,,,,,,,,,,,,,,,,,,,,,,,,,"2009-05-22"
"72503794745","2020-04-18T08:54:00","FM-16","6",,,,,,,,,,,,,,,,,,,,,,,,,,,,,,,,,,,,,,"29.72","37","39",,"-RA:02 BR:1 |RA |RA",,,"93",,"VV:09 5","29.30","2.50","38","360",,"10",,,,,,,,,,,,,,,,,,,,,,,,,,,,,,,,,,,,,"MET10104/18/20 08:54:02 SPECI KHPN 181354Z 36009KT 2 1/2SM -RA BR VV005 04/03 A2972 RMK AO2 P0001 FIBI (AB)","FM-16","6",,,,,,,,,,,,,,,,,,,,,,,,,,,,"2009-05-22"
"72503794745","2020-04-18T08:56:00","FM-15","7",,,,,,,,,,,,,,,,,,,,,,,,,,,,,,,,,,,,,,"29.73","37","39","0.01","-RA:02 BR:1 |RA |RA",,,"93","29.75","VV:09 5","29.31","2.50","38","350",,"8",,,,,,,,,,,,,,,,,,,,,,,,,,,,,,,,,,,,,"MET11304/18/20 08:56:02 METAR KHPN 181356Z 35007KT 2 1/2SM -RA BR VV005 04/03 A2973 RMK AO2 SLP073 P0001 T00390028 (AB)","FM-15","7",,,,,,,,,,,,,,,,,,,,,,,,,,,,"2009-05-22"
"72503794745","2020-04-18T09:56:00","FM-15","7",,,,,,,,,,,,,,,,,,,,,,,,,,,,,,,,,,,,,,"29.74","37","40","0.01","BR:1 ||","-0.01","3","89","29.75","OVC:08 7","29.31","5.00","39","350",,"11",,,,,,,,,,,,,,,,,,,,,,,,,,,,,,,,,,,,,"MET12404/18/20 09:56:02 METAR KHPN 181456Z 35010KT 5SM BR OVC007 04/03 A2974 RMK AO2 RAE56 SLP074 P0001 60005 T00440028 53002 (AB)","FM-15","7",,,,,,,,,,,,,,,,,,,,,,,,,,,,"2009-05-22"
"72503794745","2020-04-18T10:54:00","FM-16","6",,,,,,,,,,,,,,,,,,,,,,,,,,,,,,,,,,,,,,"29.75","36","39",,"-RA:02 |RA |RA",,,"87",,"OVC:08 10","29.33","7.00","38","360",,"9",,,,,,,,,,,,,,,,,,,,,,,,,,,,,,,,,,,,,"MET11304/18/20 10:54:02 SPECI KHPN 181554Z 36008KT 7SM -RA OVC010 04/02 A2975 RMK AO2 RAB20 CIG 007V013 P0000 FIBI (AB)","FM-16","6",,,,,,,,,,,,,,,,,,,,,,,,,,,,"2009-05-22"
"72503794745","2020-04-18T10:56:00","FM-15","7",,,,,,,,,,,,,,,,,,,,,,,,,,,,,,,,,,,,,,"29.75","35","39","T","-RA:02 |RA |RA",,,"86","29.76","OVC:08 10","29.33","7.00","37","010",,"8",,,,,,,,,,,,,,,,,,,,,,,,,,,,,,,,,,,,,"MET12504/18/20 10:56:02 METAR KHPN 181556Z 01007KT 7SM -RA OVC010 04/02 A2975 RMK AO2 RAB20 CIG 007V013 SLP078 P0000 T00390017 (AB)","FM-15","7",,,,,,,,,,,,,,,,,,,,,,,,,,,,"2009-05-22"
"72503794745","2020-04-18T11:56:00","FM-15","7",,,,,,,,,,,,,,,,,,,,,,,,,,,,,,,,,,,,,,"29.73","35","41","T",,,,"79","29.75","BKN:07 14","29.31","10.00","38","020","20","15",,,,,,,,,,,,,,,,,,,,,,,,,,,,,,,,,,,,,"MET11304/18/20 11:56:02 METAR KHPN 181656Z 02013G17KT 10SM BKN014 05/02 A2973 RMK AO2 RAE17 SLP073 P0000 T00500017 (AB)","FM-15","7",,,,,,,,,,,,,,,,,,,,,,,,,,,,"2009-05-22"
"72503794745","2020-04-18T12:54:00","FM-16","6",,,,,,,,,,,,,,,,,,,,,,,,,,,,,,,,,,,,,,"29.73","36","43",,,,,"76",,"BKN:07 17","29.31","10.00","40","350","21","14",,,,,,,,,,,,,,,,,,,,,,,,,,,,,,,,,,,,,"MET08904/18/20 12:54:02 SPECI KHPN 181754Z 35012G18KT 10SM BKN017 06/02 A2973 RMK AO2 FIBI (AB)","FM-16","6",,,,,,,,,,,,,,,,,,,,,,,,,,,,"2009-05-22"
"72503794745","2020-04-18T12:56:00","FM-15","7",,,,,,,,,,,,,,,,,,,,,,,,,,,,,,,,,,,,,,"29.73","36","43","0.00",,"+0.01","8","76","29.74","BKN:07 17","29.31","10.00","40","350",,"11",,,,,,,,,,,,,,,,,,,,,,,,,,,,,,,,,,,,,"MET12204/18/20 12:56:02 METAR KHPN 181756Z 35010KT 10SM BKN017 06/02 A2973 RMK AO2 SLP072 60005 T00610022 10061 20033 58002 (AB)","FM-15","7",,,,,,,,,,,,,,,,,,,,,,,,,,,,"2009-05-22"
"72503794745","2020-04-18T13:56:00","FM-15","7",,,,,,,,,,,,,,,,,,,,,,,,,,,,,,,,,,,,,,"29.75","35","43","0.00",,,,"74","29.76","BKN:07 19 OVC:08 25","29.33","10.00","40","340",,"14",,,,,,,,,,,,,,,,,,,,,,,,,,,,,,,,,,,,,"MET10504/18/20 13:56:02 METAR KHPN 181856Z 34012KT 10SM BKN019 OVC025 06/02 A2975 RMK AO2 SLP079 T00610017 (AB)","FM-15","7",,,,,,,,,,,,,,,,,,,,,,,,,,,,"2009-05-22"
"72503794745","2020-04-18T14:54:00","FM-16","6",,,,,,,,,,,,,,,,,,,,,,,,,,,,,,,,,,,,,,"29.76","34","43",,,,,"71",,"SCT:04 29 BKN:07 33","29.34","10.00","39","340",,"13",,,,,,,,,,,,,,,,,,,,,,,,,,,,,,,,,,,,,"MET09304/18/20 14:54:02 SPECI KHPN 181954Z 34011KT 10SM SCT029 BKN033 06/01 A2976 RMK AO2 FIBI (AB)","FM-16","6",,,,,,,,,,,,,,,,,,,,,,,,,,,,"2009-05-22"
"72503794745","2020-04-18T14:56:00","FM-15","7",,,,,,,,,,,,,,,,,,,,,,,,,,,,,,,,,,,,,,"29.76","33","43","0.00",,,,"68","29.78","SCT:04 29 BKN:07 33","29.34","10.00","39","330",,"15",,,,,,,,,,,,,,,,,,,,,,,,,,,,,,,,,,,,,"MET10504/18/20 14:56:02 METAR KHPN 181956Z 33013KT 10SM SCT029 BKN033 06/01 A2976 RMK AO2 SLP084 T00610006 (AB)","FM-15","7",,,,,,,,,,,,,,,,,,,,,,,,,,,,"2009-05-22"
"72503794745","2020-04-18T15:56:00","FM-15","7",,,,,,,,,,,,,,,,,,,,,,,,,,,,,,,,,,,,,,"29.79","32","44","0.00",,"-0.06","3","63","29.80","FEW:02 30 SCT:04 38 BKN:07 60","29.36","10.00","39","340",,"15",,,,,,,,,,,,,,,,,,,,,,,,,,,,,,,,,,,,,"MET11804/18/20 15:56:02 METAR KHPN 182056Z 34013KT 10SM FEW030 SCT038 BKN060 07/00 A2979 RMK AO2 SLP091 T00670000 53019 (AB)","FM-15","7",,,,,,,,,,,,,,,,,,,,,,,,,,,,"2009-05-22"
"72503794745","2020-04-18T16:56:00","FM-15","7",,,,,,,,,,,,,,,,,,,,,,,,,,,,,,,,,,,,,,"29.82","32","43","0.00",,,,"65","29.83","SCT:04 37 BKN:07 44 BKN:07 55","29.39","10.00","38","320",,"11",,,,,,,,,,,,,,,,,,,,,,,,,,,,,,,,,,,,,"MET11204/18/20 16:56:02 METAR KHPN 182156Z 32010KT 10SM SCT037 BKN044 BKN055 06/00 A2982 RMK AO2 SLP101 T00610000 (SR)","FM-15","7",,,,,,,,,,,,,,,,,,,,,,,,,,,,"2009-05-22"
"72503794745","2020-04-18T17:56:00","FM-15","7",,,,,,,,,,,,,,,,,,,,,,,,,,,,,,,,,,,,,,"29.83","31","43","0.00",,,,"63","29.85","FEW:02 35 BKN:07 47","29.40","10.00","38","330",,"11",,,,,,,,,,,,,,,,,,,,,,,,,,,,,,,,,,,,,"MET10604/18/20 17:56:02 METAR KHPN 182256Z 33010KT 10SM FEW035 BKN047 06/M01 A2983 RMK AO2 SLP108 T00611006 (SR)","FM-15","7",,,,,,,,,,,,,,,,,,,,,,,,,,,,"2009-05-22"
"72503794745","2020-04-18T18:56:00","FM-15","7",,,,,,,,,,,,,,,,,,,,,,,,,,,,,,,,,,,,,,"29.86","31","40","0.00",,"-0.07","1","70","29.88","FEW:02 55","29.43","10.00","36","310",,"8",,,,,,,,,,,,,,,,,,,,,,,,,,,,,,,,,,,,,"MET11704/18/20 18:56:02 METAR KHPN 182356Z 31007KT 10SM FEW055 04/M01 A2986 RMK AO2 SLP117 T00441006 10067 20044 51025 (SR)","FM-15","7",,,,,,,,,,,,,,,,,,,,,,,,,,,,"2009-05-22"
"72503794745","2020-04-18T19:56:00","FM-15","7",,,,,,,,,,,,,,,,,,,,,,,,,,,,,,,,,,,,,,"29.88","29","39","0.00",,,,"67","29.90","FEW:02 55","29.45","10.00","35","280",,"6",,,,,,,,,,,,,,,,,,,,,,,,,,,,,,,,,,,,,"MET09404/18/20 19:56:01 METAR KHPN 190056Z 28005KT 10SM FEW055 04/M02 A2988 RMK AO2 SLP124 T00391017","FM-15","7",,,,,,,,,,,,,,,,,,,,,,,,,,,,"2009-05-22"
"72503794745","2020-04-18T20:56:00","FM-15","7",,,,,,,,,,,,,,,,,,,,,,,,,,,,,,,,,,,,,,"29.89","27","39","0.00",,,,"62","29.90","CLR:00","29.46","10.00","34","280",,"7",,,,,,,,,,,,,,,,,,,,,,,,,,,,,,,,,,,,,"MET09104/18/20 20:56:01 METAR KHPN 190156Z 28006KT 10SM CLR 04/M03 A2989 RMK AO2 SLP126 T00391028","FM-15","7",,,,,,,,,,,,,,,,,,,,,,,,,,,,"2009-05-22"
"72503794745","2020-04-18T21:56:00","FM-15","7",,,,,,,,,,,,,,,,,,,,,,,,,,,,,,,,,,,,,,"29.89","26","38","0.00",,"-0.03","1","62","29.91","CLR:00","29.46","10.00","33","280",,"6",,,,,,,,,,,,,,,,,,,,,,,,,,,,,,,,,,,,,"MET09704/18/20 21:56:01 METAR KHPN 190256Z 28005KT 10SM CLR 03/M03 A2989 RMK AO2 SLP127 T00331033 51010","FM-15","7",,,,,,,,,,,,,,,,,,,,,,,,,,,,"2009-05-22"
"72503794745","2020-04-18T22:56:00","FM-15","7",,,,,,,,,,,,,,,,,,,,,,,,,,,,,,,,,,,,,,"29.90","26","38","0.00",,,,"62","29.92","CLR:00","29.47","10.00","33","260",,"6",,,,,,,,,,,,,,,,,,,,,,,,,,,,,,,,,,,,,"MET09104/18/20 22:56:02 METAR KHPN 190356Z 26005KT 10SM CLR 03/M03 A2990 RMK AO2 SLP131 T00331033","FM-15","7",,,,,,,,,,,,,,,,,,,,,,,,,,,,"2009-05-22"
"72503794745","2020-04-18T23:56:00","FM-15","7",,,,,,,,,,,,,,,,,,,,,,,,,,,,,,,,,,,,,,"29.90","26","36","0.00",,,,"67","29.92","CLR:00","29.47","10.00","32","280",,"6",,,,,,,,,,,,,,,,,,,,,,,,,,,,,,,,,,,,,"MET10104/18/20 23:56:02 METAR KHPN 190456Z 28005KT 10SM CLR 02/M03 A2990 RMK AO2 SLP131 T00221033 400670022","FM-15","7",,,,,,,,,,,,,,,,,,,,,,,,,,,,"2009-05-22"
"72503794745","2020-04-18T23:59:00","SOD  ","6",,,,,,,,,,,,,,,,"40",,,"29.36",,"9.0","0","-9.6","25","44","36","340","26","0.33",,,"340","22","RA BR",,,,,,,,,,,,,,,,,,,,,,,,,,,,,,,,,,,,,,,,,,,,,,,,,,,,,,,,"SOD73024 HR PRECIPITATION (IN):0.33  24 HR MAX TEMP (F):44 24 HR MAX TEMP TIME (LST):1619 24 HR MIN TEMP (F):36 24 HR MIN TEMP TIME (LST):2356 AVERAGE STATION PRESSURE:29.365 MINIMUM SEA LEVEL PRESSURE:29.72 TIME OF OCCURRENCE:0522 PEAK WIND SPEED (MPH):26  PEAK WIND DIR (DEG):340 PEAK WIND TIME (LST):1541  FASTEST 2MIN SPEED (MPH):22 FASTEST 2MIN DIR (DEG):340 FASTEST 2MIN TIME (LST):1541 AVERAGE WIND SPEED (MPH):9.0  24 HR AVG TEMP (F):40 HEATING DEGREE DAYS:25  COOLING DEGREE DAYS:0   LATEST DAY MAX TEMP (0700-1900 LST):44  LATEST NIGHT MIN TEMP(1900-0800 LST):37 HOURLY INCREMENTAL PRECIPITATION VALUES (IN):.08 0.06 0.07 0.06 0.01 0.00 0.00 0.03 0.01 0.01 T    T    0.00 0.00 0.00 0.00 0.00 0.00 0.00 0.00 0.00 0.00 0.00 0.00","SOD  ","6",,,,,,,,,,,,,,,,,,,,,,,,,"0510","1839",,"2009-05-22"
"72503794745","2020-04-19T00:56:00","FM-15","7",,,,,,,,,,,,,,,,,,,,,,,,,,,,,,,,,,,,,,"29.91","26","36","0.00",,"-0.02","1","67","29.92","CLR:00","29.48","10.00","32","270",,"3",,,,,,,,,,,,,,,,,,,,,,,,,,,,,,,,,,,,,"MET11404/19/20 00:56:02 METAR KHPN 190556Z 27003KT 10SM CLR 02/M03 A2991 RMK AO2 SLP133 T00221033 10044 20017 51006 (SR)","FM-15","7",,,,,,,,,,,,,,,,,,,,,,,,,,,,"2009-05-22"
"72503794745","2020-04-19T01:56:00","FM-15","7",,,,,,,,,,,,,,,,,,,,,,,,,,,,,,,,,,,,,,"29.91","27","34","0.00",,,,"75","29.93","CLR:00","29.48","10.00","31","240",,"5",,,,,,,,,,,,,,,,,,,,,,,,,,,,,,,,,,,,,"MET09604/19/20 01:56:02 METAR KHPN 190656Z 24004KT 10SM CLR 01/M03 A2991 RMK AO2 SLP134 T00111028 (ML)","FM-15","7",,,,,,,,,,,,,,,,,,,,,,,,,,,,"2009-05-22"
"72503794745","2020-04-19T02:56:00","FM-15","7",,,,,,,,,,,,,,,,,,,,,,,,,,,,,,,,,,,,,,"29.91","25","36","0.00",,,,"64","29.93","CLR:00","29.48","10.00","32","000",,"0",,,,,,,,,,,,,,,,,,,,,,,,,,,,,,,,,,,,,"MET09604/19/20 02:56:02 METAR KHPN 190756Z 00000KT 10SM CLR 02/M04 A2991 RMK AO2 SLP135 T00221039 (ML)","FM-15","7",,,,,,,,,,,,,,,,,,,,,,,,,,,,"2009-05-22"
"72503794745","2020-04-19T03:56:00","FM-15","7",,,,,,,,,,,,,,,,,,,,,,,,,,,,,,,,,,,,,,"29.90","25","33","0.00",,"+0.01","8","72","29.92","CLR:00","29.47","10.00","30","000",,"0",,,,,,,,,,,,,,,,,,,,,,,,,,,,,,,,,,,,,"MET10204/19/20 03:56:02 METAR KHPN 190856Z 00000KT 10SM CLR 01/M04 A2990 RMK AO2 SLP131 T00061039 58002 (ML)","FM-15","7",,,,,,,,,,,,,,,,,,,,,,,,,,,,"2009-05-22"
"72503794745","2020-04-19T04:56:00","FM-15","7",,,,,,,,,,,,,,,,,,,,,,,,,,,,,,,,,,,,,,"29.90","25","36","0.00",,,,"64","29.92","CLR:00","29.47","10.00","32","000",,"0",,,,,,,,,,,,,,,,,,,,,,,,,,,,,,,,,,,,,"MET09604/19/20 04:56:02 METAR KHPN 190956Z 00000KT 10SM CLR 02/M04 A2990 RMK AO2 SLP131 T00221039 (ML)","FM-15","7",,,,,,,,,,,,,,,,,,,,,,,,,,,,"2009-05-22"
"72503794745","2020-04-19T05:56:00","FM-15","7",,,,,,,,,,,,,,,,,,,,,,,,,,,,,,,,,,,,,,"29.90","24","38","0.00",,,,"57","29.92","CLR:00","29.47","10.00","33","000",,"0",,,,,,,,,,,,,,,,,,,,,,,,,,,,,,,,,,,,,"MET09604/19/20 05:56:02 METAR KHPN 191056Z 00000KT 10SM CLR 03/M04 A2990 RMK AO2 SLP131 T00331044 (ML)","FM-15","7",,,,,,,,,,,,,,,,,,,,,,,,,,,,"2009-05-22"
"72503794745","2020-04-19T06:56:00","FM-15","7",,,,,,,,,,,,,,,,,,,,,,,,,,,,,,,,,,,,,,"29.91","25","41","0.00",,"-0.01","3","53","29.93","CLR:00","29.48","10.00","35","230",,"7",,,,,,,,,,,,,,,,,,,,,,,,,,,,,,,,,,,,,"MET12004/19/20 06:56:02 METAR KHPN 191156Z 23006KT 10SM CLR 05/M04 A2991 RMK AO2 SLP134 70005 T00501039 10050 21006 53003 (ML)","FM-15","7",,,,,,,,,,,,,,,,,,,,,,,,,,,,"2009-05-22"
"72503794745","2020-04-19T07:56:00","FM-15","7",,,,,,,,,,,,,,,,,,,,,,,,,,,,,,,,,,,,,,"29.91","25","45","0.00",,,,"46","29.93","CLR:00","29.48","10.00","37","VRB","17","10",,,,,,,,,,,,,,,,,,,,,,,,,,,,,,,,,,,,,"MET09904/19/20 07:56:02 METAR KHPN 191256Z 22009G15KT 10SM CLR 07/M04 A2991 RMK AO2 SLP134 T00721039 (ML)","FM-15","7",,,,,,,,,,,,,,,,,,,,,,,,,,,,"2009-05-22"
"72503794745","2020-04-19T08:56:00","FM-15","7",,,,,,,,,,,,,,,,,,,,,,,,,,,,,,,,,,,,,,"29.89","27","48","0.00",,,,"44","29.90","CLR:00","29.46","10.00","39","240","17","10",,,,,,,,,,,,,,,,,,,,,,,,,,,,,,,,,,,,,"MET09904/19/20 08:56:02 METAR KHPN 191356Z 24009G15KT 10SM CLR 09/M03 A2989 RMK AO2 SLP125 T00891028 (AB)","FM-15","7",,,,,,,,,,,,,,,,,,,,,,,,,,,,"2009-05-22"
"72503794745","2020-04-19T09:56:00","FM-15","7",,,,,,,,,,,,,,,,,,,,,,,,,,,,,,,,,,,,,,"29.86","28","51","0.00",,"+0.05","8","41","29.88","CLR:00","29.43","10.00","41","240","20","11",,,,,,,,,,,,,,,,,,,,,,,,,,,,,,,,,,,,,"MET10504/19/20 09:56:02 METAR KHPN 191456Z 24010G17KT 10SM CLR 11/M02 A2986 RMK AO2 SLP117 T01061022 58016 (AB)","FM-15","7",,,,,,,,,,,,,,,,,,,,,,,,,,,,"2009-05-22"
"72503794745","2020-04-19T10:56:00","FM-15","7",,,,,,,,,,,,,,,,,,,,,,,,,,,,,,,,,,,,,,"29.85","29","54","0.00",,,,"38","29.86","FEW:02 30","29.42","10.00","43","260","20","9",,,,,,,,,,,,,,,,,,,,,,,,,,,,,,,,,,,,,"MET10204/19/20 10:56:02 METAR KHPN 191556Z 26008G17KT 10SM FEW030 12/M02 A2985 RMK AO2 SLP112 T01221017 (AB)","FM-15","7",,,,,,,,,,,,,,,,,,,,,,,,,,,,"2009-05-22"
"72503794745","2020-04-19T11:56:00","FM-15","7",,,,,,,,,,,,,,,,,,,,,,,,,,,,,,,,,,,,,,"29.82","29","55","0.00",,,,"37","29.83","FEW:02 30","29.39","10.00","44","250","23","14",,,,,,,,,,,,,,,,,,,,,,,,,,,,,,,,,,,,,"MET10204/19/20 11:56:02 METAR KHPN 191656Z 25012G20KT 10SM FEW030 13/M02 A2982 RMK AO2 SLP100 T01281017 (AB)","FM-15","7",,,,,,,,,,,,,,,,,,,,,,,,,,,,"2009-05-22"
"72503794745","2020-04-19T12:56:00","FM-15","7",,,,,,,,,,,,,,,,,,,,,,,,,,,,,,,,,,,,,,"29.79","30","56","0.00",,"+0.08","8","37","29.80","FEW:02 30","29.36","10.00","44","VRB","24","14",,,,,,,,,,,,,,,,,,,,,,,,,,,,,,,,,,,,,"MET12004/19/20 12:56:02 METAR KHPN 191756Z 21012G21KT 10SM FEW030 13/M01 A2979 RMK AO2 SLP090 T01331011 10139 20050 58026 (AB)","FM-15","7",,,,,,,,,,,,,,,,,,,,,,,,,,,,"2009-05-22"
"72503794745","2020-04-19T13:56:00","FM-15","7",,,,,,,,,,,,,,,,,,,,,,,,,,,,,,,,,,,,,,"29.76","29","58","0.00",,,,"33","29.77","CLR:00","29.34","10.00","45","VRB","25","10",,,,,,,,,,,,,,,,,,,,,,,,,,,,,,,,,,,,,"MET11704/19/20 13:56:02 METAR KHPN 191856Z 21009G22KT 10SM CLR 14/M02 A2976 RMK AO2 PK WND 22026/1835 SLP080 T01441017 (AB)","FM-15","7",,,,,,,,,,,,,,,,,,,,,,,,,,,,"2009-05-22"
"72503794745","2020-04-19T14:56:00","FM-15","7",,,,,,,,,,,,,,,,,,,,,,,,,,,,,,,,,,,,,,"29.72","29","58","0.00",,,,"33","29.73","CLR:00","29.30","10.00","45","220","20","9",,,,,,,,,,,,,,,,,,,,,,,,,,,,,,,,,,,,,"MET09904/19/20 14:56:02 METAR KHPN 191956Z 22008G17KT 10SM CLR 14/M02 A2972 RMK AO2 SLP067 T01441017 (MM)","FM-15","7",,,,,,,,,,,,,,,,,,,,,,,,,,,,"2009-05-22"
"72503794745","2020-04-19T15:56:00","FM-15","7",,,,,,,,,,,,,,,,,,,,,,,,,,,,,,,,,,,,,,"29.72","30","59","0.00",,"+0.07","6","33","29.72","CLR:00","29.30","10.00","46","240","20","9",,,,,,,,,,,,,,,,,,,,,,,,,,,,,,,,,,,,,"MET10504/19/20 15:56:02 METAR KHPN 192056Z 24008G17KT 10SM CLR 15/M01 A2972 RMK AO2 SLP066 T01501011 56024 (MM)","FM-15","7",,,,,,,,,,,,,,,,,,,,,,,,,,,,"2009-05-22"
"72503794745","2020-04-19T16:56:00","FM-15","7",,,,,,,,,,,,,,,,,,,,,,,,,,,,,,,,,,,,,,"29.71","30","58","0.00",,,,"35","29.71","CLR:00","29.28","10.00","45","210","22","10",,,,,,,,,,,,,,,,,,,,,,,,,,,,,,,,,,,,,"MET09904/19/20 16:56:02 METAR KHPN 192156Z 21009G19KT 10SM CLR 14/M01 A2971 RMK AO2 SLP062 T01441011 (MM)","FM-15","7",,,,,,,,,,,,,,,,,,,,,,,,,,,,"2009-05-22"
"72503794745","2020-04-19T17:56:00","FM-15","7",,,,,,,,,,,,,,,,,,,,,,,,,,,,,,,,,,,,,,"29.69","29","56","0.00",,,,"36","29.70","CLR:00","29.26","10.00","44","210","16","8",,,,,,,,,,,,,,,,,,,,,,,,,,,,,,,,,,,,,"MET09904/19/20 17:56:02 METAR KHPN 192256Z 21007G14KT 10SM CLR 13/M02 A2969 RMK AO2 SLP057 T01331017 (MM)","FM-15","7",,,,,,,,,,,,,,,,,,,,,,,,,,,,"2009-05-22"
"72503794745","2020-04-19T18:56:00","FM-15","7",,,,,,,,,,,,,,,,,,,,,,,,,,,,,,,,,,,,,,"29.70","28","56","0.00",,"+0.01","5","34","29.71","BKN:07 110","29.28","10.00","44","VRB",,"6",,,,,,,,,,,,,,,,,,,,,,,,,,,,,,,,,,,,,"MET11704/19/20 18:56:02 METAR KHPN 192356Z VRB05KT 10SM BKN110 13/M02 A2970 RMK AO2 SLP060 T01331022 10156 20133 55005 (MM)","FM-15","7",,,,,,,,,,,,,,,,,,,,,,,,,,,,"2009-05-22"
"72503794745","2020-04-19T19:56:00","FM-15","7",,,,,,,,,,,,,,,,,,,,,,,,,,,,,,,,,,,,,,"29.72","29","55","0.00",,,,"37","29.72","BKN:07 110","29.30","10.00","44","VRB","17","7",,,,,,,,,,,,,,,,,,,,,,,,,,,,,,,,,,,,,"MET09704/19/20 19:56:01 METAR KHPN 200056Z VRB06G15KT 10SM BKN110 13/M02 A2972 RMK AO2 SLP065 T01281017","FM-15","7",,,,,,,,,,,,,,,,,,,,,,,,,,,,"2009-05-22"
"72503794745","2020-04-19T20:56:00","FM-15","7",,,,,,,,,,,,,,,,,,,,,,,,,,,,,,,,,,,,,,"29.72","29","55","0.00",,,,"37","29.72","SCT:04 120","29.30","10.00","44","240",,"7",,,,,,,,,,,,,,,,,,,,,,,,,,,,,,,,,,,,,"MET09404/19/20 20:56:01 METAR KHPN 200156Z 24006KT 10SM SCT120 13/M02 A2972 RMK AO2 SLP064 T01281017","FM-15","7",,,,,,,,,,,,,,,,,,,,,,,,,,,,"2009-05-22"
"72503794745","2020-04-19T21:56:00","FM-15","7",,,,,,,,,,,,,,,,,,,,,,,,,,,,,,,,,,,,,,"29.71","29","55","0.00",,"-0.01","0","37","29.71","CLR:00","29.28","10.00","44","VRB",,"3",,,,,,,,,,,,,,,,,,,,,,,,,,,,,,,,,,,,,"MET09704/19/20 21:56:01 METAR KHPN 200256Z VRB03KT 10SM CLR 13/M02 A2971 RMK AO2 SLP061 T01281017 50002","FM-15","7",,,,,,,,,,,,,,,,,,,,,,,,,,,,"2009-05-22"
"72503794745","2020-04-19T22:56:00","FM-15","7",,,,,,,,,,,,,,,,,,,,,,,,,,,,,,,,,,,,,,"29.70","32","54","0.00",,,,"43","29.70","OVC:08 100","29.28","10.00","44","VRB",,"5",,,,,,,,,,,,,,,,,,,,,,,,,,,,,,,,,,,,,"MET09304/19/20 22:56:02 METAR KHPN 200356Z VRB04KT 10SM OVC100 12/00 A2970 RMK AO2 SLP057 T01220000","FM-15","7",,,,,,,,,,,,,,,,,,,,,,,,,,,,"2009-05-22"
"72503794745","2020-04-19T23:56:00","FM-15","7",,,,,,,,,,,,,,,,,,,,,,,,,,,,,,,,,,,,,,"29.70","33","53","0.00",,,,"47","29.70","BKN:07 100","29.28","10.00","44","270","16","6",,,,,,,,,,,,,,,,,,,,,,,,,,,,,,,,,,,,,"MET10604/19/20 23:56:02 METAR KHPN 200456Z 27005G14KT 10SM BKN100 12/01 A2970 RMK AO2 SLP057 T01170006 401561006","FM-15","7",,,,,,,,,,,,,,,,,,,,,,,,,,,,"2009-05-22"
"72503794745","2020-04-19T23:59:00","SOD  ","6",,,,,,,,,,,,,,,,"46",,,"29.40",,"6.9","0","-4.0","19","60","31","220","30","0.00",,,"180","20",,,,,,,,,,,,,,,,,,,,,,,,,,,,,,,,,,,,,,,,,,,,,,,,,,,,,,,,,"SOD73024 HR PRECIPITATION (IN):0.00  24 HR MAX TEMP (F):60 24 HR MAX TEMP TIME (LST):1543 24 HR MIN TEMP (F):31 24 HR MIN TEMP TIME (LST):0426 AVERAGE STATION PRESSURE:29.400 MINIMUM SEA LEVEL PRESSURE:29.69 TIME OF OCCURRENCE:2346 PEAK WIND SPEED (MPH):30  PEAK WIND DIR (DEG):220 PEAK WIND TIME (LST):1335  FASTEST 2MIN SPEED (MPH):20 FASTEST 2MIN DIR (DEG):180 FASTEST 2MIN TIME (LST):1352 AVERAGE WIND SPEED (MPH):6.9  24 HR AVG TEMP (F):46 HEATING DEGREE DAYS:19  COOLING DEGREE DAYS:0   LATEST DAY MAX TEMP (0700-1900 LST):60  LATEST NIGHT MIN TEMP(1900-0800 LST):31 HOURLY INCREMENTAL PRECIPITATION VALUES (IN):.00 0.00 0.00 0.00 0.00 0.00 0.00 0.00 0.00 0.00 0.00 0.00 0.00 0.00 0.00 0.00 0.00 0.00 0.00 0.00 0.00 0.00 0.00 0.00","SOD  ","6",,,,,,,,,,,,,,,,,,,,,,,,,"0508","1840",,"2009-05-22"
"72503794745","2020-04-20T00:56:00","FM-15","7",,,,,,,,,,,,,,,,,,,,,,,,,,,,,,,,,,,,,,"29.68","33","52","0.00",,"+0.02","8","49","29.68","BKN:07 120","29.26","10.00","43","VRB",,"3",,,,,,,,,,,,,,,,,,,,,,,,,,,,,,,,,,,,,"MET11604/20/20 00:56:02 METAR KHPN 200556Z VRB03KT 10SM BKN120 11/01 A2968 RMK AO2 SLP052 T01110006 10133 20111 58008 (EC)","FM-15","7",,,,,,,,,,,,,,,,,,,,,,,,,,,,"2009-05-22"
"72503794745","2020-04-20T01:56:00","FM-15","7",,,,,,,,,,,,,,,,,,,,,,,,,,,,,,,,,,,,,,"29.67","33","51","0.00",,,,"50","29.67","BKN:07 120","29.25","10.00","43","310",,"9",,,,,,,,,,,,,,,,,,,,,,,,,,,,,,,,,,,,,"MET09804/20/20 01:56:02 METAR KHPN 200656Z 31008KT 10SM BKN120 11/01 A2967 RMK AO2 SLP046 T01060006 (EC)","FM-15","7",,,,,,,,,,,,,,,,,,,,,,,,,,,,"2009-05-22"
"72503794745","2020-04-20T02:56:00","FM-15","7",,,,,,,,,,,,,,,,,,,,,,,,,,,,,,,,,,,,,,"29.66","35","50","0.00",,,,"57","29.66","SCT:04 120","29.23","10.00","43","330",,"7",,,,,,,,,,,,,,,,,,,,,,,,,,,,,,,,,,,,,"MET09804/20/20 02:56:02 METAR KHPN 200756Z 33006KT 10SM SCT120 10/02 A2966 RMK AO2 SLP045 T01000017 (EC)","FM-15","7",,,,,,,,,,,,,,,,,,,,,,,,,,,,"2009-05-22"
"72503794745","2020-04-20T03:56:00","FM-15","7",,,,,,,,,,,,,,,,,,,,,,,,,,,,,,,,,,,,,,"29.67","36","48","0.00",,"+0.02","5","63","29.67","BKN:07 120","29.25","10.00","43","320",,"3",,,,,,,,,,,,,,,,,,,,,,,,,,,,,,,,,,,,,"MET10404/20/20 03:56:02 METAR KHPN 200856Z 32003KT 10SM BKN120 09/02 A2967 RMK AO2 SLP046 T00890022 55006 (EC)","FM-15","7",,,,,,,,,,,,,,,,,,,,,,,,,,,,"2009-05-22"
"72503794745","2020-04-20T04:56:00","FM-15","7",,,,,,,,,,,,,,,,,,,,,,,,,,,,,,,,,,,,,,"29.67","36","47","0.00",,,,"66","29.67","FEW:02 120","29.25","10.00","42","000",,"0",,,,,,,,,,,,,,,,,,,,,,,,,,,,,,,,,,,,,"MET09804/20/20 04:56:02 METAR KHPN 200956Z 00000KT 10SM FEW120 08/02 A2967 RMK AO2 SLP049 T00830022 (EC)","FM-15","7",,,,,,,,,,,,,,,,,,,,,,,,,,,,"2009-05-22"
"72503794745","2020-04-20T05:56:00","FM-15","7",,,,,,,,,,,,,,,,,,,,,,,,,,,,,,,,,,,,,,"29.67","36","47","0.00",,,,"66","29.67","CLR:00","29.25","10.00","42","350",,"11",,,,,,,,,,,,,,,,,,,,,,,,,,,,,,,,,,,,,"MET09504/20/20 05:56:02 METAR KHPN 201056Z 35010KT 10SM CLR 08/02 A2967 RMK AO2 SLP049 T00830022 (EC)","FM-15","7",,,,,,,,,,,,,,,,,,,,,,,,,,,,"2009-05-22"
"72503794745","2020-04-20T06:56:00","FM-15","7",,,,,,,,,,,,,,,,,,,,,,,,,,,,,,,,,,,,,,"29.68","32","46","0.00",,"-0.02","3","58","29.69","CLR:00","29.26","10.00","40","010","18","9",,,,,,,,,,,,,,,,,,,,,,,,,,,,,,,,,,,,,"MET11604/20/20 06:56:02 METAR KHPN 201156Z 01008G16KT 10SM CLR 08/00 A2968 RMK AO2 SLP053 T00780000 10111 20078 53006 (EC)","FM-15","7",,,,,,,,,,,,,,,,,,,,,,,,,,,,"2009-05-22"
"72503794745","2020-04-20T07:56:00","FM-15","7",,,,,,,,,,,,,,,,,,,,,,,,,,,,,,,,,,,,,,"29.69","31","45","0.00",,,,"58","29.69","CLR:00","29.26","10.00","39","020",,"10",,,,,,,,,,,,,,,,,,,,,,,,,,,,,,,,,,,,,"MET09604/20/20 07:56:02 METAR KHPN 201256Z 02009KT 10SM CLR 07/M01 A2969 RMK AO2 SLP054 T00721006 (EC)","FM-15","7",,,,,,,,,,,,,,,,,,,,,,,,,,,,"2009-05-22"
"72503794745","2020-04-20T08:56:00","FM-15","7",,,,,,,,,,,,,,,,,,,,,,,,,,,,,,,,,,,,,,"29.67","28","45","0.00",,,,"52","29.68","FEW:02 95","29.25","10.00","38","350",,"10",,,,,,,,,,,,,,,,,,,,,,,,,,,,,,,,,,,,,"MET09904/20/20 08:56:02 METAR KHPN 201356Z 35009KT 10SM FEW095 07/M02 A2967 RMK AO2 SLP050 T00721022 (WS)","FM-15","7",,,,,,,,,,,,,,,,,,,,,,,,,,,,"2009-05-22"
"72503794745","2020-04-20T09:56:00","FM-15","7",,,,,,,,,,,,,,,,,,,,,,,,,,,,,,,,,,,,,,"29.67","26","46","0.00",,"+0.01","8","46","29.67","SCT:04 100","29.25","10.00","38","350",,"11",,,,,,,,,,,,,,,,,,,,,,,,,,,,,,,,,,,,,"MET10504/20/20 09:56:02 METAR KHPN 201456Z 35010KT 10SM SCT100 08/M03 A2967 RMK AO2 SLP048 T00781033 58005 (WS)","FM-15","7",,,,,,,,,,,,,,,,,,,,,,,,,,,,"2009-05-22"
"72503794745","2020-04-20T10:56:00","FM-15","7",,,,,,,,,,,,,,,,,,,,,,,,,,,,,,,,,,,,,,"29.66","26","47","0.00",,,,"44","29.66","SCT:04 100","29.23","10.00","38","340",,"14",,,,,,,,,,,,,,,,,,,,,,,,,,,,,,,,,,,,,"MET09904/20/20 10:56:02 METAR KHPN 201556Z 34012KT 10SM SCT100 08/M03 A2966 RMK AO2 SLP045 T00831033 (WS)","FM-15","7",,,,,,,,,,,,,,,,,,,,,,,,,,,,"2009-05-22"
"72503794745","2020-04-20T11:56:00","FM-15","7",,,,,,,,,,,,,,,,,,,,,,,,,,,,,,,,,,,,,,"29.64","27","48","0.00",,,,"44","29.64","SCT:04 100","29.22","10.00","39","340",,"14",,,,,,,,,,,,,,,,,,,,,,,,,,,,,,,,,,,,,"MET09904/20/20 11:56:02 METAR KHPN 201656Z 34012KT 10SM SCT100 09/M03 A2964 RMK AO2 SLP038 T00891028 (WS)","FM-15","7",,,,,,,,,,,,,,,,,,,,,,,,,,,,"2009-05-22"
"72503794745","2020-04-20T12:56:00","FM-15","7",,,,,,,,,,,,,,,,,,,,,,,,,,,,,,,,,,,,,,"29.61","27","50","0.00",,"+0.06","8","41","29.62","SCT:04 100","29.19","10.00","40","350",,"13",,,,,,,,,,,,,,,,,,,,,,,,,,,,,,,,,,,,,"MET11704/20/20 12:56:02 METAR KHPN 201756Z 35011KT 10SM SCT100 10/M03 A2961 RMK AO2 SLP029 T01001028 10100 20072 58019 (WS)","FM-15","7",,,,,,,,,,,,,,,,,,,,,,,,,,,,"2009-05-22"
"72503794745","2020-04-20T13:56:00","FM-15","7",,,,,,,,,,,,,,,,,,,,,,,,,,,,,,,,,,,,,,"29.60","27","53","0.00",,,,"37","29.60","CLR:00","29.18","10.00","42","330",,"7",,,,,,,,,,,,,,,,,,,,,,,,,,,,,,,,,,,,,"MET09604/20/20 13:56:02 METAR KHPN 201856Z 33006KT 10SM CLR 12/M03 A2960 RMK AO2 SLP024 T01171028 (WS)","FM-15","7",,,,,,,,,,,,,,,,,,,,,,,,,,,,"2009-05-22"
"72503794745","2020-04-20T14:56:00","FM-15","7",,,,,,,,,,,,,,,,,,,,,,,,,,,,,,,,,,,,,,"29.60","25","53","0.00",,,,"34","29.59","CLR:00","29.18","10.00","41","340",,"6",,,,,,,,,,,,,,,,,,,,,,,,,,,,,,,,,,,,,"MET09604/20/20 14:56:02 METAR KHPN 201956Z 34005KT 10SM CLR 12/M04 A2960 RMK AO2 SLP022 T01171039 (WS)","FM-15","7",,,,,,,,,,,,,,,,,,,,,,,,,,,,"2009-05-22"
"72503794745","2020-04-20T15:56:00","FM-15","7",,,,,,,,,,,,,,,,,,,,,,,,,,,,,,,,,,,,,,"29.60","22","52","0.00",,"+0.01","5","31","29.60","CLR:00","29.18","10.00","40","000",,"0",,,,,,,,,,,,,,,,,,,,,,,,,,,,,,,,,,,,,"MET10204/20/20 15:56:02 METAR KHPN 202056Z 00000KT 10SM CLR 11/M06 A2960 RMK AO2 SLP024 T01111056 55005 (WS)","FM-15","7",,,,,,,,,,,,,,,,,,,,,,,,,,,,"2009-05-22"
"72503794745","2020-04-20T16:56:00","FM-15","7",,,,,,,,,,,,,,,,,,,,,,,,,,,,,,,,,,,,,,"29.60","23","53","0.00",,,,"31","29.60","CLR:00","29.18","10.00","41","270",,"5",,,,,,,,,,,,,,,,,,,,,,,,,,,,,,,,,,,,,"MET09604/20/20 16:56:02 METAR KHPN 202156Z 27004KT 10SM CLR 12/M05 A2960 RMK AO2 SLP025 T01171050 (WS)","FM-15","7",,,,,,,,,,,,,,,,,,,,,,,,,,,,"2009-05-22"
"72503794745","2020-04-20T17:56:00","FM-15","7",,,,,,,,,,,,,,,,,,,,,,,,,,,,,,,,,,,,,,"29.60","24","51","0.00",,,,"35","29.61","CLR:00","29.18","10.00","40","300",,"7",,,,,,,,,,,,,,,,,,,,,,,,,,,,,,,,,,,,,"MET09604/20/20 17:56:02 METAR KHPN 202256Z 30006KT 10SM CLR 11/M04 A2960 RMK AO2 SLP026 T01061044 (WS)","FM-15","7",,,,,,,,,,,,,,,,,,,,,,,,,,,,"2009-05-22"
"72503794745","2020-04-20T18:56:00","FM-15","7",,,,,,,,,,,,,,,,,,,,,,,,,,,,,,,,,,,,,,"29.61","23","49","0.00",,"-0.02","3","36","29.62","CLR:00","29.19","10.00","39","270",,"3",,,,,,,,,,,,,,,,,,,,,,,,,,,,,,,,,,,,,"MET11404/20/20 18:56:02 METAR KHPN 202356Z 27003KT 10SM CLR 09/M05 A2961 RMK AO2 SLP030 T00941050 10117 20094 53006 (JR)","FM-15","7",,,,,,,,,,,,,,,,,,,,,,,,,,,,"2009-05-22"
"72503794745","2020-04-20T19:56:00","FM-15","7",,,,,,,,,,,,,,,,,,,,,,,,,,,,,,,,,,,,,,"29.64","26","44","0.00",,,,"49","29.65","CLR:00","29.22","10.00","37","000",,"0",,,,,,,,,,,,,,,,,,,,,,,,,,,,,,,,,,,,,"MET09104/20/20 19:56:01 METAR KHPN 210056Z 00000KT 10SM CLR 07/M03 A2964 RMK AO2 SLP040 T00671033","FM-15","7",,,,,,,,,,,,,,,,,,,,,,,,,,,,"2009-05-22"
"72503794745","2020-04-20T20:56:00","FM-15","7",,,,,,,,,,,,,,,,,,,,,,,,,,,,,,,,,,,,,,"29.66","27","43","0.00",,,,"53","29.67","CLR:00","29.23","10.00","37","000",,"0",,,,,,,,,,,,,,,,,,,,,,,,,,,,,,,,,,,,,"MET09104/20/20 20:56:01 METAR KHPN 210156Z 00000KT 10SM CLR 06/M03 A2966 RMK AO2 SLP048 T00611028","FM-15","7",,,,,,,,,,,,,,,,,,,,,,,,,,,,"2009-05-22"
"72503794745","2020-04-20T21:56:00","FM-15","7",,,,,,,,,,,,,,,,,,,,,,,,,,,,,,,,,,,,,,"29.67","30","40","0.00",,"-0.06","1","68","29.68","CLR:00","29.25","10.00","36","300",,"3",,,,,,,,,,,,,,,,,,,,,,,,,,,,,,,,,,,,,"MET09704/20/20 21:56:01 METAR KHPN 210256Z 30003KT 10SM CLR 04/M01 A2967 RMK AO2 SLP050 T00441011 51019","FM-15","7",,,,,,,,,,,,,,,,,,,,,,,,,,,,"2009-05-22"
"72503794745","2020-04-20T22:56:00","FM-15","7",,,,,,,,,,,,,,,,,,,,,,,,,,,,,,,,,,,,,,"29.68","28","39","0.00",,,,"65","29.69","CLR:00","29.26","10.00","35","130",,"3",,,,,,,,,,,,,,,,,,,,,,,,,,,,,,,,,,,,,"MET09104/20/20 22:56:02 METAR KHPN 210356Z 13003KT 10SM CLR 04/M02 A2968 RMK AO2 SLP054 T00391022","FM-15","7",,,,,,,,,,,,,,,,,,,,,,,,,,,,"2009-05-22"
"72503794745","2020-04-20T23:56:00","FM-15","7",,,,,,,,,,,,,,,,,,,,,,,,,,,,,,,,,,,,,,"29.68","31","39","0.00",,,,"73","29.70","CLR:00","29.26","10.00","36","150",,"3",,,,,,,,,,,,,,,,,,,,,,,,,,,,,,,,,,,,,"MET10104/20/20 23:56:02 METAR KHPN 210456Z 15003KT 10SM CLR 04/M01 A2968 RMK AO2 SLP056 T00391006 401220033","FM-15","7",,,,,,,,,,,,,,,,,,,,,,,,,,,,"2009-05-22"
"72503794745","2020-04-20T23:59:00","SOD  ","6",,,,,,,,,,,,,,,,"46",,,"29.22",,"6.4","0","-4.3","19","54","38","340","20","0.00",,,"340","17",,,,,,,,,,,,,,,,,,,,,,,,,,,,,,,,,,,,,,,,,,,,,,,,,,,,,,,,,"SOD73024 HR PRECIPITATION (IN):0.00  24 HR MAX TEMP (F):54 24 HR MAX TEMP TIME (LST):0001 24 HR MIN TEMP (F):38 24 HR MIN TEMP TIME (LST):2359 AVERAGE STATION PRESSURE:29.220 MINIMUM SEA LEVEL PRESSURE:29.59 TIME OF OCCURRENCE:1514 PEAK WIND SPEED (MPH):20  PEAK WIND DIR (DEG):340 PEAK WIND TIME (LST):1124  FASTEST 2MIN SPEED (MPH):17 FASTEST 2MIN DIR (DEG):340 FASTEST 2MIN TIME (LST):1222 AVERAGE WIND SPEED (MPH):6.4  24 HR AVG TEMP (F):46 HEATING DEGREE DAYS:19  COOLING DEGREE DAYS:0   LATEST DAY MAX TEMP (0700-1900 LST):53  LATEST NIGHT MIN TEMP(1900-0800 LST):45 HOURLY INCREMENTAL PRECIPITATION VALUES (IN):.00 0.00 0.00 0.00 0.00 0.00 0.00 0.00 0.00 0.00 0.00 0.00 0.00 0.00 0.00 0.00 0.00 0.00 0.00 0.00 0.00 0.00 0.00 0.00","SOD  ","6",,,,,,,,,,,,,,,,,,,,,,,,,"0507","1841",,"2009-05-22"
"72503794745","2020-04-21T00:56:00","FM-15","7",,,,,,,,,,,,,,,,,,,,,,,,,,,,,,,,,,,,,,"29.69","35","40","0.00",,"-0.02","1","83","29.70","CLR:00","29.26","10.00","38","140",,"3",,,,,,,,,,,,,,,,,,,,,,,,,,,,,,,,,,,,,"MET11304/21/20 00:56:02 METAR KHPN 210556Z 14003KT 10SM CLR 04/02 A2969 RMK AO2 SLP057 T00440017 10100 20028 51006 (RV)","FM-15","7",,,,,,,,,,,,,,,,,,,,,,,,,,,,"2009-05-22"
"72503794745","2020-04-21T01:56:00","FM-15","7",,,,,,,,,,,,,,,,,,,,,,,,,,,,,,,,,,,,,,"29.66","36","39","0.00",,,,"89","29.67","CLR:00","29.23","10.00","38","000",,"0",,,,,,,,,,,,,,,,,,,,,,,,,,,,,,,,,,,,,"MET09504/21/20 01:56:02 METAR KHPN 210656Z 00000KT 10SM CLR 04/02 A2966 RMK AO2 SLP048 T00390022 (RV)","FM-15","7",,,,,,,,,,,,,,,,,,,,,,,,,,,,"2009-05-22"
"72503794745","2020-04-21T02:56:00","FM-15","7",,,,,,,,,,,,,,,,,,,,,,,,,,,,,,,,,,,,,,"29.65","36","38","0.00",,,,"93","29.66","CLR:00","29.23","9.00","37","000",,"0",,,,,,,,,,,,,,,,,,,,,,,,,,,,,,,,,,,,,"MET09404/21/20 02:56:02 METAR KHPN 210756Z 00000KT 9SM CLR 03/02 A2965 RMK AO2 SLP045 T00330022 (RV)","FM-15","7",,,,,,,,,,,,,,,,,,,,,,,,,,,,"2009-05-22"
"72503794745","2020-04-21T03:56:00","FM-15","7",,,,,,,,,,,,,,,,,,,,,,,,,,,,,,,,,,,,,,"29.63","35","38","0.00",,"+0.05","6","89","29.65","FEW:02 100","29.21","10.00","37","140",,"5",,,,,,,,,,,,,,,,,,,,,,,,,,,,,,,,,,,,,"MET10404/21/20 03:56:02 METAR KHPN 210856Z 14004KT 10SM FEW100 03/02 A2963 RMK AO2 SLP039 T00330017 56018 (RV)","FM-15","7",,,,,,,,,,,,,,,,,,,,,,,,,,,,"2009-05-22"
"72503794745","2020-04-21T04:56:00","FM-15","7",,,,,,,,,,,,,,,,,,,,,,,,,,,,,,,,,,,,,,"29.63","36","38","0.00",,,,"93","29.64","CLR:00","29.21","10.00","37","140",,"6",,,,,,,,,,,,,,,,,,,,,,,,,,,,,,,,,,,,,"MET09504/21/20 04:56:02 METAR KHPN 210956Z 14005KT 10SM CLR 03/02 A2963 RMK AO2 SLP036 T00330022 (RV)","FM-15","7",,,,,,,,,,,,,,,,,,,,,,,,,,,,"2009-05-22"
"72503794745","2020-04-21T05:56:00","FM-15","7",,,,,,,,,,,,,,,,,,,,,,,,,,,,,,,,,,,,,,"29.62","37","40","0.00",,,,"89","29.62","FEW:02 120","29.20","10.00","39","150",,"6",,,,,,,,,,,,,,,,,,,,,,,,,,,,,,,,,,,,,"MET09804/21/20 05:56:02 METAR KHPN 211056Z 15005KT 10SM FEW120 04/03 A2962 RMK AO2 SLP032 T00440028 (RV)","FM-15","7",,,,,,,,,,,,,,,,,,,,,,,,,,,,"2009-05-22"
"72503794745","2020-04-21T06:46:00","FM-16","7",,,,,,,,,,,,,,,,,,,,,,,,,,,,,,,,,,,,,,"29.61","42","45",,,,,"90",,"BKN:07 8","29.19","10.00","44","160",,"7",,,,,,,,,,,,,,,,,,,,,,,,,,,,,,,,,,,,,"MET09104/21/20 06:46:02 SPECI KHPN 211146Z 16006KT 10SM BKN008 07/06 A2961 RMK AO2 T00720056 (RV)","FM-16","7",,,,,,,,,,,,,,,,,,,,,,,,,,,,"2009-05-22"
"72503794745","2020-04-21T06:56:00","FM-15","7",,,,,,,,,,,,,,,,,,,,,,,,,,,,,,,,,,,,,,"29.60","42","45","0.00",,"+0.03","8","90","29.61","BKN:07 8","29.18","10.00","44","180",,"9",,,,,,,,,,,,,,,,,,,,,,,,,,,,,,,,,,,,,"MET11604/21/20 06:56:02 METAR KHPN 211156Z 18008KT 10SM BKN008 07/06 A2960 RMK AO2 SLP027 T00720056 10072 20022 58011 (RV)","FM-15","7",,,,,,,,,,,,,,,,,,,,,,,,,,,,"2009-05-22"
"72503794745","2020-04-21T07:56:00","FM-15","7",,,,,,,,,,,,,,,,,,,,,,,,,,,,,,,,,,,,,,"29.58","44","48","0.00",,,,"86","29.58","BKN:07 8","29.16","10.00","46","160",,"7",,,,,,,,,,,,,,,,,,,,,,,,,,,,,,,,,,,,,"MET09804/21/20 07:56:02 METAR KHPN 211256Z 16006KT 10SM BKN008 09/07 A2958 RMK AO2 SLP018 T00890067 (RV)","FM-15","7",,,,,,,,,,,,,,,,,,,,,,,,,,,,"2009-05-22"
"72503794745","2020-04-21T08:56:00","FM-15","7",,,,,,,,,,,,,,,,,,,,,,,,,,,,,,,,,,,,,,"29.55","44","49","0.00",,,,"83","29.55","BKN:07 9","29.13","10.00","47","170","20","11",,,,,,,,,,,,,,,,,,,,,,,,,,,,,,,,,,,,,"MET10104/21/20 08:56:02 METAR KHPN 211356Z 17010G17KT 10SM BKN009 09/07 A2955 RMK AO2 SLP007 T00940067 (RV)","FM-15","7",,,,,,,,,,,,,,,,,,,,,,,,,,,,"2009-05-22"
"72503794745","2020-04-21T09:54:00","FM-16","6",,,,,,,,,,,,,,,,,,,,,,,,,,,,,,,,,,,,,,"29.51","46","52",,,,,"82",,"BKN:07 12","29.09","10.00","49","VRB","23","11",,,,,,,,,,,,,,,,,,,,,,,,,,,,,,,,,,,,,"MET08904/21/20 09:54:02 SPECI KHPN 211454Z 18010G20KT 10SM BKN012 11/08 A2951 RMK AO2 FIBI (RV)","FM-16","6",,,,,,,,,,,,,,,,,,,,,,,,,,,,"2009-05-22"
"72503794745","2020-04-21T09:56:00","FM-15","7",,,,,,,,,,,,,,,,,,,,,,,,,,,,,,,,,,,,,,"29.51","46","52","0.00",,"+0.09","8","80","29.52","BKN:07 12","29.09","10.00","49","170","23","14",,,,,,,,,,,,,,,,,,,,,,,,,,,,,,,,,,,,,"MET10704/21/20 09:56:02 METAR KHPN 211456Z 17012G20KT 10SM BKN012 11/08 A2951 RMK AO2 SLP995 T01110078 58031 (RV)","FM-15","7",,,,,,,,,,,,,,,,,,,,,,,,,,,,"2009-05-22"
"72503794745","2020-04-21T10:56:00","FM-15","7",,,,,,,,,,,,,,,,,,,,,,,,,,,,,,,,,,,,,,"29.51","46","51","T","-RA:02 |RA |RA",,,"83","29.52","BKN:07 11","29.09","10.00","48","190","24","10",,,,,,,,,,,,,,,,,,,,,,,,,,,,,,,,,,,,,"MET11704/21/20 10:56:02 METAR KHPN 211556Z 19009G21KT 10SM -RA BKN011 11/08 A2951 RMK AO2 RAB52 SLP995 P0000 T01060078 (RV)","FM-15","7",,,,,,,,,,,,,,,,,,,,,,,,,,,,"2009-05-22"
"72503794745","2020-04-21T11:46:00","FM-16","7",,,,,,,,,,,,,,,,,,,,,,,,,,,,,,,,,,,,,,"29.47","47","50","0.01","-RA:02 BR:1 |RA |RA",,,"89",,"SCT:04 10 BKN:07 41 OVC:08 48","29.05","6.00","48","180","18","13",,,,,,,,,,,,,,,,,,,,,,,,,,,,,,,,,,,,,"MET13704/21/20 11:46:02 SPECI KHPN 211646Z 18011G16KT 6SM -RA BR SCT010 BKN041 OVC048 10/08 A2947 RMK AO2 LTG DSNT N AND S P0001 T01000083 (WS)","FM-16","7",,,,,,,,,,,,,,,,,,,,,,,,,,,,"2009-05-22"
"72503794745","2020-04-21T11:56:00","FM-15","7",,,,,,,,,,,,,,,,,,,,,,,,,,,,,,,,,,,,,,"29.46","48","50","0.02","-RA:02 |RA |RA",,,"93","29.47","SCT:04 10 BKN:07 32 OVC:08 44","29.04","7.00","49","180",,"11",,,,,,,,,,,,,,,,,,,,,,,,,,,,,,,,,,,,,"MET12104/21/20 11:56:02 METAR KHPN 211656Z 18010KT 7SM -RA SCT010 BKN032 OVC044 10/09 A2946 RMK AO2 SLP981 P0001 T01000089 (WS)","FM-15","7",,,,,,,,,,,,,,,,,,,,,,,,,,,,"2009-05-22"
"72503794745","2020-04-21T12:10:00","FM-16","7",,,,,,,,,,,,,,,,,,,,,,,,,,,,,,,,,,,,,,"29.46","47","50","0.03","-RA:02 BR:1 |RA |RA",,,"89",,"BKN:07 8 OVC:08 22","29.04","2.00","48","180","18","9",,,,,,,,,,,,,,,,,,,,,,,,,,,,,,,,,,,,,"MET11304/21/20 12:10:02 SPECI KHPN 211710Z 18008G16KT 2SM -RA BR BKN008 OVC022 10/08 A2946 RMK AO2 P0003 T01000083 (WS)","FM-16","7",,,,,,,,,,,,,,,,,,,,,,,,,,,,"2009-05-22"
"72503794745","2020-04-21T12:54:00","FM-16","6",,,,,,,,,,,,,,,,,,,,,,,,,,,,,,,,,,,,,,"29.41","46","52",,,,,"82",,"FEW:02 5 SCT:04 55 BKN:07 70","28.99","10.00","49","140",,"8",,,,,,,,,,,,,,,,,,,,,,,,,,,,,,,,,,,,,"MET11904/21/20 12:54:02 SPECI KHPN 211754Z 14007KT 10SM FEW005 SCT055 BKN070 11/08 A2941 RMK AO2 RAE52 PRESFR P0004 FIBI (WS)","FM-16","6",,,,,,,,,,,,,,,,,,,,,,,,,,,,"2009-05-22"
"72503794745","2020-04-21T12:56:00","FM-15","7",,,,,,,,,,,,,,,,,,,,,,,,,,,,,,,,,,,,,,"29.41","47","51","0.03",,"+0.10","8","86","29.41","FEW:02 5 SCT:04 55 BKN:07 70","28.99","10.00","49","140",,"8",,,,,,,,,,,,,,,,,,,,,,,,,,,,,,,,,,,,,"MET14804/21/20 12:56:02 METAR KHPN 211756Z 14007KT 10SM FEW005 SCT055 BKN070 11/08 A2941 RMK AO2 RAE52 SLP960 P0004 60005 T01060083 10117 20072 58034 (WS)","FM-15","7",,,,,,,,,,,,,,,,,,,,,,,,,,,,"2009-05-22"
"72503794745","2020-04-21T13:34:00","FM-16","7",,,,,,,,,,,,,,,,,,,,,,,,,,,,,,,,,,,,,,"29.38","48","52",,"VCTS:7 ||",,,"86",,"BKN:07 60 OVC:08 85","28.96","10.00","50","VRB",,"5",,,,,,,,,,,,,,,,,,,,,,,,,,,,,,,,,,,,,"MET11704/21/20 13:34:02 SPECI KHPN 211834Z VRB04KT 10SM VCTS BKN060 OVC085 11/09 A2938 RMK AO2 LTG DSNT SW-N T01110089 (WS)","FM-16","7",,,,,,,,,,,,,,,,,,,,,,,,,,,,"2009-05-22"
"72503794745","2020-04-21T13:43:00","FM-16","7",,,,,,,,,,,,,,,,,,,,,,,,,,,,,,,,,,,,,,"29.44","44","51","0.01","TS:7 |TS TS |",,,"77",,"FEW:02 29 BKN:07 60 OVC:08 80","29.02","8.00","48",,,,,,,,,,,,,,,,,,,,,,,,,,,,,,,,,,,,,,,,"MET20004/21/20 13:43:02 SPECI KHPN 211843Z      KT 8SM R16/5500VP6000FT TS FEW029 BKN060 OVC080 11/07 A2944 RMK AO2 LTG DSNT N AND SW RAB42RAEMM TSB37 PRESRR FRQ LTG ICCCCG TS OHD MOV E P0001 T01060067 (WS)","FM-16","7",,,,,,,,,,,,,,,,,,,,,,,,,,,,"2009-05-22"
"72503794745","2020-04-21T13:45:00","FM-16","6",,,,,,,,,,,,,,,,,,,,,,,,,,,,,,,,,,,,,,"29.44","41","48",,"TS:7 s -RA:02 s |RA s TS s |RA s",,,"77",,"FEW:02 22 BKN:07 60 OVC:08 75","29.02","0.50s","45","320","29","23",,,,,,,,,,,,,,,,,,,,,,,,,,,,,,,,,,,,,"MET23104/21/20 13:45:02 SPECI KHPN 211845Z 32020G25KT 1/2SM R16/5500VP6000FT -TSRA FEW022 BKN060 OVC075 09/05 A2944 RMK AO2 PK WND 28030/1844 LTG DSNT N AND SW RAB42RAEMMB45 TSB37 PRESRR FRQ LTG ICCCCG TS OHD MOV E P0006 T00890050 $ (WS)","FM-16","6",,,,,,,,,,,,,,,,,,,,,,,,,,,,"2009-05-22"
"72503794745","2020-04-21T13:56:00","FM-15","7",,,,,,,,,,,,,,,,,,,,,,,,,,,,,,,,,,,,,,"29.42","40","45","0.12","TS:7 -RA:02 HZ:7 |FU RA TS |HZ RA",,,"83","29.44","BKN:07 37 BKN:07 49 OVC:08 60","29.00","3.00","43","300","33","15",,,,,,,,,,,,,,,,,,,,,,,,,,,,,,,,,,,,,"MET22904/21/20 13:56:02 METAR KHPN 211856Z 30013G29KT 3SM R16/5500VP6000FT -TSRA HZ BKN037 BKN049 OVC060 07/04 A2942 RMK AO2 PK WND 28030/1844 LTG DSNT ALQDS RAB42RAEMMB45 TSB37 SLP969 FRQ LTG ICCCCG TS OHD MOV E P0011 T00720044 $ (WS)","FM-15","7",,,,,,,,,,,,,,,,,,,,,,,,,,,,"2009-05-22"
"72503794745","2020-04-21T14:14:00","FM-16","7",,,,,,,,,,,,,,,,,,,,,,,,,,,,,,,,,,,,,,"29.41","42","46","0.05","VCTS:7 -RA:02 BR:1 |RA |RA",,,"86",,"OVC:08 36","28.99","3.00","44","290",,"9",,,,,,,,,,,,,,,,,,,,,,,,,,,,,,,,,,,,,"MET13004/21/20 14:14:02 SPECI KHPN 211914Z 29008KT 3SM VCTS -RA BR OVC036 08/06 A2941 RMK AO2 LTG DSNT NE-S TSE06 P0005 T00780056 $ (WS)","FM-16","7",,,,,,,,,,,,,,,,,,,,,,,,,,,,"2009-05-22"
"72503794745","2020-04-21T14:23:00","FM-16","7",,,,,,,,,,,,,,,,,,,,,,,,,,,,,,,,,,,,,,"29.40","43","46","0.05","-RA:02 BR:1 |RA |RA",,,"89",,"FEW:02 25 SCT:04 38 BKN:07 60","28.98","3.00","45","270",,"7",,,,,,,,,,,,,,,,,,,,,,,,,,,,,,,,,,,,,"MET12504/21/20 14:23:02 SPECI KHPN 211923Z 27006KT 3SM -RA BR FEW025 SCT038 BKN060 08/06 A2940 RMK AO2 TSE06 P0005 T00780061 $ (WS)","FM-16","7",,,,,,,,,,,,,,,,,,,,,,,,,,,,"2009-05-22"
"72503794745","2020-04-21T14:56:00","FM-15","7",,,,,,,,,,,,,,,,,,,,,,,,,,,,,,,,,,,,,,"29.40","44","47","0.04",,,,"90","29.41","SCT:04 55 BKN:07 75","28.98","10.00","46","VRB",,"3",,,,,,,,,,,,,,,,,,,,,,,,,,,,,,,,,,,,,"MET12504/21/20 14:56:02 METAR KHPN 211956Z VRB03KT 10SM SCT055 BKN075 08/07 A2940 RMK AO2 RAE45 TSE06 SLP959 P0005 T00830067 $ (WS)","FM-15","7",,,,,,,,,,,,,,,,,,,,,,,,,,,,"2009-05-22"
"72503794745","2020-04-21T15:56:00","FM-15","7",,,,,,,,,,,,,,,,,,,,,,,,,,,,,,,,,,,,,,"29.44","39","50","T",,"-0.03","3","66","29.45","FEW:02 47 SCT:04 85","29.02","10.00","45","300",,"14",,,,,,,,,,,,,,,,,,,,,,,,,,,,,,,,,,,,,"MET13404/21/20 15:56:02 METAR KHPN 212056Z 30012KT 10SM FEW047 SCT085 10/04 A2944 RMK AO2 RAB14E29 SLP973 P0000 60016 T01000039 53011 $ (WS)","FM-15","7",,,,,,,,,,,,,,,,,,,,,,,,,,,,"2009-05-22"
"72503794745","2020-04-21T16:56:00","FM-15","7",,,,,,,,,,,,,,,,,,,,,,,,,,,,,,,,,,,,,,"29.47","36","49","T","-RA:02 |RA |RA",,,"61","29.48","BKN:07 47","29.05","10.00","43","280",,"8",,,,,,,,,,,,,,,,,,,,,,,,,,,,,,,,,,,,,"MET11604/21/20 16:56:02 METAR KHPN 212156Z 28007KT 10SM -RA BKN047 09/02 A2947 RMK AO2 RAB53 SLP982 P0000 T00940022 $ (WS)","FM-15","7",,,,,,,,,,,,,,,,,,,,,,,,,,,,"2009-05-22"
"72503794745","2020-04-21T17:03:00","FM-16","6",,,,,,,,,,,,,,,,,,,,,,,,,,,,,,,,,,,,,,"29.50","37","48",,"-RA:02 GS:08 HZ:7 |RA |HZ RA",,,"66",,"BKN:07 8 BKN:07 37 BKN:07 46","29.08","6.00","43","310","31","24",,,,,,,,,,,,,,,,,,,,,,,,,,,,,,,,,,,,,"MET15504/21/20 17:03:02 SPECI KHPN 212203Z 31021G27KT 6SM -RAGS HZ BKN008 BKN037 BKN046 09/03 A2950 RMK AO2 PK WND 32027/2202 GSB02 PRESRR P0001 T00890028 $ (WS)","FM-16","6",,,,,,,,,,,,,,,,,,,,,,,,,,,,"2009-05-22"
"72503794745","2020-04-21T17:15:00","FM-16","7",,,,,,,,,,,,,,,,,,,,,,,,,,,,,,,,,,,,,,"29.50","37","45","0.01",,,,"74",,"FEW:02 37 BKN:07 48","29.08","10.00","41","320","32","15",,,,,,,,,,,,,,,,,,,,,,,,,,,,,,,,,,,,,"MET14104/21/20 17:15:02 SPECI KHPN 212215Z 32013G28KT 10SM FEW037 BKN048 07/03 A2950 RMK AO2 PK WND 31028/2206 RAE14GSB02E14 P0001 T00720028 $ (WS)","FM-16","7",,,,,,,,,,,,,,,,,,,,,,,,,,,,"2009-05-22"
"72503794745","2020-04-21T17:56:00","FM-15","7",,,,,,,,,,,,,,,,,,,,,,,,,,,,,,,,,,,,,,"29.53","35","45","0.01",,,,"68","29.54","SCT:04 65 SCT:04 90","29.11","10.00","41","310",,"17",,,,,,,,,,,,,,,,,,,,,,,,,,,,,,,,,,,,,"MET14504/21/20 17:56:02 METAR KHPN 212256Z 31015KT 10SM SCT065 SCT090 07/02 A2953 RMK AO2 PK WND 31028/2206 RAE14GSB02E14 SLP004 P0001 T00720017 $ (WS)","FM-15","7",,,,,,,,,,,,,,,,,,,,,,,,,,,,"2009-05-22"
"72503794745","2020-04-21T18:56:00","FM-15","7",,,,,,,,,,,,,,,,,,,,,,,,,,,,,,,,,,,,,,"29.60","31","42","0.01",,"-0.16","3","65","29.61","CLR:00","29.18","10.00","37","300","31","17",,,,,,,,,,,,,,,,,,,,,,,,,,,,,,,,,,,,,"MET15604/21/20 18:56:02 METAR KHPN 212356Z 30015G27KT 10SM CLR 06/M01 A2960 RMK AO2 PK WND 29034/2303 PRESRR SLP027 P0001 60018 T00561006 10111 20056 53053 $ (WS)","FM-15","7",,,,,,,,,,,,,,,,,,,,,,,,,,,,"2009-05-22"
"72503794745","2020-04-21T19:56:00","FM-15","7",,,,,,,,,,,,,,,,,,,,,,,,,,,,,,,,,,,,,,"29.64","28","41","0.00",,,,"60","29.65","CLR:00","29.22","10.00","36","300","28","20",,,,,,,,,,,,,,,,,,,,,,,,,,,,,,,,,,,,,"MET09604/21/20 19:56:01 METAR KHPN 220056Z 30017G24KT 10SM CLR 05/M02 A2964 RMK AO2 SLP042 T00501022 $","FM-15","7",,,,,,,,,,,,,,,,,,,,,,,,,,,,"2009-05-22"
"72503794745","2020-04-21T20:56:00","FM-15","7",,,,,,,,,,,,,,,,,,,,,,,,,,,,,,,,,,,,,,"29.67","25","38","0.00",,,,"60","29.69","CLR:00","29.25","10.00","33","300","31","22",,,,,,,,,,,,,,,,,,,,,,,,,,,,,,,,,,,,,"MET11404/21/20 20:56:01 METAR KHPN 220156Z 30019G27KT 10SM CLR 03/M04 A2967 RMK AO2 PK WND 31033/0106 SLP053 T00331039 $","FM-15","7",,,,,,,,,,,,,,,,,,,,,,,,,,,,"2009-05-22"
"72503794745","2020-04-21T21:56:00","FM-15","7",,,,,,,,,,,,,,,,,,,,,,,,,,,,,,,,,,,,,,"29.68","25","37","0.00",,"-0.08","1","62","29.70","CLR:00","29.26","10.00","32","300","29","20",,,,,,,,,,,,,,,,,,,,,,,,,,,,,,,,,,,,,"MET10204/21/20 21:56:01 METAR KHPN 220256Z 30017G25KT 10SM CLR 03/M04 A2968 RMK AO2 SLP056 T00281039 51028 $","FM-15","7",,,,,,,,,,,,,,,,,,,,,,,,,,,,"2009-05-22"
"72503794745","2020-04-21T22:56:00","FM-15","7",,,,,,,,,,,,,,,,,,,,,,,,,,,,,,,,,,,,,,"29.69","21","37","0.00",,,,"52","29.70","CLR:00","29.26","10.00","31","300","32","25",,,,,,,,,,,,,,,,,,,,,,,,,,,,,,,,,,,,,"MET11404/21/20 22:56:02 METAR KHPN 220356Z 30022G28KT 10SM CLR 03/M06 A2969 RMK AO2 PK WND 29028/0356 SLP059 T00281061 $","FM-15","7",,,,,,,,,,,,,,,,,,,,,,,,,,,,"2009-05-22"
"72503794745","2020-04-21T23:56:00","FM-15","7",,,,,,,,,,,,,,,,,,,,,,,,,,,,,,,,,,,,,,"29.71","19","36","0.00",,,,"50","29.72","CLR:00","29.28","10.00","30","280","32","16",,,,,,,,,,,,,,,,,,,,,,,,,,,,,,,,,,,,,"MET12404/21/20 23:56:02 METAR KHPN 220456Z 28014G28KT 10SM CLR 02/M07 A2971 RMK AO2 PK WND 30032/0404 SLP063 T00221072 401170022 $","FM-15","7",,,,,,,,,,,,,,,,,,,,,,,,,,,,"2009-05-22"
"72503794745","2020-04-21T23:59:00","SOD  ","6",,,,,,,,,,,,,,,,"45",,,"29.15",,"11.2","0","-5.6","20","53","36","290","39","0.23",,,"300","32","TS RA BR HZ",,,,,,,,,,,,,,,,,,,,,,,,,,,,,,,,,,,,,,,,,,,,,,,,,,,,,,,,"SOD74724 HR PRECIPITATION (IN):0.23  WEATHER(CODE):8  24 HR MAX TEMP (F):53 24 HR MAX TEMP TIME (LST):0949 24 HR MIN TEMP (F):36 24 HR MIN TEMP TIME (LST):2359 AVERAGE STATION PRESSURE:29.145 MINIMUM SEA LEVEL PRESSURE:29.39 TIME OF OCCURRENCE:1338 PEAK WIND SPEED (MPH):39  PEAK WIND DIR (DEG):290 PEAK WIND TIME (LST):1803  FASTEST 2MIN SPEED (MPH):32 FASTEST 2MIN DIR (DEG):300 FASTEST 2MIN TIME (LST):1834 AVERAGE WIND SPEED (MPH):11.2 24 HR AVG TEMP (F):45 HEATING DEGREE DAYS:20  COOLING DEGREE DAYS:0   LATEST DAY MAX TEMP (0700-1900 LST):53  LATEST NIGHT MIN TEMP(1900-0800 LST):36 HOURLY INCREMENTAL PRECIPITATION VALUES (IN):.00 0.00 0.00 0.00 0.00 0.00 0.00 0.00 0.00 0.00 T    0.02 0.03 0.12 0.04 T    T    0.01 0.01 0.00 0.00 0.00 0.00 0.00","SOD  ","6",,,,,,,,,,,,,,,,,,,,,,,,,"0506","1842",,"2009-05-22"
"72503794745","2020-04-22T00:56:00","FM-15","7",,,,,,,,,,,,,,,,,,,,,,,,,,,,,,,,,,,,,,"29.71","20","35","0.00",,"-0.03","1","54","29.72","FEW:02 100","29.28","10.00","30","280","22","10",,,,,,,,,,,,,,,,,,,,,,,,,,,,,,,,,,,,,"MET14004/22/20 00:56:02 METAR KHPN 220556Z 28009G19KT 10SM FEW100 02/M07 A2971 RMK AO2 PK WND 31026/0502 SLP065 T00171067 10056 20017 51009 $ (JR)","FM-15","7",,,,,,,,,,,,,,,,,,,,,,,,,,,,"2009-05-22"
"72503794745","2020-04-22T01:56:00","FM-15","7",,,,,,,,,,,,,,,,,,,,,,,,,,,,,,,,,,,,,,"29.71","19","34","0.00",,,,"54","29.73","CLR:00","29.28","10.00","29","280","25","16",,,,,,,,,,,,,,,,,,,,,,,,,,,,,,,,,,,,,"MET11904/22/20 01:56:02 METAR KHPN 220656Z 28014G22KT 10SM CLR 01/M07 A2971 RMK AO2 PK WND 31026/0604 SLP067 T00111072 $ (RV)","FM-15","7",,,,,,,,,,,,,,,,,,,,,,,,,,,,"2009-05-22"
"72503794745","2020-04-22T02:56:00","FM-15","7",,,,,,,,,,,,,,,,,,,,,,,,,,,,,,,,,,,,,,"29.70","15","34","0.00",,,,"46","29.72","CLR:00","29.28","10.00","28","290","30","20",,,,,,,,,,,,,,,,,,,,,,,,,,,,,,,,,,,,,"MET11904/22/20 02:56:02 METAR KHPN 220756Z 29017G26KT 10SM CLR 01/M09 A2970 RMK AO2 PK WND 30028/0733 SLP063 T00111094 $ (RV)","FM-15","7",,,,,,,,,,,,,,,,,,,,,,,,,,,,"2009-05-22"
"72503794745","2020-04-22T03:56:00","FM-15","7",,,,,,,,,,,,,,,,,,,,,,,,,,,,,,,,,,,,,,"29.73","15","34","0.00",,"-0.01","3","46","29.74","CLR:00","29.31","10.00","28","290","26","17",,,,,,,,,,,,,,,,,,,,,,,,,,,,,,,,,,,,,"MET12504/22/20 03:56:02 METAR KHPN 220856Z 29015G23KT 10SM CLR 01/M09 A2973 RMK AO2 PK WND 28032/0819 SLP071 T00111094 53005 $ (RV)","FM-15","7",,,,,,,,,,,,,,,,,,,,,,,,,,,,"2009-05-22"
"72503794745","2020-04-22T04:56:00","FM-15","7",,,,,,,,,,,,,,,,,,,,,,,,,,,,,,,,,,,,,,"29.74","16","34","0.00",,,,"48","29.76","CLR:00","29.31","10.00","28","290","34","20",,,,,,,,,,,,,,,,,,,,,,,,,,,,,,,,,,,,,"MET11904/22/20 04:56:02 METAR KHPN 220956Z 29017G30KT 10SM CLR 01/M09 A2974 RMK AO2 PK WND 29030/0940 SLP077 T00111089 $ (RV)","FM-15","7",,,,,,,,,,,,,,,,,,,,,,,,,,,,"2009-05-22"
"72503794745","2020-04-22T05:56:00","FM-15","7",,,,,,,,,,,,,,,,,,,,,,,,,,,,,,,,,,,,,,"29.78","15","34","0.00",,,,"46","29.80","FEW:02 40","29.36","10.00","28","310","29","17",,,,,,,,,,,,,,,,,,,,,,,,,,,,,,,,,,,,,"MET12204/22/20 05:56:02 METAR KHPN 221056Z 31015G25KT 10SM FEW040 01/M09 A2978 RMK AO2 PK WND 30031/1007 SLP091 T00111094 $ (RV)","FM-15","7",,,,,,,,,,,,,,,,,,,,,,,,,,,,"2009-05-22"
"72503794745","2020-04-22T06:56:00","FM-15","7",,,,,,,,,,,,,,,,,,,,,,,,,,,,,,,,,,,,,,"29.81","15","36","0.00",,"-0.08","3","42","29.82","SCT:04 50","29.39","10.00","29","270","23","13",,,,,,,,,,,,,,,,,,,,,,,,,,,,,,,,,,,,,"MET14604/22/20 06:56:02 METAR KHPN 221156Z 27011G20KT 10SM SCT050 02/M09 A2981 RMK AO2 PK WND 29027/1106 SLP099 70023 T00221094 10022 20006 53027 $ (RV)","FM-15","7",,,,,,,,,,,,,,,,,,,,,,,,,,,,"2009-05-22"
"72503794745","2020-04-22T07:56:00","FM-15","7",,,,,,,,,,,,,,,,,,,,,,,,,,,,,,,,,,,,,,"29.81","15","36","0.00",,,,"42","29.82","SCT:04 50","29.39","10.00","29","290","34","22",,,,,,,,,,,,,,,,,,,,,,,,,,,,,,,,,,,,,"MET12204/22/20 07:56:02 METAR KHPN 221256Z 29019G30KT 10SM SCT050 02/M09 A2981 RMK AO2 PK WND 28030/1249 SLP099 T00221094 $ (RV)","FM-15","7",,,,,,,,,,,,,,,,,,,,,,,,,,,,"2009-05-22"
"72503794745","2020-04-22T08:56:00","FM-15","7",,,,,,,,,,,,,,,,,,,,,,,,,,,,,,,,,,,,,,"29.81","16","38","0.00",,,,"41","29.83","SCT:04 50","29.39","10.00","30","290","34","24",,,,,,,,,,,,,,,,,,,,,,,,,,,,,,,,,,,,,"MET12204/22/20 08:56:02 METAR KHPN 221356Z 29021G30KT 10SM SCT050 03/M09 A2981 RMK AO2 PK WND 31034/1343 SLP102 T00331089 $ (RV)","FM-15","7",,,,,,,,,,,,,,,,,,,,,,,,,,,,"2009-05-22"
"72503794745","2020-04-22T09:56:00","FM-15","7",,,,,,,,,,,,,,,,,,,,,,,,,,,,,,,,,,,,,,"29.83","15","39","0.00",,"-0.02","3","38","29.85","SCT:04 50","29.40","10.00","31","320","33","25",,,,,,,,,,,,,,,,,,,,,,,,,,,,,,,,,,,,,"MET12804/22/20 09:56:02 METAR KHPN 221456Z 32022G29KT 10SM SCT050 04/M09 A2983 RMK AO2 PK WND 28035/1406 SLP108 T00391094 53007 $ (RV)","FM-15","7",,,,,,,,,,,,,,,,,,,,,,,,,,,,"2009-05-22"
"72503794745","2020-04-22T10:56:00","FM-15","7",,,,,,,,,,,,,,,,,,,,,,,,,,,,,,,,,,,,,,"29.83","14","41","0.00",,,,"33","29.84","SCT:04 60","29.40","10.00","32","290","31","20",,,,,,,,,,,,,,,,,,,,,,,,,,,,,,,,,,,,,"MET12204/22/20 10:56:02 METAR KHPN 221556Z 29017G27KT 10SM SCT060 05/M10 A2983 RMK AO2 PK WND 30030/1541 SLP106 T00501100 $ (ML)","FM-15","7",,,,,,,,,,,,,,,,,,,,,,,,,,,,"2009-05-22"
"72503794745","2020-04-22T11:56:00","FM-15","7",,,,,,,,,,,,,,,,,,,,,,,,,,,,,,,,,,,,,,"29.83","14","43","0.00",,,,"31","29.84","SCT:04 65","29.40","10.00","33","300","34","22",,,,,,,,,,,,,,,,,,,,,,,,,,,,,,,,,,,,,"MET12204/22/20 11:56:02 METAR KHPN 221656Z 30019G30KT 10SM SCT065 06/M10 A2983 RMK AO2 PK WND 30030/1647 SLP105 T00611100 $ (ML)","FM-15","7",,,,,,,,,,,,,,,,,,,,,,,,,,,,"2009-05-22"
"72503794745","2020-04-22T12:56:00","FM-15","7",,,,,,,,,,,,,,,,,,,,,,,,,,,,,,,,,,,,,,"29.83","13","43","0.00",,"+0.00","5","29","29.85","BKN:07 70","29.40","10.00","33","310","28","16",,,,,,,,,,,,,,,,,,,,,,,,,,,,,,,,,,,,,"MET14004/22/20 12:56:02 METAR KHPN 221756Z 31014G24KT 10SM BKN070 06/M11 A2983 RMK AO2 PK WND 31027/1714 SLP107 T00611106 10072 20017 55000 $ (ML)","FM-15","7",,,,,,,,,,,,,,,,,,,,,,,,,,,,"2009-05-22"
"72503794745","2020-04-22T13:56:00","FM-15","7",,,,,,,,,,,,,,,,,,,,,,,,,,,,,,,,,,,,,,"29.82","15","47","0.00",,,,"28","29.83","SCT:04 80","29.39","10.00","35","300","24","15",,,,,,,,,,,,,,,,,,,,,,,,,,,,,,,,,,,,,"MET12204/22/20 13:56:02 METAR KHPN 221856Z 30013G21KT 10SM SCT080 08/M09 A2982 RMK AO2 PK WND 30029/1835 SLP101 T00831094 $ (ML)","FM-15","7",,,,,,,,,,,,,,,,,,,,,,,,,,,,"2009-05-22"
"72503794745","2020-04-22T14:56:00","FM-15","7",,,,,,,,,,,,,,,,,,,,,,,,,,,,,,,,,,,,,,"29.82","11","47","0.00",,,,"23","29.83","FEW:02 80","29.39","10.00","35","280","32","21",,,,,,,,,,,,,,,,,,,,,,,,,,,,,,,,,,,,,"MET12204/22/20 14:56:02 METAR KHPN 221956Z 28018G28KT 10SM FEW080 08/M12 A2982 RMK AO2 PK WND 31029/1911 SLP103 T00831117 $ (ML)","FM-15","7",,,,,,,,,,,,,,,,,,,,,,,,,,,,"2009-05-22"
"72503794745","2020-04-22T15:56:00","FM-15","7",,,,,,,,,,,,,,,,,,,,,,,,,,,,,,,,,,,,,,"29.84","12","46","0.00",,"-0.01","3","25","29.85","CLR:00","29.41","10.00","34","310","33","20",,,,,,,,,,,,,,,,,,,,,,,,,,,,,,,,,,,,,"MET12304/22/20 15:56:02 METAR KHPN 222056Z 31017G29KT 10SM CLR 08/M11 A2984 RMK AO2 PK WND 30034/2017 SLP109 T00781111 53002 (ML)","FM-15","7",,,,,,,,,,,,,,,,,,,,,,,,,,,,"2009-05-22"
"72503794745","2020-04-22T16:56:00","FM-15","7",,,,,,,,,,,,,,,,,,,,,,,,,,,,,,,,,,,,,,"29.85","12","47","0.00",,,,"24","29.87","FEW:02 30","29.42","10.00","35","310","25","22",,,,,,,,,,,,,,,,,,,,,,,,,,,,,,,,,,,,,"MET12004/22/20 16:56:02 METAR KHPN 222156Z 31019G22KT 10SM FEW030 08/M11 A2985 RMK AO2 PK WND 31028/2141 SLP114 T00831111 (MM)","FM-15","7",,,,,,,,,,,,,,,,,,,,,,,,,,,,"2009-05-22"
"72503794745","2020-04-22T17:56:00","FM-15","7",,,,,,,,,,,,,,,,,,,,,,,,,,,,,,,,,,,,,,"29.88","10","45","0.00",,,,"24","29.89","CLR:00","29.45","10.00","33","280","24","18",,,,,,,,,,,,,,,,,,,,,,,,,,,,,,,,,,,,,"MET09904/22/20 17:56:02 METAR KHPN 222256Z 28016G21KT 10SM CLR 07/M12 A2988 RMK AO2 SLP122 T00721122 (MM)","FM-15","7",,,,,,,,,,,,,,,,,,,,,,,,,,,,"2009-05-22"
"72503794745","2020-04-22T18:56:00","FM-15","7",,,,,,,,,,,,,,,,,,,,,,,,,,,,,,,,,,,,,,"29.90","12","44","0.00",,"-0.06","3","27","29.92","CLR:00","29.47","10.00","33","300","28","18",,,,,,,,,,,,,,,,,,,,,,,,,,,,,,,,,,,,,"MET13504/22/20 18:56:02 METAR KHPN 222356Z 30016G24KT 10SM CLR 07/M11 A2990 RMK AO2 PK WND 30026/2344 SLP131 T00671111 10089 20061 53022 (MM)","FM-15","7",,,,,,,,,,,,,,,,,,,,,,,,,,,,"2009-05-22"
"72503794745","2020-04-22T19:56:00","FM-15","7",,,,,,,,,,,,,,,,,,,,,,,,,,,,,,,,,,,,,,"29.94","13","42","0.00",,,,"30","29.95","CLR:00","29.51","10.00","32","310","23","15",,,,,,,,,,,,,,,,,,,,,,,,,,,,,,,,,,,,,"MET09404/22/20 19:56:01 METAR KHPN 230056Z 31013G20KT 10SM CLR 06/M11 A2994 RMK AO2 SLP143 T00561106","FM-15","7",,,,,,,,,,,,,,,,,,,,,,,,,,,,"2009-05-22"
"72503794745","2020-04-22T20:56:00","FM-15","7",,,,,,,,,,,,,,,,,,,,,,,,,,,,,,,,,,,,,,"29.96","13","41","0.00",,,,"32","29.98","CLR:00","29.53","10.00","32","320",,"10",,,,,,,,,,,,,,,,,,,,,,,,,,,,,,,,,,,,,"MET09104/22/20 20:56:01 METAR KHPN 230156Z 32009KT 10SM CLR 05/M11 A2996 RMK AO2 SLP151 T00501106","FM-15","7",,,,,,,,,,,,,,,,,,,,,,,,,,,,"2009-05-22"
"72503794745","2020-04-22T21:56:00","FM-15","7",,,,,,,,,,,,,,,,,,,,,,,,,,,,,,,,,,,,,,"29.98","14","40","0.00",,"-0.08","1","35","29.99","CLR:00","29.55","10.00","31","310",,"15",,,,,,,,,,,,,,,,,,,,,,,,,,,,,,,,,,,,,"MET09704/22/20 21:56:01 METAR KHPN 230256Z 31013KT 10SM CLR 04/M10 A2998 RMK AO2 SLP157 T00441100 51026","FM-15","7",,,,,,,,,,,,,,,,,,,,,,,,,,,,"2009-05-22"
"72503794745","2020-04-22T22:56:00","FM-15","7",,,,,,,,,,,,,,,,,,,,,,,,,,,,,,,,,,,,,,"29.99","15","37","0.00",,,,"41","30.01","CLR:00","29.56","10.00","30","310",,"7",,,,,,,,,,,,,,,,,,,,,,,,,,,,,,,,,,,,,"MET09104/22/20 22:56:02 METAR KHPN 230356Z 31006KT 10SM CLR 03/M09 A2999 RMK AO2 SLP161 T00281094","FM-15","7",,,,,,,,,,,,,,,,,,,,,,,,,,,,"2009-05-22"
"72503794745","2020-04-22T23:56:00","FM-15","7",,,,,,,,,,,,,,,,,,,,,,,,,,,,,,,,,,,,,,"30.01","16","37","0.00",,,,"42","30.02","CLR:00","29.58","10.00","30","310",,"8",,,,,,,,,,,,,,,,,,,,,,,,,,,,,,,,,,,,,"MET10104/22/20 23:56:02 METAR KHPN 230456Z 31007KT 10SM CLR 03/M09 A3001 RMK AO2 SLP166 T00281089 400890006","FM-15","7",,,,,,,,,,,,,,,,,,,,,,,,,,,,"2009-05-22"
"72503794745","2020-04-22T23:59:00","SOD  ","6",,,,,,,,,,,,,,,,"41",,,"29.39",,"17.1","0","-9.9","24","48","33","280","40","0.00",,,"300","32",,,,,,,,,,,,,,,,,,,,,,,,,,,,,,,,,,,,,,,,,,,,,,,,,,,,,,,,,"SOD73024 HR PRECIPITATION (IN):0.00  24 HR MAX TEMP (F):48 24 HR MAX TEMP TIME (LST):1430 24 HR MIN TEMP (F):33 24 HR MIN TEMP TIME (LST):0537 AVERAGE STATION PRESSURE:29.385 MINIMUM SEA LEVEL PRESSURE:29.71 TIME OF OCCURRENCE:0302 PEAK WIND SPEED (MPH):40  PEAK WIND DIR (DEG):280 PEAK WIND TIME (LST):0906  FASTEST 2MIN SPEED (MPH):32 FASTEST 2MIN DIR (DEG):300 FASTEST 2MIN TIME (LST):0907 AVERAGE WIND SPEED (MPH):17.1 24 HR AVG TEMP (F):41 HEATING DEGREE DAYS:24  COOLING DEGREE DAYS:0   LATEST DAY MAX TEMP (0700-1900 LST):48  LATEST NIGHT MIN TEMP(1900-0800 LST):33 HOURLY INCREMENTAL PRECIPITATION VALUES (IN):.00 0.00 0.00 0.00 0.00 0.00 0.00 0.00 0.00 0.00 0.00 0.00 0.00 0.00 0.00 0.00 0.00 0.00 0.00 0.00 0.00 0.00 0.00 0.00","SOD  ","6",,,,,,,,,,,,,,,,,,,,,,,,,"0504","1843",,"2009-05-22"
"72503794745","2020-04-23T00:56:00","FM-15","7",,,,,,,,,,,,,,,,,,,,,,,,,,,,,,,,,,,,,,"30.02","16","37","0.00",,"-0.04","1","42","30.03","CLR:00","29.59","10.00","30","290",,"8",,,,,,,,,,,,,,,,,,,,,,,,,,,,,,,,,,,,,"MET11404/23/20 00:56:02 METAR KHPN 230556Z 29007KT 10SM CLR 03/M09 A3002 RMK AO2 SLP170 T00281089 10067 20028 51012 (MM)","FM-15","7",,,,,,,,,,,,,,,,,,,,,,,,,,,,"2009-05-22"
"72503794745","2020-04-23T01:56:00","FM-15","7",,,,,,,,,,,,,,,,,,,,,,,,,,,,,,,,,,,,,,"30.02","17","36","0.00",,,,"46","30.03","CLR:00","29.59","10.00","30","310",,"9",,,,,,,,,,,,,,,,,,,,,,,,,,,,,,,,,,,,,"MET09604/23/20 01:56:02 METAR KHPN 230656Z 31008KT 10SM CLR 02/M08 A3002 RMK AO2 SLP171 T00221083 (RV)","FM-15","7",,,,,,,,,,,,,,,,,,,,,,,,,,,,"2009-05-22"
"72503794745","2020-04-23T02:56:00","FM-15","7",,,,,,,,,,,,,,,,,,,,,,,,,,,,,,,,,,,,,,"30.01","16","36","0.00",,,,"44","30.02","CLR:00","29.58","10.00","29","280",,"7",,,,,,,,,,,,,,,,,,,,,,,,,,,,,,,,,,,,,"MET09604/23/20 02:56:02 METAR KHPN 230756Z 28006KT 10SM CLR 02/M09 A3001 RMK AO2 SLP166 T00221089 (RV)","FM-15","7",,,,,,,,,,,,,,,,,,,,,,,,,,,,"2009-05-22"
"72503794745","2020-04-23T03:56:00","FM-15","7",,,,,,,,,,,,,,,,,,,,,,,,,,,,,,,,,,,,,,"30.01","19","34","0.00",,"+0.01","5","54","30.03","BKN:07 110","29.58","10.00","29","000",,"0",,,,,,,,,,,,,,,,,,,,,,,,,,,,,,,,,,,,,"MET10504/23/20 03:56:02 METAR KHPN 230856Z 00000KT 10SM BKN110 01/M07 A3001 RMK AO2 SLP168 T00111072 55002 (RV)","FM-15","7",,,,,,,,,,,,,,,,,,,,,,,,,,,,"2009-05-22"
"72503794745","2020-04-23T04:56:00","FM-15","7",,,,,,,,,,,,,,,,,,,,,,,,,,,,,,,,,,,,,,"30.01","17","35","0.00",,,,"48","30.02","FEW:02 120","29.58","10.00","29","280",,"6",,,,,,,,,,,,,,,,,,,,,,,,,,,,,,,,,,,,,"MET09904/23/20 04:56:02 METAR KHPN 230956Z 28005KT 10SM FEW120 02/M08 A3001 RMK AO2 SLP167 T00171083 (RV)","FM-15","7",,,,,,,,,,,,,,,,,,,,,,,,,,,,"2009-05-22"
"72503794745","2020-04-23T05:56:00","FM-15","7",,,,,,,,,,,,,,,,,,,,,,,,,,,,,,,,,,,,,,"30.03","19","37","0.00",,,,"48","30.05","BKN:07 70","29.60","10.00","31","270",,"3",,,,,,,,,,,,,,,,,,,,,,,,,,,,,,,,,,,,,"MET09904/23/20 05:56:02 METAR KHPN 231056Z 27003KT 10SM BKN070 03/M07 A3003 RMK AO2 SLP176 T00281072 (RV)","FM-15","7",,,,,,,,,,,,,,,,,,,,,,,,,,,,"2009-05-22"
"72503794745","2020-04-23T06:56:00","FM-15","7",,,,,,,,,,,,,,,,,,,,,,,,,,,,,,,,,,,,,,"30.06","19","38","0.00",,"-0.04","3","46","30.07","BKN:07 60","29.63","10.00","31","220",,"3",,,,,,,,,,,,,,,,,,,,,,,,,,,,,,,,,,,,,"MET11704/23/20 06:56:02 METAR KHPN 231156Z 22003KT 10SM BKN060 03/M07 A3006 RMK AO2 SLP183 T00331072 10033 20011 53015 (RV)","FM-15","7",,,,,,,,,,,,,,,,,,,,,,,,,,,,"2009-05-22"
"72503794745","2020-04-23T07:56:00","FM-15","7",,,,,,,,,,,,,,,,,,,,,,,,,,,,,,,,,,,,,,"30.08","18","38","0.00",,,,"44","30.09","SCT:04 60 BKN:07 70","29.65","10.00","31","250",,"5",,,,,,,,,,,,,,,,,,,,,,,,,,,,,,,,,,,,,"MET10604/23/20 07:56:02 METAR KHPN 231256Z 25004KT 10SM SCT060 BKN070 03/M08 A3008 RMK AO2 SLP190 T00331078 (RV)","FM-15","7",,,,,,,,,,,,,,,,,,,,,,,,,,,,"2009-05-22"
"72503794745","2020-04-23T08:56:00","FM-15","7",,,,,,,,,,,,,,,,,,,,,,,,,,,,,,,,,,,,,,"30.07","19","38","T","-SN:03 |SN |",,,"46","30.09","OVC:08 55","29.64","10.00","31","250",,"5",,,,,,,,,,,,,,,,,,,,,,,,,,,,,,,,,,,,,"MET12304/23/20 08:56:02 METAR KHPN 231356Z 25004KT 10SM -SN OVC055 03/M07 A3007 RMK AO2 RAB52E54SNB54 SLP190 P0000 T00331072 (WS)","FM-15","7",,,,,,,,,,,,,,,,,,,,,,,,,,,,"2009-05-22"
"72503794745","2020-04-23T09:33:00","FM-16","7",,,,,,,,,,,,,,,,,,,,,,,,,,,,,,,,,,,,,,"30.07","22","38","T","-PL:06 RA:02 |RA PL |RA PL",,,"52",,"OVC:08 65","29.64","10.00","32","310",,"5",,,,,,,,,,,,,,,,,,,,,,,,,,,,,,,,,,,,,"MET12004/23/20 09:33:02 SPECI KHPN 231433Z 31004KT 10SM -PLRA OVC065 03/M06 A3007 RMK AO2 RAB27SNE27PLB27 P0000 T00331056 (WS)","FM-16","7",,,,,,,,,,,,,,,,,,,,,,,,,,,,"2009-05-22"
"72503794745","2020-04-23T09:49:00","FM-16","7",,,,,,,,,,,,,,,,,,,,,,,,,,,,,,,,,,,,,,"30.07","22","38","T",,,,"52",,"OVC:08 70","29.64","10.00","32","290",,"7",,,,,,,,,,,,,,,,,,,,,,,,,,,,,,,,,,,,,"MET12004/23/20 09:49:02 SPECI KHPN 231449Z 29006KT 10SM OVC070 03/M06 A3007 RMK AO2 RAB27E42SNE27PLB27E43 P0000 T00331056 (WS)","FM-16","7",,,,,,,,,,,,,,,,,,,,,,,,,,,,"2009-05-22"
"72503794745","2020-04-23T09:56:00","FM-15","7",,,,,,,,,,,,,,,,,,,,,,,,,,,,,,,,,,,,,,"30.07","21","38","T",,"-0.01","0","51","30.08","OVC:08 70","29.64","10.00","32","VRB",,"3",,,,,,,,,,,,,,,,,,,,,,,,,,,,,,,,,,,,,"MET13904/23/20 09:56:02 METAR KHPN 231456Z VRB03KT 10SM OVC070 03/M06 A3007 RMK AO2 RAB27E42SNE27PLB27E43 SLP187 P0000 60000 T00331061 50004 (WS)","FM-15","7",,,,,,,,,,,,,,,,,,,,,,,,,,,,"2009-05-22"
"72503794745","2020-04-23T10:56:00","FM-15","7",,,,,,,,,,,,,,,,,,,,,,,,,,,,,,,,,,,,,,"30.08","20","39","0.00",,,,"46","30.10","BKN:07 65","29.65","10.00","32","280",,"8",,,,,,,,,,,,,,,,,,,,,,,,,,,,,,,,,,,,,"MET09904/23/20 10:56:02 METAR KHPN 231556Z 28007KT 10SM BKN065 04/M07 A3008 RMK AO2 SLP193 T00391067 (WS)","FM-15","7",,,,,,,,,,,,,,,,,,,,,,,,,,,,"2009-05-22"
"72503794745","2020-04-23T11:56:00","FM-15","7",,,,,,,,,,,,,,,,,,,,,,,,,,,,,,,,,,,,,,"30.05","22","42","0.00",,,,"45","30.06","BKN:07 70","29.62","10.00","34","310",,"6",,,,,,,,,,,,,,,,,,,,,,,,,,,,,,,,,,,,,"MET09904/23/20 11:56:02 METAR KHPN 231656Z 31005KT 10SM BKN070 06/M06 A3005 RMK AO2 SLP180 T00561056 (WS)","FM-15","7",,,,,,,,,,,,,,,,,,,,,,,,,,,,"2009-05-22"
"72503794745","2020-04-23T12:56:00","FM-15","7",,,,,,,,,,,,,,,,,,,,,,,,,,,,,,,,,,,,,,"30.04","19","44","0.00",,"+0.03","8","37","30.05","SCT:04 70 BKN:07 90","29.61","10.00","35","360",,"6",,,,,,,,,,,,,,,,,,,,,,,,,,,,,,,,,,,,,"MET13004/23/20 12:56:02 METAR KHPN 231756Z 36005KT 10SM SCT070 BKN090 07/M07 A3004 RMK AO2 SLP177 60000 T00671072 10067 20033 58010 (WS)","FM-15","7",,,,,,,,,,,,,,,,,,,,,,,,,,,,"2009-05-22"
"72503794745","2020-04-23T13:56:00","FM-15","7",,,,,,,,,,,,,,,,,,,,,,,,,,,,,,,,,,,,,,"30.02","20","44","0.00",,,,"38","30.04","SCT:04 110","29.59","10.00","35","340",,"3",,,,,,,,,,,,,,,,,,,,,,,,,,,,,,,,,,,,,"MET09904/23/20 13:56:02 METAR KHPN 231856Z 34003KT 10SM SCT110 07/M07 A3002 RMK AO2 SLP172 T00671067 (WS)","FM-15","7",,,,,,,,,,,,,,,,,,,,,,,,,,,,"2009-05-22"
"72503794745","2020-04-23T14:56:00","FM-15","7",,,,,,,,,,,,,,,,,,,,,,,,,,,,,,,,,,,,,,"30.01","22","45","0.00",,,,"40","30.02","BKN:07 110","29.58","10.00","36","000",,"0",,,,,,,,,,,,,,,,,,,,,,,,,,,,,,,,,,,,,"MET09904/23/20 14:56:02 METAR KHPN 231956Z 00000KT 10SM BKN110 07/M06 A3001 RMK AO2 SLP167 T00721056 (WS)","FM-15","7",,,,,,,,,,,,,,,,,,,,,,,,,,,,"2009-05-22"
"72503794745","2020-04-23T15:56:00","FM-15","7",,,,,,,,,,,,,,,,,,,,,,,,,,,,,,,,,,,,,,"29.99","22","46","0.00",,"+0.05","8","38","30.01","CLR:00","29.56","10.00","37","190",,"3",,,,,,,,,,,,,,,,,,,,,,,,,,,,,,,,,,,,,"MET10204/23/20 15:56:02 METAR KHPN 232056Z 19003KT 10SM CLR 08/M06 A2999 RMK AO2 SLP161 T00781056 58016 (MM)","FM-15","7",,,,,,,,,,,,,,,,,,,,,,,,,,,,"2009-05-22"
"72503794745","2020-04-23T16:56:00","FM-15","7",,,,,,,,,,,,,,,,,,,,,,,,,,,,,,,,,,,,,,"29.99","24","46","0.00",,,,"42","30.01","SCT:04 95","29.56","10.00","37","150",,"7",,,,,,,,,,,,,,,,,,,,,,,,,,,,,,,,,,,,,"MET09904/23/20 16:56:02 METAR KHPN 232156Z 15006KT 10SM SCT095 08/M04 A2999 RMK AO2 SLP161 T00781044 (MM)","FM-15","7",,,,,,,,,,,,,,,,,,,,,,,,,,,,"2009-05-22"
"72503794745","2020-04-23T17:56:00","FM-15","7",,,,,,,,,,,,,,,,,,,,,,,,,,,,,,,,,,,,,,"29.98","23","44","0.00",,,,"43","29.99","BKN:07 100","29.55","10.00","36","140",,"5",,,,,,,,,,,,,,,,,,,,,,,,,,,,,,,,,,,,,"MET09904/23/20 17:56:02 METAR KHPN 232256Z 14004KT 10SM BKN100 07/M05 A2998 RMK AO2 SLP157 T00671050 (MM)","FM-15","7",,,,,,,,,,,,,,,,,,,,,,,,,,,,"2009-05-22"
"72503794745","2020-04-23T18:56:00","FM-15","7",,,,,,,,,,,,,,,,,,,,,,,,,,,,,,,,,,,,,,"29.97","24","44","0.00",,"+0.02","8","45","29.98","BKN:07 90","29.54","10.00","36","110",,"5",,,,,,,,,,,,,,,,,,,,,,,,,,,,,,,,,,,,,"MET11704/23/20 18:56:02 METAR KHPN 232356Z 11004KT 10SM BKN090 07/M04 A2997 RMK AO2 SLP153 T00671044 10083 20067 58008 (MM)","FM-15","7",,,,,,,,,,,,,,,,,,,,,,,,,,,,"2009-05-22"
"72503794745","2020-04-23T19:56:00","FM-15","7",,,,,,,,,,,,,,,,,,,,,,,,,,,,,,,,,,,,,,"29.96","26","43","0.00",,,,"51","29.97","BKN:07 120","29.53","10.00","36","100",,"5",,,,,,,,,,,,,,,,,,,,,,,,,,,,,,,,,,,,,"MET09404/23/20 19:56:01 METAR KHPN 240056Z 10004KT 10SM BKN120 06/M03 A2996 RMK AO2 SLP149 T00611033","FM-15","7",,,,,,,,,,,,,,,,,,,,,,,,,,,,"2009-05-22"
"72503794745","2020-04-23T20:56:00","FM-15","7",,,,,,,,,,,,,,,,,,,,,,,,,,,,,,,,,,,,,,"29.95","28","42","0.00",,,,"58","29.97","FEW:02 65","29.52","10.00","36","090",,"3",,,,,,,,,,,,,,,,,,,,,,,,,,,,,,,,,,,,,"MET09404/23/20 20:56:01 METAR KHPN 240156Z 09003KT 10SM FEW065 06/M02 A2995 RMK AO2 SLP149 T00561022","FM-15","7",,,,,,,,,,,,,,,,,,,,,,,,,,,,"2009-05-22"
"72503794745","2020-04-23T21:56:00","FM-15","7",,,,,,,,,,,,,,,,,,,,,,,,,,,,,,,,,,,,,,"29.94","30","42","T","-RA:02 |RA |RA","+0.03","8","62","29.95","BKN:07 70","29.51","10.00","37","110",,"5",,,,,,,,,,,,,,,,,,,,,,,,,,,,,,,,,,,,,"MET12204/23/20 21:56:01 METAR KHPN 240256Z 11004KT 10SM -RA BKN070 06/M01 A2994 RMK AO2 RAB47 SLP143 P0000 60000 T00561011 58010","FM-15","7",,,,,,,,,,,,,,,,,,,,,,,,,,,,"2009-05-22"
"72503794745","2020-04-23T22:56:00","FM-15","7",,,,,,,,,,,,,,,,,,,,,,,,,,,,,,,,,,,,,,"29.93","34","40","0.01","-RA:02 |RA |RA",,,"79","29.94","OVC:08 65","29.50","8.00","37","110",,"3",,,,,,,,,,,,,,,,,,,,,,,,,,,,,,,,,,,,,"MET10204/23/20 22:56:02 METAR KHPN 240356Z 11003KT 8SM -RA OVC065 04/01 A2993 RMK AO2 SLP140 P0001 T00440011","FM-15","7",,,,,,,,,,,,,,,,,,,,,,,,,,,,"2009-05-22"
"72503794745","2020-04-23T23:54:00","FM-16","6",,,,,,,,,,,,,,,,,,,,,,,,,,,,,,,,,,,,,,"29.92","36","39",,"-RA:02 |RA |RA",,,"87",,"BKN:07 29 OVC:08 40","29.49","7.00","38","090",,"6",,,,,,,,,,,,,,,,,,,,,,,,,,,,,,,,,,,,,"MET10204/23/20 23:54:03 SPECI KHPN 240454Z 09005KT 7SM -RA BKN029 OVC040 04/02 A2992 RMK AO2 P0005 FIBI (MM)","FM-16","6",,,,,,,,,,,,,,,,,,,,,,,,,,,,"2009-05-22"
"72503794745","2020-04-23T23:56:00","FM-15","7",,,,,,,,,,,,,,,,,,,,,,,,,,,,,,,,,,,,,,"29.92","35","39","0.06","-RA:02 |RA |RA",,,"86","29.93","OVC:08 30","29.49","7.00","37","090",,"6",,,,,,,,,,,,,,,,,,,,,,,,,,,,,,,,,,,,,"MET11204/23/20 23:56:02 METAR KHPN 240456Z 09005KT 7SM -RA OVC030 04/02 A2992 RMK AO2 SLP137 P0006 T00390017 400830011","FM-15","7",,,,,,,,,,,,,,,,,,,,,,,,,,,,"2009-05-22"
"72503794745","2020-04-23T23:59:00","SOD  ","6",,,,,,,,,,,,,,,,"41",,,"29.59",,"4.7","0","-10.3","24","47","34","290","15","0.07",,,"290","12","RA SN PL",,,,,,,,,,,,,,,,,,,,,,,,,,,,,,,,,,,,,,,,,,,,,,,,,,,,,,,,"SOD73024 HR PRECIPITATION (IN):0.07  24 HR MAX TEMP (F):47 24 HR MAX TEMP TIME (LST):1647 24 HR MIN TEMP (F):34 24 HR MIN TEMP TIME (LST):0357 AVERAGE STATION PRESSURE:29.590 MINIMUM SEA LEVEL PRESSURE:29.93 TIME OF OCCURRENCE:2359 PEAK WIND SPEED (MPH):15  PEAK WIND DIR (DEG):290 PEAK WIND TIME (LST):0030  FASTEST 2MIN SPEED (MPH):12 FASTEST 2MIN DIR (DEG):290 FASTEST 2MIN TIME (LST):0031 AVERAGE WIND SPEED (MPH):4.7  24 HR AVG TEMP (F):41 HEATING DEGREE DAYS:24  COOLING DEGREE DAYS:0   LATEST DAY MAX TEMP (0700-1900 LST):47  LATEST NIGHT MIN TEMP(1900-0800 LST):34 HOURLY INCREMENTAL PRECIPITATION VALUES (IN):.00 0.00 0.00 0.00 0.00 0.00 0.00 0.00 T    T    0.00 0.00 0.00 0.00 0.00 0.00 0.00 0.00 0.00 0.00 0.00 T    0.01 0.06","SOD  ","6",,,,,,,,,,,,,,,,,,,,,,,,,"0503","1844",,"2009-05-22"
"72503794745","2020-04-24T00:38:00","FM-16","6",,,,,,,,,,,,,,,,,,,,,,,,,,,,,,,,,,,,,,"29.88","36","39",,"-RA:02 BR:1 |RA |RA",,,"89",,"BKN:07 25 OVC:08 60","29.45","5.00","38","070",,"8",,,,,,,,,,,,,,,,,,,,,,,,,,,,,,,,,,,,,"MET11004/24/20 00:38:02 SPECI KHPN 240538Z 07007KT 5SM -RA BR BKN025 OVC060 04/02 A2988 RMK AO2 P0004 T00390022 (MM)","FM-16","6",,,,,,,,,,,,,,,,,,,,,,,,,,,,"2009-05-22"
"72503794745","2020-04-24T00:56:00","FM-15","7",,,,,,,,,,,,,,,,,,,,,,,,,,,,,,,,,,,,,,"29.87","36","39","0.06","-RA:02 |RA |RA","+0.07","8","89","29.88","SCT:04 14 BKN:07 23 OVC:08 60","29.44","7.00","38","060",,"7",,,,,,,,,,,,,,,,,,,,,,,,,,,,,,,,,,,,,"MET14504/24/20 00:56:02 METAR KHPN 240556Z 06006KT 7SM -RA SCT014 BKN023 OVC060 04/02 A2987 RMK AO2 SLP120 P0006 60013 T00390022 10067 20039 58023 (RV)","FM-15","7",,,,,,,,,,,,,,,,,,,,,,,,,,,,"2009-05-22"
"72503794745","2020-04-24T01:56:00","FM-15","7",,,,,,,,,,,,,,,,,,,,,,,,,,,,,,,,,,,,,,"29.81","37","39","0.06","-RA:02 BR:1 |RA |RA",,,"93","29.83","BKN:07 6 OVC:08 12","29.39","3.00","38","050",,"8",,,,,,,,,,,,,,,,,,,,,,,,,,,,,,,,,,,,,"MET11704/24/20 01:56:02 METAR KHPN 240656Z 05007KT 3SM -RA BR BKN006 OVC012 04/03 A2981 RMK AO2 SLP101 P0006 T00390028 (RV)","FM-15","7",,,,,,,,,,,,,,,,,,,,,,,,,,,,"2009-05-22"
"72503794745","2020-04-24T02:56:00","FM-15","7",,,,,,,,,,,,,,,,,,,,,,,,,,,,,,,,,,,,,,"29.78","38","40","0.07","-RA:02 BR:1 |RA |RA",,,"93","29.79","OVC:08 6","29.36","5.00","39","050",,"9",,,,,,,,,,,,,,,,,,,,,,,,,,,,,,,,,,,,,"MET11004/24/20 02:56:02 METAR KHPN 240756Z 05008KT 5SM -RA BR OVC006 04/03 A2978 RMK AO2 SLP089 P0007 T00440033 (RV)","FM-15","7",,,,,,,,,,,,,,,,,,,,,,,,,,,,"2009-05-22"
"72503794745","2020-04-24T03:56:00","FM-15","7",,,,,,,,,,,,,,,,,,,,,,,,,,,,,,,,,,,,,,"29.78","39","41","0.03","-RA:02 BR:1 |RA |RA","+0.09","6","93","29.79","OVC:08 5","29.36","4.00","40","050",,"8",,,,,,,,,,,,,,,,,,,,,,,,,,,,,,,,,,,,,"MET12204/24/20 03:56:02 METAR KHPN 240856Z 05007KT 4SM -RA BR OVC005 05/04 A2978 RMK AO2 SLP087 P0003 60016 T00500039 56031 (RV)","FM-15","7",,,,,,,,,,,,,,,,,,,,,,,,,,,,"2009-05-22"
"72503794745","2020-04-24T04:56:00","FM-15","7",,,,,,,,,,,,,,,,,,,,,,,,,,,,,,,,,,,,,,"29.74","40","41","0.05","-RA:02 BR:1 |RA |RA",,,"96","29.75","OVC:08 6","29.31","5.00","41","040",,"6",,,,,,,,,,,,,,,,,,,,,,,,,,,,,,,,,,,,,"MET11004/24/20 04:56:02 METAR KHPN 240956Z 04005KT 5SM -RA BR OVC006 05/04 A2974 RMK AO2 SLP076 P0005 T00500044 (RV)","FM-15","7",,,,,,,,,,,,,,,,,,,,,,,,,,,,"2009-05-22"
"72503794745","2020-04-24T05:56:00","FM-15","7",,,,,,,,,,,,,,,,,,,,,,,,,,,,,,,,,,,,,,"29.73","41","42","0.01",,,,"96","29.74","BKN:07 5 OVC:08 7","29.31","7.00","42","020",,"8",,,,,,,,,,,,,,,,,,,,,,,,,,,,,,,,,,,,,"MET11604/24/20 05:56:02 METAR KHPN 241056Z 02007KT 7SM BKN005 OVC007 06/05 A2973 RMK AO2 RAE24 SLP071 P0001 T00560050 (RV)","FM-15","7",,,,,,,,,,,,,,,,,,,,,,,,,,,,"2009-05-22"
"72503794745","2020-04-24T06:56:00","FM-15","7",,,,,,,,,,,,,,,,,,,,,,,,,,,,,,,,,,,,,,"29.71","41","43","T","-DZ:01 BR:1 |DZ |DZ","+0.06","6","93","29.72","VV:09 5","29.28","3.00","42","030",,"10",,,,,,,,,,,,,,,,,,,,,,,,,,,,,,,,,,,,,"MET15304/24/20 06:56:02 METAR KHPN 241156Z 03009KT 3SM -DZ BR VV005 06/05 A2971 RMK AO2 RAB09E46DZB52 SLP066 P0000 60022 70035 T00610050 10061 20039 56021 (RV)","FM-15","7",,,,,,,,,,,,,,,,,,,,,,,,,,,,"2009-05-22"
"72503794745","2020-04-24T07:54:00","FM-16","6",,,,,,,,,,,,,,,,,,,,,,,,,,,,,,,,,,,,,,"29.71","41","43",,"-DZ:01 BR:1 |DZ |DZ",,,"93",,"VV:09 5","29.28","1.50","42","030",,"6",,,,,,,,,,,,,,,,,,,,,,,,,,,,,,,,,,,,,"MET10104/24/20 07:54:02 SPECI KHPN 241254Z 03005KT 1 1/2SM -DZ BR VV005 06/05 A2971 RMK AO2 P0000 FIBI (RV)","FM-16","6",,,,,,,,,,,,,,,,,,,,,,,,,,,,"2009-05-22"
"72503794745","2020-04-24T07:56:00","FM-15","7",,,,,,,,,,,,,,,,,,,,,,,,,,,,,,,,,,,,,,"29.71","41","43","0.01","-DZ:01 BR:1 |DZ |DZ",,,"93","29.72","VV:09 5","29.28","1.50","42","030",,"5",,,,,,,,,,,,,,,,,,,,,,,,,,,,,,,,,,,,,"MET11304/24/20 07:56:02 METAR KHPN 241256Z 03004KT 1 1/2SM -DZ BR VV005 06/05 A2971 RMK AO2 SLP063 P0000 T00610050 (RV)","FM-15","7",,,,,,,,,,,,,,,,,,,,,,,,,,,,"2009-05-22"
"72503794745","2020-04-24T08:56:00","FM-15","6",,,,,,,,,,,,,,,,,,,,,,,,,,,,,,,,,,,,,,"29.70","42","44","0.04","-RA:02 BR:1 |RA |RA",,,"93","29.71","OVC:08 6","29.28","1.50","43","040",,"9",,,,,,,,,,,,,,,,,,,,,,,,,,,,,,,,,,,,,"MET13704/24/20 08:56:02 METAR KHPN 241356Z 04008KT 1 1/2SM -RA BR OVC006 07/06 A2970 RMK AO2 DZE53RAB53 CIG 004V011 SLP061 P0005 T00670056 (RV)","FM-15","6",,,,,,,,,,,,,,,,,,,,,,,,,,,,"2009-05-22"
"72503794745","2020-04-24T09:53:00","FM-16","7",,,,,,,,,,,,,,,,,,,,,,,,,,,,,,,,,,,,,,"29.69","43","45","0.05","-RA:02 BR:1 |RA |RA",,,"93",,"OVC:08 8","29.26","4.00","44","040",,"9",,,,,,,,,,,,,,,,,,,,,,,,,,,,,,,,,,,,,"MET08804/24/20 09:53:02 SPECI KHPN 241453Z 04008KT 4SM -RA BR OVC008 07/06 A2969 RMK AO2 P0005","FM-16","7",,,,,,,,,,,,,,,,,,,,,,,,,,,,"2009-05-22"
"72503794745","2020-04-24T09:56:00","FM-15","7",,,,,,,,,,,,,,,,,,,,,,,,,,,,,,,,,,,,,,"29.69","42","44","0.05","-RA:02 BR:1 |RA |RA","+0.03","8","93","29.70","OVC:08 8","29.26","4.00","43","040",,"9",,,,,,,,,,,,,,,,,,,,,,,,,,,,,,,,,,,,,"MET11704/24/20 09:56:02 METAR KHPN 241456Z 04008KT 4SM -RA BR OVC008 07/06 A2969 RMK AO2 SLP057 P0005 60010 T00670056 58009","FM-15","7",,,,,,,,,,,,,,,,,,,,,,,,,,,,"2009-05-22"
"72503794745","2020-04-24T10:54:00","FM-16","6",,,,,,,,,,,,,,,,,,,,,,,,,,,,,,,,,,,,,,"29.68","43","46",,"-DZ:01 BR:1 |DZ |DZ",,,"87",,"OVC:08 10","29.26","6.00","45","030",,"13",,,,,,,,,,,,,,,,,,,,,,,,,,,,,,,,,,,,,"MET10904/24/20 10:54:02 SPECI KHPN 241554Z 03011KT 6SM -DZ BR OVC010 08/06 A2968 RMK AO2 RAE45DZB52 P0001 FIBI (RS)","FM-16","6",,,,,,,,,,,,,,,,,,,,,,,,,,,,"2009-05-22"
"72503794745","2020-04-24T10:56:00","FM-15","7",,,,,,,,,,,,,,,,,,,,,,,,,,,,,,,,,,,,,,"29.68","43","46","0.01","-DZ:01 BR:1 |DZ |DZ",,,"89","29.69","OVC:08 10","29.26","6.00","45","040",,"10",,,,,,,,,,,,,,,,,,,,,,,,,,,,,,,,,,,,,"MET12104/24/20 10:56:02 METAR KHPN 241556Z 04009KT 6SM -DZ BR OVC010 08/06 A2968 RMK AO2 RAE45DZB52 SLP055 P0001 T00780061 (RS)","FM-15","7",,,,,,,,,,,,,,,,,,,,,,,,,,,,"2009-05-22"
"72503794745","2020-04-24T11:54:00","FM-16","6",,,,,,,,,,,,,,,,,,,,,,,,,,,,,,,,,,,,,,"29.68","43","45",,"-RA:02 |RA |RA",,,"93",,"BKN:07 7 OVC:08 12","29.26","8.00","44","360",,"10",,,,,,,,,,,,,,,,,,,,,,,,,,,,,,,,,,,,,"MET11304/24/20 11:54:02 SPECI KHPN 241654Z 36009KT 8SM -RA BKN007 OVC012 07/06 A2968 RMK AO2 DZE52RAB52 P0001 FIBI (RS)","FM-16","6",,,,,,,,,,,,,,,,,,,,,,,,,,,,"2009-05-22"
"72503794745","2020-04-24T11:56:00","FM-15","7",,,,,,,,,,,,,,,,,,,,,,,,,,,,,,,,,,,,,,"29.69","43","45","0.02","-RA:02 |RA |RA",,,"93","29.70","BKN:07 7 OVC:08 12","29.26","7.00","44","360",,"10",,,,,,,,,,,,,,,,,,,,,,,,,,,,,,,,,,,,,"MET12504/24/20 11:56:02 METAR KHPN 241656Z 36009KT 7SM -RA BKN007 OVC012 07/06 A2969 RMK AO2 DZE52RAB52 SLP057 P0001 T00720061 (RS)","FM-15","7",,,,,,,,,,,,,,,,,,,,,,,,,,,,"2009-05-22"
"72503794745","2020-04-24T12:54:00","FM-16","6",,,,,,,,,,,,,,,,,,,,,,,,,,,,,,,,,,,,,,"29.69","43","46",,"-RA:02 |RA |RA",,,"87",,"BKN:07 10 OVC:08 16","29.26","7.00","45","360",,"9",,,,,,,,,,,,,,,,,,,,,,,,,,,,,,,,,,,,,"MET11404/24/20 12:54:02 SPECI KHPN 241754Z 36008KT 7SM -RA BKN010 OVC016 08/06 A2969 RMK AO2 CIG 006V012 P0003 FIBI (RS)","FM-16","6",,,,,,,,,,,,,,,,,,,,,,,,,,,,"2009-05-22"
"72503794745","2020-04-24T12:56:00","FM-15","7",,,,,,,,,,,,,,,,,,,,,,,,,,,,,,,,,,,,,,"29.69","43","46","0.02","-RA:02 |RA |RA","+0.00","6","89","29.70","BKN:07 10 OVC:08 16","29.26","7.00","45","010",,"10",,,,,,,,,,,,,,,,,,,,,,,,,,,,,,,,,,,,,"MET15004/24/20 12:56:02 METAR KHPN 241756Z 01009KT 7SM -RA BKN010 OVC016 08/06 A2969 RMK AO2 CIG 006V012 SLP056 P0003 60015 T00780061 10078 20061 56000 (RS)","FM-15","7",,,,,,,,,,,,,,,,,,,,,,,,,,,,"2009-05-22"
"72503794745","2020-04-24T13:56:00","FM-15","7",,,,,,,,,,,,,,,,,,,,,,,,,,,,,,,,,,,,,,"29.70","44","47","T","-RA:02 |RA |RA",,,"90","29.71","BKN:07 10 OVC:08 19","29.28","7.00","46","360",,"11",,,,,,,,,,,,,,,,,,,,,,,,,,,,,,,,,,,,,"MET11404/24/20 13:56:02 METAR KHPN 241856Z 36010KT 7SM -RA BKN010 OVC019 08/07 A2970 RMK AO2 SLP060 P0000 T00830067 (RS)","FM-15","7",,,,,,,,,,,,,,,,,,,,,,,,,,,,"2009-05-22"
"72503794745","2020-04-24T14:54:00","FM-16","6",,,,,,,,,,,,,,,,,,,,,,,,,,,,,,,,,,,,,,"29.71","45","48",,"-DZ:01 |DZ |DZ",,,"87",,"SCT:04 12 OVC:08 22","29.28","10.00","47","360",,"11",,,,,,,,,,,,,,,,,,,,,,,,,,,,,,,,,,,,,"MET12204/24/20 14:54:02 SPECI KHPN 241954Z 36010KT 10SM -DZ SCT012 OVC022 09/07 A2971 RMK AO2 RAE1859B48E53DZB53 P0000 FIBI (RS)","FM-16","6",,,,,,,,,,,,,,,,,,,,,,,,,,,,"2009-05-22"
"72503794745","2020-04-24T14:56:00","FM-15","7",,,,,,,,,,,,,,,,,,,,,,,,,,,,,,,,,,,,,,"29.71","44","49","T","-DZ:01 |DZ |DZ",,,"83","29.72","SCT:04 12 OVC:08 22","29.28","10.00","47","360",,"10",,,,,,,,,,,,,,,,,,,,,,,,,,,,,,,,,,,,,"MET13404/24/20 14:56:02 METAR KHPN 241956Z 36009KT 10SM -DZ SCT012 OVC022 09/07 A2971 RMK AO2 RAE1859B48E53DZB53 SLP066 P0000 T00940067 (RS)","FM-15","7",,,,,,,,,,,,,,,,,,,,,,,,,,,,"2009-05-22"
"72503794745","2020-04-24T15:54:00","FM-16","6",,,,,,,,,,,,,,,,,,,,,,,,,,,,,,,,,,,,,,"29.73","45","48",,"-RA:02 |RA |RA",,,"87",,"BKN:07 13 OVC:08 27","29.31","10.00","47","350",,"10",,,,,,,,,,,,,,,,,,,,,,,,,,,,,,,,,,,,,"MET11404/24/20 15:54:02 SPECI KHPN 242054Z 35009KT 10SM -RA BKN013 OVC027 09/07 A2973 RMK AO2 DZE52RAB52 P0001 FIBI (RS)","FM-16","6",,,,,,,,,,,,,,,,,,,,,,,,,,,,"2009-05-22"
"72503794745","2020-04-24T15:56:00","FM-15","7",,,,,,,,,,,,,,,,,,,,,,,,,,,,,,,,,,,,,,"29.73","44","48","0.01","-RA:02 |RA |RA","-0.05","3","86","29.75","BKN:07 13 OVC:08 27","29.31","10.00","46","350",,"11",,,,,,,,,,,,,,,,,,,,,,,,,,,,,,,,,,,,,"MET13804/24/20 15:56:02 METAR KHPN 242056Z 35010KT 10SM -RA BKN013 OVC027 09/07 A2973 RMK AO2 DZE52RAB52 SLP073 P0001 60001 T00890067 53016 (RS)","FM-15","7",,,,,,,,,,,,,,,,,,,,,,,,,,,,"2009-05-22"
"72503794745","2020-04-24T16:54:00","FM-16","6",,,,,,,,,,,,,,,,,,,,,,,,,,,,,,,,,,,,,,"29.75","43","46",,"-RA:02 |RA |RA",,,"87",,"FEW:02 32 BKN:07 60","29.33","10.00","45","010","21","10",,,,,,,,,,,,,,,,,,,,,,,,,,,,,,,,,,,,,"MET10604/24/20 16:54:02 SPECI KHPN 242154Z 01009G18KT 10SM -RA FEW032 BKN060 08/06 A2975 RMK AO2 P0000 FIBI (RS)","FM-16","6",,,,,,,,,,,,,,,,,,,,,,,,,,,,"2009-05-22"
"72503794745","2020-04-24T16:56:00","FM-15","7",,,,,,,,,,,,,,,,,,,,,,,,,,,,,,,,,,,,,,"29.75","43","47","T","-RA:02 |RA |RA",,,"86","29.76","FEW:02 32 BKN:07 60","29.33","10.00","45","360",,"11",,,,,,,,,,,,,,,,,,,,,,,,,,,,,,,,,,,,,"MET11504/24/20 16:56:02 METAR KHPN 242156Z 36010KT 10SM -RA FEW032 BKN060 08/06 A2975 RMK AO2 SLP077 P0000 T00830061 (RS)","FM-15","7",,,,,,,,,,,,,,,,,,,,,,,,,,,,"2009-05-22"
"72503794745","2020-04-24T17:56:00","FM-15","7",,,,,,,,,,,,,,,,,,,,,,,,,,,,,,,,,,,,,,"29.76","43","47","T",,,,"86","29.77","SCT:04 40 SCT:04 60 BKN:07 85","29.34","10.00","45","350",,"8",,,,,,,,,,,,,,,,,,,,,,,,,,,,,,,,,,,,,"MET12404/24/20 17:56:02 METAR KHPN 242256Z 35007KT 10SM SCT040 SCT060 BKN085 08/06 A2976 RMK AO2 RAE56 SLP082 P0000 T00830061 (RS)","FM-15","7",,,,,,,,,,,,,,,,,,,,,,,,,,,,"2009-05-22"
"72503794745","2020-04-24T18:56:00","FM-15","7",,,,,,,,,,,,,,,,,,,,,,,,,,,,,,,,,,,,,,"29.79","43","47","T",,"-0.06","3","86","29.80","BKN:07 47 BKN:07 120","29.36","10.00","45","350",,"5",,,,,,,,,,,,,,,,,,,,,,,,,,,,,,,,,,,,,"MET14604/24/20 18:56:02 METAR KHPN 242356Z 35004KT 10SM BKN047 BKN120 08/06 A2979 RMK AO2 RAB2259E16 SLP093 P0000 60001 T00830061 10094 20078 53020 (RS)","FM-15","7",,,,,,,,,,,,,,,,,,,,,,,,,,,,"2009-05-22"
"72503794745","2020-04-24T19:56:00","FM-15","7",,,,,,,,,,,,,,,,,,,,,,,,,,,,,,,,,,,,,,"29.82","42","44","0.00",,,,"93","29.83","CLR:00","29.39","10.00","43","310",,"5",,,,,,,,,,,,,,,,,,,,,,,,,,,,,,,,,,,,,"MET09004/24/20 19:56:01 METAR KHPN 250056Z 31004KT 10SM CLR 07/06 A2982 RMK AO2 SLP103 T00670056","FM-15","7",,,,,,,,,,,,,,,,,,,,,,,,,,,,"2009-05-22"
"72503794745","2020-04-24T20:56:00","FM-15","7",,,,,,,,,,,,,,,,,,,,,,,,,,,,,,,,,,,,,,"29.86","42","44","0.00",,,,"93","29.87","FEW:02 65","29.43","10.00","43","290",,"3",,,,,,,,,,,,,,,,,,,,,,,,,,,,,,,,,,,,,"MET09304/24/20 20:56:01 METAR KHPN 250156Z 29003KT 10SM FEW065 07/06 A2986 RMK AO2 SLP114 T00670056","FM-15","7",,,,,,,,,,,,,,,,,,,,,,,,,,,,"2009-05-22"
"72503794745","2020-04-24T21:56:00","FM-15","7",,,,,,,,,,,,,,,,,,,,,,,,,,,,,,,,,,,,,,"29.86","39","41","0.00",,"-0.07","1","93","29.88","CLR:00","29.43","10.00","40","300",,"5",,,,,,,,,,,,,,,,,,,,,,,,,,,,,,,,,,,,,"MET09604/24/20 21:56:02 METAR KHPN 250256Z 30004KT 10SM CLR 05/04 A2986 RMK AO2 SLP117 T00500039 51024","FM-15","7",,,,,,,,,,,,,,,,,,,,,,,,,,,,"2009-05-22"
"72503794745","2020-04-24T22:56:00","FM-15","7",,,,,,,,,,,,,,,,,,,,,,,,,,,,,,,,,,,,,,"29.89","38","39","0.00",,,,"96","29.90","CLR:00","29.46","7.00","39","320",,"6",,,,,,,,,,,,,,,,,,,,,,,,,,,,,,,,,,,,,"MET08904/24/20 22:56:02 METAR KHPN 250356Z 32005KT 7SM CLR 04/03 A2989 RMK AO2 SLP124 T00390033","FM-15","7",,,,,,,,,,,,,,,,,,,,,,,,,,,,"2009-05-22"
"72503794745","2020-04-24T23:54:00","FM-16","6",,,,,,,,,,,,,,,,,,,,,,,,,,,,,,,,,,,,,,"29.90","37","39",,"BR:1 ||",,,"93",,"FEW:02 1","29.47","6.00","38","340",,"6",,,,,,,,,,,,,,,,,,,,,,,,,,,,,,,,,,,,,"MET08804/24/20 23:54:03 SPECI KHPN 250454Z 34005KT 6SM BR FEW001 04/03 A2990 RMK AO2 FIBI (EC)","FM-16","6",,,,,,,,,,,,,,,,,,,,,,,,,,,,"2009-05-22"
"72503794745","2020-04-24T23:56:00","FM-15","7",,,,,,,,,,,,,,,,,,,,,,,,,,,,,,,,,,,,,,"29.90","38","39","0.00","BR:1 ||",,,"96","29.91","FEW:02 1","29.47","6.00","39","330",,"6",,,,,,,,,,,,,,,,,,,,,,,,,,,,,,,,,,,,,"MET10504/24/20 23:56:02 METAR KHPN 250456Z 33005KT 6SM BR FEW001 04/03 A2990 RMK AO2 SLP130 T00390033 400940033","FM-15","7",,,,,,,,,,,,,,,,,,,,,,,,,,,,"2009-05-22"
"72503794745","2020-04-24T23:59:00","SOD  ","6",,,,,,,,,,,,,,,,"44",,,"29.34",,"8.0","0","-7.6","21","49","38","030s","20s","0.44",,,"360","14","RA DZ BR",,,,,,,,,,,,,,,,,,,,,,,,,,,,,,,,,,,,,,,,,,,,,,,,,,,,,,,,"SOD73024 HR PRECIPITATION (IN):0.44  24 HR MAX TEMP (F):49 24 HR MAX TEMP TIME (LST):1529 24 HR MIN TEMP (F):38 24 HR MIN TEMP TIME (LST):2353 AVERAGE STATION PRESSURE:29.335 MINIMUM SEA LEVEL PRESSURE:29.69 TIME OF OCCURRENCE:1253 PEAK WIND SPEED (MPH):20  PEAK WIND DIR (DEG):30  PEAK WIND TIME (LST):1059  FASTEST 2MIN SPEED (MPH):14 FASTEST 2MIN DIR (DEG):360 FASTEST 2MIN TIME (LST):1649 AVERAGE WIND SPEED (MPH):8.0  24 HR AVG TEMP (F):44 HEATING DEGREE DAYS:21  COOLING DEGREE DAYS:0   LATEST DAY MAX TEMP (0700-1900 LST):49  LATEST NIGHT MIN TEMP(1900-0800 LST):39 HOURLY INCREMENTAL PRECIPITATION VALUES (IN):.06 0.06 0.07 0.03 0.05 0.01 T    0.01 0.04 0.05 0.01 0.02 0.02 T    T    0.01 T    T    T    0.00 0.00 0.00 0.00 0.00","SOD  ","6",,,,,,,,,,,,,,,,,,,,,,,,,"0501","1845",,"2009-05-22"
"72503794745","2020-04-25T00:56:00","FM-15","7",,,,,,,,,,,,,,,,,,,,,,,,,,,,,,,,,,,,,,"29.90","39","39","0.00","BR:1 ||","-0.04","1","100","29.91","CLR:00","29.47","6.00","39","000",,"0",,,,,,,,,,,,,,,,,,,,,,,,,,,,,,,,,,,,,"MET11504/25/20 00:56:02 METAR KHPN 250556Z 00000KT 6SM BR CLR 04/04 A2990 RMK AO2 SLP129 T00390039 10083 20028 51012 (EC)","FM-15","7",,,,,,,,,,,,,,,,,,,,,,,,,,,,"2009-05-22"
"72503794745","2020-04-25T01:56:00","FM-15","7",,,,,,,,,,,,,,,,,,,,,,,,,,,,,,,,,,,,,,"29.91","36","37","0.00",,,,"96","29.93","CLR:00","29.48","7.00","37","310",,"5",,,,,,,,,,,,,,,,,,,,,,,,,,,,,,,,,,,,,"MET09404/25/20 01:56:02 METAR KHPN 250656Z 31004KT 7SM CLR 03/02 A2991 RMK AO2 SLP135 T00280022 (EC)","FM-15","7",,,,,,,,,,,,,,,,,,,,,,,,,,,,"2009-05-22"
"72503794745","2020-04-25T02:56:00","FM-15","7",,,,,,,,,,,,,,,,,,,,,,,,,,,,,,,,,,,,,,"29.92","35","35","0.00",,,,"100","29.94","CLR:00","29.49","7.00","35","000",,"0",,,,,,,,,,,,,,,,,,,,,,,,,,,,,,,,,,,,,"MET09404/25/20 02:56:02 METAR KHPN 250756Z 00000KT 7SM CLR 02/02 A2992 RMK AO2 SLP138 T00170017 (EC)","FM-15","7",,,,,,,,,,,,,,,,,,,,,,,,,,,,"2009-05-22"
"72503794745","2020-04-25T03:56:00","FM-15","7",,,,,,,,,,,,,,,,,,,,,,,,,,,,,,,,,,,,,,"29.94","35","36","0.00",,"-0.04","3","97","29.96","FEW:02 70","29.51","10.00","36","000",,"0",,,,,,,,,,,,,,,,,,,,,,,,,,,,,,,,,,,,,"MET10404/25/20 03:56:02 METAR KHPN 250856Z 00000KT 10SM FEW070 02/02 A2994 RMK AO2 SLP145 T00220017 53015 (EC)","FM-15","7",,,,,,,,,,,,,,,,,,,,,,,,,,,,"2009-05-22"
"72503794745","2020-04-25T04:56:00","FM-15","7",,,,,,,,,,,,,,,,,,,,,,,,,,,,,,,,,,,,,,"29.97","35","36","0.00",,,,"97","29.98","FEW:02 70","29.54","9.00","36","310",,"5",,,,,,,,,,,,,,,,,,,,,,,,,,,,,,,,,,,,,"MET09704/25/20 04:56:02 METAR KHPN 250956Z 31004KT 9SM FEW070 02/02 A2997 RMK AO2 SLP154 T00220017 (EC)","FM-15","7",,,,,,,,,,,,,,,,,,,,,,,,,,,,"2009-05-22"
"72503794745","2020-04-25T05:56:00","FM-15","7",,,,,,,,,,,,,,,,,,,,,,,,,,,,,,,,,,,,,,"30.00","37","38","0.00",,,,"97","30.01","FEW:02 100","29.57","10.00","38","320",,"6",,,,,,,,,,,,,,,,,,,,,,,,,,,,,,,,,,,,,"MET09804/25/20 05:56:02 METAR KHPN 251056Z 32005KT 10SM FEW100 03/03 A3000 RMK AO2 SLP162 T00330028 (AB)","FM-15","7",,,,,,,,,,,,,,,,,,,,,,,,,,,,"2009-05-22"
"72503794745","2020-04-25T06:56:00","FM-15","7",,,,,,,,,,,,,,,,,,,,,,,,,,,,,,,,,,,,,,"30.02","39","45","0.00",,"-0.07","1","80","30.03","FEW:02 65","29.59","10.00","42","320",,"5",,,,,,,,,,,,,,,,,,,,,,,,,,,,,,,,,,,,,"MET12204/25/20 06:56:02 METAR KHPN 251156Z 32004KT 10SM FEW065 07/04 A3002 RMK AO2 SLP169 70016 T00720039 10072 20011 51025 (AB)","FM-15","7",,,,,,,,,,,,,,,,,,,,,,,,,,,,"2009-05-22"
"72503794745","2020-04-25T07:56:00","FM-15","7",,,,,,,,,,,,,,,,,,,,,,,,,,,,,,,,,,,,,,"30.03","42","51","0.00",,,,"71","30.04","FEW:02 65","29.60","10.00","47","320",,"3",,,,,,,,,,,,,,,,,,,,,,,,,,,,,,,,,,,,,"MET09804/25/20 07:56:02 METAR KHPN 251256Z 32003KT 10SM FEW065 11/06 A3003 RMK AO2 SLP174 T01060056 (AB)","FM-15","7",,,,,,,,,,,,,,,,,,,,,,,,,,,,"2009-05-22"
"72503794745","2020-04-25T08:56:00","FM-15","7",,,,,,,,,,,,,,,,,,,,,,,,,,,,,,,,,,,,,,"30.04","35","54","0.00",,,,"49","30.04","FEW:02 65","29.61","10.00","45","000",,"0",,,,,,,,,,,,,,,,,,,,,,,,,,,,,,,,,,,,,"MET09804/25/20 08:56:02 METAR KHPN 251356Z 00000KT 10SM FEW065 12/02 A3004 RMK AO2 SLP173 T01220017 (AB)","FM-15","7",,,,,,,,,,,,,,,,,,,,,,,,,,,,"2009-05-22"
"72503794745","2020-04-25T09:56:00","FM-15","7",,,,,,,,,,,,,,,,,,,,,,,,,,,,,,,,,,,,,,"30.05","38","57","0.00",,"-0.03","1","49","30.05","FEW:02 60","29.62","10.00","48","VRB",,"3",,,,,,,,,,,,,,,,,,,,,,,,,,,,,,,,,,,,,"MET10404/25/20 09:56:02 METAR KHPN 251456Z VRB03KT 10SM FEW060 14/03 A3005 RMK AO2 SLP177 T01390033 51009 (AB)","FM-15","7",,,,,,,,,,,,,,,,,,,,,,,,,,,,"2009-05-22"
"72503794745","2020-04-25T10:56:00","FM-15","7",,,,,,,,,,,,,,,,,,,,,,,,,,,,,,,,,,,,,,"30.05","38","58","0.00",,,,"48","30.05","FEW:02 60","29.62","10.00","48","VRB",,"3",,,,,,,,,,,,,,,,,,,,,,,,,,,,,,,,,,,,,"MET09804/25/20 10:56:02 METAR KHPN 251556Z VRB03KT 10SM FEW060 14/03 A3005 RMK AO2 SLP177 T01440033 (AB)","FM-15","7",,,,,,,,,,,,,,,,,,,,,,,,,,,,"2009-05-22"
"72503794745","2020-04-25T11:56:00","FM-15","7",,,,,,,,,,,,,,,,,,,,,,,,,,,,,,,,,,,,,,"30.05","41","60","0.00",,,,"50","30.06","FEW:02 60","29.62","10.00","51","120",,"9",,,,,,,,,,,,,,,,,,,,,,,,,,,,,,,,,,,,,"MET09804/25/20 11:56:02 METAR KHPN 251656Z 12008KT 10SM FEW060 16/05 A3005 RMK AO2 SLP178 T01560050 (AB)","FM-15","7",,,,,,,,,,,,,,,,,,,,,,,,,,,,"2009-05-22"
"72503794745","2020-04-25T12:56:00","FM-15","7",,,,,,,,,,,,,,,,,,,,,,,,,,,,,,,,,,,,,,"30.05","42","61","0.00",,"-0.00","3","50","30.06","SCT:04 50","29.62","10.00","51","160",,"11",,,,,,,,,,,,,,,,,,,,,,,,,,,,,,,,,,,,,"MET11604/25/20 12:56:02 METAR KHPN 251756Z 16010KT 10SM SCT050 16/06 A3005 RMK AO2 SLP178 T01610056 10161 20072 53001 (AB)","FM-15","7",,,,,,,,,,,,,,,,,,,,,,,,,,,,"2009-05-22"
"72503794745","2020-04-25T13:56:00","FM-15","7",,,,,,,,,,,,,,,,,,,,,,,,,,,,,,,,,,,,,,"30.05","40","61","0.00",,,,"46","30.05","BKN:07 47","29.62","10.00","51","190",,"9",,,,,,,,,,,,,,,,,,,,,,,,,,,,,,,,,,,,,"MET09804/25/20 13:56:02 METAR KHPN 251856Z 19008KT 10SM BKN047 16/04 A3005 RMK AO2 SLP177 T01610044 (AB)","FM-15","7",,,,,,,,,,,,,,,,,,,,,,,,,,,,"2009-05-22"
"72503794745","2020-04-25T14:56:00","FM-15","7",,,,,,,,,,,,,,,,,,,,,,,,,,,,,,,,,,,,,,"30.03","40","62","0.00",,,,"44","30.03","FEW:02 70","29.60","10.00","51","160",,"10",,,,,,,,,,,,,,,,,,,,,,,,,,,,,,,,,,,,,"MET09804/25/20 14:56:02 METAR KHPN 251956Z 16009KT 10SM FEW070 17/04 A3003 RMK AO2 SLP170 T01670044 (AH)","FM-15","7",,,,,,,,,,,,,,,,,,,,,,,,,,,,"2009-05-22"
"72503794745","2020-04-25T15:56:00","FM-15","7",,,,,,,,,,,,,,,,,,,,,,,,,,,,,,,,,,,,,,"30.02","38","60","0.00",,"+0.04","8","44","30.03","FEW:02 70","29.59","10.00","49","150",,"10",,,,,,,,,,,,,,,,,,,,,,,,,,,,,,,,,,,,,"MET10404/25/20 15:56:02 METAR KHPN 252056Z 15009KT 10SM FEW070 16/03 A3002 RMK AO2 SLP168 T01560033 58012 (AH)","FM-15","7",,,,,,,,,,,,,,,,,,,,,,,,,,,,"2009-05-22"
"72503794745","2020-04-25T16:56:00","FM-15","7",,,,,,,,,,,,,,,,,,,,,,,,,,,,,,,,,,,,,,"30.04","32","58","0.00",,,,"38","30.04","CLR:00","29.61","10.00","46","190","16","9",,,,,,,,,,,,,,,,,,,,,,,,,,,,,,,,,,,,,"MET09804/25/20 16:56:02 METAR KHPN 252156Z 19008G14KT 10SM CLR 14/00 A3004 RMK AO2 SLP174 T01440000 (AH)","FM-15","7",,,,,,,,,,,,,,,,,,,,,,,,,,,,"2009-05-22"
"72503794745","2020-04-25T17:56:00","FM-15","7",,,,,,,,,,,,,,,,,,,,,,,,,,,,,,,,,,,,,,"30.05","25","55","0.00",,,,"31","30.06","CLR:00","29.62","10.00","42","180",,"13",,,,,,,,,,,,,,,,,,,,,,,,,,,,,,,,,,,,,"MET09604/25/20 17:56:02 METAR KHPN 252256Z 18011KT 10SM CLR 13/M04 A3005 RMK AO2 SLP178 T01281039 (AH)","FM-15","7",,,,,,,,,,,,,,,,,,,,,,,,,,,,"2009-05-22"
"72503794745","2020-04-25T18:56:00","FM-15","7",,,,,,,,,,,,,,,,,,,,,,,,,,,,,,,,,,,,,,"30.06","24","51","0.00",,"-0.04","1","35","30.07","CLR:00","29.63","10.00","40","160",,"7",,,,,,,,,,,,,,,,,,,,,,,,,,,,,,,,,,,,,"MET11404/25/20 18:56:02 METAR KHPN 252356Z 16006KT 10SM CLR 11/M04 A3006 RMK AO2 SLP182 T01061044 10172 20106 51015 (AH)","FM-15","7",,,,,,,,,,,,,,,,,,,,,,,,,,,,"2009-05-22"
"72503794745","2020-04-25T19:56:00","FM-15","7",,,,,,,,,,,,,,,,,,,,,,,,,,,,,,,,,,,,,,"30.08","25","48","0.00",,,,"41","30.09","CLR:00","29.65","10.00","39","150",,"6",,,,,,,,,,,,,,,,,,,,,,,,,,,,,,,,,,,,,"MET09104/25/20 19:56:01 METAR KHPN 260056Z 15005KT 10SM CLR 09/M04 A3008 RMK AO2 SLP188 T00891039","FM-15","7",,,,,,,,,,,,,,,,,,,,,,,,,,,,"2009-05-22"
"72503794745","2020-04-25T20:56:00","FM-15","7",,,,,,,,,,,,,,,,,,,,,,,,,,,,,,,,,,,,,,"30.09","23","48","0.00",,,,"37","30.09","BKN:07 80","29.66","10.00","38","150",,"5",,,,,,,,,,,,,,,,,,,,,,,,,,,,,,,,,,,,,"MET09404/25/20 20:56:01 METAR KHPN 260156Z 15004KT 10SM BKN080 09/M05 A3009 RMK AO2 SLP191 T00891050","FM-15","7",,,,,,,,,,,,,,,,,,,,,,,,,,,,"2009-05-22"
"72503794745","2020-04-25T21:56:00","FM-15","7",,,,,,,,,,,,,,,,,,,,,,,,,,,,,,,,,,,,,,"30.08","26","47","0.00",,"-0.02","0","44","30.09","SCT:04 80 BKN:07 90","29.65","10.00","39","130",,"3",,,,,,,,,,,,,,,,,,,,,,,,,,,,,,,,,,,,,"MET10704/25/20 21:56:01 METAR KHPN 260256Z 13003KT 10SM SCT080 BKN090 08/M03 A3008 RMK AO2 SLP188 T00831033 50007","FM-15","7",,,,,,,,,,,,,,,,,,,,,,,,,,,,"2009-05-22"
"72503794745","2020-04-25T22:56:00","FM-15","7",,,,,,,,,,,,,,,,,,,,,,,,,,,,,,,,,,,,,,"30.08","29","45","0.00",,,,"54","30.08","FEW:02 95","29.65","10.00","38","000",,"0",,,,,,,,,,,,,,,,,,,,,,,,,,,,,,,,,,,,,"MET09404/25/20 22:56:02 METAR KHPN 260356Z 00000KT 10SM FEW095 07/M02 A3008 RMK AO2 SLP187 T00721017","FM-15","7",,,,,,,,,,,,,,,,,,,,,,,,,,,,"2009-05-22"
"72503794745","2020-04-25T23:56:00","FM-15","7",,,,,,,,,,,,,,,,,,,,,,,,,,,,,,,,,,,,,,"30.08","30","45","0.00",,,,"56","30.08","CLR:00","29.65","10.00","39","110",,"5",,,,,,,,,,,,,,,,,,,,,,,,,,,,,,,,,,,,,"MET10104/25/20 23:56:02 METAR KHPN 260456Z 11004KT 10SM CLR 07/M01 A3008 RMK AO2 SLP187 T00721011 401720011","FM-15","7",,,,,,,,,,,,,,,,,,,,,,,,,,,,"2009-05-22"
"72503794745","2020-04-25T23:59:00","SOD  ","6",,,,,,,,,,,,,,,,"49",,,"29.57",,"5.3","0","-2.9","16","63","34","180","18","0.00",,,"180","14","BR",,,,,,,,,,,,,,,,,,,,,,,,,,,,,,,,,,,,,,,,,,,,,,,,,,,,,,,,"SOD73024 HR PRECIPITATION (IN):0.00  24 HR MAX TEMP (F):63 24 HR MAX TEMP TIME (LST):1341 24 HR MIN TEMP (F):34 24 HR MIN TEMP TIME (LST):0522 AVERAGE STATION PRESSURE:29.575 MINIMUM SEA LEVEL PRESSURE:29.91 TIME OF OCCURRENCE:0112 PEAK WIND SPEED (MPH):18  PEAK WIND DIR (DEG):180 PEAK WIND TIME (LST):1733  FASTEST 2MIN SPEED (MPH):14 FASTEST 2MIN DIR (DEG):180 FASTEST 2MIN TIME (LST):1733 AVERAGE WIND SPEED (MPH):5.3  24 HR AVG TEMP (F):49 HEATING DEGREE DAYS:16  COOLING DEGREE DAYS:0   LATEST DAY MAX TEMP (0700-1900 LST):63  LATEST NIGHT MIN TEMP(1900-0800 LST):34 HOURLY INCREMENTAL PRECIPITATION VALUES (IN):.00 0.00 0.00 0.00 0.00 0.00 0.00 0.00 0.00 0.00 0.00 0.00 0.00 0.00 0.00 0.00 0.00 0.00 0.00 0.00 0.00 0.00 0.00 0.00","SOD  ","6",,,,,,,,,,,,,,,,,,,,,,,,,"0500","1846",,"2009-05-22"
"72503794745","2020-04-26T00:56:00","FM-15","7",,,,,,,,,,,,,,,,,,,,,,,,,,,,,,,,,,,,,,"30.06","33","45","0.00",,"+0.02","8","63","30.07","FEW:02 100","29.63","10.00","40","080",,"3",,,,,,,,,,,,,,,,,,,,,,,,,,,,,,,,,,,,,"MET11604/26/20 00:56:02 METAR KHPN 260556Z 08003KT 10SM FEW100 07/01 A3006 RMK AO2 SLP182 T00720006 10106 20067 58006 (EC)","FM-15","7",,,,,,,,,,,,,,,,,,,,,,,,,,,,"2009-05-22"
"72503794745","2020-04-26T01:56:00","FM-15","7",,,,,,,,,,,,,,,,,,,,,,,,,,,,,,,,,,,,,,"30.04","35","45","0.00",,,,"68","30.05","OVC:08 100","29.61","10.00","41","080",,"6",,,,,,,,,,,,,,,,,,,,,,,,,,,,,,,,,,,,,"MET09804/26/20 01:56:02 METAR KHPN 260656Z 08005KT 10SM OVC100 07/02 A3004 RMK AO2 SLP175 T00720017 (EC)","FM-15","7",,,,,,,,,,,,,,,,,,,,,,,,,,,,"2009-05-22"
"72503794745","2020-04-26T02:56:00","FM-15","7",,,,,,,,,,,,,,,,,,,,,,,,,,,,,,,,,,,,,,"30.01","36","45","T",,,,"71","30.01","SCT:04 85 OVC:08 100","29.58","10.00","41","080",,"7",,,,,,,,,,,,,,,,,,,,,,,,,,,,,,,,,,,,,"MET12004/26/20 02:56:02 METAR KHPN 260756Z 08006KT 10SM SCT085 OVC100 07/02 A3001 RMK AO2 DZB16E52 SLP164 P0000 T00720022 (EC)","FM-15","7",,,,,,,,,,,,,,,,,,,,,,,,,,,,"2009-05-22"
"72503794745","2020-04-26T03:56:00","FM-15","7",,,,,,,,,,,,,,,,,,,,,,,,,,,,,,,,,,,,,,"30.01","36","45","0.00",,"+0.05","5","71","30.02","OVC:08 90","29.58","10.00","41","090",,"6",,,,,,,,,,,,,,,,,,,,,,,,,,,,,,,,,,,,,"MET11004/26/20 03:56:02 METAR KHPN 260856Z 09005KT 10SM OVC090 07/02 A3001 RMK AO2 SLP165 60000 T00720022 55017 (WS)","FM-15","7",,,,,,,,,,,,,,,,,,,,,,,,,,,,"2009-05-22"
"72503794745","2020-04-26T04:56:00","FM-15","7",,,,,,,,,,,,,,,,,,,,,,,,,,,,,,,,,,,,,,"30.01","36","45","0.01","-RA:02 |RA |RA",,,"71","30.01","OVC:08 75","29.58","10.00","41","090",,"8",,,,,,,,,,,,,,,,,,,,,,,,,,,,,,,,,,,,,"MET11404/26/20 04:56:02 METAR KHPN 260956Z 09007KT 10SM -RA OVC075 07/02 A3001 RMK AO2 RAB22 SLP163 P0001 T00720022 (WS)","FM-15","7",,,,,,,,,,,,,,,,,,,,,,,,,,,,"2009-05-22"
"72503794745","2020-04-26T05:56:00","FM-15","7",,,,,,,,,,,,,,,,,,,,,,,,,,,,,,,,,,,,,,"30.00","37","44","0.01","-RA:02 |RA |RA",,,"76","30.01","OVC:08 70","29.57","10.00","41","070",,"7",,,,,,,,,,,,,,,,,,,,,,,,,,,,,,,,,,,,,"MET10804/26/20 05:56:02 METAR KHPN 261056Z 07006KT 10SM -RA OVC070 07/03 A3000 RMK AO2 SLP161 P0001 T00670028 (WS)","FM-15","7",,,,,,,,,,,,,,,,,,,,,,,,,,,,"2009-05-22"
"72503794745","2020-04-26T06:56:00","FM-15","7",,,,,,,,,,,,,,,,,,,,,,,,,,,,,,,,,,,,,,"29.98","36","44","T",,"+0.03","8","73","29.99","OVC:08 60","29.55","10.00","40","090",,"9",,,,,,,,,,,,,,,,,,,,,,,,,,,,,,,,,,,,,"MET14004/26/20 06:56:02 METAR KHPN 261156Z 09008KT 10SM OVC060 07/02 A2998 RMK AO2 RAE14 SLP156 P0000 60002 70002 T00670022 10072 20061 58010 (WS)","FM-15","7",,,,,,,,,,,,,,,,,,,,,,,,,,,,"2009-05-22"
"72503794745","2020-04-26T07:56:00","FM-15","7",,,,,,,,,,,,,,,,,,,,,,,,,,,,,,,,,,,,,,"29.98","33","46","0.00",,,,"61","29.98","BKN:07 60 OVC:08 70","29.55","10.00","40","100",,"10",,,,,,,,,,,,,,,,,,,,,,,,,,,,,,,,,,,,,"MET10504/26/20 07:56:02 METAR KHPN 261256Z 10009KT 10SM BKN060 OVC070 08/01 A2998 RMK AO2 SLP154 T00780006 (WS)","FM-15","7",,,,,,,,,,,,,,,,,,,,,,,,,,,,"2009-05-22"
"72503794745","2020-04-26T08:56:00","FM-15","7",,,,,,,,,,,,,,,,,,,,,,,,,,,,,,,,,,,,,,"29.93","34","46","T","-RA:02 |RA |RA",,,"63","29.94","FEW:02 45 SCT:04 55 BKN:07 70","29.50","10.00","41","080","18","13",,,,,,,,,,,,,,,,,,,,,,,,,,,,,,,,,,,,,"MET13104/26/20 08:56:02 METAR KHPN 261356Z 08011G16KT 10SM -RA FEW045 SCT055 BKN070 08/01 A2993 RMK AO2 RAB04 SLP140 P0000 T00780011 (WS)","FM-15","7",,,,,,,,,,,,,,,,,,,,,,,,,,,,"2009-05-22"
"72503794745","2020-04-26T09:56:00","FM-15","7",,,,,,,,,,,,,,,,,,,,,,,,,,,,,,,,,,,,,,"29.91","34","47","T",,"+0.08","8","61","29.91","BKN:07 44 OVC:08 60","29.48","10.00","41","090","23","13",,,,,,,,,,,,,,,,,,,,,,,,,,,,,,,,,,,,,"MET13204/26/20 09:56:02 METAR KHPN 261456Z 09011G20KT 10SM BKN044 OVC060 08/01 A2991 RMK AO2 RAE55 SLP130 P0000 60000 T00830011 58026 (WS)","FM-15","7",,,,,,,,,,,,,,,,,,,,,,,,,,,,"2009-05-22"
"72503794745","2020-04-26T10:56:00","FM-15","7",,,,,,,,,,,,,,,,,,,,,,,,,,,,,,,,,,,,,,"29.89","39","46","0.01","-RA:02 |RA |RA",,,"77","29.90","OVC:08 31","29.46","10.00","43","080","23","14",,,,,,,,,,,,,,,,,,,,,,,,,,,,,,,,,,,,,"MET13704/26/20 10:56:02 METAR KHPN 261556Z 08012G20KT 10SM -RA OVC031 08/04 A2989 RMK AO2 PK WND 08026/1504 RAB1459 SLP125 P0001 T00780039 (WS)","FM-15","7",,,,,,,,,,,,,,,,,,,,,,,,,,,,"2009-05-22"
"72503794745","2020-04-26T11:09:00","FM-16","7",,,,,,,,,,,,,,,,,,,,,,,,,,,,,,,,,,,,,,"29.88","40","46","T","-RA:02 |RA |RA",,,"79",,"SCT:04 8 BKN:07 31 OVC:08 60","29.45","10.00","43","080","26","15",,,,,,,,,,,,,,,,,,,,,,,,,,,,,,,,,,,,,"MET11804/26/20 11:09:02 SPECI KHPN 261609Z 08013G23KT 10SM -RA SCT008 BKN031 OVC060 08/04 A2988 RMK AO2 P0000 T00780044 (WS)","FM-16","7",,,,,,,,,,,,,,,,,,,,,,,,,,,,"2009-05-22"
"72503794745","2020-04-26T11:56:00","FM-15","7",,,,,,,,,,,,,,,,,,,,,,,,,,,,,,,,,,,,,,"29.86","39","47","T",,,,"74","29.87","SCT:04 19 OVC:08 31","29.43","10.00","43","070","30","16",,,,,,,,,,,,,,,,,,,,,,,,,,,,,,,,,,,,,"MET13804/26/20 11:56:02 METAR KHPN 261656Z 07014G26KT 10SM SCT019 OVC031 08/04 A2986 RMK AO2 PK WND 05026/1649 RAE52 SLP114 P0000 T00830039 (WS)","FM-15","7",,,,,,,,,,,,,,,,,,,,,,,,,,,,"2009-05-22"
"72503794745","2020-04-26T12:08:00","FM-16","7",,,,,,,,,,,,,,,,,,,,,,,,,,,,,,,,,,,,,,"29.86","41","46","T","-RA:02 |RA |RA",,,"83",,"BKN:07 15 OVC:08 32","29.43","6.00","44","080","25","15",,,,,,,,,,,,,,,,,,,,,,,,,,,,,,,,,,,,,"MET11804/26/20 12:08:02 SPECI KHPN 261708Z 08013G22KT 6SM -RA BKN015 OVC032 08/05 A2986 RMK AO2 RAB1658 P0000 T00780050 (WS)","FM-16","7",,,,,,,,,,,,,,,,,,,,,,,,,,,,"2009-05-22"
"72503794745","2020-04-26T12:20:00","FM-16","7",,,,,,,,,,,,,,,,,,,,,,,,,,,,,,,,,,,,,,"29.85","42","46","0.02","-RA:02 BR:1 |RA |RA",,,"86",,"BKN:07 12 BKN:07 17 OVC:08 27","29.42","2.50","44","080","23","16",,,,,,,,,,,,,,,,,,,,,,,,,,,,,,,,,,,,,"MET13404/26/20 12:20:02 SPECI KHPN 261720Z 08014G20KT 2 1/2SM -RA BR BKN012 BKN017 OVC027 08/06 A2985 RMK AO2 RAB1658 P0002 T00780056 $ (WS)","FM-16","7",,,,,,,,,,,,,,,,,,,,,,,,,,,,"2009-05-22"
"72503794745","2020-04-26T12:22:00","FM-16","7",,,,,,,,,,,,,,,,,,,,,,,,,,,,,,,,,,,,,,"29.85","43","46","0.03","-RA:02 BR:1 |RA |RA",,,"89",,"BKN:07 12 OVC:08 29","29.42","2.50","45","080","23","14",,,,,,,,,,,,,,,,,,,,,,,,,,,,,,,,,,,,,"MET12704/26/20 12:22:02 SPECI KHPN 261722Z 08012G20KT 2 1/2SM -RA BR BKN012 OVC029 08/06 A2985 RMK AO2 RAB1658 P0003 T00780061 $ (WS)","FM-16","7",,,,,,,,,,,,,,,,,,,,,,,,,,,,"2009-05-22"
"72503794745","2020-04-26T12:26:00","FM-16","7",,,,,,,,,,,,,,,,,,,,,,,,,,,,,,,,,,,,,,"29.85","43","46","0.03","-RA:02 BR:1 |RA |RA",,,"89",,"FEW:02 7 OVC:08 13","29.42","2.50","45","070","23","11",,,,,,,,,,,,,,,,,,,,,,,,,,,,,,,,,,,,,"MET12204/26/20 12:26:02 SPECI KHPN 261726Z 07010G20KT 2 1/2SM -RA BR FEW007 OVC013 08/06 A2985 RMK AO2 RAB1658 P0003 T00780061 $","FM-16","7",,,,,,,,,,,,,,,,,,,,,,,,,,,,"2009-05-22"
"72503794745","2020-04-26T12:56:00","FM-15","7",,,,,,,,,,,,,,,,,,,,,,,,,,,,,,,,,,,,,,"29.83","42","45","0.04","-RA:02 BR:1 |RA |RA","+0.08","8","90","29.84","OVC:08 10","29.40","2.50","44","070","26","16",,,,,,,,,,,,,,,,,,,,,,,,,,,,,,,,,,,,,"MET16304/26/20 12:56:02 METAR KHPN 261756Z 07014G23KT 2 1/2SM -RA BR OVC010 07/06 A2983 RMK AO2 RAB1658 CIG 006V012 SLP105 P0004 60005 T00720056 10083 20067 58026 $ (ML)","FM-15","7",,,,,,,,,,,,,,,,,,,,,,,,,,,,"2009-05-22"
"72503794745","2020-04-26T13:54:00","FM-16","6",,,,,,,,,,,,,,,,,,,,,,,,,,,,,,,,,,,,,,"29.78","43","45",,"-RA:02 BR:1 |RA |RA",,,"93",,"BKN:07 8 OVC:08 10","29.36","2.50","44","060","28","15",,,,,,,,,,,,,,,,,,,,,,,,,,,,,,,,,,,,,"MET13204/26/20 13:54:02 SPECI KHPN 261854Z 06013G24KT 2 1/2SM -RA BR BKN008 OVC010 07/06 A2978 RMK AO2 PK WND 05029/1822 P0001 $ FIBI (ML)","FM-16","6",,,,,,,,,,,,,,,,,,,,,,,,,,,,"2009-05-22"
"72503794745","2020-04-26T13:56:00","FM-15","7",,,,,,,,,,,,,,,,,,,,,,,,,,,,,,,,,,,,,,"29.78","42","44","0.01","-RA:02 BR:1 |RA |RA",,,"93","29.79","BKN:07 8 OVC:08 10","29.36","2.50","43","070","26","17",,,,,,,,,,,,,,,,,,,,,,,,,,,,,,,,,,,,,"MET14404/26/20 13:56:02 METAR KHPN 261856Z 07015G23KT 2 1/2SM -RA BR BKN008 OVC010 07/06 A2978 RMK AO2 PK WND 05029/1822 SLP089 P0001 T00670056 $ (ML)","FM-15","7",,,,,,,,,,,,,,,,,,,,,,,,,,,,"2009-05-22"
"72503794745","2020-04-26T14:54:00","FM-16","6",,,,,,,,,,,,,,,,,,,,,,,,,,,,,,,,,,,,,,"29.76","43","45",,"-RA:02 BR:1 |RA |RA",,,"93",,"BKN:07 6 OVC:08 12","29.34","1.25","44","060","25","15",,,,,,,,,,,,,,,,,,,,,,,,,,,,,,,,,,,,,"MET11404/26/20 14:54:02 SPECI KHPN 261954Z 06013G22KT 1 1/4SM -RA BR BKN006 OVC012 07/06 A2976 RMK AO2 P0003 $ FIBI (ML)","FM-16","6",,,,,,,,,,,,,,,,,,,,,,,,,,,,"2009-05-22"
"72503794745","2020-04-26T14:56:00","FM-15","7",,,,,,,,,,,,,,,,,,,,,,,,,,,,,,,,,,,,,,"29.76","42","45","0.03","-RA:02 BR:1 |RA |RA",,,"90","29.77","BKN:07 8 OVC:08 12","29.34","1.25","44","060","25","16",,,,,,,,,,,,,,,,,,,,,,,,,,,,,,,,,,,,,"MET12604/26/20 14:56:02 METAR KHPN 261956Z 06014G22KT 1 1/4SM -RA BR BKN008 OVC012 07/06 A2976 RMK AO2 SLP080 P0003 T00720056 $ (ML)","FM-15","7",,,,,,,,,,,,,,,,,,,,,,,,,,,,"2009-05-22"
"72503794745","2020-04-26T15:56:00","FM-15","7",,,,,,,,,,,,,,,,,,,,,,,,,,,,,,,,,,,,,,"29.74","43","45","0.02","-RA:02 BR:1 |RA |RA","+0.09","6","93","29.75","BKN:07 8 OVC:08 10","29.31","1.25","44","050","22","13",,,,,,,,,,,,,,,,,,,,,,,,,,,,,,,,,,,,,"MET13804/26/20 15:56:02 METAR KHPN 262056Z 05011G19KT 1 1/4SM -RA BR BKN008 OVC010 07/06 A2974 RMK AO2 SLP074 P0002 60006 T00720061 56030 $ (ML)","FM-15","7",,,,,,,,,,,,,,,,,,,,,,,,,,,,"2009-05-22"
"72503794745","2020-04-26T16:56:00","FM-15","7",,,,,,,,,,,,,,,,,,,,,,,,,,,,,,,,,,,,,,"29.73","42","45","T","-RA:02 BR:1 |RA |RA",,,"90","29.74","BKN:07 8 OVC:08 14","29.31","1.50","44","040","20","9",,,,,,,,,,,,,,,,,,,,,,,,,,,,,,,,,,,,,"MET14704/26/20 16:56:02 METAR KHPN 262156Z 04008G17KT 1 1/2SM -RA BR BKN008 OVC014 07/06 A2973 RMK AO2 RAE01B51 CIG 006V011 SLP071 P0000 T00720056 $ (ML)","FM-15","7",,,,,,,,,,,,,,,,,,,,,,,,,,,,"2009-05-22"
"72503794745","2020-04-26T17:54:00","FM-16","6",,,,,,,,,,,,,,,,,,,,,,,,,,,,,,,,,,,,,,"29.72","43","45",,"-DZ:01 BR:1 |DZ |DZ",,,"93",,"BKN:07 10 OVC:08 14","29.30","1.50","44","030","22","14",,,,,,,,,,,,,,,,,,,,,,,,,,,,,,,,,,,,,"MET13704/26/20 17:54:02 SPECI KHPN 262254Z 03012G19KT 1 1/2SM -DZ BR BKN010 OVC014 07/06 A2972 RMK AO2 RAE33DZB54 CIG 006V012 P0007 $ FIBI (ML)","FM-16","6",,,,,,,,,,,,,,,,,,,,,,,,,,,,"2009-05-22"
"72503794745","2020-04-26T17:56:00","FM-15","7",,,,,,,,,,,,,,,,,,,,,,,,,,,,,,,,,,,,,,"29.72","41","44","0.07","-DZ:01 BR:1 |DZ |DZ",,,"89","29.73","OVC:08 10","29.30","1.50","43","030","22","13",,,,,,,,,,,,,,,,,,,,,,,,,,,,,,,,,,,,,"MET14204/26/20 17:56:02 METAR KHPN 262256Z 03011G19KT 1 1/2SM -DZ BR OVC010 07/05 A2972 RMK AO2 RAE33DZB54 CIG 006V012 SLP069 P0007 T00670050 $ (ML)","FM-15","7",,,,,,,,,,,,,,,,,,,,,,,,,,,,"2009-05-22"
"72503794745","2020-04-26T18:56:00","FM-15","7",,,,,,,,,,,,,,,,,,,,,,,,,,,,,,,,,,,,,,"29.76","40","43","T","-DZ:01 BR:1 |DZ |DZ","-0.02","3","89","29.77","BKN:07 11 OVC:08 14","29.34","1.25","42","350",,"9",,,,,,,,,,,,,,,,,,,,,,,,,,,,,,,,,,,,,"MET15904/26/20 18:56:02 METAR KHPN 262356Z 35008KT 1 1/4SM -DZ BR BKN011 OVC014 06/04 A2976 RMK AO2 CIG 006V012 SLP080 P0000 60013 T00610044 10072 20061 53006 $ (ML)","FM-15","7",,,,,,,,,,,,,,,,,,,,,,,,,,,,"2009-05-22"
"72503794745","2020-04-26T19:54:00","FM-16","6",,,,,,,,,,,,,,,,,,,,,,,,,,,,,,,,,,,,,,"29.74","39","43",,"-DZ:01 |DZ |DZ",,,"87",,"BKN:07 11 OVC:08 14","29.31","8.00","41","020","20","9",,,,,,,,,,,,,,,,,,,,,,,,,,,,,,,,,,,,,"MET10704/26/20 19:54:03 SPECI KHPN 270054Z 02008G17KT 8SM -DZ BKN011 OVC014 06/04 A2974 RMK AO2 P0001 $ FIBI (ML)","FM-16","6",,,,,,,,,,,,,,,,,,,,,,,,,,,,"2009-05-22"
"72503794745","2020-04-26T19:56:00","FM-15","7",,,,,,,,,,,,,,,,,,,,,,,,,,,,,,,,,,,,,,"29.74","39","42","0.01","-DZ:01 |DZ |DZ",,,"89","29.75","BKN:07 11 OVC:08 14","29.31","8.00","41","020","20","10",,,,,,,,,,,,,,,,,,,,,,,,,,,,,,,,,,,,,"MET11404/26/20 19:56:01 METAR KHPN 270056Z 02009G17KT 8SM -DZ BKN011 OVC014 06/04 A2974 RMK AO2 SLP075 P0001 T00560039 $","FM-15","7",,,,,,,,,,,,,,,,,,,,,,,,,,,,"2009-05-22"
"72503794745","2020-04-26T20:56:00","FM-15","7",,,,,,,,,,,,,,,,,,,,,,,,,,,,,,,,,,,,,,"29.76","38","42","T","-DZ:01 |DZ |DZ",,,"85","29.77","BKN:07 14","29.34","9.00","40","030",,"11",,,,,,,,,,,,,,,,,,,,,,,,,,,,,,,,,,,,,"MET10404/26/20 20:56:01 METAR KHPN 270156Z 03010KT 9SM -DZ BKN014 06/03 A2976 RMK AO2 SLP080 P0000 T00560033 $","FM-15","7",,,,,,,,,,,,,,,,,,,,,,,,,,,,"2009-05-22"
"72503794745","2020-04-26T21:56:00","FM-15","7",,,,,,,,,,,,,,,,,,,,,,,,,,,,,,,,,,,,,,"29.76","38","41","T","-DZ:01 |DZ |DZ","-0.01","3","89","29.78","OVC:08 14","29.34","10.00","40","020","18","10",,,,,,,,,,,,,,,,,,,,,,,,,,,,,,,,,,,,,"MET12004/26/20 21:56:01 METAR KHPN 270256Z 02009G16KT 10SM -DZ OVC014 05/03 A2976 RMK AO2 SLP083 P0000 60001 T00500033 53003 $","FM-15","7",,,,,,,,,,,,,,,,,,,,,,,,,,,,"2009-05-22"
"72503794745","2020-04-26T22:56:00","FM-15","7",,,,,,,,,,,,,,,,,,,,,,,,,,,,,,,,,,,,,,"29.77","37","41","T","-RA:02 |RA |RA",,,"86","29.78","BKN:07 14 OVC:08 18","29.34","10.00","39","350","20","10",,,,,,,,,,,,,,,,,,,,,,,,,,,,,,,,,,,,,"MET12604/26/20 22:56:02 METAR KHPN 270356Z 35009G17KT 10SM -RA BKN014 OVC018 05/03 A2977 RMK AO2 DZE52RAB52 SLP085 P0000 T00500028 $","FM-15","7",,,,,,,,,,,,,,,,,,,,,,,,,,,,"2009-05-22"
"72503794745","2020-04-26T23:56:00","FM-15","7",,,,,,,,,,,,,,,,,,,,,,,,,,,,,,,,,,,,,,"29.78","37","40","T","-RA:02 BR:1 |RA |RA",,,"89","29.79","SCT:04 10 BKN:07 15 OVC:08 28","29.36","4.00","39","360",,"9",,,,,,,,,,,,,,,,,,,,,,,,,,,,,,,,,,,,,"MET13104/26/20 23:56:02 METAR KHPN 270456Z 36008KT 4SM -RA BR SCT010 BKN015 OVC028 04/03 A2978 RMK AO2 SLP088 P0000 T00440028 400830044 $","FM-15","7",,,,,,,,,,,,,,,,,,,,,,,,,,,,"2009-05-22"
"72503794745","2020-04-26T23:59:00","SOD  ","6",,,,,,,,,,,,,,,,"44",,,"29.48",,"10.7","0","-8.2","21","47","40","050","33","0.21",,,"070","22","RA DZ BR",,,,,,,,,,,,,,,,,,,,,,,,,,,,,,,,,,,,,,,,,,,,,,,,,,,,,,,,"SOD72724 HR PRECIPITATION (IN):0.21  24 HR MAX TEMP (F):47 24 HR MAX TEMP TIME (LST):1207 24 HR MIN TEMP (F):40 24 HR MIN TEMP TIME (LST):2359 AVERAGE STATION PRESSURE:29.480 MINIMUM SEA LEVEL PRESSURE:29.72 TIME OF OCCURRENCE:1742 PEAK WIND SPEED (MPH):33  PEAK WIND DIR (DEG):50  PEAK WIND TIME (LST):1322  FASTEST 2MIN SPEED (MPH):22 FASTEST 2MIN DIR (DEG):70  FASTEST 2MIN TIME (LST):1327 AVERAGE WIND SPEED (MPH):10.7 24 HR AVG TEMP (F):44 HEATING DEGREE DAYS:21  COOLING DEGREE DAYS:0   LATEST DAY MAX TEMP (0700-1900 LST):47  LATEST NIGHT MIN TEMP(1900-0800 LST):43 HOURLY INCREMENTAL PRECIPITATION VALUES (IN):.00 0.00 T    0.00 0.01 0.01 T    0.00 T    T    0.01 T    0.04 0.01 0.03 0.02 T    0.07 T    0.01 T    T    T    T","SOD  ","6",,,,,,,,,,,,,,,,,,,,,,,,,"0458","1847",,"2009-05-22"
"72503794745","2020-04-27T00:54:00","FM-16","6",,,,,,,,,,,,,,,,,,,,,,,,,,,,,,,,,,,,,,"29.78","37","39",,"-DZ:01 |DZ |DZ",,,"93",,"BKN:07 10 OVC:08 15","29.36","10.00","38","360",,"11",,,,,,,,,,,,,,,,,,,,,,,,,,,,,,,,,,,,,"MET11604/27/20 00:54:02 SPECI KHPN 270554Z 36010KT 10SM -DZ BKN010 OVC015 04/03 A2978 RMK AO2 RAE52DZB52 P0000 $ FIBI (EC)","FM-16","6",,,,,,,,,,,,,,,,,,,,,,,,,,,,"2009-05-22"
"72503794745","2020-04-27T00:56:00","FM-15","7",,,,,,,,,,,,,,,,,,,,,,,,,,,,,,,,,,,,,,"29.78","37","40","T","-DZ:01 |DZ |DZ","-0.01","0","89","29.79","BKN:07 10 OVC:08 15","29.36","9.00","39","350",,"11",,,,,,,,,,,,,,,,,,,,,,,,,,,,,,,,,,,,,"MET16304/27/20 00:56:02 METAR KHPN 270556Z 35010KT 9SM -DZ BKN010 OVC015 04/03 A2978 RMK AO2 RAE52DZB52 CIG 007V014 SLP088 P0000 60001 T00440028 10061 20039 50005 $ (EC)","FM-15","7",,,,,,,,,,,,,,,,,,,,,,,,,,,,"2009-05-22"
"72503794745","2020-04-27T01:56:00","FM-15","7",,,,,,,,,,,,,,,,,,,,,,,,,,,,,,,,,,,,,,"29.78","35","38","T","-DZ:01 |DZ |DZ",,,"89","29.79","BKN:07 10 OVC:08 14","29.36","10.00","37","340",,"16",,,,,,,,,,,,,,,,,,,,,,,,,,,,,,,,,,,,,"MET11704/27/20 01:56:02 METAR KHPN 270656Z 34014KT 10SM -DZ BKN010 OVC014 03/02 A2978 RMK AO2 SLP088 P0000 T00330017 $ (EC)","FM-15","7",,,,,,,,,,,,,,,,,,,,,,,,,,,,"2009-05-22"
"72503794745","2020-04-27T02:56:00","FM-15","7",,,,,,,,,,,,,,,,,,,,,,,,,,,,,,,,,,,,,,"29.78","34","37","T","-DZ:01 |DZ |DZ",,,"89","29.80","OVC:08 11","29.36","10.00","36","340",,"14",,,,,,,,,,,,,,,,,,,,,,,,,,,,,,,,,,,,,"MET11004/27/20 02:56:02 METAR KHPN 270756Z 34012KT 10SM -DZ OVC011 03/01 A2978 RMK AO2 SLP091 P0000 T00280011 $ (EC)","FM-15","7",,,,,,,,,,,,,,,,,,,,,,,,,,,,"2009-05-22"
"72503794745","2020-04-27T03:56:00","FM-15","7",,,,,,,,,,,,,,,,,,,,,,,,,,,,,,,,,,,,,,"29.79","34","37","T",,"-0.01","3","89","29.80","BKN:07 12 OVC:08 31","29.36","10.00","36","350",,"13",,,,,,,,,,,,,,,,,,,,,,,,,,,,,,,,,,,,,"MET13104/27/20 03:56:02 METAR KHPN 270856Z 35011KT 10SM BKN012 OVC031 03/01 A2979 RMK AO2 DZE52 SLP092 P0000 60000 T00280011 53003 $ (EC)","FM-15","7",,,,,,,,,,,,,,,,,,,,,,,,,,,,"2009-05-22"
"72503794745","2020-04-27T04:56:00","FM-15","7",,,,,,,,,,,,,,,,,,,,,,,,,,,,,,,,,,,,,,"29.79","33","37","T","-DZ:01 |DZ |DZ",,,"86","29.80","SCT:04 10 OVC:08 33","29.36","10.00","35","350",,"14",,,,,,,,,,,,,,,,,,,,,,,,,,,,,,,,,,,,,"MET12304/27/20 04:56:02 METAR KHPN 270956Z 35012KT 10SM -DZ SCT010 OVC033 03/01 A2979 RMK AO2 DZB52 SLP093 P0000 T00280006 $ (EC)","FM-15","7",,,,,,,,,,,,,,,,,,,,,,,,,,,,"2009-05-22"
"72503794745","2020-04-27T05:56:00","FM-15","7",,,,,,,,,,,,,,,,,,,,,,,,,,,,,,,,,,,,,,"29.81","34","37","T","-DZ:01 |DZ |DZ",,,"89","29.83","FEW:02 15 OVC:08 33","29.39","8.00","36","340",,"14",,,,,,,,,,,,,,,,,,,,,,,,,,,,,,,,,,,,,"MET11604/27/20 05:56:02 METAR KHPN 271056Z 34012KT 8SM -DZ FEW015 OVC033 03/01 A2981 RMK AO2 SLP101 P0000 T00280011 $ (EC)","FM-15","7",,,,,,,,,,,,,,,,,,,,,,,,,,,,"2009-05-22"
"72503794745","2020-04-27T06:56:00","FM-15","7",,,,,,,,,,,,,,,,,,,,,,,,,,,,,,,,,,,,,,"29.84","34","39","T",,"-0.05","3","82","29.85","FEW:02 16 SCT:04 27 OVC:08 35","29.41","10.00","37","350",,"16",,,,,,,,,,,,,,,,,,,,,,,,,,,,,,,,,,,,,"MET15404/27/20 06:56:02 METAR KHPN 271156Z 35014KT 10SM FEW016 SCT027 OVC035 04/01 A2984 RMK AO2 DZE52 SLP108 P0000 60000 70019 T00390011 10044 20022 53016 (WS)","FM-15","7",,,,,,,,,,,,,,,,,,,,,,,,,,,,"2009-05-22"
"72503794745","2020-04-27T07:56:00","FM-15","7",,,,,,,,,,,,,,,,,,,,,,,,,,,,,,,,,,,,,,"29.85","35","40","T",,,,"83","29.86","SCT:04 14 OVC:08 43","29.42","10.00","38","350",,"14",,,,,,,,,,,,,,,,,,,,,,,,,,,,,,,,,,,,,"MET12004/27/20 07:56:02 METAR KHPN 271256Z 35012KT 10SM SCT014 OVC043 04/02 A2985 RMK AO2 RAB24E33 SLP113 P0000 T00440017 (WS)","FM-15","7",,,,,,,,,,,,,,,,,,,,,,,,,,,,"2009-05-22"
"72503794745","2020-04-27T08:54:00","FM-16","6",,,,,,,,,,,,,,,,,,,,,,,,,,,,,,,,,,,,,,"29.85","36","43",,,,,"76",,"BKN:07 25 OVC:08 50","29.42","10.00","40","350",,"15",,,,,,,,,,,,,,,,,,,,,,,,,,,,,,,,,,,,,"MET10804/27/20 08:54:02 SPECI KHPN 271354Z 35013KT 10SM BKN025 OVC050 06/02 A2985 RMK AO2 RAB15E34 P0000 FIBI (WS)","FM-16","6",,,,,,,,,,,,,,,,,,,,,,,,,,,,"2009-05-22"
"72503794745","2020-04-27T08:56:00","FM-15","7",,,,,,,,,,,,,,,,,,,,,,,,,,,,,,,,,,,,,,"29.85","36","42","T",,,,"79","29.87","BKN:07 25 OVC:08 50","29.42","10.00","39","340",,"16",,,,,,,,,,,,,,,,,,,,,,,,,,,,,,,,,,,,,"MET12004/27/20 08:56:02 METAR KHPN 271356Z 34014KT 10SM BKN025 OVC050 06/02 A2985 RMK AO2 RAB15E34 SLP115 P0000 T00560022 (WS)","FM-15","7",,,,,,,,,,,,,,,,,,,,,,,,,,,,"2009-05-22"
"72503794745","2020-04-27T09:56:00","FM-15","7",,,,,,,,,,,,,,,,,,,,,,,,,,,,,,,,,,,,,,"29.86","35","43","0.00",,"-0.03","1","74","29.88","BKN:07 23 OVC:08 29","29.43","10.00","40","350","22","14",,,,,,,,,,,,,,,,,,,,,,,,,,,,,,,,,,,,,"MET12004/27/20 09:56:02 METAR KHPN 271456Z 35012G19KT 10SM BKN023 OVC029 06/02 A2986 RMK AO2 SLP118 60000 T00610017 51010 (WS)","FM-15","7",,,,,,,,,,,,,,,,,,,,,,,,,,,,"2009-05-22"
"72503794745","2020-04-27T10:54:00","FM-16","6",,,,,,,,,,,,,,,,,,,,,,,,,,,,,,,,,,,,,,"29.87","36","45",,"-DZ:01 |DZ |DZ",,,"71",,"SCT:04 25 OVC:08 30","29.44","10.00","41","010","18","14",,,,,,,,,,,,,,,,,,,,,,,,,,,,,,,,,,,,,"MET11204/27/20 10:54:02 SPECI KHPN 271554Z 01012G16KT 10SM -DZ SCT025 OVC030 07/02 A2987 RMK AO2 DZB52 P0000 FIBI (WS)","FM-16","6",,,,,,,,,,,,,,,,,,,,,,,,,,,,"2009-05-22"
"72503794745","2020-04-27T10:56:00","FM-15","7",,,,,,,,,,,,,,,,,,,,,,,,,,,,,,,,,,,,,,"29.88","35","44","T","-DZ:01 |DZ |DZ",,,"71","29.89","SCT:04 25 OVC:08 30","29.45","10.00","40","010","18","10",,,,,,,,,,,,,,,,,,,,,,,,,,,,,,,,,,,,,"MET12404/27/20 10:56:02 METAR KHPN 271556Z 01009G16KT 10SM -DZ SCT025 OVC030 07/02 A2988 RMK AO2 DZB52 SLP121 P0000 T00670017 (WS)","FM-15","7",,,,,,,,,,,,,,,,,,,,,,,,,,,,"2009-05-22"
"72503794745","2020-04-27T11:54:00","FM-16","6",,,,,,,,,,,,,,,,,,,,,,,,,,,,,,,,,,,,,,"29.88","36","46",,,,,"66",,"BKN:07 25 OVC:08 41","29.45","10.00","42","350","21","13",,,,,,,,,,,,,,,,,,,,,,,,,,,,,,,,,,,,,"MET10804/27/20 11:54:02 SPECI KHPN 271654Z 35011G18KT 10SM BKN025 OVC041 08/02 A2988 RMK AO2 DZE52 P0000 FIBI (WS)","FM-16","6",,,,,,,,,,,,,,,,,,,,,,,,,,,,"2009-05-22"
"72503794745","2020-04-27T11:56:00","FM-15","7",,,,,,,,,,,,,,,,,,,,,,,,,,,,,,,,,,,,,,"29.88","35","46","T",,,,"66","29.89","BKN:07 25 OVC:08 41","29.45","10.00","41","360","21","14",,,,,,,,,,,,,,,,,,,,,,,,,,,,,,,,,,,,,"MET12004/27/20 11:56:02 METAR KHPN 271656Z 36012G18KT 10SM BKN025 OVC041 08/02 A2988 RMK AO2 DZE52 SLP121 P0000 T00780017 (WS)","FM-15","7",,,,,,,,,,,,,,,,,,,,,,,,,,,,"2009-05-22"
"72503794745","2020-04-27T12:54:00","FM-16","6",,,,,,,,,,,,,,,,,,,,,,,,,,,,,,,,,,,,,,"29.88","36","46",,,,,"66",,"SCT:04 29 BKN:07 34 OVC:08 49","29.45","10.00","42","340","25","20",,,,,,,,,,,,,,,,,,,,,,,,,,,,,,,,,,,,,"MET10304/27/20 12:54:02 SPECI KHPN 271754Z 34017G22KT 10SM SCT029 BKN034 OVC049 08/02 A2988 RMK AO2 FIBI (WS)","FM-16","6",,,,,,,,,,,,,,,,,,,,,,,,,,,,"2009-05-22"
"72503794745","2020-04-27T12:56:00","FM-15","7",,,,,,,,,,,,,,,,,,,,,,,,,,,,,,,,,,,,,,"29.88","35","47","0.00",,"-0.02","1","63","29.89","SCT:04 29 BKN:07 34 OVC:08 49","29.45","10.00","42","360","25","17",,,,,,,,,,,,,,,,,,,,,,,,,,,,,,,,,,,,,"MET13904/27/20 12:56:02 METAR KHPN 271756Z 36015G22KT 10SM SCT029 BKN034 OVC049 08/02 A2988 RMK AO2 SLP123 60000 T00830017 10083 20039 51006 (WS)","FM-15","7",,,,,,,,,,,,,,,,,,,,,,,,,,,,"2009-05-22"
"72503794745","2020-04-27T13:56:00","FM-15","7",,,,,,,,,,,,,,,,,,,,,,,,,,,,,,,,,,,,,,"29.90","36","46","T","-DZ:01 |DZ |DZ",,,"68","29.92","SCT:04 29 BKN:07 34 OVC:08 49","29.47","10.00","42","350","23","11",,,,,,,,,,,,,,,,,,,,,,,,,,,,,,,,,,,,,"MET14904/27/20 13:56:02 METAR KHPN 271856Z 35010G20KT 10SM -DZ SCT029 BKN034 OVC049 08/02 A2990 RMK AO2 PK WND 34027/1758 DZB04 SLP131 P0000 T00780022 (MM)","FM-15","7",,,,,,,,,,,,,,,,,,,,,,,,,,,,"2009-05-22"
"72503794745","2020-04-27T14:56:00","FM-15","7",,,,,,,,,,,,,,,,,,,,,,,,,,,,,,,,,,,,,,"29.91","36","46","T",,,,"68","29.92","SCT:04 24 BKN:07 37 OVC:08 60","29.48","10.00","42","340","25","21",,,,,,,,,,,,,,,,,,,,,,,,,,,,,,,,,,,,,"MET12704/27/20 14:56:02 METAR KHPN 271956Z 34018G22KT 10SM SCT024 BKN037 OVC060 08/02 A2991 RMK AO2 DZE52 SLP133 P0000 T00780022 (MM)","FM-15","7",,,,,,,,,,,,,,,,,,,,,,,,,,,,"2009-05-22"
"72503794745","2020-04-27T15:56:00","FM-15","7",,,,,,,,,,,,,,,,,,,,,,,,,,,,,,,,,,,,,,"29.93","34","47","0.00",,"-0.05","2","61","29.94","SCT:04 31 BKN:07 85","29.50","10.00","41","340","21","16",,,,,,,,,,,,,,,,,,,,,,,,,,,,,,,,,,,,,"MET12004/27/20 15:56:02 METAR KHPN 272056Z 34014G18KT 10SM SCT031 BKN085 08/01 A2993 RMK AO2 SLP140 60000 T00830011 52016 (MM)","FM-15","7",,,,,,,,,,,,,,,,,,,,,,,,,,,,"2009-05-22"
"72503794745","2020-04-27T16:56:00","FM-15","7",,,,,,,,,,,,,,,,,,,,,,,,,,,,,,,,,,,,,,"29.97","35","45","T","-DZ:01 |DZ |DZ",,,"68","29.98","SCT:04 26 BKN:07 34 OVC:08 90","29.54","10.00","41","350","29","16",,,,,,,,,,,,,,,,,,,,,,,,,,,,,,,,,,,,,"MET16304/27/20 16:56:02 METAR KHPN 272156Z 35014G25KT 10SM -DZ SCT026 BKN034 OVC090 07/02 A2997 RMK AO2 PK WND 35027/2103 RAB06E17B51E52DZB52 SLP153 P0000 T00720017 (MM)","FM-15","7",,,,,,,,,,,,,,,,,,,,,,,,,,,,"2009-05-22"
"72503794745","2020-04-27T17:56:00","FM-15","7",,,,,,,,,,,,,,,,,,,,,,,,,,,,,,,,,,,,,,"29.99","37","42","T","-DZ:01 |DZ |DZ",,,"82","30.01","SCT:04 26 BKN:07 34 OVC:08 90","29.56","10.00","40","350","21","15",,,,,,,,,,,,,,,,,,,,,,,,,,,,,,,,,,,,,"MET14304/27/20 17:56:02 METAR KHPN 272256Z 35013G18KT 10SM -DZ SCT026 BKN034 OVC090 06/03 A2999 RMK AO2 PK WND 34026/2203 SLP161 P0000 T00560028 (MM)","FM-15","7",,,,,,,,,,,,,,,,,,,,,,,,,,,,"2009-05-22"
"72503794745","2020-04-27T18:56:00","FM-15","7",,,,,,,,,,,,,,,,,,,,,,,,,,,,,,,,,,,,,,"30.01","36","42","0.00",,"-0.08","1","79","30.02","FEW:02 20 BKN:07 41","29.58","10.00","39","350",,"15",,,,,,,,,,,,,,,,,,,,,,,,,,,,,,,,,,,,,"MET14304/27/20 18:56:02 METAR KHPN 272356Z 35013KT 10SM FEW020 BKN041 06/02 A3001 RMK AO2 DZE2257 SLP167 P0000 60000 T00560022 10083 20056 51026 (MM)","FM-15","7",,,,,,,,,,,,,,,,,,,,,,,,,,,,"2009-05-22"
"72503794745","2020-04-27T19:56:00","FM-15","7",,,,,,,,,,,,,,,,,,,,,,,,,,,,,,,,,,,,,,"30.02","35","41","0.00",,,,"79","30.04","CLR:00","29.59","10.00","38","330",,"10",,,,,,,,,,,,,,,,,,,,,,,,,,,,,,,,,,,,,"MET09004/27/20 19:56:01 METAR KHPN 280056Z 33009KT 10SM CLR 05/02 A3002 RMK AO2 SLP172 T00500017","FM-15","7",,,,,,,,,,,,,,,,,,,,,,,,,,,,"2009-05-22"
"72503794745","2020-04-27T20:56:00","FM-15","7",,,,,,,,,,,,,,,,,,,,,,,,,,,,,,,,,,,,,,"30.04","35","41","0.00",,,,"79","30.06","SCT:04 17","29.61","10.00","38","330",,"11",,,,,,,,,,,,,,,,,,,,,,,,,,,,,,,,,,,,,"MET09304/27/20 20:56:01 METAR KHPN 280156Z 33010KT 10SM SCT017 05/02 A3004 RMK AO2 SLP178 T00500017","FM-15","7",,,,,,,,,,,,,,,,,,,,,,,,,,,,"2009-05-22"
"72503794745","2020-04-27T21:54:00","FM-16","6",,,,,,,,,,,,,,,,,,,,,,,,,,,,,,,,,,,,,,"30.05","36","41",,,,,"81",,"BKN:07 19 BKN:07 26","29.62","10.00","39","330",,"13",,,,,,,,,,,,,,,,,,,,,,,,,,,,,,,,,,,,,"MET09304/27/20 21:54:03 SPECI KHPN 280254Z 33011KT 10SM BKN019 BKN026 05/02 A3005 RMK AO2 FIBI (MM)","FM-16","6",,,,,,,,,,,,,,,,,,,,,,,,,,,,"2009-05-22"
"72503794745","2020-04-27T21:56:00","FM-15","7",,,,,,,,,,,,,,,,,,,,,,,,,,,,,,,,,,,,,,"30.05","35","41","0.00",,"-0.04","1","79","30.06","BKN:07 19 BKN:07 26","29.62","10.00","38","330",,"13",,,,,,,,,,,,,,,,,,,,,,,,,,,,,,,,,,,,,"MET10604/27/20 21:56:01 METAR KHPN 280256Z 33011KT 10SM BKN019 BKN026 05/02 A3005 RMK AO2 SLP181 T00500017 51014","FM-15","7",,,,,,,,,,,,,,,,,,,,,,,,,,,,"2009-05-22"
"72503794745","2020-04-27T22:56:00","FM-15","7",,,,,,,,,,,,,,,,,,,,,,,,,,,,,,,,,,,,,,"30.05","35","41","0.00",,,,"79","30.07","SCT:04 32 BKN:07 60","29.62","10.00","38","330",,"10",,,,,,,,,,,,,,,,,,,,,,,,,,,,,,,,,,,,,"MET10004/27/20 22:56:02 METAR KHPN 280356Z 33009KT 10SM SCT032 BKN060 05/02 A3005 RMK AO2 SLP182 T00500017","FM-15","7",,,,,,,,,,,,,,,,,,,,,,,,,,,,"2009-05-22"
"72503794745","2020-04-27T23:56:00","FM-15","7",,,,,,,,,,,,,,,,,,,,,,,,,,,,,,,,,,,,,,"30.06","34","39","T",,,,"82","30.07","CLR:00","29.63","10.00","37","320",,"8",,,,,,,,,,,,,,,,,,,,,,,,,,,,,,,,,,,,,"MET11504/27/20 23:56:02 METAR KHPN 280456Z 32007KT 10SM CLR 04/01 A3006 RMK AO2 DZB06E18 SLP183 P0000 T00390011 400830022","FM-15","7",,,,,,,,,,,,,,,,,,,,,,,,,,,,"2009-05-22"
"72503794745","2020-04-27T23:59:00","SOD  ","6",,,,,,,,,,,,,,,,"42",,,"29.47",,"13.8","0","-10.5","23","47","36","340","31","T",,,"350","23","DZ",,,,,,,,,,,,,,,,,,,,,,,,,,,,,,,,,,,,,,,,,,,,,,,,,,,,,,,,"SOD74724 HR PRECIPITATION (IN):T     WEATHER(CODE):1  24 HR MAX TEMP (F):47 24 HR MAX TEMP TIME (LST):1557 24 HR MIN TEMP (F):36 24 HR MIN TEMP TIME (LST):0511 AVERAGE STATION PRESSURE(D):29.474 MINIMUM SEA LEVEL PRESSURE:29.78 TIME OF OCCURRENCE:0110 PEAK WIND SPEED (MPH):31  PEAK WIND DIR (DEG):340 PEAK WIND TIME (LST):1258  FASTEST 2MIN SPEED (MPH):23 FASTEST 2MIN DIR (DEG):350 FASTEST 2MIN TIME (LST):1603 AVERAGE WIND SPEED (MPH):13.8 24 HR AVG TEMP (F):42 HEATING DEGREE DAYS: 23 COOLING DEGREE DAYS:  0 LATEST DAY MAX TEMP (0700-1900 LST): 47 LATEST NIGHT MIN TEMP(1900-0800 LST):36 HOURLY INCREMENTAL PRECIPITATION VALUES (IN):    T    T    T    T    T    T    T    T     0.00T    T     0.00T    T     0.00T    T     0.00 0.00 0.00 0.00 0.00T","SOD  ","6",,,,,,,,,,,,,,,,,,,,,,,,,"0457","1848",,"2009-05-22"
"72503794745","2020-04-28T00:56:00","FM-15","7",,,,,,,,,,,,,,,,,,,,,,,,,,,,,,,,,,,,,,"30.06","35","40","0.00",,"-0.01","2","83","30.07","BKN:07 55","29.63","10.00","38","320",,"11",,,,,,,,,,,,,,,,,,,,,,,,,,,,,,,,,,,,,"MET12204/28/20 00:56:02 METAR KHPN 280556Z 32010KT 10SM BKN055 04/02 A3006 RMK AO2 SLP184 60000 T00440017 10056 20039 52004 (RV)","FM-15","7",,,,,,,,,,,,,,,,,,,,,,,,,,,,"2009-05-22"
"72503794745","2020-04-28T01:56:00","FM-15","7",,,,,,,,,,,,,,,,,,,,,,,,,,,,,,,,,,,,,,"30.06","34","39","0.00",,,,"82","30.07","BKN:07 55","29.63","10.00","37","330",,"10",,,,,,,,,,,,,,,,,,,,,,,,,,,,,,,,,,,,,"MET09804/28/20 01:56:02 METAR KHPN 280656Z 33009KT 10SM BKN055 04/01 A3006 RMK AO2 SLP182 T00390011 (RV)","FM-15","7",,,,,,,,,,,,,,,,,,,,,,,,,,,,"2009-05-22"
"72503794745","2020-04-28T02:56:00","FM-15","7",,,,,,,,,,,,,,,,,,,,,,,,,,,,,,,,,,,,,,"30.08","34","39","0.00",,,,"82","30.09","BKN:07 55","29.65","10.00","37","330",,"9",,,,,,,,,,,,,,,,,,,,,,,,,,,,,,,,,,,,,"MET09804/28/20 02:56:02 METAR KHPN 280756Z 33008KT 10SM BKN055 04/01 A3008 RMK AO2 SLP190 T00390011 (RV)","FM-15","7",,,,,,,,,,,,,,,,,,,,,,,,,,,,"2009-05-22"
"72503794745","2020-04-28T03:56:00","FM-15","7",,,,,,,,,,,,,,,,,,,,,,,,,,,,,,,,,,,,,,"30.08","34","38","0.00",,"-0.02","3","86","30.09","BKN:07 55","29.65","10.00","36","320",,"8",,,,,,,,,,,,,,,,,,,,,,,,,,,,,,,,,,,,,"MET10404/28/20 03:56:02 METAR KHPN 280856Z 32007KT 10SM BKN055 03/01 A3008 RMK AO2 SLP191 T00330011 53007 (RV)","FM-15","7",,,,,,,,,,,,,,,,,,,,,,,,,,,,"2009-05-22"
"72503794745","2020-04-28T04:56:00","FM-15","7",,,,,,,,,,,,,,,,,,,,,,,,,,,,,,,,,,,,,,"30.10","34","39","0.00",,,,"82","30.12","SCT:04 17 BKN:07 60","29.67","10.00","37","310",,"9",,,,,,,,,,,,,,,,,,,,,,,,,,,,,,,,,,,,,"MET10504/28/20 04:56:02 METAR KHPN 280956Z 31008KT 10SM SCT017 BKN060 04/01 A3010 RMK AO2 SLP199 T00390011 (RV)","FM-15","7",,,,,,,,,,,,,,,,,,,,,,,,,,,,"2009-05-22"
"72503794745","2020-04-28T05:56:00","FM-15","7",,,,,,,,,,,,,,,,,,,,,,,,,,,,,,,,,,,,,,"30.11","34","40","0.00",,,,"79","30.13","FEW:02 26","29.68","10.00","37","330",,"7",,,,,,,,,,,,,,,,,,,,,,,,,,,,,,,,,,,,,"MET09804/28/20 05:56:02 METAR KHPN 281056Z 33006KT 10SM FEW026 04/01 A3011 RMK AO2 SLP203 T00440011 (RV)","FM-15","7",,,,,,,,,,,,,,,,,,,,,,,,,,,,"2009-05-22"
"72503794745","2020-04-28T06:56:00","FM-15","7",,,,,,,,,,,,,,,,,,,,,,,,,,,,,,,,,,,,,,"30.12","34","43","0.00",,"-0.04","1","71","30.14","FEW:02 26","29.69","10.00","39","280",,"9",,,,,,,,,,,,,,,,,,,,,,,,,,,,,,,,,,,,,"MET11604/28/20 06:56:02 METAR KHPN 281156Z 28008KT 10SM FEW026 06/01 A3012 RMK AO2 SLP205 T00610011 10061 20033 51014 (RV)","FM-15","7",,,,,,,,,,,,,,,,,,,,,,,,,,,,"2009-05-22"
"72503794745","2020-04-28T07:56:00","FM-15","7",,,,,,,,,,,,,,,,,,,,,,,,,,,,,,,,,,,,,,"30.12","34","44","0.00",,,,"68","30.13","SCT:04 23","29.69","10.00","40","310",,"8",,,,,,,,,,,,,,,,,,,,,,,,,,,,,,,,,,,,,"MET09804/28/20 07:56:02 METAR KHPN 281256Z 31007KT 10SM SCT023 07/01 A3012 RMK AO2 SLP203 T00670011 (RV)","FM-15","7",,,,,,,,,,,,,,,,,,,,,,,,,,,,"2009-05-22"
"72503794745","2020-04-28T08:56:00","FM-15","7",,,,,,,,,,,,,,,,,,,,,,,,,,,,,,,,,,,,,,"30.12","33","46","0.00",,,,"61","30.13","SCT:04 32 BKN:07 40","29.69","10.00","40","290",,"11",,,,,,,,,,,,,,,,,,,,,,,,,,,,,,,,,,,,,"MET10504/28/20 08:56:02 METAR KHPN 281356Z 29010KT 10SM SCT032 BKN040 08/01 A3012 RMK AO2 SLP203 T00780006 (JP)","FM-15","7",,,,,,,,,,,,,,,,,,,,,,,,,,,,"2009-05-22"
"72503794745","2020-04-28T09:56:00","FM-15","7",,,,,,,,,,,,,,,,,,,,,,,,,,,,,,,,,,,,,,"30.12","32","50","0.00",,"+0.01","6","50","30.13","FEW:02 36","29.69","10.00","42","310",,"13",,,,,,,,,,,,,,,,,,,,,,,,,,,,,,,,,,,,,"MET10404/28/20 09:56:02 METAR KHPN 281456Z 31011KT 10SM FEW036 10/00 A3012 RMK AO2 SLP202 T01000000 56002 (JP)","FM-15","7",,,,,,,,,,,,,,,,,,,,,,,,,,,,"2009-05-22"
"72503794745","2020-04-28T10:56:00","FM-15","7",,,,,,,,,,,,,,,,,,,,,,,,,,,,,,,,,,,,,,"30.10","31","53","0.00",,,,"43","30.11","FEW:02 36","29.67","10.00","43","320","22","16",,,,,,,,,,,,,,,,,,,,,,,,,,,,,,,,,,,,,"MET10204/28/20 10:56:02 METAR KHPN 281556Z 32014G19KT 10SM FEW036 12/M01 A3010 RMK AO2 SLP197 T01171006 (JP)","FM-15","7",,,,,,,,,,,,,,,,,,,,,,,,,,,,"2009-05-22"
"72503794745","2020-04-28T11:56:00","FM-15","7",,,,,,,,,,,,,,,,,,,,,,,,,,,,,,,,,,,,,,"30.09","30","55","0.00",,,,"38","30.10","FEW:02 20","29.66","10.00","44","320","17","10",,,,,,,,,,,,,,,,,,,,,,,,,,,,,,,,,,,,,"MET10204/28/20 11:56:02 METAR KHPN 281656Z 32009G15KT 10SM FEW020 13/M01 A3009 RMK AO2 SLP192 T01281011 (JP)","FM-15","7",,,,,,,,,,,,,,,,,,,,,,,,,,,,"2009-05-22"
"72503794745","2020-04-28T12:56:00","FM-15","7",,,,,,,,,,,,,,,,,,,,,,,,,,,,,,,,,,,,,,"30.08","28","58","0.00",,"+0.04","6","32","30.08","FEW:02 20","29.65","10.00","45","290","23","15",,,,,,,,,,,,,,,,,,,,,,,,,,,,,,,,,,,,,"MET12004/28/20 12:56:02 METAR KHPN 281756Z 29013G20KT 10SM FEW020 14/M02 A3008 RMK AO2 SLP187 T01441022 10144 20056 56014 (JP)","FM-15","7",,,,,,,,,,,,,,,,,,,,,,,,,,,,"2009-05-22"
"72503794745","2020-04-28T13:56:00","FM-15","7",,,,,,,,,,,,,,,,,,,,,,,,,,,,,,,,,,,,,,"30.06","28","60","0.00",,,,"30","30.06","CLR:00","29.63","10.00","46","VRB","17","5",,,,,,,,,,,,,,,,,,,,,,,,,,,,,,,,,,,,,"MET09904/28/20 13:56:02 METAR KHPN 281856Z VRB04G15KT 10SM CLR 16/M02 A3006 RMK AO2 SLP181 T01561022 (JP)","FM-15","7",,,,,,,,,,,,,,,,,,,,,,,,,,,,"2009-05-22"
"72503794745","2020-04-28T14:56:00","FM-15","7",,,,,,,,,,,,,,,,,,,,,,,,,,,,,,,,,,,,,,"30.05","27","61","0.00",,,,"27","30.06","CLR:00","29.62","10.00","46","340",,"9",,,,,,,,,,,,,,,,,,,,,,,,,,,,,,,,,,,,,"MET09604/28/20 14:56:02 METAR KHPN 281956Z 34008KT 10SM CLR 16/M03 A3005 RMK AO2 SLP178 T01611028 (JP)","FM-15","7",,,,,,,,,,,,,,,,,,,,,,,,,,,,"2009-05-22"
"72503794745","2020-04-28T15:56:00","FM-15","7",,,,,,,,,,,,,,,,,,,,,,,,,,,,,,,,,,,,,,"30.05","24","62","0.00",,"+0.03","6","23","30.06","CLR:00","29.62","10.00","46","360",,"6",,,,,,,,,,,,,,,,,,,,,,,,,,,,,,,,,,,,,"MET10204/28/20 15:56:02 METAR KHPN 282056Z 36005KT 10SM CLR 17/M04 A3005 RMK AO2 SLP178 T01671044 56009 (JP)","FM-15","7",,,,,,,,,,,,,,,,,,,,,,,,,,,,"2009-05-22"
"72503794745","2020-04-28T16:56:00","FM-15","7",,,,,,,,,,,,,,,,,,,,,,,,,,,,,,,,,,,,,,"30.05","24","62","0.00",,,,"23","30.05","CLR:00","29.62","10.00","46","340",,"5",,,,,,,,,,,,,,,,,,,,,,,,,,,,,,,,,,,,,"MET09604/28/20 16:56:02 METAR KHPN 282156Z 34004KT 10SM CLR 17/M04 A3005 RMK AO2 SLP177 T01671044 (JP)","FM-15","7",,,,,,,,,,,,,,,,,,,,,,,,,,,,"2009-05-22"
"72503794745","2020-04-28T17:56:00","FM-15","7",,,,,,,,,,,,,,,,,,,,,,,,,,,,,,,,,,,,,,"30.07","28","61","0.00",,,,"29","30.07","CLR:00","29.64","10.00","46","330",,"5",,,,,,,,,,,,,,,,,,,,,,,,,,,,,,,,,,,,,"MET09604/28/20 17:56:02 METAR KHPN 282256Z 33004KT 10SM CLR 16/M02 A3007 RMK AO2 SLP184 T01611022 (EC)","FM-15","7",,,,,,,,,,,,,,,,,,,,,,,,,,,,"2009-05-22"
"72503794745","2020-04-28T18:56:00","FM-15","7",,,,,,,,,,,,,,,,,,,,,,,,,,,,,,,,,,,,,,"30.08","38","51","0.00",,"-0.03","3","61","30.09","CLR:00","29.65","10.00","45","160",,"9",,,,,,,,,,,,,,,,,,,,,,,,,,,,,,,,,,,,,"MET11304/28/20 18:56:02 METAR KHPN 282356Z 16008KT 10SM CLR 11/03 A3008 RMK AO2 SLP189 T01060033 10172 20106 53010 (EC)","FM-15","7",,,,,,,,,,,,,,,,,,,,,,,,,,,,"2009-05-22"
"72503794745","2020-04-28T19:56:00","FM-15","7",,,,,,,,,,,,,,,,,,,,,,,,,,,,,,,,,,,,,,"30.10","36","48","0.00",,,,"63","30.11","CLR:00","29.67","10.00","43","150",,"5",,,,,,,,,,,,,,,,,,,,,,,,,,,,,,,,,,,,,"MET09004/28/20 19:56:01 METAR KHPN 290056Z 15004KT 10SM CLR 09/02 A3010 RMK AO2 SLP197 T00890022","FM-15","7",,,,,,,,,,,,,,,,,,,,,,,,,,,,"2009-05-22"
"72503794745","2020-04-28T20:56:00","FM-15","7",,,,,,,,,,,,,,,,,,,,,,,,,,,,,,,,,,,,,,"30.12","37","47","0.00",,,,"69","30.13","CLR:00","29.69","10.00","42","000",,"0",,,,,,,,,,,,,,,,,,,,,,,,,,,,,,,,,,,,,"MET09004/28/20 20:56:01 METAR KHPN 290156Z 00000KT 10SM CLR 08/03 A3012 RMK AO2 SLP204 T00830028","FM-15","7",,,,,,,,,,,,,,,,,,,,,,,,,,,,"2009-05-22"
"72503794745","2020-04-28T21:56:00","FM-15","7",,,,,,,,,,,,,,,,,,,,,,,,,,,,,,,,,,,,,,"30.13","37","47","0.00",,"-0.04","1","69","30.13","CLR:00","29.70","10.00","42","000",,"0",,,,,,,,,,,,,,,,,,,,,,,,,,,,,,,,,,,,,"MET09604/28/20 21:56:01 METAR KHPN 290256Z 00000KT 10SM CLR 08/03 A3013 RMK AO2 SLP204 T00830028 51015","FM-15","7",,,,,,,,,,,,,,,,,,,,,,,,,,,,"2009-05-22"
"72503794745","2020-04-28T22:56:00","FM-15","7",,,,,,,,,,,,,,,,,,,,,,,,,,,,,,,,,,,,,,"30.14","36","44","0.00",,,,"73","30.14","CLR:00","29.71","10.00","40","000",,"0",,,,,,,,,,,,,,,,,,,,,,,,,,,,,,,,,,,,,"MET09004/28/20 22:56:02 METAR KHPN 290356Z 00000KT 10SM CLR 07/02 A3014 RMK AO2 SLP207 T00670022","FM-15","7",,,,,,,,,,,,,,,,,,,,,,,,,,,,"2009-05-22"
"72503794745","2020-04-28T23:56:00","FM-15","7",,,,,,,,,,,,,,,,,,,,,,,,,,,,,,,,,,,,,,"30.13","37","45","0.00",,,,"74","30.14","CLR:00","29.70","10.00","41","000",,"0",,,,,,,,,,,,,,,,,,,,,,,,,,,,,,,,,,,,,"MET10004/28/20 23:56:02 METAR KHPN 290456Z 00000KT 10SM CLR 07/03 A3013 RMK AO2 SLP205 T00720028 401720033","FM-15","7",,,,,,,,,,,,,,,,,,,,,,,,,,,,"2009-05-22"
"72503794745","2020-04-28T23:59:00","SOD  ","6",,,,,,,,,,,,,,,,"51",,,"29.65",,"7.5","0","-1.8","14","63","38","310","24","0.00",,,"310","18",,,,,,,,,,,,,,,,,,,,,,,,,,,,,,,,,,,,,,,,,,,,,,,,,,,,,,,,,"SOD73024 HR PRECIPITATION (IN):0.00  24 HR MAX TEMP (F):63 24 HR MAX TEMP TIME (LST):1721 24 HR MIN TEMP (F):38 24 HR MIN TEMP TIME (LST):0400 AVERAGE STATION PRESSURE:29.655 MINIMUM SEA LEVEL PRESSURE:30.05 TIME OF OCCURRENCE:1721 PEAK WIND SPEED (MPH):24  PEAK WIND DIR (DEG):310 PEAK WIND TIME (LST):1212  FASTEST 2MIN SPEED (MPH):18 FASTEST 2MIN DIR (DEG):310 FASTEST 2MIN TIME (LST):1213 AVERAGE WIND SPEED (MPH):7.5  24 HR AVG TEMP (F):51 HEATING DEGREE DAYS:14  COOLING DEGREE DAYS:0   LATEST DAY MAX TEMP (0700-1900 LST):63  LATEST NIGHT MIN TEMP(1900-0800 LST):38 HOURLY INCREMENTAL PRECIPITATION VALUES (IN):.00 0.00 0.00 0.00 0.00 0.00 0.00 0.00 0.00 0.00 0.00 0.00 0.00 0.00 0.00 0.00 0.00 0.00 0.00 0.00 0.00 0.00 0.00 0.00","SOD  ","6",,,,,,,,,,,,,,,,,,,,,,,,,"0456","1849",,"2009-05-22"
"72503794745","2020-04-29T00:56:00","FM-15","7",,,,,,,,,,,,,,,,,,,,,,,,,,,,,,,,,,,,,,"30.14","37","45","0.00",,"-0.01","3","74","30.14","CLR:00","29.71","10.00","41","110",,"5",,,,,,,,,,,,,,,,,,,,,,,,,,,,,,,,,,,,,"MET11304/29/20 00:56:02 METAR KHPN 290556Z 11004KT 10SM CLR 07/03 A3014 RMK AO2 SLP208 T00720028 10106 20056 53005 (RV)","FM-15","7",,,,,,,,,,,,,,,,,,,,,,,,,,,,"2009-05-22"
"72503794745","2020-04-29T01:56:00","FM-15","7",,,,,,,,,,,,,,,,,,,,,,,,,,,,,,,,,,,,,,"30.13","38","44","0.00",,,,"79","30.14","CLR:00","29.70","10.00","41","090",,"6",,,,,,,,,,,,,,,,,,,,,,,,,,,,,,,,,,,,,"MET09504/29/20 01:56:02 METAR KHPN 290656Z 09005KT 10SM CLR 07/03 A3013 RMK AO2 SLP206 T00670033 (RV)","FM-15","7",,,,,,,,,,,,,,,,,,,,,,,,,,,,"2009-05-22"
"72503794745","2020-04-29T02:56:00","FM-15","7",,,,,,,,,,,,,,,,,,,,,,,,,,,,,,,,,,,,,,"30.14","40","42","0.00",,,,"92","30.14","CLR:00","29.71","10.00","41","090",,"6",,,,,,,,,,,,,,,,,,,,,,,,,,,,,,,,,,,,,"MET09504/29/20 02:56:02 METAR KHPN 290756Z 09005KT 10SM CLR 06/04 A3014 RMK AO2 SLP208 T00560044 (RV)","FM-15","7",,,,,,,,,,,,,,,,,,,,,,,,,,,,"2009-05-22"
"72503794745","2020-04-29T03:00:00","FM-16","7",,,,,,,,,,,,,,,,,,,,,,,,,,,,,,,,,,,,,,"30.14","40","43",,,,,"89",,"BKN:07 10","29.71","10.00","42","090",,"7",,,,,,,,,,,,,,,,,,,,,,,,,,,,,,,,,,,,,"MET09104/29/20 03:00:02 SPECI KHPN 290800Z 09006KT 10SM BKN010 06/04 A3014 RMK AO2 T00610044 (RV)","FM-16","7",,,,,,,,,,,,,,,,,,,,,,,,,,,,"2009-05-22"
"72503794745","2020-04-29T03:23:00","FM-16","7",,,,,,,,,,,,,,,,,,,,,,,,,,,,,,,,,,,,,,"30.15","41","43",,,,,"93",,"BKN:07 2","29.72","10.00","42","090",,"7",,,,,,,,,,,,,,,,,,,,,,,,,,,,,,,,,,,,,"MET09104/29/20 03:23:02 SPECI KHPN 290823Z 09006KT 10SM BKN002 06/05 A3015 RMK AO2 T00610050 (RV)","FM-16","7",,,,,,,,,,,,,,,,,,,,,,,,,,,,"2009-05-22"
"72503794745","2020-04-29T03:56:00","FM-15","7",,,,,,,,,,,,,,,,,,,,,,,,,,,,,,,,,,,,,,"30.16","41","43","0.00","BR:1 ||","-0.02","3","93","30.16","VV:09 1","29.73","2.00","42","080",,"7",,,,,,,,,,,,,,,,,,,,,,,,,,,,,,,,,,,,,"MET10504/29/20 03:56:02 METAR KHPN 290856Z 08006KT 2SM BR VV001 06/05 A3016 RMK AO2 SLP214 T00610050 53006 (RV)","FM-15","7",,,,,,,,,,,,,,,,,,,,,,,,,,,,"2009-05-22"
"72503794745","2020-04-29T04:54:00","FM-16","6",,,,,,,,,,,,,,,,,,,,,,,,,,,,,,,,,,,,,,"30.17","43","45",,"BR:1 ||",,,"93",,"OVC:08 3","29.74","1.50","44","090",,"8",,,,,,,,,,,,,,,,,,,,,,,,,,,,,,,,,,,,,"MET09204/29/20 04:54:02 SPECI KHPN 290954Z 09007KT 1 1/2SM BR OVC003 07/06 A3017 RMK AO2 FIBI (RV)","FM-16","6",,,,,,,,,,,,,,,,,,,,,,,,,,,,"2009-05-22"
"72503794745","2020-04-29T04:56:00","FM-15","7",,,,,,,,,,,,,,,,,,,,,,,,,,,,,,,,,,,,,,"30.17","42","44","0.00","BR:1 ||",,,"93","30.18","OVC:08 3","29.74","1.50","43","100",,"10",,,,,,,,,,,,,,,,,,,,,,,,,,,,,,,,,,,,,"MET10404/29/20 04:56:02 METAR KHPN 290956Z 10009KT 1 1/2SM BR OVC003 07/06 A3017 RMK AO2 SLP219 T00670056 (RV)","FM-15","7",,,,,,,,,,,,,,,,,,,,,,,,,,,,"2009-05-22"
"72503794745","2020-04-29T05:56:00","FM-15","7",,,,,,,,,,,,,,,,,,,,,,,,,,,,,,,,,,,,,,"30.18","41","43","0.00",,,,"93","30.18","BKN:07 3 OVC:08 5","29.75","3.00","42","100",,"13",,,,,,,,,,,,,,,,,,,,,,,,,,,,,,,,,,,,,"MET10404/29/20 05:56:02 METAR KHPN 291056Z 10011KT 3SM BKN003 OVC005 06/05 A3018 RMK AO2 SLP221 T00610050 (RV)","FM-15","7",,,,,,,,,,,,,,,,,,,,,,,,,,,,"2009-05-22"
"72503794745","2020-04-29T06:54:00","FM-16","6",,,,,,,,,,,,,,,,,,,,,,,,,,,,,,,,,,,,,,"30.21","41","45",,"BR:1 ||",,,"87",,"OVC:08 8","29.78","6.00","43","090",,"9",,,,,,,,,,,,,,,,,,,,,,,,,,,,,,,,,,,,,"MET08804/29/20 06:54:02 SPECI KHPN 291154Z 09008KT 6SM BR OVC008 07/05 A3021 RMK AO2 FIBI (RV)","FM-16","6",,,,,,,,,,,,,,,,,,,,,,,,,,,,"2009-05-22"
"72503794745","2020-04-29T06:56:00","FM-15","7",,,,,,,,,,,,,,,,,,,,,,,,,,,,,,,,,,,,,,"30.21","41","44","0.00","BR:1 ||","-0.05","3","89","30.22","BKN:07 4 OVC:08 8","29.78","6.00","43","090",,"13",,,,,,,,,,,,,,,,,,,,,,,,,,,,,,,,,,,,,"MET12504/29/20 06:56:02 METAR KHPN 291156Z 09011KT 6SM BR BKN004 OVC008 07/05 A3021 RMK AO2 SLP233 T00670050 10072 20056 53017 (RV)","FM-15","7",,,,,,,,,,,,,,,,,,,,,,,,,,,,"2009-05-22"
"72503794745","2020-04-29T07:56:00","FM-15","7",,,,,,,,,,,,,,,,,,,,,,,,,,,,,,,,,,,,,,"30.23","41","44","T","-DZ:01 BR:1 |DZ |DZ",,,"89","30.24","BKN:07 4 OVC:08 8","29.80","6.00","43","090","17","8",,,,,,,,,,,,,,,,,,,,,,,,,,,,,,,,,,,,,"MET13404/29/20 07:56:02 METAR KHPN 291256Z 09007G15KT 6SM -DZ BR BKN004 OVC008 07/05 A3023 RMK AO2 RAB48E54DZB54 SLP239 P0000 T00670050 (JP)","FM-15","7",,,,,,,,,,,,,,,,,,,,,,,,,,,,"2009-05-22"
"72503794745","2020-04-29T08:56:00","FM-15","7",,,,,,,,,,,,,,,,,,,,,,,,,,,,,,,,,,,,,,"30.23","41","44","T","-DZ:01 BR:1 |DZ |DZ",,,"89","30.24","SCT:04 8 OVC:08 50","29.80","6.00","43","100",,"8",,,,,,,,,,,,,,,,,,,,,,,,,,,,,,,,,,,,,"MET11704/29/20 08:56:02 METAR KHPN 291356Z 10007KT 6SM -DZ BR SCT008 OVC050 07/05 A3023 RMK AO2 SLP241 P0000 T00670050 (JP)","FM-15","7",,,,,,,,,,,,,,,,,,,,,,,,,,,,"2009-05-22"
"72503794745","2020-04-29T09:56:00","FM-15","7",,,,,,,,,,,,,,,,,,,,,,,,,,,,,,,,,,,,,,"30.24","41","45","T",,"-0.03","1","86","30.24","SCT:04 49 OVC:08 60","29.81","10.00","43","080",,"6",,,,,,,,,,,,,,,,,,,,,,,,,,,,,,,,,,,,,"MET12904/29/20 09:56:02 METAR KHPN 291456Z 08005KT 10SM SCT049 OVC060 07/05 A3024 RMK AO2 DZE55 SLP242 P0000 60000 T00720050 51009 (JP)","FM-15","7",,,,,,,,,,,,,,,,,,,,,,,,,,,,"2009-05-22"
"72503794745","2020-04-29T10:56:00","FM-15","7",,,,,,,,,,,,,,,,,,,,,,,,,,,,,,,,,,,,,,"30.25","42","48","0.00",,,,"80","30.26","BKN:07 47","29.82","10.00","45","100",,"7",,,,,,,,,,,,,,,,,,,,,,,,,,,,,,,,,,,,,"MET09804/29/20 10:56:02 METAR KHPN 291556Z 10006KT 10SM BKN047 09/06 A3025 RMK AO2 SLP247 T00890056 (JP)","FM-15","7",,,,,,,,,,,,,,,,,,,,,,,,,,,,"2009-05-22"
"72503794745","2020-04-29T11:56:00","FM-15","7",,,,,,,,,,,,,,,,,,,,,,,,,,,,,,,,,,,,,,"30.24","41","50","0.00",,,,"71","30.24","BKN:07 49","29.81","10.00","46","090",,"11",,,,,,,,,,,,,,,,,,,,,,,,,,,,,,,,,,,,,"MET09804/29/20 11:56:02 METAR KHPN 291656Z 09010KT 10SM BKN049 10/05 A3024 RMK AO2 SLP242 T01000050 (JP)","FM-15","7",,,,,,,,,,,,,,,,,,,,,,,,,,,,"2009-05-22"
"72503794745","2020-04-29T12:56:00","FM-15","7",,,,,,,,,,,,,,,,,,,,,,,,,,,,,,,,,,,,,,"30.22","41","51","0.00",,"+0.01","8","69","30.23","BKN:07 43","29.79","10.00","46","110",,"9",,,,,,,,,,,,,,,,,,,,,,,,,,,,,,,,,,,,,"MET12204/29/20 12:56:02 METAR KHPN 291756Z 11008KT 10SM BKN043 11/05 A3022 RMK AO2 SLP238 60000 T01060050 10111 20061 58004 (JP)","FM-15","7",,,,,,,,,,,,,,,,,,,,,,,,,,,,"2009-05-22"
"72503794745","2020-04-29T13:56:00","FM-15","7",,,,,,,,,,,,,,,,,,,,,,,,,,,,,,,,,,,,,,"30.23","40","51","0.00",,,,"66","30.24","OVC:08 42","29.80","10.00","46","120","21","9",,,,,,,,,,,,,,,,,,,,,,,,,,,,,,,,,,,,,"MET10104/29/20 13:56:02 METAR KHPN 291856Z 12008G18KT 10SM OVC042 11/04 A3023 RMK AO2 SLP241 T01060044 (JP)","FM-15","7",,,,,,,,,,,,,,,,,,,,,,,,,,,,"2009-05-22"
"72503794745","2020-04-29T14:56:00","FM-15","7",,,,,,,,,,,,,,,,,,,,,,,,,,,,,,,,,,,,,,"30.23","40","51","0.00",,,,"66","30.24","BKN:07 41","29.80","10.00","46","120",,"11",,,,,,,,,,,,,,,,,,,,,,,,,,,,,,,,,,,,,"MET09804/29/20 14:56:02 METAR KHPN 291956Z 12010KT 10SM BKN041 11/04 A3023 RMK AO2 SLP241 T01060044 (MM)","FM-15","7",,,,,,,,,,,,,,,,,,,,,,,,,,,,"2009-05-22"
"72503794745","2020-04-29T15:56:00","FM-15","7",,,,,,,,,,,,,,,,,,,,,,,,,,,,,,,,,,,,,,"30.23","41","50","0.00",,"-0.01","0","71","30.24","BKN:07 39","29.80","10.00","46","110","20","14",,,,,,,,,,,,,,,,,,,,,,,,,,,,,,,,,,,,,"MET10704/29/20 15:56:02 METAR KHPN 292056Z 11012G17KT 10SM BKN039 10/05 A3023 RMK AO2 SLP240 T01000050 50002 (MM)","FM-15","7",,,,,,,,,,,,,,,,,,,,,,,,,,,,"2009-05-22"
"72503794745","2020-04-29T16:56:00","FM-15","7",,,,,,,,,,,,,,,,,,,,,,,,,,,,,,,,,,,,,,"30.22","41","49","0.00",,,,"74","30.23","BKN:07 39","29.79","10.00","45","100","22","11",,,,,,,,,,,,,,,,,,,,,,,,,,,,,,,,,,,,,"MET10104/29/20 16:56:02 METAR KHPN 292156Z 10010G19KT 10SM BKN039 09/05 A3022 RMK AO2 SLP238 T00940050 (MM)","FM-15","7",,,,,,,,,,,,,,,,,,,,,,,,,,,,"2009-05-22"
"72503794745","2020-04-29T17:56:00","FM-15","7",,,,,,,,,,,,,,,,,,,,,,,,,,,,,,,,,,,,,,"30.23","41","49","0.00",,,,"74","30.24","BKN:07 35","29.80","10.00","45","110","23","15",,,,,,,,,,,,,,,,,,,,,,,,,,,,,,,,,,,,,"MET10104/29/20 17:56:02 METAR KHPN 292256Z 11013G20KT 10SM BKN035 09/05 A3023 RMK AO2 SLP241 T00940050 (MM)","FM-15","7",,,,,,,,,,,,,,,,,,,,,,,,,,,,"2009-05-22"
"72503794745","2020-04-29T18:56:00","FM-15","7",,,,,,,,,,,,,,,,,,,,,,,,,,,,,,,,,,,,,,"30.23","42","47","T",,"+0.00","6","83","30.24","BKN:07 31","29.80","10.00","45","110",,"13",,,,,,,,,,,,,,,,,,,,,,,,,,,,,,,,,,,,,"MET13704/29/20 18:56:02 METAR KHPN 292356Z 11011KT 10SM BKN031 08/06 A3023 RMK AO2 RAB07E56 SLP239 P0000 60000 T00830056 10106 20083 56001 (MM)","FM-15","7",,,,,,,,,,,,,,,,,,,,,,,,,,,,"2009-05-22"
"72503794745","2020-04-29T19:56:00","FM-15","7",,,,,,,,,,,,,,,,,,,,,,,,,,,,,,,,,,,,,,"30.23","39","47","T",,,,"74","30.24","BKN:07 31","29.80","10.00","43","110",,"13",,,,,,,,,,,,,,,,,,,,,,,,,,,,,,,,,,,,,"MET11304/29/20 19:56:03 METAR KHPN 300056Z 11011KT 10SM BKN031 08/04 A3023 RMK AO2 RAB30E44 SLP239 P0000 T00830039 (MM)","FM-15","7",,,,,,,,,,,,,,,,,,,,,,,,,,,,"2009-05-22"
"72503794745","2020-04-29T20:56:00","FM-15","7",,,,,,,,,,,,,,,,,,,,,,,,,,,,,,,,,,,,,,"30.22","38","46","T","-RA:02 |RA |RA",,,"73","30.24","BKN:07 31","29.79","10.00","42","100",,"14",,,,,,,,,,,,,,,,,,,,,,,,,,,,,,,,,,,,,"MET12004/29/20 20:56:03 METAR KHPN 300156Z 10012KT 10SM -RA BKN031 08/03 A3022 RMK AO2 RAB03E13B48 SLP239 P0000 T00780033 (MM)","FM-15","7",,,,,,,,,,,,,,,,,,,,,,,,,,,,"2009-05-22"
"72503794745","2020-04-29T21:54:00","FM-16","6",,,,,,,,,,,,,,,,,,,,,,,,,,,,,,,,,,,,,,"30.22","39","46",,"-RA:02 |RA |RA",,,"76",,"OVC:08 28","29.79","10.00","43","100","22","13",,,,,,,,,,,,,,,,,,,,,,,,,,,,,,,,,,,,,"MET09904/29/20 21:54:03 SPECI KHPN 300254Z 10011G19KT 10SM -RA OVC028 08/04 A3022 RMK AO2 P0000 FIBI (MM)","FM-16","6",,,,,,,,,,,,,,,,,,,,,,,,,,,,"2009-05-22"
"72503794745","2020-04-29T21:56:00","FM-15","7",,,,,,,,,,,,,,,,,,,,,,,,,,,,,,,,,,,,,,"30.22","39","46","T",,"+0.01","8","77","30.23","OVC:08 28","29.79","10.00","43","100",,"11",,,,,,,,,,,,,,,,,,,,,,,,,,,,,,,,,,,,,"MET12204/29/20 21:56:03 METAR KHPN 300256Z 10010KT 10SM OVC028 08/04 A3022 RMK AO2 RAE55 SLP236 P0000 60000 T00780039 58004 (MM)","FM-15","7",,,,,,,,,,,,,,,,,,,,,,,,,,,,"2009-05-22"
"72503794745","2020-04-29T22:56:00","FM-15","7",,,,,,,,,,,,,,,,,,,,,,,,,,,,,,,,,,,,,,"30.21","38","46","T",,,,"73","30.22","OVC:08 27","29.78","10.00","42","100",,"10",,,,,,,,,,,,,,,,,,,,,,,,,,,,,,,,,,,,,"MET11304/29/20 22:56:03 METAR KHPN 300356Z 10009KT 10SM OVC027 08/03 A3021 RMK AO2 RAB18E40 SLP232 P0000 T00780033 (MM)","FM-15","7",,,,,,,,,,,,,,,,,,,,,,,,,,,,"2009-05-22"
"72503794745","2020-04-29T23:56:00","FM-15","7",,,,,,,,,,,,,,,,,,,,,,,,,,,,,,,,,,,,,,"30.20","37","47","0.00",,,,"69","30.21","OVC:08 27","29.77","10.00","42","100",,"9",,,,,,,,,,,,,,,,,,,,,,,,,,,,,,,,,,,,,"MET10804/29/20 23:56:03 METAR KHPN 300456Z 10008KT 10SM OVC027 08/03 A3020 RMK AO2 SLP230 T00830028 401110056 (AF)","FM-15","7",,,,,,,,,,,,,,,,,,,,,,,,,,,,"2009-05-22"
"72503794745","2020-04-29T23:59:00","SOD  ","6",,,,,,,,,,,,,,,,"47",,,"29.77",,"10.0","0","-6.1","18","52","42","120","23","T",,,"110","17","RA DZ BR",,,,,,,,,,,,,,,,,,,,,,,,,,,,,,,,,,,,,,,,,,,,,,,,,,,,,,,,"SOD73024 HR PRECIPITATION (IN):T     24 HR MAX TEMP (F):52 24 HR MAX TEMP TIME (LST):1232 24 HR MIN TEMP (F):42 24 HR MIN TEMP TIME (LST):0258 AVERAGE STATION PRESSURE:29.765 MINIMUM SEA LEVEL PRESSURE:29.77 TIME OF OCCURRENCE:0016 PEAK WIND SPEED (MPH):23  PEAK WIND DIR (DEG):120 PEAK WIND TIME (LST):1740  FASTEST 2MIN SPEED (MPH):17 FASTEST 2MIN DIR (DEG):110 FASTEST 2MIN TIME (LST):1755 AVERAGE WIND SPEED (MPH):10.0 24 HR AVG TEMP (F):47 HEATING DEGREE DAYS:18  COOLING DEGREE DAYS:0   LATEST DAY MAX TEMP (0700-1900 LST):52  LATEST NIGHT MIN TEMP(1900-0800 LST):42 HOURLY INCREMENTAL PRECIPITATION VALUES (IN):.00 0.00 0.00 0.00 0.00 0.00 0.00 T    T    T    0.00 0.00 0.00 0.00 0.00 0.00 0.00 0.00 T    T    T    T    T    0.00","SOD  ","6",,,,,,,,,,,,,,,,,,,,,,,,,"0454","1850",,"2009-05-22"
"72503794745","2020-04-30T00:56:00","FM-15","7",,,,,,,,,,,,,,,,,,,,,,,,,,,,,,,,,,,,,,"30.18","38","45","0.01","-RA:02 |RA |RA","+0.04","8","77","30.19","OVC:08 25","29.75","10.00","42","100",,"10",,,,,,,,,,,,,,,,,,,,,,,,,,,,,,,,,,,,,"MET13804/30/20 00:56:02 METAR KHPN 300556Z 10009KT 10SM -RA OVC025 07/03 A3018 RMK AO2 RAB07 SLP223 P0001 60001 T00720033 10083 20072 58013 (AF)","FM-15","7",,,,,,,,,,,,,,,,,,,,,,,,,,,,"2009-05-22"
"72503794745","2020-04-30T01:56:00","FM-15","7",,,,,,,,,,,,,,,,,,,,,,,,,,,,,,,,,,,,,,"30.17","40","44","0.11","RA:02 BR:1 |RA |RA",,,"85","30.18","OVC:08 20","29.74","3.00","42","100",,"6",,,,,,,,,,,,,,,,,,,,,,,,,,,,,,,,,,,,,"MET10904/30/20 01:56:02 METAR KHPN 300656Z 10005KT 3SM RA BR OVC020 07/04 A3017 RMK AO2 SLP219 P0009 T00670044 (RV)","FM-15","7",,,,,,,,,,,,,,,,,,,,,,,,,,,,"2009-05-22"
"72503794745","2020-04-30T02:43:00","FM-16","7",,,,,,,,,,,,,,,,,,,,,,,,,,,,,,,,,,,,,,"30.15","41","43","0.04","BR:1 ||",,,"93",,"OVC:08 14","29.72","6.00","42","090",,"11",,,,,,,,,,,,,,,,,,,,,,,,,,,,,,,,,,,,,"MET10504/30/20 02:43:02 SPECI KHPN 300743Z 09010KT 6SM BR OVC014 06/05 A3015 RMK AO2 RAE39 P0004 T00610050 (RV)","FM-16","7",,,,,,,,,,,,,,,,,,,,,,,,,,,,"2009-05-22"
"72503794745","2020-04-30T02:56:00","FM-15","7",,,,,,,,,,,,,,,,,,,,,,,,,,,,,,,,,,,,,,"30.15","41","44","0.02","BR:1 ||",,,"89","30.16","OVC:08 12","29.72","6.00","43","090",,"11",,,,,,,,,,,,,,,,,,,,,,,,,,,,,,,,,,,,,"MET11204/30/20 02:56:02 METAR KHPN 300756Z 09010KT 6SM BR OVC012 07/05 A3015 RMK AO2 RAE39 SLP214 P0004 T00670050 (RV)","FM-15","7",,,,,,,,,,,,,,,,,,,,,,,,,,,,"2009-05-22"
"72503794745","2020-04-30T03:54:00","FM-16","6",,,,,,,,,,,,,,,,,,,,,,,,,,,,,,,,,,,,,,"30.14","43","45",,"-RA:02 BR:1 |RA |RA",,,"93",,"BKN:07 4","29.71","2.00","44","090",,"10",,,,,,,,,,,,,,,,,,,,,,,,,,,,,,,,,,,,,"MET10404/30/20 03:54:02 SPECI KHPN 300854Z 09009KT 2SM -RA BR BKN004 07/06 A3014 RMK AO2 RAB52 P0004 FIBI (RV)","FM-16","6",,,,,,,,,,,,,,,,,,,,,,,,,,,,"2009-05-22"
"72503794745","2020-04-30T03:56:00","FM-15","7",,,,,,,,,,,,,,,,,,,,,,,,,,,,,,,,,,,,,,"30.14","42","44","0.05","-RA:02 BR:1 |RA |RA","+0.04","7","93","30.15","BKN:07 4","29.71","2.00","43","090",,"11",,,,,,,,,,,,,,,,,,,,,,,,,,,,,,,,,,,,,"MET12804/30/20 03:56:02 METAR KHPN 300856Z 09010KT 2SM -RA BR BKN004 07/06 A3014 RMK AO2 RAB52 SLP210 P0005 60018 T00670056 57013 (RV)","FM-15","7",,,,,,,,,,,,,,,,,,,,,,,,,,,,"2009-05-22"
"72503794745","2020-04-30T04:54:00","FM-16","6",,,,,,,,,,,,,,,,,,,,,,,,,,,,,,,,,,,,,,"30.13","43","45",,"-RA:02 BR:1 |RA |RA",,,"93",,"BKN:07 4","29.70","5.00","44","090",,"11",,,,,,,,,,,,,,,,,,,,,,,,,,,,,,,,,,,,,"MET09804/30/20 04:54:02 SPECI KHPN 300954Z 09010KT 5SM -RA BR BKN004 07/06 A3013 RMK AO2 P0004 FIBI (RV)","FM-16","6",,,,,,,,,,,,,,,,,,,,,,,,,,,,"2009-05-22"
"72503794745","2020-04-30T04:56:00","FM-15","7",,,,,,,,,,,,,,,,,,,,,,,,,,,,,,,,,,,,,,"30.13","43","44","0.05","-RA:02 BR:1 |RA |RA",,,"96","30.14","BKN:07 4","29.70","5.00","44","090",,"13",,,,,,,,,,,,,,,,,,,,,,,,,,,,,,,,,,,,,"MET11004/30/20 04:56:02 METAR KHPN 300956Z 09011KT 5SM -RA BR BKN004 07/06 A3013 RMK AO2 SLP205 P0005 T00670061 (RV)","FM-15","7",,,,,,,,,,,,,,,,,,,,,,,,,,,,"2009-05-22"
"72503794745","2020-04-30T05:56:00","FM-15","7",,,,,,,,,,,,,,,,,,,,,,,,,,,,,,,,,,,,,,"30.13","44","45","0.04","-RA:02 BR:1 |RA |RA",,,"97","30.14","OVC:08 3","29.70","8.00","45","090","18","15",,,,,,,,,,,,,,,,,,,,,,,,,,,,,,,,,,,,,"MET11304/30/20 05:56:02 METAR KHPN 301056Z 09013G16KT 8SM -RA BR OVC003 07/07 A3013 RMK AO2 SLP206 P0004 T00720067 (RV)","FM-15","7",,,,,,,,,,,,,,,,,,,,,,,,,,,,"2009-05-22"
"72503794745","2020-04-30T06:56:00","FM-15","7",,,,,,,,,,,,,,,,,,,,,,,,,,,,,,,,,,,,,,"30.11","45","46","0.06","-RA:02 BR:1 |RA |RA","+0.03","8","96","30.12","OVC:08 2","29.68","5.00","46","090",,"13",,,,,,,,,,,,,,,,,,,,,,,,,,,,,,,,,,,,,"MET14004/30/20 06:56:02 METAR KHPN 301156Z 09011KT 5SM -RA BR OVC002 08/07 A3011 RMK AO2 SLP200 P0004 60031 70032 T00780072 10078 20061 58010 (RV)","FM-15","7",,,,,,,,,,,,,,,,,,,,,,,,,,,,"2009-05-22"
"72503794745","2020-04-30T07:19:00","FM-16","6",,,,,,,,,,,,,,,,,,,,,,,,,,,,,,,,,,,,,,"30.10","45","46",,"+RA:02 BR:1 |RA |RA",,,"96",,"OVC:08 3","29.67","2.00V","46","090",,"9",,,,,,,,,,,,,,,,,,,,,,,,,,,,,,,,,,,,,"MET11504/30/20 07:19:02 SPECI KHPN 301219Z 09008KT 2SM +RA BR OVC003 08/07 A3010 RMK AO2 VIS 1 1/2V5 P0007 T00780072 (RV)","FM-16","6",,,,,,,,,,,,,,,,,,,,,,,,,,,,"2009-05-22"
"72503794745","2020-04-30T07:26:00","FM-16","7",,,,,,,,,,,,,,,,,,,,,,,,,,,,,,,,,,,,,,"30.10","45","46","0.10","RA:02 BR:1 |RA |RA",,,"96",,"VV:09 3","29.67","1.50","46","090","18","14",,,,,,,,,,,,,,,,,,,,,,,,,,,,,,,,,,,,,"MET10804/30/20 07:26:02 SPECI KHPN 301226Z 09012G16KT 1 1/2SM RA BR VV003 08/07 A3010 RMK AO2 P0010 T00780072 (RV)","FM-16","7",,,,,,,,,,,,,,,,,,,,,,,,,,,,"2009-05-22"
"72503794745","2020-04-30T07:56:00","FM-15","7",,,,,,,,,,,,,,,,,,,,,,,,,,,,,,,,,,,,,,"30.08","45","46","0.11","-RA:02 BR:1 |RA |RA",,,"96","30.09","VV:09 3","29.65","0.75","46","090","22","16",,,,,,,,,,,,,,,,,,,,,,,,,,,,,,,,,,,,,"MET11404/30/20 07:56:02 METAR KHPN 301256Z 09014G19KT 3/4SM -RA BR VV003 08/07 A3008 RMK AO2 SLP190 P0013 T00780072 (RV)","FM-15","7",,,,,,,,,,,,,,,,,,,,,,,,,,,,"2009-05-22"
"72503794745","2020-04-30T08:12:00","FM-16","7",,,,,,,,,,,,,,,,,,,,,,,,,,,,,,,,,,,,,,"30.09","46","47","0.02","+RA:02 BR:1 |RA |RA",,,"97",,"VV:09 3","29.66","0.75","47","090","22","13",,,,,,,,,,,,,,,,,,,,,,,,,,,,,,,,,,,,,"MET11904/30/20 08:12:02 SPECI KHPN 301312Z 09011G19KT 3/4SM R16/P6000FT +RA BR VV003 08/08 A3009 RMK AO2 P0002 T00830078 (RV)","FM-16","7",,,,,,,,,,,,,,,,,,,,,,,,,,,,"2009-05-22"
"72503794745","2020-04-30T08:26:00","FM-16","7",,,,,,,,,,,,,,,,,,,,,,,,,,,,,,,,,,,,,,"30.09","46","47","0.02","-RA:02 FG:2 |FG RA |RA",,,"97",,"VV:09 1","29.66","0.25","47","100",,"10",,,,,,,,,,,,,,,,,,,,,,,,,,,,,,,,,,,,,"MET12104/30/20 08:26:02 SPECI KHPN 301326Z 10009KT 1/4SM R16/3500VP6000FT -RA FG VV001 08/08 A3009 RMK AO2 P0002 T00830078 (RV)","FM-16","7",,,,,,,,,,,,,,,,,,,,,,,,,,,,"2009-05-22"
"72503794745","2020-04-30T08:56:00","FM-15","7",,,,,,,,,,,,,,,,,,,,,,,,,,,,,,,,,,,,,,"30.07","47","48","0.02","-RA:02 FG:2 |FG RA |RA",,,"96","30.08","VV:09 1","29.64","0.00","48","090",,"11",,,,,,,,,,,,,,,,,,,,,,,,,,,,,,,,,,,,,"MET12804/30/20 08:56:02 METAR KHPN 301356Z 09010KT M1/4SM R16/2200V4000FT -RA FG VV001 09/08 A3007 RMK AO2 SLP187 P0002 T00890083 (RV)","FM-15","7",,,,,,,,,,,,,,,,,,,,,,,,,,,,"2009-05-22"
"72503794745","2020-04-30T09:54:00","FM-16","6",,,,,,,,,,,,,,,,,,,,,,,,,,,,,,,,,,,,,,"30.06","48","50",,"FG:2 |FG |",,,"94",,"OVC:08 1","29.63","0.50","49","100","21","10",,,,,,,,,,,,,,,,,,,,,,,,,,,,,,,,,,,,,"MET11704/30/20 09:54:02 SPECI KHPN 301454Z 10009G18KT 1/2SM R16/P6000FT FG OVC001 10/09 A3006 RMK AO2 RAE48 P0001 FIBI (RV)","FM-16","6",,,,,,,,,,,,,,,,,,,,,,,,,,,,"2009-05-22"
"72503794745","2020-04-30T09:56:00","FM-15","7",,,,,,,,,,,,,,,,,,,,,,,,,,,,,,,,,,,,,,"30.06","50","50","0.01","FG:2 |FG |","+0.05","6","100","30.07","OVC:08 1","29.63","0.50","50","090",,"11",,,,,,,,,,,,,,,,,,,,,,,,,,,,,,,,,,,,,"MET13804/30/20 09:56:02 METAR KHPN 301456Z 09010KT 1/2SM R16/P6000FT FG OVC001 10/10 A3006 RMK AO2 RAE48 SLP183 P0001 60016 T01000100 56017 (RV)","FM-15","7",,,,,,,,,,,,,,,,,,,,,,,,,,,,"2009-05-22"
"72503794745","2020-04-30T10:54:00","FM-16","6",,,,,,,,,,,,,,,,,,,,,,,,,,,,,,,,,,,,,,"30.05","54","55",,"RA:02 BR:1 |RA |RA",,,"94",,"OVC:08 5","29.62","0.75","54","140","24","20",,,,,,,,,,,,,,,,,,,,,,,,,,,,,,,,,,,,,"MET12504/30/20 10:54:02 SPECI KHPN 301554Z 14017G21KT 3/4SM R16/4000VP6000FT RA BR OVC005 13/12 A3005 RMK AO2 RAB16 P0006 FIBI (WS)","FM-16","6",,,,,,,,,,,,,,,,,,,,,,,,,,,,"2009-05-22"
"72503794745","2020-04-30T10:56:00","FM-15","7",,,,,,,,,,,,,,,,,,,,,,,,,,,,,,,,,,,,,,"30.05","54","55","0.06","RA:02 BR:1 |RA |RA",,,"96","30.05","OVC:08 5","29.62","0.75","54","140","24","17",,,,,,,,,,,,,,,,,,,,,,,,,,,,,,,,,,,,,"MET13704/30/20 10:56:02 METAR KHPN 301556Z 14015G21KT 3/4SM R16/4000VP6000FT RA BR OVC005 13/12 A3005 RMK AO2 RAB16 SLP177 P0006 T01280122 (WS)","FM-15","7",,,,,,,,,,,,,,,,,,,,,,,,,,,,"2009-05-22"
"72503794745","2020-04-30T11:21:00","FM-16","7",,,,,,,,,,,,,,,,,,,,,,,,,,,,,,,,,,,,,,"30.04","54","56","T","-RA:02 |RA |RA",,,"93",,"BKN:07 7 OVC:08 10","29.61","10.00","55","140","26","20",,,,,,,,,,,,,,,,,,,,,,,,,,,,,,,,,,,,,"MET11104/30/20 11:21:02 SPECI KHPN 301621Z 14017G23KT 10SM -RA BKN007 OVC010 13/12 A3004 RMK AO2 P0000 T01330122 (WS)","FM-16","7",,,,,,,,,,,,,,,,,,,,,,,,,,,,"2009-05-22"
"72503794745","2020-04-30T11:54:00","FM-16","6",,,,,,,,,,,,,,,,,,,,,,,,,,,,,,,,,,,,,,"30.03","54","57",,,,,"88",,"BKN:07 15","29.60","10.00","55","140","26","18",,,,,,,,,,,,,,,,,,,,,,,,,,,,,,,,,,,,,"MET11904/30/20 11:54:02 SPECI KHPN 301654Z 14016G23KT 10SM BKN015 14/12 A3003 RMK AO2 PK WND 13028/1622 RAE52 P0000 FIBI (WS)","FM-16","6",,,,,,,,,,,,,,,,,,,,,,,,,,,,"2009-05-22"
"72503794745","2020-04-30T11:56:00","FM-15","7",,,,,,,,,,,,,,,,,,,,,,,,,,,,,,,,,,,,,,"30.03","54","57","T",,,,"90","30.03","BKN:07 15","29.60","10.00","55","140","26","18",,,,,,,,,,,,,,,,,,,,,,,,,,,,,,,,,,,,,"MET13104/30/20 11:56:02 METAR KHPN 301656Z 14016G23KT 10SM BKN015 14/12 A3003 RMK AO2 PK WND 13028/1622 RAE52 SLP169 P0000 T01390122 (WS)","FM-15","7",,,,,,,,,,,,,,,,,,,,,,,,,,,,"2009-05-22"
"72503794745","2020-04-30T12:56:00","FM-15","7",,,,,,,,,,,,,,,,,,,,,,,,,,,,,,,,,,,,,,"30.01","53","58","T",,"+0.05","8","84","30.01","SCT:04 18 BKN:07 24 OVC:08 60","29.58","10.00","55","140","25","18",,,,,,,,,,,,,,,,,,,,,,,,,,,,,,,,,,,,,"MET17204/30/20 12:56:02 METAR KHPN 301756Z 14016G22KT 10SM SCT018 BKN024 OVC060 14/12 A3001 RMK AO2 PK WND 13027/1731 RAB08E18 SLP163 P0000 60022 T01440117 10144 20078 58018 (WS)","FM-15","7",,,,,,,,,,,,,,,,,,,,,,,,,,,,"2009-05-22"
"72503794745","2020-04-30T13:56:00","FM-15","7",,,,,,,,,,,,,,,,,,,,,,,,,,,,,,,,,,,,,,"29.98","53","59","0.00",,,,"81","29.98","BKN:07 22 OVC:08 48","29.55","10.00","56","140","30","22",,,,,,,,,,,,,,,,,,,,,,,,,,,,,,,,,,,,,"MET12604/30/20 13:56:02 METAR KHPN 301856Z 14019G26KT 10SM BKN022 OVC048 15/12 A2998 RMK AO2 PK WND 15027/1840 SLP154 T01500117 (WS)","FM-15","7",,,,,,,,,,,,,,,,,,,,,,,,,,,,"2009-05-22"
"72503794745","2020-04-30T14:54:00","FM-16","6",,,,,,,,,,,,,,,,,,,,,,,,,,,,,,,,,,,,,,"29.96","52","59",,,,,"77",,"BKN:07 46 OVC:08 55","29.53","10.00","55","130","31","23",,,,,,,,,,,,,,,,,,,,,,,,,,,,,,,,,,,,,"MET11404/30/20 14:54:02 SPECI KHPN 301954Z 13020G27KT 10SM BKN046 OVC055 15/11 A2996 RMK AO2 PK WND 14030/1907 FIBI (WS)","FM-16","6",,,,,,,,,,,,,,,,,,,,,,,,,,,,"2009-05-22"
"72503794745","2020-04-30T14:56:00","FM-15","7",,,,,,,,,,,,,,,,,,,,,,,,,,,,,,,,,,,,,,"29.96","52","59","0.00",,,,"78","29.96","BKN:07 46 OVC:08 55","29.53","10.00","55","140","31","24",,,,,,,,,,,,,,,,,,,,,,,,,,,,,,,,,,,,,"MET12604/30/20 14:56:02 METAR KHPN 301956Z 14021G27KT 10SM BKN046 OVC055 15/11 A2996 RMK AO2 PK WND 14030/1907 SLP145 T01500111 (WS)","FM-15","7",,,,,,,,,,,,,,,,,,,,,,,,,,,,"2009-05-22"
"72503794745","2020-04-30T15:56:00","FM-15","7",,,,,,,,,,,,,,,,,,,,,,,,,,,,,,,,,,,,,,"29.93","52","59","0.00",,"+0.07","6","78","29.93","BKN:07 46 OVC:08 55","29.50","10.00","55","140","33","20",,,,,,,,,,,,,,,,,,,,,,,,,,,,,,,,,,,,,"MET13204/30/20 15:56:02 METAR KHPN 302056Z 14017G29KT 10SM BKN046 OVC055 15/11 A2993 RMK AO2 PK WND 13030/2003 SLP137 T01500111 56025 (WS)","FM-15","7",,,,,,,,,,,,,,,,,,,,,,,,,,,,"2009-05-22"
"72503794745","2020-04-30T16:03:00","FM-16","7",,,,,,,,,,,,,,,,,,,,,,,,,,,,,,,,,,,,,,"29.94","52","59",,,,,"78",,"BKN:07 21 OVC:08 50","29.51","10.00","55","130","33","23",,,,,,,,,,,,,,,,,,,,,,,,,,,,,,,,,,,,,"MET11904/30/20 16:03:02 SPECI KHPN 302103Z 13020G29KT 10SM BKN021 OVC050 15/11 A2994 RMK AO2 PK WND 15026/2101 T01500111 (WS)","FM-16","7",,,,,,,,,,,,,,,,,,,,,,,,,,,,"2009-05-22"
"72503794745","2020-04-30T16:56:00","FM-15","7",,,,,,,,,,,,,,,,,,,,,,,,,,,,,,,,,,,,,,"29.92","52","58","0.00",,,,"81","29.93","OVC:08 19","29.49","10.00","55","130","28","18",,,,,,,,,,,,,,,,,,,,,,,,,,,,,,,,,,,,,"MET11904/30/20 16:56:02 METAR KHPN 302156Z 13016G24KT 10SM OVC019 14/11 A2992 RMK AO2 PK WND 14030/2114 SLP135 T01440111 (WS)","FM-15","7",,,,,,,,,,,,,,,,,,,,,,,,,,,,"2009-05-22"
"72503794745","2020-04-30T17:56:00","FM-15","7",,,,,,,,,,,,,,,,,,,,,,,,,,,,,,,,,,,,,,"29.90","51","56","0.00",,,,"84","29.90","BKN:07 20 OVC:08 47","29.47","10.00","53","130","28","20",,,,,,,,,,,,,,,,,,,,,,,,,,,,,,,,,,,,,"MET12604/30/20 17:56:02 METAR KHPN 302256Z 13017G24KT 10SM BKN020 OVC047 13/11 A2990 RMK AO2 PK WND 14028/2222 SLP126 T01330106 (WS)","FM-15","7",,,,,,,,,,,,,,,,,,,,,,,,,,,,"2009-05-22"
"72503794745","2020-04-30T18:56:00","FM-15","7",,,,,,,,,,,,,,,,,,,,,,,,,,,,,,,,,,,,,,"29.88","52","56","0.00",,"+0.06","8","87","29.88","BKN:07 17 OVC:08 60","29.45","10.00","54","130","28","17",,,,,,,,,,,,,,,,,,,,,,,,,,,,,,,,,,,,,"MET14404/30/20 18:56:02 METAR KHPN 302356Z 13015G24KT 10SM BKN017 OVC060 13/11 A2988 RMK AO2 PK WND 13029/2310 SLP119 T01330111 10150 20133 58019 (WS)","FM-15","7",,,,,,,,,,,,,,,,,,,,,,,,,,,,"2009-05-22"
"72503794745","2020-04-30T19:56:00","FM-15","7",,,,,,,,,,,,,,,,,,,,,,,,,,,,,,,,,,,,,,"29.84","52","57","T",,,,"83","29.85","OVC:08 15","29.41","10.00","54","130","32","21",,,,,,,,,,,,,,,,,,,,,,,,,,,,,,,,,,,,,"MET11904/30/20 19:56:03 METAR KHPN 010056Z 13018G28KT 10SM OVC015 14/11 A2984 RMK AO2 PK WND 12029/0008 SLP107 T01390111 (WS)","FM-15","7",,,,,,,,,,,,,,,,,,,,,,,,,,,,"2009-05-22"
"72503794745","2020-04-30T20:56:00","FM-15","7",,,,,,,,,,,,,,,,,,,,,,,,,,,,,,,,,,,,,,"29.82","53","56","0.14","RA:02 BR:1 |RA |RA",,,"90","29.82","OVC:08 16","29.39","3.00","54","130","36","21",,,,,,,,,,,,,,,,,,,,,,,,,,,,,,,,,,,,,"MET13804/30/20 20:56:03 METAR KHPN 010156Z 13018G31KT 3SM RA BR OVC016 13/12 A2982 RMK AO2 PK WND 12031/0154 RAB0058 SLP097 P0012 T01330117 (WS)","FM-15","7",,,,,,,,,,,,,,,,,,,,,,,,,,,,"2009-05-22"
"72503794745","2020-04-30T20:58:00","FM-16","7",,,,,,,,,,,,,,,,,,,,,,,,,,,,,,,,,,,,,,"29.82","53","56","0.02","RA:02 BR:1 |RA |RA",,,"90",,"FEW:02 9 OVC:08 15","29.39","2.50","54","130","36","21",,,,,,,,,,,,,,,,,,,,,,,,,,,,,,,,,,,,,"MET11604/30/20 20:58:03 SPECI KHPN 010158Z 13018G31KT 2 1/2SM RA BR FEW009 OVC015 13/12 A2982 RMK AO2 P0002 T01330117 (WS)","FM-16","7",,,,,,,,,,,,,,,,,,,,,,,,,,,,"2009-05-22"
"72503794745","2020-04-30T21:54:00","FM-16","6",,,,,,,,,,,,,,,,,,,,,,,,,,,,,,,,,,,,,,"29.82","54","55",,"-RA:02 BR:1 |RA |RA",,,"94",,"BKN:07 7 OVC:08 10","29.39","5.00","54","160","26","20",,,,,,,,,,,,,,,,,,,,,,,,,,,,,,,,,,,,,"MET13804/30/20 21:54:03 SPECI KHPN 010254Z 16017G23KT 5SM -RA BR BKN007 OVC010 13/12 A2982 RMK AO2 PK WND 15033/0231 CIG 005V008 P0013 FIBI (AF)","FM-16","6",,,,,,,,,,,,,,,,,,,,,,,,,,,,"2009-05-22"
"72503794745","2020-04-30T21:56:00","FM-15","7",,,,,,,,,,,,,,,,,,,,,,,,,,,,,,,,,,,,,,"29.82","54","56","0.12","-RA:02 BR:1 |RA |RA","+0.06","5","93","29.82","OVC:08 7","29.39","6.00","55","150","26","17",,,,,,,,,,,,,,,,,,,,,,,,,,,,,,,,,,,,,"MET15504/30/20 21:56:03 METAR KHPN 010256Z 15015G23KT 6SM -RA BR OVC007 13/12 A2982 RMK AO2 PK WND 15033/0231 CIG 005V011 SLP097 P0013 60025 T01330122 55020 (AF)","FM-15","7",,,,,,,,,,,,,,,,,,,,,,,,,,,,"2009-05-22"
"72503794745","2020-04-30T22:56:00","FM-15","7",,,,,,,,,,,,,,,,,,,,,,,,,,,,,,,,,,,,,,"29.81","52","54","0.02","-RA:02 |RA |RA",,,"93","29.81","OVC:08 6","29.39","7.00","53","150",,"14",,,,,,,,,,,,,,,,,,,,,,,,,,,,,,,,,,,,,"MET11904/30/20 22:56:03 METAR KHPN 010356Z 15012KT 7SM -RA OVC006 12/11 A2981 RMK AO2 CIG 004V011 SLP094 P0003 T01220111 (AF)","FM-15","7",,,,,,,,,,,,,,,,,,,,,,,,,,,,"2009-05-22"
"72503794745","2020-04-30T23:54:00","FM-16","6",,,,,,,,,,,,,,,,,,,,,,,,,,,,,,,,,,,,,,"29.78","52","54",,,,,"94",,"OVC:08 4","29.36","8.00","53","120",,"9",,,,,,,,,,,,,,,,,,,,,,,,,,,,,,,,,,,,,"MET09704/30/20 23:54:03 SPECI KHPN 010454Z 12008KT 8SM OVC004 12/11 A2978 RMK AO2 RAE39 P0002 FIBI (AF)","FM-16","6",,,,,,,,,,,,,,,,,,,,,,,,,,,,"2009-05-22"
"72503794745","2020-04-30T23:56:00","FM-15","7",,,,,,,,,,,,,,,,,,,,,,,,,,,,,,,,,,,,,,"29.78","52","53","0.02",,,,"96","29.78","OVC:08 4","29.36","7.00","52","120",,"8",,,,,,,,,,,,,,,,,,,,,,,,,,,,,,,,,,,,,"MET11904/30/20 23:56:03 METAR KHPN 010456Z 12007KT 7SM OVC004 12/11 A2978 RMK AO2 RAE39 SLP084 P0002 T01170111 401500061 (AF)","FM-15","7",,,,,,,,,,,,,,,,,,,,,,,,,,,,"2009-05-22"
"72503794745","2020-04-30T23:59:00","SOD  ","6",,,,,,,,,,,,,,,,"51",,,"29.61",,"15.6","0","-2.4","14","59","43","150","38","0.84",,,"140","28","RA FG BR",,,,,,,,,,,,,,,,,,,,,,,,,,,,,,,,,,,,,,,,,,,,,,,,,,,,,,,,"SOD73024 HR PRECIPITATION (IN):0.84  24 HR MAX TEMP (F):59 24 HR MAX TEMP TIME (LST):1610 24 HR MIN TEMP (F):43 24 HR MIN TEMP TIME (LST):0243 AVERAGE STATION PRESSURE:29.610 MINIMUM SEA LEVEL PRESSURE:29.78 TIME OF OCCURRENCE:0000 PEAK WIND SPEED (MPH):38  PEAK WIND DIR (DEG):150 PEAK WIND TIME (LST):2131  FASTEST 2MIN SPEED (MPH):28 FASTEST 2MIN DIR (DEG):140 FASTEST 2MIN TIME (LST):1614 AVERAGE WIND SPEED (MPH):15.6 24 HR AVG TEMP (F):51 HEATING DEGREE DAYS:14  COOLING DEGREE DAYS:0   LATEST DAY MAX TEMP (0700-1900 LST):59  LATEST NIGHT MIN TEMP(1900-0800 LST):43 HOURLY INCREMENTAL PRECIPITATION VALUES (IN):.01 0.11 0.02 0.05 0.05 0.04 0.06 0.11 0.02 0.01 0.06 T    T    0.00 0.00 0.00 0.00 0.00 0.00 T    0.14 0.12 0.02 0.02","SOD  ","6",,,,,,,,,,,,,,,,,,,,,,,,,"0453","1851",,"2009-05-22"
"72503794745","2020-04-30T23:59:00","SOM  ","6","10.5",,,,,,,,,,,"0","0",,,,,,,,,,,,,,,,,,,,,,"4800","561",,,,,,,,,,,,,,,,,,,"12","8","3","0","0","0","-2.3","-3","67","-3.6","-1.1","0.82s",,"2.58","13-13",,,,,"30.31","17","0658","54.4","46.3","29.13","09","1323","38.2","29.86","29.42","5.22s",,,"3","494","SOM796PCP MTOT:5.22 PCP GT 24HRS:2.58 DATE(S):13 DAYS W/PCP >=.01:12 DAYS W/PCP >=.10:8  DAYS W/ PCP >=.50:2 DAYS W/PCP >=1.00:1 MSDP AMTS W/DATE-TIME TAGS:MIN:5 0.09  21/1347 MIN:10 0.13  13/1032 MIN:15 0.18  13/1034 MIN:20 0.22  13/1042 MIN:30 0.27  13/1052 MIN:45 0.38  13/1100 MIN:60 0.46  13/1034 MIN:80 0.59  13/1100 MIN:100 0.70  13/1100 MIN:120 0.79  13/1100 MIN:150 0.96  13/1100 MIN:180 1.09  13/1100 AVG DLY MIN:38.2  AVG DLY MAX:54.4  AVG MLY TMP:46.3  MIN TMP:31 DATE(S):19 17 MAX TMP:64  DATE(S):13 07 DAYS MAX <=32:0 DAYS MAX >=90:0  DAYS MIN <=32:3  DAYS MIN  <=0:0  AVG STP:29.425 LWST SLP:29.13 DATE/TIME:091323 HGST SLP:30.31 DATE/TIME:170658 HDD MTH TOT:553 DEP NORM:-2553 SEASON(JUL 1-JUN 30):4797 DEP NORM:-25536 CDD MTH TOT:0 DEP NORM:-2553 SEASON(JAN 1-DEC 31):0 DEP NORM:-25536","SOM  ","6","2020-04-21 13:47","2020-04-13 10:32","2020-04-13 10:34","2020-04-13 10:42","2020-04-13 10:52","2020-04-13 11:00","2020-04-13 10:34","2020-04-13 11:00","2020-04-13 11:00","2020-04-13 11:00","2020-04-13 11:00","2020-04-13 11:00","0.09","0.13","0.18","0.22","0.27","0.38","0.46","0.59","0.70","0.79","0.96","1.09",,,,"2009-05-22"
